{
"type": "FeatureCollection",
"name": "cell_00476_pre",
"crs": { "type": "name", "properties": { "name": "urn:ogc:def:crs:EPSG::32611" } },
"features": [
{ "type": "Feature", "properties": { "confidence": 0.94732058048248291, "class": 1 }, "geometry": { "type": "Polygon", "coordinates": [ [ [ 401160.122075279767159, 3785137.538148524705321 ], [ 401159.816887080378365, 3785137.232960325665772 ], [ 401159.51169888098957, 3785137.232960325665772 ], [ 401159.206510681600776, 3785136.927772126160562 ], [ 401159.206510681600776, 3785136.622583926655352 ], [ 401158.901322482211981, 3785136.317395727150142 ], [ 401158.901322482211981, 3785135.707019328605384 ], [ 401158.596134282823186, 3785135.401831129100174 ], [ 401158.596134282823186, 3785133.875890132039785 ], [ 401158.290946083434392, 3785133.570701933000237 ], [ 401158.290946083434392, 3785132.044760935939848 ], [ 401158.596134282823186, 3785131.739572736434639 ], [ 401158.596134282823186, 3785130.82400813838467 ], [ 401158.901322482211981, 3785130.82400813838467 ], [ 401159.206510681600776, 3785130.51881993887946 ], [ 401159.206510681600776, 3785130.21363173937425 ], [ 401159.51169888098957, 3785129.908443540334702 ], [ 401159.816887080378365, 3785129.908443540334702 ], [ 401160.122075279767159, 3785129.603255340829492 ], [ 401160.122075279767159, 3785129.298067141324282 ], [ 401161.037639877933543, 3785129.298067141324282 ], [ 401161.342828077322338, 3785128.992878941819072 ], [ 401161.953204476099927, 3785128.992878941819072 ], [ 401162.258392675488722, 3785128.687690742779523 ], [ 401163.173957273655105, 3785128.687690742779523 ], [ 401163.784333672432695, 3785128.077314343769103 ], [ 401164.699898270599078, 3785128.077314343769103 ], [ 401165.005086469987873, 3785127.772126144263893 ], [ 401167.141403865709435, 3785127.772126144263893 ], [ 401167.44659206509823, 3785128.077314343769103 ], [ 401167.44659206509823, 3785128.992878941819072 ], [ 401167.751780264487024, 3785129.298067141324282 ], [ 401167.751780264487024, 3785130.21363173937425 ], [ 401168.056968463875819, 3785130.51881993887946 ], [ 401168.056968463875819, 3785131.12919633788988 ], [ 401168.362156663264614, 3785131.434384536929429 ], [ 401168.362156663264614, 3785136.012207528110594 ], [ 401168.056968463875819, 3785136.317395727150142 ], [ 401167.751780264487024, 3785136.317395727150142 ], [ 401167.44659206509823, 3785136.622583926655352 ], [ 401167.141403865709435, 3785136.622583926655352 ], [ 401166.836215666320641, 3785136.927772126160562 ], [ 401166.225839267543051, 3785136.927772126160562 ], [ 401165.920651068154257, 3785137.232960325665772 ], [ 401165.005086469987873, 3785137.232960325665772 ], [ 401164.699898270599078, 3785137.538148524705321 ], [ 401160.122075279767159, 3785137.538148524705321 ] ] ] } },
{ "type": "Feature", "properties": { "confidence": 0.83202952146530151, "class": 1 }, "geometry": { "type": "Polygon", "coordinates": [ [ [ 400897.049847405927721, 3785130.21363173937425 ], [ 400896.744659206538927, 3785129.908443540334702 ], [ 400896.744659206538927, 3785129.603255340829492 ], [ 400896.439471007150132, 3785129.298067141324282 ], [ 400896.439471007150132, 3785128.687690742779523 ], [ 400896.13428280770313, 3785128.382502543274313 ], [ 400896.13428280770313, 3785128.077314343769103 ], [ 400895.829094608314335, 3785127.772126144263893 ], [ 400895.829094608314335, 3785126.856561546213925 ], [ 400901.017293997982051, 3785126.856561546213925 ], [ 400901.017293997982051, 3785129.908443540334702 ], [ 400900.712105798593257, 3785130.21363173937425 ], [ 400897.049847405927721, 3785130.21363173937425 ] ] ] } },
{ "type": "Feature", "properties": { "confidence": 0.63176447153091431, "class": 1 }, "geometry": { "type": "Polygon", "coordinates": [ [ [ 400951.983723296027165, 3785110.986775177996606 ], [ 400951.983723296027165, 3785105.188199389725924 ], [ 400952.594099694804754, 3785105.188199389725924 ], [ 400952.899287894193549, 3785104.883011190220714 ], [ 400953.204476093582343, 3785104.883011190220714 ], [ 400953.814852492359933, 3785104.272634791675955 ], [ 400955.340793489303906, 3785104.272634791675955 ], [ 400955.340793489303906, 3785110.681586978491396 ], [ 400953.814852492359933, 3785110.681586978491396 ], [ 400953.509664292971138, 3785110.986775177996606 ], [ 400951.983723296027165, 3785110.986775177996606 ] ] ] } },
{ "type": "Feature", "properties": { "confidence": 0.56992822885513306, "class": 1 }, "geometry": { "type": "Polygon", "coordinates": [ [ [ 401385.045778229890857, 3785079.552390641067177 ], [ 401384.740590030502062, 3785079.247202441561967 ], [ 401384.435401831113268, 3785079.247202441561967 ], [ 401384.130213631724473, 3785078.942014242056757 ], [ 401383.825025432335678, 3785078.942014242056757 ], [ 401383.519837232946884, 3785078.636826042551547 ], [ 401382.909460834169295, 3785078.636826042551547 ], [ 401382.6042726347805, 3785078.331637843511999 ], [ 401382.6042726347805, 3785077.721261444501579 ], [ 401381.993896236002911, 3785077.11088504595682 ], [ 401381.993896236002911, 3785075.890132248401642 ], [ 401381.688708036614116, 3785075.584944048896432 ], [ 401381.993896236002911, 3785075.279755849391222 ], [ 401381.993896236002911, 3785074.974567649886012 ], [ 401382.299084435391705, 3785074.669379450846463 ], [ 401382.299084435391705, 3785074.364191251341254 ], [ 401382.6042726347805, 3785074.059003051836044 ], [ 401382.909460834169295, 3785074.059003051836044 ], [ 401383.214649033558089, 3785073.753814852330834 ], [ 401384.435401831113268, 3785073.753814852330834 ], [ 401384.740590030502062, 3785073.448626653291285 ], [ 401389.623601220780984, 3785073.448626653291285 ], [ 401389.623601220780984, 3785074.059003051836044 ], [ 401389.318413021392189, 3785074.364191251341254 ], [ 401389.318413021392189, 3785074.669379450846463 ], [ 401389.013224821945187, 3785074.974567649886012 ], [ 401389.013224821945187, 3785075.584944048896432 ], [ 401388.708036622556392, 3785075.890132248401642 ], [ 401388.708036622556392, 3785076.19532044744119 ], [ 401388.402848423167598, 3785076.5005086469464 ], [ 401388.402848423167598, 3785077.721261444501579 ], [ 401388.097660223778803, 3785078.026449644006789 ], [ 401388.097660223778803, 3785078.331637843511999 ], [ 401387.792472024390008, 3785078.636826042551547 ], [ 401387.792472024390008, 3785078.942014242056757 ], [ 401387.182095625612419, 3785079.552390641067177 ], [ 401385.045778229890857, 3785079.552390641067177 ] ] ] } },
{ "type": "Feature", "properties": { "confidence": 0.52588236331939697, "class": 1 }, "geometry": { "type": "Polygon", "coordinates": [ [ [ 401067.650050864671357, 3785129.908443540334702 ], [ 401067.344862665282562, 3785129.603255340829492 ], [ 401067.039674465893768, 3785129.603255340829492 ], [ 401066.734486266504973, 3785129.298067141324282 ], [ 401066.429298067116179, 3785129.298067141324282 ], [ 401065.208545269561, 3785128.077314343769103 ], [ 401064.903357070172206, 3785128.077314343769103 ], [ 401064.903357070172206, 3785127.772126144263893 ], [ 401064.598168870783411, 3785127.466937945224345 ], [ 401065.208545269561, 3785127.466937945224345 ], [ 401065.513733468949795, 3785127.161749745719135 ], [ 401065.513733468949795, 3785126.856561546213925 ], [ 401069.786368260451127, 3785126.856561546213925 ], [ 401069.786368260451127, 3785127.161749745719135 ], [ 401070.091556459839921, 3785127.466937945224345 ], [ 401070.396744659228716, 3785127.466937945224345 ], [ 401070.396744659228716, 3785128.687690742779523 ], [ 401070.091556459839921, 3785128.992878941819072 ], [ 401070.091556459839921, 3785129.298067141324282 ], [ 401069.786368260451127, 3785129.603255340829492 ], [ 401069.481180061062332, 3785129.603255340829492 ], [ 401069.175991861673538, 3785129.908443540334702 ], [ 401067.650050864671357, 3785129.908443540334702 ] ] ] } },
{ "type": "Feature", "properties": { "confidence": 0.47629091143608093, "class": 1 }, "geometry": { "type": "Polygon", "coordinates": [ [ [ 400951.068158697860781, 3785303.255340793635696 ], [ 400950.762970498471987, 3785302.950152594130486 ], [ 400950.762970498471987, 3785299.593082400970161 ], [ 400951.068158697860781, 3785299.287894201464951 ], [ 400951.068158697860781, 3785296.846388606354594 ], [ 400951.373346897249576, 3785296.541200406849384 ], [ 400951.373346897249576, 3785294.404883011244237 ], [ 400951.67853509663837, 3785294.404883011244237 ], [ 400951.983723296027165, 3785294.099694811739028 ], [ 400952.594099694804754, 3785294.099694811739028 ], [ 400953.204476093582343, 3785293.489318413194269 ], [ 400953.814852492359933, 3785293.489318413194269 ], [ 400954.120040691748727, 3785293.184130213689059 ], [ 400955.951169888081495, 3785293.184130213689059 ], [ 400955.951169888081495, 3785302.034587996080518 ], [ 400955.6459816886927, 3785302.034587996080518 ], [ 400955.340793489303906, 3785302.339776195120066 ], [ 400955.340793489303906, 3785302.950152594130486 ], [ 400955.035605289915111, 3785302.950152594130486 ], [ 400954.730417090526316, 3785303.255340793635696 ], [ 400951.068158697860781, 3785303.255340793635696 ] ] ] } },
{ "type": "Feature", "properties": { "confidence": 0.46440249681472778, "class": 1 }, "geometry": { "type": "Polygon", "coordinates": [ [ [ 400849.440488301101141, 3784924.821973550133407 ], [ 400849.135300101712346, 3784924.516785351093858 ], [ 400848.219735503545962, 3784924.516785351093858 ], [ 400847.914547304157168, 3784924.211597151588649 ], [ 400846.388606307213195, 3784924.211597151588649 ], [ 400846.0834181078244, 3784923.906408952083439 ], [ 400845.778229908435605, 3784923.906408952083439 ], [ 400845.778229908435605, 3784923.601220752578229 ], [ 400845.473041709046811, 3784923.29603255353868 ], [ 400845.473041709046811, 3784921.770091556478292 ], [ 400845.167853509658016, 3784921.464903356973082 ], [ 400845.167853509658016, 3784919.328585961367935 ], [ 400844.862665310269222, 3784919.023397761862725 ], [ 400845.167853509658016, 3784918.718209562357515 ], [ 400845.167853509658016, 3784918.107833163812757 ], [ 400845.473041709046811, 3784917.802644964307547 ], [ 400845.473041709046811, 3784917.497456764802337 ], [ 400845.778229908435605, 3784917.192268565762788 ], [ 400846.0834181078244, 3784917.192268565762788 ], [ 400848.219735503545962, 3784915.05595116969198 ], [ 400848.830111902323551, 3784915.05595116969198 ], [ 400849.135300101712346, 3784914.750762970652431 ], [ 400852.187182095600292, 3784914.750762970652431 ], [ 400852.492370294989087, 3784914.445574771147221 ], [ 400852.797558494377881, 3784914.750762970652431 ], [ 400854.933875890157651, 3784914.750762970652431 ], [ 400855.239064089546446, 3784915.05595116969198 ], [ 400855.54425228893524, 3784915.05595116969198 ], [ 400855.54425228893524, 3784917.192268565762788 ], [ 400855.849440488324035, 3784917.497456764802337 ], [ 400855.849440488324035, 3784917.802644964307547 ], [ 400856.15462868771283, 3784918.107833163812757 ], [ 400856.15462868771283, 3784918.413021363317966 ], [ 400856.459816887101624, 3784918.718209562357515 ], [ 400856.459816887101624, 3784919.633774160873145 ], [ 400856.765005086490419, 3784919.938962359912694 ], [ 400856.765005086490419, 3784920.854526958428323 ], [ 400856.459816887101624, 3784921.159715157467872 ], [ 400856.459816887101624, 3784921.464903356973082 ], [ 400856.15462868771283, 3784921.770091556478292 ], [ 400856.15462868771283, 3784922.68565615452826 ], [ 400855.849440488324035, 3784922.99084435403347 ], [ 400855.849440488324035, 3784923.29603255353868 ], [ 400855.54425228893524, 3784923.29603255353868 ], [ 400855.239064089546446, 3784923.601220752578229 ], [ 400855.239064089546446, 3784924.211597151588649 ], [ 400854.933875890157651, 3784924.516785351093858 ], [ 400852.492370294989087, 3784924.516785351093858 ], [ 400852.187182095600292, 3784924.821973550133407 ], [ 400849.440488301101141, 3784924.821973550133407 ] ] ] } },
{ "type": "Feature", "properties": { "confidence": 0.45645138621330261, "class": 1 }, "geometry": { "type": "Polygon", "coordinates": [ [ [ 400937.334689725306816, 3785251.983723295852542 ], [ 400937.029501525918022, 3785251.678535096812993 ], [ 400937.029501525918022, 3785250.152594099752605 ], [ 400936.724313326529227, 3785249.847405900247395 ], [ 400936.724313326529227, 3785248.931841302197427 ], [ 400936.419125127140433, 3785248.626653102692217 ], [ 400936.419125127140433, 3785248.016276704147458 ], [ 400937.029501525918022, 3785247.405900305137038 ], [ 400937.334689725306816, 3785247.405900305137038 ], [ 400937.639877924695611, 3785247.100712105631828 ], [ 400937.945066124084406, 3785247.100712105631828 ], [ 400938.860630722250789, 3785246.18514750758186 ], [ 400938.860630722250789, 3785245.87995930807665 ], [ 400939.165818921639584, 3785245.87995930807665 ], [ 400939.471007121086586, 3785245.574771109037101 ], [ 400939.471007121086586, 3785244.964394710026681 ], [ 400939.776195320475381, 3785244.964394710026681 ], [ 400940.081383519864175, 3785244.659206510521472 ], [ 400942.828077314363327, 3785244.659206510521472 ], [ 400942.828077314363327, 3785244.964394710026681 ], [ 400942.522889114974532, 3785245.269582909531891 ], [ 400942.522889114974532, 3785245.87995930807665 ], [ 400942.217700915585738, 3785246.18514750758186 ], [ 400942.217700915585738, 3785247.100712105631828 ], [ 400941.912512716196943, 3785247.405900305137038 ], [ 400941.912512716196943, 3785247.711088504642248 ], [ 400941.607324516808148, 3785248.016276704147458 ], [ 400941.607324516808148, 3785249.542217700742185 ], [ 400941.302136317419354, 3785249.847405900247395 ], [ 400941.302136317419354, 3785250.152594099752605 ], [ 400940.996948118030559, 3785250.457782299257815 ], [ 400940.996948118030559, 3785250.762970498297364 ], [ 400940.38657171925297, 3785251.373346897307783 ], [ 400939.165818921639584, 3785251.373346897307783 ], [ 400938.860630722250789, 3785251.678535096812993 ], [ 400938.555442522861995, 3785251.678535096812993 ], [ 400938.2502543234732, 3785251.983723295852542 ], [ 400937.334689725306816, 3785251.983723295852542 ] ] ] } },
{ "type": "Feature", "properties": { "confidence": 0.44711470603942871, "class": 1 }, "geometry": { "type": "Polygon", "coordinates": [ [ [ 400951.068158697860781, 3785048.423194303177297 ], [ 400951.068158697860781, 3785047.812817904166877 ], [ 400950.762970498471987, 3785047.507629705127329 ], [ 400951.068158697860781, 3785047.202441505622119 ], [ 400951.068158697860781, 3785045.066124110016972 ], [ 400952.28891149541596, 3785043.845371312461793 ], [ 400952.594099694804754, 3785043.845371312461793 ], [ 400953.204476093582343, 3785043.234994913451374 ], [ 400954.120040691748727, 3785043.234994913451374 ], [ 400954.425228891137522, 3785042.929806713946164 ], [ 400955.340793489303906, 3785042.929806713946164 ], [ 400955.6459816886927, 3785043.234994913451374 ], [ 400955.951169888081495, 3785043.234994913451374 ], [ 400955.951169888081495, 3785048.423194303177297 ], [ 400951.068158697860781, 3785048.423194303177297 ] ] ] } },
{ "type": "Feature", "properties": { "confidence": 0.4459492564201355, "class": 1 }, "geometry": { "type": "Polygon", "coordinates": [ [ [ 401044.45574771106476, 3785201.322482197545469 ], [ 401044.150559511675965, 3785201.017293998040259 ], [ 401043.84537131228717, 3785201.017293998040259 ], [ 401043.540183112898376, 3785200.712105798535049 ], [ 401043.234994913509581, 3785200.712105798535049 ], [ 401042.929806714120787, 3785200.406917599029839 ], [ 401042.624618514731992, 3785200.406917599029839 ], [ 401042.319430315343197, 3785200.10172939999029 ], [ 401042.319430315343197, 3785199.186164801474661 ], [ 401042.624618514731992, 3785198.880976602435112 ], [ 401042.624618514731992, 3785198.270600203424692 ], [ 401042.929806714120787, 3785198.270600203424692 ], [ 401043.234994913509581, 3785197.965412003919482 ], [ 401046.286876907397527, 3785197.965412003919482 ], [ 401046.286876907397527, 3785199.491353000979871 ], [ 401045.981688708008733, 3785199.79654120048508 ], [ 401045.981688708008733, 3785200.712105798535049 ], [ 401045.371312309231143, 3785201.322482197545469 ], [ 401044.45574771106476, 3785201.322482197545469 ] ] ] } },
{ "type": "Feature", "properties": { "confidence": 0.42349690198898315, "class": 1 }, "geometry": { "type": "Polygon", "coordinates": [ [ [ 400939.165818921639584, 3785010.274669379461557 ], [ 400938.555442522861995, 3785009.664292980451137 ], [ 400938.555442522861995, 3785007.22278738534078 ], [ 400939.471007121086586, 3785006.307222787290812 ], [ 400939.776195320475381, 3785006.307222787290812 ], [ 400940.081383519864175, 3785006.002034587785602 ], [ 400940.38657171925297, 3785006.002034587785602 ], [ 400941.607324516808148, 3785004.781281790230423 ], [ 400941.912512716196943, 3785004.781281790230423 ], [ 400942.217700915585738, 3785004.476093591190875 ], [ 400942.522889114974532, 3785004.476093591190875 ], [ 400942.828077314363327, 3785004.170905391685665 ], [ 400943.438453713140916, 3785004.170905391685665 ], [ 400943.743641912529711, 3785003.865717192180455 ], [ 400944.3540183113073, 3785003.865717192180455 ], [ 400944.3540183113073, 3785005.391658189240843 ], [ 400943.438453713140916, 3785006.307222787290812 ], [ 400943.438453713140916, 3785006.612410986796021 ], [ 400942.828077314363327, 3785007.22278738534078 ], [ 400942.828077314363327, 3785007.8331637843512 ], [ 400942.522889114974532, 3785008.13835198385641 ], [ 400942.522889114974532, 3785008.748728382401168 ], [ 400941.912512716196943, 3785009.359104781411588 ], [ 400941.607324516808148, 3785009.359104781411588 ], [ 400941.302136317419354, 3785009.664292980451137 ], [ 400940.996948118030559, 3785009.664292980451137 ], [ 400940.691759918641765, 3785009.969481179956347 ], [ 400940.38657171925297, 3785009.969481179956347 ], [ 400940.081383519864175, 3785010.274669379461557 ], [ 400939.165818921639584, 3785010.274669379461557 ] ] ] } },
{ "type": "Feature", "properties": { "confidence": 0.38135826587677002, "class": 1 }, "geometry": { "type": "Polygon", "coordinates": [ [ [ 401294.710071210574824, 3785129.298067141324282 ], [ 401294.40488301118603, 3785128.992878941819072 ], [ 401293.184130213630851, 3785128.992878941819072 ], [ 401292.878942014242057, 3785128.687690742779523 ], [ 401292.268565615464468, 3785128.687690742779523 ], [ 401292.268565615464468, 3785127.772126144263893 ], [ 401292.573753814853262, 3785127.466937945224345 ], [ 401292.573753814853262, 3785126.856561546213925 ], [ 401297.76195320446277, 3785126.856561546213925 ], [ 401297.76195320446277, 3785127.161749745719135 ], [ 401296.541200406907592, 3785128.382502543274313 ], [ 401296.541200406907592, 3785128.687690742779523 ], [ 401296.236012207518797, 3785128.687690742779523 ], [ 401295.930824008130003, 3785128.992878941819072 ], [ 401295.015259409963619, 3785128.992878941819072 ], [ 401294.710071210574824, 3785129.298067141324282 ] ] ] } },
{ "type": "Feature", "properties": { "confidence": 0.34354767203330994, "class": 1 }, "geometry": { "type": "Polygon", "coordinates": [ [ [ 400826.246185147494543, 3784812.512716175056994 ], [ 400825.940996948105749, 3784812.207527975551784 ], [ 400825.635808748716954, 3784812.207527975551784 ], [ 400825.025432349939365, 3784811.597151577007025 ], [ 400825.025432349939365, 3784811.291963377501816 ], [ 400824.415055951161776, 3784810.681586978491396 ], [ 400824.415055951161776, 3784810.376398779451847 ], [ 400824.109867751772981, 3784810.071210579946637 ], [ 400824.109867751772981, 3784808.850457782391459 ], [ 400824.415055951161776, 3784808.545269582886249 ], [ 400826.551373346883338, 3784808.545269582886249 ], [ 400826.856561546272133, 3784808.850457782391459 ], [ 400828.382502543216106, 3784808.850457782391459 ], [ 400828.992878941993695, 3784809.460834180936217 ], [ 400828.992878941993695, 3784812.207527975551784 ], [ 400828.6876907426049, 3784812.207527975551784 ], [ 400828.382502543216106, 3784812.512716175056994 ], [ 400826.246185147494543, 3784812.512716175056994 ] ] ] } },
{ "type": "Feature", "properties": { "confidence": 0.32643291354179382, "class": 1 }, "geometry": { "type": "Polygon", "coordinates": [ [ [ 400832.655137334717438, 3784818.616480162832886 ], [ 400832.044760935881641, 3784818.006103763822466 ], [ 400832.044760935881641, 3784816.480162767227739 ], [ 400831.739572736492846, 3784816.174974567722529 ], [ 400831.739572736492846, 3784814.954221770167351 ], [ 400831.434384537104052, 3784814.649033570662141 ], [ 400831.434384537104052, 3784813.123092573601753 ], [ 400831.739572736492846, 3784812.817904374562204 ], [ 400833.875890132272616, 3784812.817904374562204 ], [ 400834.181078331661411, 3784813.123092573601753 ], [ 400835.096642929827794, 3784813.123092573601753 ], [ 400835.096642929827794, 3784813.428280773106962 ], [ 400835.401831129216589, 3784813.733468972612172 ], [ 400835.401831129216589, 3784814.649033570662141 ], [ 400835.707019328605384, 3784814.954221770167351 ], [ 400835.707019328605384, 3784815.869786368217319 ], [ 400836.012207527994178, 3784816.174974567722529 ], [ 400836.012207527994178, 3784818.006103763822466 ], [ 400835.707019328605384, 3784818.311291963327676 ], [ 400834.486266531050205, 3784818.311291963327676 ], [ 400834.181078331661411, 3784818.616480162832886 ], [ 400832.655137334717438, 3784818.616480162832886 ] ] ] } },
{ "type": "Feature", "properties": { "confidence": 0.31782317161560059, "class": 1 }, "geometry": { "type": "Polygon", "coordinates": [ [ [ 401326.754832146514673, 3785158.596134282648563 ], [ 401326.449643947125878, 3785158.290946083609015 ], [ 401326.144455747737084, 3785158.290946083609015 ], [ 401325.2288911495707, 3785157.375381485093385 ], [ 401325.2288911495707, 3785156.765005086548626 ], [ 401325.534079348959494, 3785156.459816887043417 ], [ 401325.534079348959494, 3785155.849440488498658 ], [ 401326.144455747737084, 3785155.239064089488238 ], [ 401326.144455747737084, 3785154.933875889983028 ], [ 401327.365208545292262, 3785153.71312309242785 ], [ 401327.975584944069851, 3785153.71312309242785 ], [ 401329.501525941013824, 3785152.187182095833123 ], [ 401331.943031536124181, 3785152.187182095833123 ], [ 401332.248219735512976, 3785152.492370294872671 ], [ 401332.248219735512976, 3785153.102746693883091 ], [ 401331.943031536124181, 3785153.407934893388301 ], [ 401331.943031536124181, 3785155.239064089488238 ], [ 401330.111902339791413, 3785157.070193286053836 ], [ 401329.806714140402619, 3785157.070193286053836 ], [ 401329.501525941013824, 3785157.375381485093385 ], [ 401329.19633774162503, 3785157.375381485093385 ], [ 401328.280773143458646, 3785158.290946083609015 ], [ 401327.975584944069851, 3785158.290946083609015 ], [ 401327.670396744681057, 3785158.596134282648563 ], [ 401326.754832146514673, 3785158.596134282648563 ] ] ] } },
{ "type": "Feature", "properties": { "confidence": 0.29653573036193848, "class": 1 }, "geometry": { "type": "Polygon", "coordinates": [ [ [ 401381.688708036614116, 3785248.626653102692217 ], [ 401381.078331637836527, 3785248.016276704147458 ], [ 401381.078331637836527, 3785241.302136317361146 ], [ 401381.383519837225322, 3785240.996948117855936 ], [ 401381.383519837225322, 3785240.691759918816388 ], [ 401381.688708036614116, 3785240.386571719311178 ], [ 401381.688708036614116, 3785240.081383519805968 ], [ 401382.6042726347805, 3785239.165818921755999 ], [ 401383.825025432335678, 3785239.165818921755999 ], [ 401384.130213631724473, 3785238.860630722250789 ], [ 401385.045778229890857, 3785238.860630722250789 ], [ 401385.350966429279651, 3785238.555442522745579 ], [ 401388.402848423167598, 3785238.555442522745579 ], [ 401388.708036622556392, 3785238.250254323706031 ], [ 401389.623601220780984, 3785238.250254323706031 ], [ 401389.928789420169778, 3785238.555442522745579 ], [ 401390.233977619558573, 3785238.555442522745579 ], [ 401390.233977619558573, 3785239.471007121261209 ], [ 401389.928789420169778, 3785239.776195320300758 ], [ 401389.928789420169778, 3785240.996948117855936 ], [ 401389.623601220780984, 3785241.302136317361146 ], [ 401389.623601220780984, 3785241.912512716371566 ], [ 401389.928789420169778, 3785242.217700915411115 ], [ 401389.928789420169778, 3785243.743641912471503 ], [ 401389.623601220780984, 3785244.048830111976713 ], [ 401389.623601220780984, 3785244.354018311481923 ], [ 401389.318413021392189, 3785244.659206510521472 ], [ 401389.013224821945187, 3785244.659206510521472 ], [ 401388.402848423167598, 3785245.269582909531891 ], [ 401388.097660223778803, 3785245.269582909531891 ], [ 401387.792472024390008, 3785245.574771109037101 ], [ 401386.876907426223624, 3785245.574771109037101 ], [ 401386.57171922683483, 3785245.87995930807665 ], [ 401386.266531027446035, 3785245.87995930807665 ], [ 401385.961342828057241, 3785246.18514750758186 ], [ 401385.656154628668446, 3785246.18514750758186 ], [ 401385.045778229890857, 3785246.79552390659228 ], [ 401385.045778229890857, 3785247.100712105631828 ], [ 401384.740590030502062, 3785247.100712105631828 ], [ 401384.435401831113268, 3785247.405900305137038 ], [ 401384.435401831113268, 3785247.711088504642248 ], [ 401384.130213631724473, 3785248.016276704147458 ], [ 401383.825025432335678, 3785248.016276704147458 ], [ 401383.214649033558089, 3785248.626653102692217 ], [ 401381.688708036614116, 3785248.626653102692217 ] ] ] } },
{ "type": "Feature", "properties": { "confidence": 0.27616292238235474, "class": 1 }, "geometry": { "type": "Polygon", "coordinates": [ [ [ 401324.008138351957314, 3785131.434384536929429 ], [ 401323.702950152568519, 3785131.12919633788988 ], [ 401323.702950152568519, 3785128.687690742779523 ], [ 401323.397761953179725, 3785128.382502543274313 ], [ 401323.397761953179725, 3785127.772126144263893 ], [ 401323.09257375379093, 3785127.466937945224345 ], [ 401323.09257375379093, 3785126.856561546213925 ], [ 401328.58596134284744, 3785126.856561546213925 ], [ 401328.58596134284744, 3785127.161749745719135 ], [ 401328.280773143458646, 3785127.466937945224345 ], [ 401328.280773143458646, 3785127.772126144263893 ], [ 401327.975584944069851, 3785128.077314343769103 ], [ 401327.975584944069851, 3785128.992878941819072 ], [ 401327.670396744681057, 3785129.298067141324282 ], [ 401327.670396744681057, 3785129.603255340829492 ], [ 401327.365208545292262, 3785129.908443540334702 ], [ 401327.365208545292262, 3785130.21363173937425 ], [ 401326.754832146514673, 3785130.82400813838467 ], [ 401325.534079348959494, 3785130.82400813838467 ], [ 401325.2288911495707, 3785131.12919633788988 ], [ 401324.313326551346108, 3785131.12919633788988 ], [ 401324.008138351957314, 3785131.434384536929429 ] ] ] } },
{ "type": "Feature", "properties": { "confidence": 0.26332342624664307, "class": 1 }, "geometry": { "type": "Polygon", "coordinates": [ [ [ 401067.955239064118359, 3785129.603255340829492 ], [ 401067.039674465893768, 3785128.687690742779523 ], [ 401066.734486266504973, 3785128.687690742779523 ], [ 401066.429298067116179, 3785128.382502543274313 ], [ 401066.124109867727384, 3785128.382502543274313 ], [ 401066.124109867727384, 3785128.077314343769103 ], [ 401065.818921668338589, 3785127.772126144263893 ], [ 401065.818921668338589, 3785127.161749745719135 ], [ 401065.513733468949795, 3785126.856561546213925 ], [ 401065.513733468949795, 3785125.940996948163956 ], [ 401065.208545269561, 3785125.635808748658746 ], [ 401065.208545269561, 3785125.330620549153537 ], [ 401066.429298067116179, 3785124.109867751598358 ], [ 401066.734486266504973, 3785124.109867751598358 ], [ 401067.039674465893768, 3785123.80467955255881 ], [ 401067.344862665282562, 3785123.80467955255881 ], [ 401067.650050864671357, 3785123.4994913530536 ], [ 401068.870803662284743, 3785123.4994913530536 ], [ 401069.175991861673538, 3785123.80467955255881 ], [ 401069.481180061062332, 3785123.80467955255881 ], [ 401069.481180061062332, 3785124.720244150608778 ], [ 401069.786368260451127, 3785125.025432350113988 ], [ 401069.786368260451127, 3785125.940996948163956 ], [ 401069.481180061062332, 3785126.246185147669166 ], [ 401069.481180061062332, 3785128.077314343769103 ], [ 401069.175991861673538, 3785128.382502543274313 ], [ 401069.175991861673538, 3785129.298067141324282 ], [ 401068.870803662284743, 3785129.603255340829492 ], [ 401067.955239064118359, 3785129.603255340829492 ] ] ] } },
{ "type": "Feature", "properties": { "confidence": 0.26141723990440369, "class": 1 }, "geometry": { "type": "Polygon", "coordinates": [ [ [ 401284.028484231967013, 3785143.031536113936454 ], [ 401282.50254323502304, 3785141.505595116876066 ], [ 401282.50254323502304, 3785141.200406917370856 ], [ 401282.197355035634246, 3785140.895218718331307 ], [ 401282.197355035634246, 3785138.14852492371574 ], [ 401281.892166836187243, 3785137.843336724210531 ], [ 401281.892166836187243, 3785135.707019328605384 ], [ 401281.586978636798449, 3785135.401831129100174 ], [ 401281.586978636798449, 3785133.875890132039785 ], [ 401281.892166836187243, 3785133.570701933000237 ], [ 401281.892166836187243, 3785132.960325533989817 ], [ 401282.197355035634246, 3785132.655137334484607 ], [ 401282.197355035634246, 3785132.349949135445058 ], [ 401282.50254323502304, 3785132.044760935939848 ], [ 401282.50254323502304, 3785131.739572736434639 ], [ 401283.11291963380063, 3785131.12919633788988 ], [ 401283.11291963380063, 3785130.51881993887946 ], [ 401284.638860630744603, 3785128.992878941819072 ], [ 401285.249237029522192, 3785128.992878941819072 ], [ 401285.554425228910986, 3785128.687690742779523 ], [ 401286.775178026466165, 3785128.687690742779523 ], [ 401287.995930824021343, 3785129.908443540334702 ], [ 401287.995930824021343, 3785132.349949135445058 ], [ 401288.301119023410138, 3785132.655137334484607 ], [ 401288.301119023410138, 3785135.401831129100174 ], [ 401287.995930824021343, 3785135.707019328605384 ], [ 401287.995930824021343, 3785136.622583926655352 ], [ 401287.690742624632549, 3785136.927772126160562 ], [ 401287.690742624632549, 3785138.14852492371574 ], [ 401287.385554425243754, 3785138.45371312322095 ], [ 401287.385554425243754, 3785139.369277721270919 ], [ 401287.080366225854959, 3785139.674465920776129 ], [ 401287.080366225854959, 3785141.200406917370856 ], [ 401286.46998982707737, 3785141.810783316381276 ], [ 401286.46998982707737, 3785142.115971515886486 ], [ 401285.859613428299781, 3785142.726347914431244 ], [ 401285.249237029522192, 3785142.726347914431244 ], [ 401284.944048830133397, 3785143.031536113936454 ], [ 401284.028484231967013, 3785143.031536113936454 ] ] ] } },
{ "type": "Feature", "properties": { "confidence": 0.25957044959068298, "class": 1 }, "geometry": { "type": "Polygon", "coordinates": [ [ [ 400937.029501525918022, 3784902.848423194140196 ], [ 400936.724313326529227, 3784902.543234995100647 ], [ 400936.113936927751638, 3784902.543234995100647 ], [ 400936.113936927751638, 3784902.238046795595437 ], [ 400935.808748728362843, 3784901.932858596090227 ], [ 400935.808748728362843, 3784901.322482197545469 ], [ 400935.503560528974049, 3784901.017293998040259 ], [ 400935.198372329585254, 3784901.017293998040259 ], [ 400935.198372329585254, 3784900.712105798535049 ], [ 400934.89318413019646, 3784900.406917599029839 ], [ 400934.587995930807665, 3784900.406917599029839 ], [ 400934.28280773141887, 3784900.10172939999029 ], [ 400934.28280773141887, 3784899.79654120048508 ], [ 400933.977619532030076, 3784899.491353000979871 ], [ 400933.977619532030076, 3784899.186164801474661 ], [ 400933.367243133252487, 3784898.575788402929902 ], [ 400933.367243133252487, 3784896.744659206364304 ], [ 400933.672431332641281, 3784896.439471007324755 ], [ 400933.672431332641281, 3784896.134282807819545 ], [ 400933.977619532030076, 3784895.829094608314335 ], [ 400934.28280773141887, 3784895.829094608314335 ], [ 400934.587995930807665, 3784895.523906408809125 ], [ 400934.89318413019646, 3784895.829094608314335 ], [ 400936.419125127140433, 3784895.829094608314335 ], [ 400937.029501525918022, 3784896.439471007324755 ], [ 400937.639877924695611, 3784896.439471007324755 ], [ 400937.945066124084406, 3784896.744659206364304 ], [ 400938.2502543234732, 3784896.744659206364304 ], [ 400939.165818921639584, 3784897.660223804879934 ], [ 400939.165818921639584, 3784898.270600203424692 ], [ 400939.776195320475381, 3784898.880976602435112 ], [ 400939.776195320475381, 3784899.186164801474661 ], [ 400940.081383519864175, 3784899.491353000979871 ], [ 400940.081383519864175, 3784900.10172939999029 ], [ 400940.38657171925297, 3784900.406917599029839 ], [ 400940.38657171925297, 3784902.238046795595437 ], [ 400940.081383519864175, 3784902.238046795595437 ], [ 400939.776195320475381, 3784902.543234995100647 ], [ 400939.165818921639584, 3784902.543234995100647 ], [ 400938.860630722250789, 3784902.848423194140196 ], [ 400937.029501525918022, 3784902.848423194140196 ] ] ] } }
]
}
