{
"type": "FeatureCollection",
"name": "cell_00210_pre",
"crs": { "type": "name", "properties": { "name": "urn:ogc:def:crs:EPSG::32611" } },
"features": [
{ "type": "Feature", "properties": { "confidence": 0.82477682828903198, "class": 1 }, "geometry": { "type": "Polygon", "coordinates": [ [ [ 357495.625635808741208, 3776016.683621566742659 ], [ 357495.320447609352414, 3776016.378433367237449 ], [ 357494.710071210574824, 3776016.378433367237449 ], [ 357494.40488301118603, 3776016.073245167732239 ], [ 357493.794506612408441, 3776016.073245167732239 ], [ 357493.489318413019646, 3776015.76805696869269 ], [ 357491.963377416075673, 3776015.76805696869269 ], [ 357491.658189216686878, 3776015.46286876918748 ], [ 357490.4374364191317, 3776015.46286876918748 ], [ 357490.132248219742905, 3776015.15768056968227 ], [ 357489.827060020354111, 3776015.15768056968227 ], [ 357489.827060020354111, 3776012.105798575561494 ], [ 357490.132248219742905, 3776011.800610376521945 ], [ 357490.132248219742905, 3776010.885045778006315 ], [ 357490.742624618520495, 3776010.274669379461557 ], [ 357491.353001017298084, 3776010.274669379461557 ], [ 357491.658189216686878, 3776009.969481179956347 ], [ 357494.099694811797235, 3776009.969481179956347 ], [ 357494.40488301118603, 3776010.274669379461557 ], [ 357494.710071210574824, 3776010.274669379461557 ], [ 357495.015259409963619, 3776010.579857578966767 ], [ 357495.320447609352414, 3776010.579857578966767 ], [ 357495.930824008130003, 3776011.190233977511525 ], [ 357496.236012207518797, 3776011.190233977511525 ], [ 357497.151576805685181, 3776012.105798575561494 ], [ 357497.151576805685181, 3776012.410986775066704 ], [ 357497.76195320446277, 3776013.021363174077123 ], [ 357497.76195320446277, 3776013.631739572621882 ], [ 357498.067141403851565, 3776013.936927772127092 ], [ 357498.067141403851565, 3776016.073245167732239 ], [ 357497.76195320446277, 3776016.378433367237449 ], [ 357497.151576805685181, 3776016.378433367237449 ], [ 357496.846388606296387, 3776016.683621566742659 ], [ 357495.625635808741208, 3776016.683621566742659 ] ] ] } },
{ "type": "Feature", "properties": { "confidence": 0.62460839748382568, "class": 1 }, "geometry": { "type": "Polygon", "coordinates": [ [ [ 357354.628687690768857, 3776130.82400813838467 ], [ 357354.323499491380062, 3776130.51881993887946 ], [ 357354.018311291991267, 3776130.51881993887946 ], [ 357354.018311291991267, 3776129.603255340829492 ], [ 357353.713123092602473, 3776129.298067141324282 ], [ 357353.713123092602473, 3776128.382502543274313 ], [ 357353.40793489315547, 3776128.077314343769103 ], [ 357353.40793489315547, 3776126.856561546213925 ], [ 357357.985757884045597, 3776126.856561546213925 ], [ 357357.985757884045597, 3776128.687690742779523 ], [ 357357.680569684656803, 3776128.992878941819072 ], [ 357357.680569684656803, 3776129.298067141324282 ], [ 357357.375381485268008, 3776129.603255340829492 ], [ 357357.375381485268008, 3776129.908443540334702 ], [ 357356.765005086490419, 3776130.51881993887946 ], [ 357356.15462868771283, 3776130.51881993887946 ], [ 357355.849440488324035, 3776130.82400813838467 ], [ 357354.628687690768857, 3776130.82400813838467 ] ] ] } },
{ "type": "Feature", "properties": { "confidence": 0.3468727171421051, "class": 1 }, "geometry": { "type": "Polygon", "coordinates": [ [ [ 357346.0834181078244, 3776011.800610376521945 ], [ 357345.778229908435605, 3776011.495422177016735 ], [ 357345.167853509658016, 3776011.495422177016735 ], [ 357344.252288911491632, 3776010.579857578966767 ], [ 357344.252288911491632, 3776009.664292980451137 ], [ 357350.05086469987873, 3776009.664292980451137 ], [ 357350.05086469987873, 3776010.274669379461557 ], [ 357349.745676500489935, 3776010.579857578966767 ], [ 357349.440488301101141, 3776010.579857578966767 ], [ 357348.524923702934757, 3776011.495422177016735 ], [ 357347.609359104768373, 3776011.495422177016735 ], [ 357347.304170905379578, 3776011.800610376521945 ], [ 357346.0834181078244, 3776011.800610376521945 ] ] ] } },
{ "type": "Feature", "properties": { "confidence": 0.29650110006332397, "class": 1 }, "geometry": { "type": "Polygon", "coordinates": [ [ [ 357367.44659206509823, 3776247.100712105631828 ], [ 357366.531027466931846, 3776246.18514750758186 ], [ 357366.531027466931846, 3776245.87995930807665 ], [ 357366.225839267543051, 3776245.574771109037101 ], [ 357366.225839267543051, 3776245.269582909531891 ], [ 357365.920651068154257, 3776244.964394710026681 ], [ 357365.920651068154257, 3776244.048830111976713 ], [ 357370.498474058986176, 3776244.048830111976713 ], [ 357370.498474058986176, 3776245.574771109037101 ], [ 357369.277721261430997, 3776246.79552390659228 ], [ 357368.972533062042203, 3776246.79552390659228 ], [ 357368.667344862653408, 3776247.100712105631828 ], [ 357367.44659206509823, 3776247.100712105631828 ] ] ] } }
]
}
