{
"type": "FeatureCollection",
"name": "cell_00204_pre",
"crs": { "type": "name", "properties": { "name": "urn:ogc:def:crs:EPSG::32611" } },
"features": [
{ "type": "Feature", "properties": { "confidence": 0.82170355319976807, "class": 1 }, "geometry": { "type": "Polygon", "coordinates": [ [ [ 357149.237029501528013, 3772529.603255340829492 ], [ 357148.931841302139219, 3772529.298067141324282 ], [ 357148.626653102750424, 3772529.298067141324282 ], [ 357148.32146490336163, 3772528.992878941819072 ], [ 357148.016276703972835, 3772528.992878941819072 ], [ 357148.016276703972835, 3772528.687690742779523 ], [ 357147.405900305195246, 3772528.077314343769103 ], [ 357147.405900305195246, 3772526.856561546213925 ], [ 357151.373346897249576, 3772526.856561546213925 ], [ 357151.373346897249576, 3772528.687690742779523 ], [ 357151.068158697860781, 3772528.992878941819072 ], [ 357151.068158697860781, 3772529.298067141324282 ], [ 357150.762970498471987, 3772529.298067141324282 ], [ 357150.457782299083192, 3772529.603255340829492 ], [ 357149.237029501528013, 3772529.603255340829492 ] ] ] } },
{ "type": "Feature", "properties": { "confidence": 0.76970672607421875, "class": 1 }, "geometry": { "type": "Polygon", "coordinates": [ [ [ 357234.384537131234538, 3772272.634791454765946 ], [ 357234.384537131234538, 3772268.362156663089991 ], [ 357235.605289928789716, 3772268.362156663089991 ], [ 357235.910478128178511, 3772268.667344862595201 ], [ 357236.215666327567305, 3772268.667344862595201 ], [ 357236.826042726344895, 3772269.27772126160562 ], [ 357236.826042726344895, 3772271.719226856715977 ], [ 357236.215666327567305, 3772272.329603255260736 ], [ 357235.910478128178511, 3772272.329603255260736 ], [ 357235.605289928789716, 3772272.634791454765946 ], [ 357234.384537131234538, 3772272.634791454765946 ] ] ] } },
{ "type": "Feature", "properties": { "confidence": 0.56933033466339111, "class": 1 }, "geometry": { "type": "Polygon", "coordinates": [ [ [ 357148.931841302139219, 3772529.298067141324282 ], [ 357148.626653102750424, 3772528.992878941819072 ], [ 357148.32146490336163, 3772528.992878941819072 ], [ 357148.016276703972835, 3772528.687690742779523 ], [ 357148.016276703972835, 3772525.940996948163956 ], [ 357148.32146490336163, 3772525.635808748658746 ], [ 357148.32146490336163, 3772525.025432350113988 ], [ 357149.237029501528013, 3772524.109867751598358 ], [ 357149.542217700916808, 3772524.109867751598358 ], [ 357149.847405900305603, 3772523.80467955255881 ], [ 357151.983723296027165, 3772523.80467955255881 ], [ 357152.28891149541596, 3772524.109867751598358 ], [ 357152.28891149541596, 3772526.246185147669166 ], [ 357151.983723296027165, 3772526.551373346708715 ], [ 357151.983723296027165, 3772526.856561546213925 ], [ 357151.67853509663837, 3772527.161749745719135 ], [ 357151.67853509663837, 3772527.772126144263893 ], [ 357151.373346897249576, 3772528.077314343769103 ], [ 357151.373346897249576, 3772528.687690742779523 ], [ 357151.068158697860781, 3772528.992878941819072 ], [ 357151.068158697860781, 3772529.298067141324282 ], [ 357148.931841302139219, 3772529.298067141324282 ] ] ] } }
]
}
