{
"type": "FeatureCollection",
"name": "cell_00047_pre",
"crs": { "type": "name", "properties": { "name": "urn:ogc:def:crs:EPSG::32611" } },
"features": [
{ "type": "Feature", "properties": { "confidence": 0.38891372084617615, "class": 1 }, "geometry": { "type": "Polygon", "coordinates": [ [ [ 348264.903357070172206, 3771447.100712105631828 ], [ 348264.598168870783411, 3771446.79552390659228 ], [ 348264.292980671394616, 3771446.79552390659228 ], [ 348263.987792472005822, 3771446.49033570708707 ], [ 348263.682604272617027, 3771446.49033570708707 ], [ 348262.767039674450643, 3771445.574771109037101 ], [ 348262.767039674450643, 3771445.269582909531891 ], [ 348262.461851475061849, 3771444.964394710026681 ], [ 348262.461851475061849, 3771444.659206510521472 ], [ 348262.767039674450643, 3771444.659206510521472 ], [ 348263.072227873839438, 3771444.354018311481923 ], [ 348263.072227873839438, 3771444.048830111976713 ], [ 348267.650050864671357, 3771444.048830111976713 ], [ 348267.650050864671357, 3771444.354018311481923 ], [ 348267.955239064118359, 3771444.659206510521472 ], [ 348268.260427263507154, 3771444.659206510521472 ], [ 348268.260427263507154, 3771446.79552390659228 ], [ 348267.955239064118359, 3771447.100712105631828 ], [ 348264.903357070172206, 3771447.100712105631828 ] ] ] } },
{ "type": "Feature", "properties": { "confidence": 0.37460973858833313, "class": 1 }, "geometry": { "type": "Polygon", "coordinates": [ [ [ 348226.754832146514673, 3771404.984740590211004 ], [ 348226.449643947125878, 3771404.679552390705794 ], [ 348226.144455747737084, 3771404.679552390705794 ], [ 348226.144455747737084, 3771404.069175991695374 ], [ 348225.839267548348289, 3771403.763987792655826 ], [ 348225.839267548348289, 3771402.238046795595437 ], [ 348225.534079348959494, 3771401.932858596090227 ], [ 348225.534079348959494, 3771400.10172939999029 ], [ 348225.2288911495707, 3771399.79654120048508 ], [ 348225.2288911495707, 3771397.660223804879934 ], [ 348225.534079348959494, 3771397.355035605374724 ], [ 348225.839267548348289, 3771397.355035605374724 ], [ 348226.144455747737084, 3771397.049847405869514 ], [ 348226.449643947125878, 3771397.049847405869514 ], [ 348226.754832146514673, 3771396.744659206364304 ], [ 348229.501525941013824, 3771396.744659206364304 ], [ 348230.417090539180208, 3771397.660223804879934 ], [ 348230.417090539180208, 3771397.965412003919482 ], [ 348230.722278738569003, 3771398.270600203424692 ], [ 348230.722278738569003, 3771398.575788402929902 ], [ 348231.332655137346592, 3771399.186164801474661 ], [ 348231.332655137346592, 3771399.491353000979871 ], [ 348231.637843336735386, 3771399.79654120048508 ], [ 348231.637843336735386, 3771400.406917599029839 ], [ 348231.943031536124181, 3771400.712105798535049 ], [ 348231.943031536124181, 3771401.322482197545469 ], [ 348232.248219735512976, 3771401.627670396585017 ], [ 348232.248219735512976, 3771402.848423194140196 ], [ 348231.637843336735386, 3771403.458799593150616 ], [ 348231.637843336735386, 3771403.763987792655826 ], [ 348231.332655137346592, 3771404.069175991695374 ], [ 348231.027466937957797, 3771404.069175991695374 ], [ 348230.417090539180208, 3771404.679552390705794 ], [ 348230.111902339791413, 3771404.679552390705794 ], [ 348229.806714140402619, 3771404.984740590211004 ], [ 348226.754832146514673, 3771404.984740590211004 ] ] ] } }
]
}
