{
"type": "FeatureCollection",
"name": "cell_00379_pre",
"crs": { "type": "name", "properties": { "name": "urn:ogc:def:crs:EPSG::32611" } },
"features": [
{ "type": "Feature", "properties": { "confidence": 0.98511546850204468, "class": 1 }, "geometry": { "type": "Polygon", "coordinates": [ [ [ 396377.212614445597865, 3786414.445574771147221 ], [ 396376.90742624620907, 3786414.140386571642011 ], [ 396376.297049847431481, 3786414.140386571642011 ], [ 396375.076297049876302, 3786412.919633774086833 ], [ 396375.076297049876302, 3786412.614445574581623 ], [ 396374.465920651040506, 3786412.004069176036865 ], [ 396374.160732451651711, 3786412.004069176036865 ], [ 396374.160732451651711, 3786411.088504577986896 ], [ 396373.855544252262916, 3786410.783316378481686 ], [ 396373.855544252262916, 3786408.341810783371329 ], [ 396374.160732451651711, 3786408.036622583866119 ], [ 396374.160732451651711, 3786407.731434384360909 ], [ 396374.465920651040506, 3786407.426246185321361 ], [ 396375.076297049876302, 3786407.426246185321361 ], [ 396375.381485249265097, 3786407.121057985816151 ], [ 396375.991861648042686, 3786407.121057985816151 ], [ 396376.297049847431481, 3786406.815869786310941 ], [ 396377.517802644986659, 3786406.815869786310941 ], [ 396377.822990844375454, 3786407.121057985816151 ], [ 396378.738555442541838, 3786407.121057985816151 ], [ 396379.043743641930632, 3786407.426246185321361 ], [ 396379.959308240097016, 3786407.426246185321361 ], [ 396379.959308240097016, 3786407.731434384360909 ], [ 396380.569684638874605, 3786408.341810783371329 ], [ 396380.569684638874605, 3786408.646998982876539 ], [ 396381.485249237040989, 3786409.562563580926508 ], [ 396381.485249237040989, 3786412.309257375542074 ], [ 396380.8748728382634, 3786412.919633774086833 ], [ 396380.8748728382634, 3786413.224821973592043 ], [ 396380.264496439485811, 3786413.835198372136801 ], [ 396380.264496439485811, 3786414.140386571642011 ], [ 396379.959308240097016, 3786414.140386571642011 ], [ 396379.654120040708221, 3786414.445574771147221 ], [ 396377.212614445597865, 3786414.445574771147221 ] ] ] } },
{ "type": "Feature", "properties": { "confidence": 0.96580928564071655, "class": 1 }, "geometry": { "type": "Polygon", "coordinates": [ [ [ 396312.207527975609992, 3786447.405900305137038 ], [ 396311.902339776221197, 3786447.100712105631828 ], [ 396311.902339776221197, 3786446.79552390659228 ], [ 396311.597151576832402, 3786446.49033570708707 ], [ 396311.291963377443608, 3786446.49033570708707 ], [ 396310.681586978607811, 3786445.87995930807665 ], [ 396310.681586978607811, 3786445.574771109037101 ], [ 396310.376398779219016, 3786445.269582909531891 ], [ 396310.376398779219016, 3786444.048830111976713 ], [ 396315.869786368275527, 3786444.048830111976713 ], [ 396315.869786368275527, 3786444.659206510521472 ], [ 396315.564598168886732, 3786444.964394710026681 ], [ 396315.564598168886732, 3786445.269582909531891 ], [ 396315.259409969497938, 3786445.574771109037101 ], [ 396315.259409969497938, 3786445.87995930807665 ], [ 396314.954221770109143, 3786446.18514750758186 ], [ 396314.954221770109143, 3786446.49033570708707 ], [ 396314.649033570720349, 3786446.49033570708707 ], [ 396314.038657171942759, 3786447.100712105631828 ], [ 396313.42828077316517, 3786447.100712105631828 ], [ 396313.123092573776376, 3786447.405900305137038 ], [ 396312.207527975609992, 3786447.405900305137038 ] ] ] } },
{ "type": "Feature", "properties": { "confidence": 0.92132675647735596, "class": 1 }, "geometry": { "type": "Polygon", "coordinates": [ [ [ 396022.278738555440214, 3786334.486266531050205 ], [ 396021.973550356051419, 3786334.181078331544995 ], [ 396021.973550356051419, 3786333.875890132039785 ], [ 396021.668362156662624, 3786333.570701933000237 ], [ 396021.668362156662624, 3786332.044760935939848 ], [ 396021.36317395727383, 3786331.739572736434639 ], [ 396021.36317395727383, 3786330.21363173937425 ], [ 396021.057985757885035, 3786329.908443540334702 ], [ 396021.057985757885035, 3786329.603255340829492 ], [ 396020.752797558496241, 3786329.298067141324282 ], [ 396020.752797558496241, 3786328.687690742779523 ], [ 396020.142421159718651, 3786328.077314343769103 ], [ 396020.142421159718651, 3786327.466937945224345 ], [ 396020.447609359107446, 3786327.161749745719135 ], [ 396020.447609359107446, 3786326.856561546213925 ], [ 396025.33062054932816, 3786326.856561546213925 ], [ 396025.33062054932816, 3786327.161749745719135 ], [ 396025.940996948105749, 3786327.772126144263893 ], [ 396025.940996948105749, 3786328.077314343769103 ], [ 396026.856561546272133, 3786328.992878941819072 ], [ 396026.856561546272133, 3786329.298067141324282 ], [ 396027.466937945049722, 3786329.908443540334702 ], [ 396027.161749745660927, 3786330.21363173937425 ], [ 396027.161749745660927, 3786332.044760935939848 ], [ 396026.856561546272133, 3786332.349949135445058 ], [ 396026.856561546272133, 3786332.960325533989817 ], [ 396026.246185147494543, 3786333.570701933000237 ], [ 396025.940996948105749, 3786333.570701933000237 ], [ 396025.33062054932816, 3786334.181078331544995 ], [ 396025.025432349939365, 3786334.181078331544995 ], [ 396024.72024415055057, 3786334.486266531050205 ], [ 396022.278738555440214, 3786334.486266531050205 ] ] ] } },
{ "type": "Feature", "properties": { "confidence": 0.77861881256103516, "class": 1 }, "geometry": { "type": "Polygon", "coordinates": [ [ [ 396340.590030518826097, 3786412.309257375542074 ], [ 396340.284842319437303, 3786412.004069176036865 ], [ 396339.979654120048508, 3786412.004069176036865 ], [ 396339.979654120048508, 3786410.478128178976476 ], [ 396340.284842319437303, 3786410.172939979471266 ], [ 396340.284842319437303, 3786409.562563580926508 ], [ 396340.590030518826097, 3786409.257375381421298 ], [ 396340.590030518826097, 3786408.952187181916088 ], [ 396340.895218718214892, 3786408.646998982876539 ], [ 396341.200406917603686, 3786408.646998982876539 ], [ 396341.505595116992481, 3786408.341810783371329 ], [ 396341.810783316381276, 3786408.341810783371329 ], [ 396342.11597151577007, 3786408.036622583866119 ], [ 396342.726347914547659, 3786408.036622583866119 ], [ 396343.031536113936454, 3786407.731434384360909 ], [ 396343.336724313325249, 3786407.731434384360909 ], [ 396343.641912512714043, 3786407.426246185321361 ], [ 396344.252288911491632, 3786407.426246185321361 ], [ 396344.557477110880427, 3786407.121057985816151 ], [ 396345.167853509658016, 3786407.121057985816151 ], [ 396345.473041709046811, 3786406.815869786310941 ], [ 396346.0834181078244, 3786406.815869786310941 ], [ 396346.388606307213195, 3786406.510681586805731 ], [ 396347.914547304157168, 3786406.510681586805731 ], [ 396348.219735503545962, 3786406.815869786310941 ], [ 396348.524923702934757, 3786406.815869786310941 ], [ 396348.524923702934757, 3786407.121057985816151 ], [ 396349.135300101712346, 3786407.731434384360909 ], [ 396349.135300101712346, 3786408.646998982876539 ], [ 396348.830111902323551, 3786408.952187181916088 ], [ 396348.830111902323551, 3786409.257375381421298 ], [ 396348.524923702934757, 3786409.562563580926508 ], [ 396348.219735503545962, 3786409.562563580926508 ], [ 396347.914547304157168, 3786409.867751780431718 ], [ 396347.609359104768373, 3786409.867751780431718 ], [ 396347.304170905379578, 3786410.172939979471266 ], [ 396346.693794506601989, 3786410.172939979471266 ], [ 396346.388606307213195, 3786410.478128178976476 ], [ 396346.0834181078244, 3786410.478128178976476 ], [ 396345.778229908435605, 3786410.783316378481686 ], [ 396345.167853509658016, 3786410.783316378481686 ], [ 396344.862665310269222, 3786411.088504577986896 ], [ 396344.557477110880427, 3786411.088504577986896 ], [ 396344.252288911491632, 3786411.393692777026445 ], [ 396344.252288911491632, 3786411.698880976531655 ], [ 396343.947100712102838, 3786411.698880976531655 ], [ 396343.641912512714043, 3786412.004069176036865 ], [ 396343.336724313325249, 3786412.004069176036865 ], [ 396343.031536113936454, 3786412.309257375542074 ], [ 396340.590030518826097, 3786412.309257375542074 ] ] ] } },
{ "type": "Feature", "properties": { "confidence": 0.72628146409988403, "class": 1 }, "geometry": { "type": "Polygon", "coordinates": [ [ [ 396223.702950152568519, 3786179.755849440582097 ], [ 396223.397761953179725, 3786179.450661241076887 ], [ 396223.09257375379093, 3786179.450661241076887 ], [ 396222.787385554402135, 3786179.145473041571677 ], [ 396222.482197355013341, 3786179.145473041571677 ], [ 396221.871820956235752, 3786178.535096643026918 ], [ 396221.871820956235752, 3786177.924720244016498 ], [ 396221.566632756846957, 3786177.61953204497695 ], [ 396221.566632756846957, 3786176.70396744646132 ], [ 396221.261444557458162, 3786176.398779247421771 ], [ 396221.261444557458162, 3786175.788402848411351 ], [ 396220.956256358069368, 3786175.483214648906142 ], [ 396220.956256358069368, 3786175.178026449866593 ], [ 396220.345879959291779, 3786174.567650050856173 ], [ 396220.345879959291779, 3786173.041709053795785 ], [ 396221.261444557458162, 3786172.126144455745816 ], [ 396222.482197355013341, 3786172.126144455745816 ], [ 396222.787385554402135, 3786172.431332655251026 ], [ 396223.09257375379093, 3786172.431332655251026 ], [ 396223.702950152568519, 3786173.041709053795785 ], [ 396224.618514750734903, 3786173.041709053795785 ], [ 396224.618514750734903, 3786173.957273652311414 ], [ 396224.923702950123698, 3786174.262461851350963 ], [ 396224.923702950123698, 3786174.567650050856173 ], [ 396225.2288911495707, 3786174.872838250361383 ], [ 396225.534079348959494, 3786174.872838250361383 ], [ 396225.839267548348289, 3786175.178026449866593 ], [ 396226.144455747737084, 3786175.178026449866593 ], [ 396226.144455747737084, 3786175.788402848411351 ], [ 396226.449643947125878, 3786176.093591047916561 ], [ 396226.449643947125878, 3786176.70396744646132 ], [ 396226.754832146514673, 3786177.00915564596653 ], [ 396226.754832146514673, 3786178.229908443521708 ], [ 396226.449643947125878, 3786178.535096643026918 ], [ 396226.449643947125878, 3786178.840284842532128 ], [ 396225.839267548348289, 3786179.450661241076887 ], [ 396225.534079348959494, 3786179.450661241076887 ], [ 396225.2288911495707, 3786179.755849440582097 ], [ 396223.702950152568519, 3786179.755849440582097 ] ] ] } },
{ "type": "Feature", "properties": { "confidence": 0.71094727516174316, "class": 1 }, "geometry": { "type": "Polygon", "coordinates": [ [ [ 396379.043743641930632, 3786426.958290946204215 ], [ 396378.738555442541838, 3786426.653102746699005 ], [ 396378.433367243153043, 3786426.653102746699005 ], [ 396376.602238046820275, 3786424.821973550133407 ], [ 396376.602238046820275, 3786424.211597151588649 ], [ 396377.517802644986659, 3786423.29603255353868 ], [ 396377.822990844375454, 3786423.29603255353868 ], [ 396378.128179043764248, 3786422.99084435403347 ], [ 396379.654120040708221, 3786422.99084435403347 ], [ 396379.654120040708221, 3786423.29603255353868 ], [ 396380.8748728382634, 3786424.516785351093858 ], [ 396380.8748728382634, 3786426.042726347688586 ], [ 396380.264496439485811, 3786426.653102746699005 ], [ 396379.959308240097016, 3786426.653102746699005 ], [ 396379.654120040708221, 3786426.958290946204215 ], [ 396379.043743641930632, 3786426.958290946204215 ] ] ] } },
{ "type": "Feature", "properties": { "confidence": 0.7036551833152771, "class": 1 }, "geometry": { "type": "Polygon", "coordinates": [ [ [ 396363.4791454730439, 3786414.445574771147221 ], [ 396363.173957273655105, 3786414.140386571642011 ], [ 396362.563580874877516, 3786414.140386571642011 ], [ 396361.953204476099927, 3786413.530010173097253 ], [ 396361.648016276711132, 3786413.530010173097253 ], [ 396361.648016276711132, 3786413.224821973592043 ], [ 396361.037639877933543, 3786412.614445574581623 ], [ 396361.037639877933543, 3786412.309257375542074 ], [ 396360.427263479155954, 3786411.698880976531655 ], [ 396360.427263479155954, 3786411.393692777026445 ], [ 396359.816887080378365, 3786410.783316378481686 ], [ 396359.816887080378365, 3786410.172939979471266 ], [ 396360.122075279767159, 3786409.867751780431718 ], [ 396364.089521871821489, 3786409.867751780431718 ], [ 396364.394710071210284, 3786409.562563580926508 ], [ 396364.699898270599078, 3786409.562563580926508 ], [ 396364.699898270599078, 3786414.140386571642011 ], [ 396364.394710071210284, 3786414.445574771147221 ], [ 396363.4791454730439, 3786414.445574771147221 ] ] ] } },
{ "type": "Feature", "properties": { "confidence": 0.69872421026229858, "class": 1 }, "geometry": { "type": "Polygon", "coordinates": [ [ [ 396340.590030518826097, 3786486.164801627863199 ], [ 396340.284842319437303, 3786485.859613428357989 ], [ 396339.979654120048508, 3786485.859613428357989 ], [ 396339.979654120048508, 3786485.554425228852779 ], [ 396339.674465920659713, 3786485.249237029347569 ], [ 396339.369277721270919, 3786485.249237029347569 ], [ 396339.064089521882124, 3786484.94404883030802 ], [ 396339.064089521882124, 3786483.112919633742422 ], [ 396339.369277721270919, 3786482.807731434237212 ], [ 396339.369277721270919, 3786482.197355035692453 ], [ 396340.284842319437303, 3786481.281790437642485 ], [ 396340.590030518826097, 3786481.281790437642485 ], [ 396341.200406917603686, 3786480.671414038632065 ], [ 396343.641912512714043, 3786480.671414038632065 ], [ 396343.947100712102838, 3786480.366225839126855 ], [ 396344.252288911491632, 3786480.366225839126855 ], [ 396344.557477110880427, 3786480.671414038632065 ], [ 396344.557477110880427, 3786481.892166836187243 ], [ 396344.252288911491632, 3786482.197355035692453 ], [ 396344.252288911491632, 3786482.807731434237212 ], [ 396343.947100712102838, 3786483.112919633742422 ], [ 396343.947100712102838, 3786483.418107833247632 ], [ 396343.641912512714043, 3786483.723296032752842 ], [ 396343.641912512714043, 3786484.02848423179239 ], [ 396343.336724313325249, 3786484.3336724312976 ], [ 396343.336724313325249, 3786484.63886063080281 ], [ 396342.11597151577007, 3786485.859613428357989 ], [ 396341.810783316381276, 3786485.859613428357989 ], [ 396341.505595116992481, 3786486.164801627863199 ], [ 396340.590030518826097, 3786486.164801627863199 ] ] ] } },
{ "type": "Feature", "properties": { "confidence": 0.56540656089782715, "class": 1 }, "geometry": { "type": "Polygon", "coordinates": [ [ [ 396335.096642929827794, 3786037.232960325665772 ], [ 396334.486266531050205, 3786036.622583926655352 ], [ 396334.486266531050205, 3786035.401831129100174 ], [ 396334.181078331661411, 3786035.096642929594964 ], [ 396334.181078331661411, 3786032.960325533989817 ], [ 396334.486266531050205, 3786032.655137334484607 ], [ 396334.486266531050205, 3786032.349949135445058 ], [ 396338.75890132249333, 3786032.349949135445058 ], [ 396338.75890132249333, 3786032.960325533989817 ], [ 396339.064089521882124, 3786033.265513733495027 ], [ 396339.369277721270919, 3786033.265513733495027 ], [ 396339.674465920659713, 3786033.570701933000237 ], [ 396339.979654120048508, 3786033.570701933000237 ], [ 396340.590030518826097, 3786034.181078331544995 ], [ 396340.895218718214892, 3786034.181078331544995 ], [ 396340.895218718214892, 3786035.707019328605384 ], [ 396340.284842319437303, 3786036.317395727150142 ], [ 396339.369277721270919, 3786036.317395727150142 ], [ 396339.064089521882124, 3786036.622583926655352 ], [ 396338.14852492371574, 3786036.622583926655352 ], [ 396337.843336724326946, 3786036.927772126160562 ], [ 396336.622583926771767, 3786036.927772126160562 ], [ 396336.317395727382973, 3786037.232960325665772 ], [ 396335.096642929827794, 3786037.232960325665772 ] ] ] } },
{ "type": "Feature", "properties": { "confidence": 0.47315320372581482, "class": 1 }, "geometry": { "type": "Polygon", "coordinates": [ [ [ 396396.439471007150132, 3786412.919633774086833 ], [ 396396.13428280770313, 3786412.614445574581623 ], [ 396395.829094608314335, 3786412.614445574581623 ], [ 396395.523906408925541, 3786412.309257375542074 ], [ 396394.913530010147952, 3786412.309257375542074 ], [ 396394.303153611370362, 3786411.698880976531655 ], [ 396393.997965411981568, 3786411.698880976531655 ], [ 396393.997965411981568, 3786411.393692777026445 ], [ 396393.692777212592773, 3786411.088504577986896 ], [ 396393.692777212592773, 3786410.783316378481686 ], [ 396393.387589013203979, 3786410.478128178976476 ], [ 396393.387589013203979, 3786409.562563580926508 ], [ 396393.082400813815184, 3786409.257375381421298 ], [ 396393.387589013203979, 3786408.952187181916088 ], [ 396393.997965411981568, 3786408.952187181916088 ], [ 396394.303153611370362, 3786409.257375381421298 ], [ 396395.218718209536746, 3786409.257375381421298 ], [ 396395.218718209536746, 3786409.562563580926508 ], [ 396395.523906408925541, 3786409.867751780431718 ], [ 396397.965412004094105, 3786409.867751780431718 ], [ 396398.2706002034829, 3786410.172939979471266 ], [ 396398.575788402871694, 3786410.172939979471266 ], [ 396398.880976602260489, 3786410.478128178976476 ], [ 396399.186164801649284, 3786410.478128178976476 ], [ 396399.186164801649284, 3786412.004069176036865 ], [ 396398.880976602260489, 3786412.004069176036865 ], [ 396397.965412004094105, 3786412.919633774086833 ], [ 396396.439471007150132, 3786412.919633774086833 ] ] ] } },
{ "type": "Feature", "properties": { "confidence": 0.45040985941886902, "class": 1 }, "geometry": { "type": "Polygon", "coordinates": [ [ [ 396129.094608341809362, 3786338.14852492371574 ], [ 396128.789420142420568, 3786337.843336724210531 ], [ 396128.179043743642978, 3786337.843336724210531 ], [ 396127.873855544254184, 3786337.538148524705321 ], [ 396127.263479145476595, 3786337.538148524705321 ], [ 396126.9582909460878, 3786337.232960325665772 ], [ 396126.653102746699005, 3786337.232960325665772 ], [ 396126.347914547310211, 3786336.927772126160562 ], [ 396126.042726347921416, 3786336.927772126160562 ], [ 396125.737538148532622, 3786336.622583926655352 ], [ 396125.737538148532622, 3786336.317395727150142 ], [ 396125.432349949143827, 3786336.012207528110594 ], [ 396125.432349949143827, 3786334.181078331544995 ], [ 396126.042726347921416, 3786333.570701933000237 ], [ 396126.042726347921416, 3786332.960325533989817 ], [ 396126.347914547310211, 3786332.960325533989817 ], [ 396126.653102746699005, 3786332.655137334484607 ], [ 396126.653102746699005, 3786331.12919633788988 ], [ 396126.9582909460878, 3786330.82400813838467 ], [ 396126.9582909460878, 3786330.51881993887946 ], [ 396127.873855544254184, 3786330.51881993887946 ], [ 396128.484231943031773, 3786329.908443540334702 ], [ 396128.789420142420568, 3786329.908443540334702 ], [ 396129.094608341809362, 3786329.603255340829492 ], [ 396129.094608341809362, 3786329.298067141324282 ], [ 396130.010172939975746, 3786329.298067141324282 ], [ 396130.010172939975746, 3786329.908443540334702 ], [ 396130.315361139364541, 3786330.21363173937425 ], [ 396130.620549338753335, 3786330.21363173937425 ], [ 396130.92573753814213, 3786330.51881993887946 ], [ 396131.230925737530924, 3786330.51881993887946 ], [ 396131.841302136308514, 3786331.12919633788988 ], [ 396132.146490335697308, 3786331.12919633788988 ], [ 396132.146490335697308, 3786331.434384536929429 ], [ 396132.451678535086103, 3786331.739572736434639 ], [ 396133.062054933863692, 3786331.739572736434639 ], [ 396133.062054933863692, 3786332.044760935939848 ], [ 396133.367243133252487, 3786332.349949135445058 ], [ 396133.672431332641281, 3786332.349949135445058 ], [ 396134.28280773141887, 3786332.960325533989817 ], [ 396134.28280773141887, 3786335.707019328605384 ], [ 396133.672431332641281, 3786336.317395727150142 ], [ 396133.367243133252487, 3786336.317395727150142 ], [ 396133.062054933863692, 3786336.622583926655352 ], [ 396132.451678535086103, 3786336.622583926655352 ], [ 396132.146490335697308, 3786336.927772126160562 ], [ 396131.841302136308514, 3786336.927772126160562 ], [ 396130.92573753814213, 3786337.843336724210531 ], [ 396130.315361139364541, 3786337.843336724210531 ], [ 396130.010172939975746, 3786338.14852492371574 ], [ 396129.094608341809362, 3786338.14852492371574 ] ] ] } },
{ "type": "Feature", "properties": { "confidence": 0.43535912036895752, "class": 1 }, "geometry": { "type": "Polygon", "coordinates": [ [ [ 396130.315361139364541, 3786288.402848422992975 ], [ 396130.010172939975746, 3786288.097660223953426 ], [ 396129.704984740586951, 3786288.097660223953426 ], [ 396129.399796541198157, 3786287.792472024448216 ], [ 396129.094608341809362, 3786287.792472024448216 ], [ 396128.179043743642978, 3786286.876907426398247 ], [ 396128.179043743642978, 3786282.604272634722292 ], [ 396127.873855544254184, 3786282.299084435217083 ], [ 396127.873855544254184, 3786281.688708036672324 ], [ 396127.568667344865389, 3786281.383519837167114 ], [ 396127.568667344865389, 3786278.942014242056757 ], [ 396127.873855544254184, 3786278.636826042551547 ], [ 396130.315361139364541, 3786278.636826042551547 ], [ 396130.620549338753335, 3786278.942014242056757 ], [ 396131.230925737530924, 3786278.942014242056757 ], [ 396131.536113936919719, 3786279.247202441561967 ], [ 396132.146490335697308, 3786279.247202441561967 ], [ 396132.451678535086103, 3786279.552390641067177 ], [ 396132.756866734474897, 3786279.552390641067177 ], [ 396133.367243133252487, 3786280.162767039611936 ], [ 396133.367243133252487, 3786280.773143438622355 ], [ 396133.672431332641281, 3786281.078331637661904 ], [ 396133.672431332641281, 3786284.130213631782681 ], [ 396133.367243133252487, 3786284.435401831287891 ], [ 396133.367243133252487, 3786285.045778229832649 ], [ 396133.062054933863692, 3786285.350966429337859 ], [ 396133.062054933863692, 3786285.961342827882618 ], [ 396132.756866734474897, 3786286.266531027387828 ], [ 396132.756866734474897, 3786287.792472024448216 ], [ 396132.146490335697308, 3786288.402848422992975 ], [ 396130.315361139364541, 3786288.402848422992975 ] ] ] } },
{ "type": "Feature", "properties": { "confidence": 0.42334553599357605, "class": 1 }, "geometry": { "type": "Polygon", "coordinates": [ [ [ 396511.495422177016735, 3786074.160732451826334 ], [ 396511.19023397762794, 3786073.855544252321124 ], [ 396508.748728382517584, 3786073.855544252321124 ], [ 396508.443540183128789, 3786073.550356052815914 ], [ 396507.8331637843512, 3786073.550356052815914 ], [ 396507.527975584962405, 3786073.245167853310704 ], [ 396507.527975584962405, 3786072.939979654271156 ], [ 396506.917599186184816, 3786072.329603255260736 ], [ 396506.917599186184816, 3786072.024415055755526 ], [ 396506.612410986796021, 3786071.719226856715977 ], [ 396506.612410986796021, 3786069.27772126160562 ], [ 396506.917599186184816, 3786068.97253306210041 ], [ 396507.8331637843512, 3786068.97253306210041 ], [ 396508.138351983739994, 3786068.667344862595201 ], [ 396509.053916581906378, 3786068.667344862595201 ], [ 396509.359104781295173, 3786068.362156663089991 ], [ 396510.579857578850351, 3786068.362156663089991 ], [ 396510.885045778239146, 3786068.667344862595201 ], [ 396511.19023397762794, 3786068.667344862595201 ], [ 396511.495422177016735, 3786068.97253306210041 ], [ 396511.80061037640553, 3786068.97253306210041 ], [ 396511.80061037640553, 3786069.27772126160562 ], [ 396512.105798575794324, 3786069.582909460645169 ], [ 396513.021363173960708, 3786069.582909460645169 ], [ 396513.326551373349503, 3786069.888097660150379 ], [ 396513.631739572738297, 3786069.888097660150379 ], [ 396514.242115971515886, 3786070.498474059160799 ], [ 396514.242115971515886, 3786071.719226856715977 ], [ 396514.547304170904681, 3786072.024415055755526 ], [ 396514.547304170904681, 3786073.245167853310704 ], [ 396514.242115971515886, 3786073.245167853310704 ], [ 396513.631739572738297, 3786073.855544252321124 ], [ 396513.021363173960708, 3786073.855544252321124 ], [ 396512.716174974571913, 3786074.160732451826334 ], [ 396511.495422177016735, 3786074.160732451826334 ] ] ] } },
{ "type": "Feature", "properties": { "confidence": 0.42156246304512024, "class": 1 }, "geometry": { "type": "Polygon", "coordinates": [ [ [ 396415.971515768032987, 3786389.114954221993685 ], [ 396414.750762970477808, 3786387.894201424438506 ], [ 396414.750762970477808, 3786386.978636825922877 ], [ 396414.445574771089014, 3786386.673448626883328 ], [ 396414.445574771089014, 3786386.368260427378118 ], [ 396414.140386571700219, 3786386.063072227872908 ], [ 396414.140386571700219, 3786385.757884028367698 ], [ 396413.835198372311424, 3786385.452695828862488 ], [ 396413.835198372311424, 3786384.53713123081252 ], [ 396413.53001017292263, 3786384.23194303130731 ], [ 396413.53001017292263, 3786383.621566632762551 ], [ 396413.835198372311424, 3786383.316378433257341 ], [ 396413.835198372311424, 3786383.011190233752131 ], [ 396414.140386571700219, 3786383.011190233752131 ], [ 396414.445574771089014, 3786382.706002034712583 ], [ 396416.276703967421781, 3786382.706002034712583 ], [ 396416.581892166810576, 3786383.011190233752131 ], [ 396416.88708036619937, 3786383.011190233752131 ], [ 396417.49745676497696, 3786383.621566632762551 ], [ 396417.802644964365754, 3786383.621566632762551 ], [ 396419.63377416075673, 3786385.452695828862488 ], [ 396419.63377416075673, 3786386.063072227872908 ], [ 396419.938962360145524, 3786386.368260427378118 ], [ 396419.938962360145524, 3786388.504577822983265 ], [ 396419.63377416075673, 3786388.809766022488475 ], [ 396418.718209562590346, 3786388.809766022488475 ], [ 396418.413021363201551, 3786389.114954221993685 ], [ 396415.971515768032987, 3786389.114954221993685 ] ] ] } },
{ "type": "Feature", "properties": { "confidence": 0.38432130217552185, "class": 1 }, "geometry": { "type": "Polygon", "coordinates": [ [ [ 396470.295015259413049, 3786046.083418108057231 ], [ 396469.379450661246665, 3786045.167853509541601 ], [ 396469.379450661246665, 3786039.979654119815677 ], [ 396469.684638860635459, 3786039.674465920776129 ], [ 396469.684638860635459, 3786039.369277721270919 ], [ 396469.989827060024254, 3786039.064089521765709 ], [ 396469.989827060024254, 3786038.758901322260499 ], [ 396470.295015259413049, 3786038.45371312322095 ], [ 396470.905391658190638, 3786038.45371312322095 ], [ 396471.210579857579432, 3786038.14852492371574 ], [ 396471.515768056968227, 3786038.14852492371574 ], [ 396472.126144455745816, 3786037.538148524705321 ], [ 396472.736520854523405, 3786037.538148524705321 ], [ 396473.0417090539122, 3786037.843336724210531 ], [ 396474.872838250244968, 3786037.843336724210531 ], [ 396475.178026449633762, 3786038.14852492371574 ], [ 396475.178026449633762, 3786038.45371312322095 ], [ 396475.483214649022557, 3786038.758901322260499 ], [ 396475.483214649022557, 3786039.064089521765709 ], [ 396475.788402848411351, 3786039.369277721270919 ], [ 396475.788402848411351, 3786040.590030518826097 ], [ 396475.483214649022557, 3786040.895218718331307 ], [ 396475.483214649022557, 3786043.336724313441664 ], [ 396475.178026449633762, 3786043.641912512946874 ], [ 396475.178026449633762, 3786044.252288911491632 ], [ 396474.872838250244968, 3786044.557477110996842 ], [ 396474.872838250244968, 3786044.862665310502052 ], [ 396473.957273652078584, 3786045.778229908552021 ], [ 396472.431332655134611, 3786045.778229908552021 ], [ 396472.126144455745816, 3786046.083418108057231 ], [ 396470.295015259413049, 3786046.083418108057231 ] ] ] } },
{ "type": "Feature", "properties": { "confidence": 0.38017335534095764, "class": 1 }, "geometry": { "type": "Polygon", "coordinates": [ [ [ 396099.491353001038078, 3786026.551373346708715 ], [ 396099.186164801649284, 3786026.246185147669166 ], [ 396097.965412004094105, 3786026.246185147669166 ], [ 396097.660223804705311, 3786025.940996948163956 ], [ 396096.439471007150132, 3786025.940996948163956 ], [ 396095.523906408925541, 3786025.025432350113988 ], [ 396095.523906408925541, 3786024.109867751598358 ], [ 396095.218718209536746, 3786023.80467955255881 ], [ 396095.218718209536746, 3786018.006103763822466 ], [ 396095.523906408925541, 3786017.700915564782917 ], [ 396096.13428280770313, 3786017.700915564782917 ], [ 396096.439471007150132, 3786017.395727365277708 ], [ 396097.965412004094105, 3786017.395727365277708 ], [ 396098.2706002034829, 3786017.090539165772498 ], [ 396100.406917599204462, 3786017.090539165772498 ], [ 396100.712105798593257, 3786017.395727365277708 ], [ 396101.322482197370846, 3786017.395727365277708 ], [ 396101.932858596148435, 3786018.006103763822466 ], [ 396102.23804679553723, 3786018.006103763822466 ], [ 396102.23804679553723, 3786018.616480162832886 ], [ 396102.543234994926024, 3786018.921668362338096 ], [ 396102.543234994926024, 3786020.447609358932823 ], [ 396102.848423194314819, 3786020.752797558438033 ], [ 396102.848423194314819, 3786024.415055951103568 ], [ 396102.543234994926024, 3786024.720244150608778 ], [ 396102.543234994926024, 3786025.330620549153537 ], [ 396102.23804679553723, 3786025.635808748658746 ], [ 396102.23804679553723, 3786025.940996948163956 ], [ 396101.62767039675964, 3786026.551373346708715 ], [ 396099.491353001038078, 3786026.551373346708715 ] ] ] } },
{ "type": "Feature", "properties": { "confidence": 0.36245155334472656, "class": 1 }, "geometry": { "type": "Polygon", "coordinates": [ [ [ 396470.600203458801843, 3786156.561546287033707 ], [ 396470.295015259413049, 3786156.256358087528497 ], [ 396470.295015259413049, 3786155.340793489478528 ], [ 396470.600203458801843, 3786155.035605289973319 ], [ 396470.600203458801843, 3786154.730417090468109 ], [ 396470.905391658190638, 3786154.425228890962899 ], [ 396470.905391658190638, 3786154.12004069192335 ], [ 396472.126144455745816, 3786154.12004069192335 ], [ 396472.736520854523405, 3786153.50966429291293 ], [ 396473.0417090539122, 3786153.50966429291293 ], [ 396473.346897253300995, 3786153.20447609340772 ], [ 396473.652085452689789, 3786153.20447609340772 ], [ 396474.567650050856173, 3786152.288911495357752 ], [ 396474.567650050856173, 3786153.20447609340772 ], [ 396474.872838250244968, 3786153.50966429291293 ], [ 396474.872838250244968, 3786153.81485249241814 ], [ 396474.567650050856173, 3786154.12004069192335 ], [ 396474.567650050856173, 3786155.035605289973319 ], [ 396474.262461851467378, 3786155.340793489478528 ], [ 396474.262461851467378, 3786155.645981688518077 ], [ 396473.957273652078584, 3786155.951169888023287 ], [ 396473.957273652078584, 3786156.256358087528497 ], [ 396473.652085452689789, 3786156.256358087528497 ], [ 396473.346897253300995, 3786156.561546287033707 ], [ 396472.736520854523405, 3786156.561546287033707 ], [ 396472.431332655134611, 3786156.256358087528497 ], [ 396470.905391658190638, 3786156.256358087528497 ], [ 396470.600203458801843, 3786156.561546287033707 ] ] ] } },
{ "type": "Feature", "properties": { "confidence": 0.35627004504203796, "class": 1 }, "geometry": { "type": "Polygon", "coordinates": [ [ [ 396193.489318413019646, 3786187.995930823963135 ], [ 396193.184130213630851, 3786187.690742624457926 ], [ 396192.573753814853262, 3786187.690742624457926 ], [ 396192.573753814853262, 3786187.385554425418377 ], [ 396192.268565615464468, 3786187.080366225913167 ], [ 396192.268565615464468, 3786184.94404883030802 ], [ 396191.963377416075673, 3786184.63886063080281 ], [ 396191.963377416075673, 3786182.807731434237212 ], [ 396192.268565615464468, 3786182.502543235197663 ], [ 396192.268565615464468, 3786182.197355035692453 ], [ 396192.878942014242057, 3786181.586978636682034 ], [ 396193.489318413019646, 3786181.586978636682034 ], [ 396193.794506612408441, 3786181.281790437642485 ], [ 396194.099694811797235, 3786181.281790437642485 ], [ 396194.40488301118603, 3786180.976602238137275 ], [ 396195.015259409963619, 3786180.976602238137275 ], [ 396195.625635808741208, 3786180.366225839126855 ], [ 396197.151576805685181, 3786180.366225839126855 ], [ 396197.151576805685181, 3786180.671414038632065 ], [ 396197.456765005073976, 3786180.976602238137275 ], [ 396199.287894201406743, 3786180.976602238137275 ], [ 396199.593082400795538, 3786181.281790437642485 ], [ 396199.898270600184333, 3786181.281790437642485 ], [ 396200.813835198350716, 3786182.197355035692453 ], [ 396200.813835198350716, 3786182.502543235197663 ], [ 396201.119023397739511, 3786182.807731434237212 ], [ 396201.119023397739511, 3786183.418107833247632 ], [ 396201.424211597128306, 3786183.723296032752842 ], [ 396201.424211597128306, 3786184.02848423179239 ], [ 396201.119023397739511, 3786184.3336724312976 ], [ 396201.119023397739511, 3786185.249237029347569 ], [ 396200.508646998961922, 3786185.859613428357989 ], [ 396200.203458799573127, 3786185.859613428357989 ], [ 396199.593082400795538, 3786186.469989826902747 ], [ 396199.287894201406743, 3786186.469989826902747 ], [ 396198.677517802629154, 3786187.080366225913167 ], [ 396198.067141403851565, 3786187.080366225913167 ], [ 396197.76195320446277, 3786187.385554425418377 ], [ 396197.151576805685181, 3786187.385554425418377 ], [ 396196.846388606296387, 3786187.690742624457926 ], [ 396195.625635808741208, 3786187.690742624457926 ], [ 396195.320447609352414, 3786187.995930823963135 ], [ 396193.489318413019646, 3786187.995930823963135 ] ] ] } },
{ "type": "Feature", "properties": { "confidence": 0.35240527987480164, "class": 1 }, "geometry": { "type": "Polygon", "coordinates": [ [ [ 396479.145473041688092, 3786567.344862665515393 ], [ 396478.840284842299297, 3786567.039674466010183 ], [ 396478.840284842299297, 3786565.208545269444585 ], [ 396478.535096642910503, 3786564.903357070405036 ], [ 396478.535096642910503, 3786563.377416073344648 ], [ 396478.840284842299297, 3786563.072227873839438 ], [ 396479.145473041688092, 3786563.072227873839438 ], [ 396479.450661241076887, 3786562.767039674334228 ], [ 396482.807731434411835, 3786562.767039674334228 ], [ 396482.807731434411835, 3786563.072227873839438 ], [ 396483.418107833189424, 3786563.682604272849858 ], [ 396483.418107833189424, 3786563.987792471889406 ], [ 396483.723296032578219, 3786564.292980671394616 ], [ 396483.723296032578219, 3786565.818921668455005 ], [ 396483.418107833189424, 3786566.124109867960215 ], [ 396483.418107833189424, 3786566.734486266504973 ], [ 396482.807731434411835, 3786567.344862665515393 ], [ 396479.145473041688092, 3786567.344862665515393 ] ] ] } },
{ "type": "Feature", "properties": { "confidence": 0.32909229397773743, "class": 1 }, "geometry": { "type": "Polygon", "coordinates": [ [ [ 396249.033570701954886, 3786107.121057985816151 ], [ 396248.728382502566092, 3786106.815869786310941 ], [ 396248.423194303177297, 3786106.815869786310941 ], [ 396248.118006103788503, 3786106.510681586805731 ], [ 396247.812817904399708, 3786106.510681586805731 ], [ 396247.812817904399708, 3786106.205493387766182 ], [ 396247.507629705010913, 3786105.900305188260972 ], [ 396247.202441505622119, 3786105.900305188260972 ], [ 396246.286876907397527, 3786104.984740590211004 ], [ 396246.286876907397527, 3786103.153611393645406 ], [ 396246.59206510684453, 3786102.848423194140196 ], [ 396246.59206510684453, 3786102.543234995100647 ], [ 396246.897253306233324, 3786102.543234995100647 ], [ 396247.202441505622119, 3786102.238046795595437 ], [ 396247.202441505622119, 3786101.932858596090227 ], [ 396249.338758901343681, 3786101.932858596090227 ], [ 396249.643947100732476, 3786102.238046795595437 ], [ 396249.643947100732476, 3786102.848423194140196 ], [ 396249.94913530012127, 3786103.153611393645406 ], [ 396250.254323499510065, 3786103.153611393645406 ], [ 396250.559511698898859, 3786103.458799593150616 ], [ 396251.169888097676449, 3786103.458799593150616 ], [ 396251.475076297065243, 3786103.763987792655826 ], [ 396251.780264496454038, 3786103.763987792655826 ], [ 396252.085452695842832, 3786104.069175991695374 ], [ 396252.085452695842832, 3786106.205493387766182 ], [ 396251.780264496454038, 3786106.510681586805731 ], [ 396251.475076297065243, 3786106.510681586805731 ], [ 396251.169888097676449, 3786106.815869786310941 ], [ 396250.254323499510065, 3786106.815869786310941 ], [ 396249.94913530012127, 3786107.121057985816151 ], [ 396249.033570701954886, 3786107.121057985816151 ] ] ] } },
{ "type": "Feature", "properties": { "confidence": 0.31663492321968079, "class": 1 }, "geometry": { "type": "Polygon", "coordinates": [ [ [ 396487.995930824021343, 3786368.667344862595201 ], [ 396487.690742624632549, 3786368.362156663089991 ], [ 396487.690742624632549, 3786367.141403865534812 ], [ 396487.385554425243754, 3786366.836215666495264 ], [ 396487.385554425243754, 3786365.310274669434875 ], [ 396487.690742624632549, 3786365.005086469929665 ], [ 396487.690742624632549, 3786364.699898270424455 ], [ 396487.995930824021343, 3786364.394710071384907 ], [ 396488.301119023410138, 3786364.394710071384907 ], [ 396488.606307222798932, 3786364.089521871879697 ], [ 396488.911495422187727, 3786364.089521871879697 ], [ 396489.521871820965316, 3786363.479145472869277 ], [ 396494.099694811797235, 3786363.479145472869277 ], [ 396494.40488301118603, 3786363.784333672374487 ], [ 396494.40488301118603, 3786365.920651067979634 ], [ 396494.099694811797235, 3786366.225839267484844 ], [ 396494.099694811797235, 3786366.531027466990054 ], [ 396493.794506612408441, 3786366.531027466990054 ], [ 396493.489318413019646, 3786366.836215666495264 ], [ 396492.878942014242057, 3786366.836215666495264 ], [ 396492.573753814853262, 3786367.141403865534812 ], [ 396492.268565615464468, 3786367.141403865534812 ], [ 396491.963377416075673, 3786367.446592065040022 ], [ 396491.658189216686878, 3786367.446592065040022 ], [ 396491.353001017298084, 3786367.751780264545232 ], [ 396491.047812817909289, 3786367.751780264545232 ], [ 396490.742624618520495, 3786368.056968464050442 ], [ 396490.4374364191317, 3786368.056968464050442 ], [ 396490.132248219742905, 3786368.362156663089991 ], [ 396489.827060020354111, 3786368.362156663089991 ], [ 396489.521871820965316, 3786368.667344862595201 ], [ 396487.995930824021343, 3786368.667344862595201 ] ] ] } },
{ "type": "Feature", "properties": { "confidence": 0.30561840534210205, "class": 1 }, "geometry": { "type": "Polygon", "coordinates": [ [ [ 396468.769074262469076, 3786208.748728382401168 ], [ 396468.769074262469076, 3786203.560528992675245 ], [ 396469.684638860635459, 3786203.560528992675245 ], [ 396469.989827060024254, 3786203.865717192180455 ], [ 396470.600203458801843, 3786203.865717192180455 ], [ 396471.210579857579432, 3786203.255340793635696 ], [ 396471.820956256357022, 3786203.255340793635696 ], [ 396472.126144455745816, 3786202.950152594130486 ], [ 396473.0417090539122, 3786202.950152594130486 ], [ 396473.346897253300995, 3786203.255340793635696 ], [ 396473.346897253300995, 3786204.476093591190875 ], [ 396472.431332655134611, 3786205.391658189240843 ], [ 396472.431332655134611, 3786205.696846388746053 ], [ 396472.126144455745816, 3786206.002034587785602 ], [ 396471.820956256357022, 3786206.002034587785602 ], [ 396471.515768056968227, 3786206.307222787290812 ], [ 396471.210579857579432, 3786206.307222787290812 ], [ 396470.600203458801843, 3786206.917599186301231 ], [ 396470.600203458801843, 3786207.22278738534078 ], [ 396469.989827060024254, 3786207.8331637843512 ], [ 396469.989827060024254, 3786208.13835198385641 ], [ 396469.379450661246665, 3786208.748728382401168 ], [ 396468.769074262469076, 3786208.748728382401168 ] ] ] } },
{ "type": "Feature", "properties": { "confidence": 0.29352742433547974, "class": 1 }, "geometry": { "type": "Polygon", "coordinates": [ [ [ 396546.59206510684453, 3786346.998982706107199 ], [ 396546.286876907397527, 3786346.693794506601989 ], [ 396545.981688708008733, 3786346.693794506601989 ], [ 396545.981688708008733, 3786346.388606307096779 ], [ 396545.676500508619938, 3786346.083418108057231 ], [ 396545.676500508619938, 3786344.252288911491632 ], [ 396545.981688708008733, 3786343.947100711986423 ], [ 396545.981688708008733, 3786343.336724313441664 ], [ 396546.897253306233324, 3786342.421159714926034 ], [ 396546.897253306233324, 3786342.115971515886486 ], [ 396547.507629705010913, 3786341.505595116876066 ], [ 396548.118006103788503, 3786341.505595116876066 ], [ 396548.423194303177297, 3786341.200406917370856 ], [ 396549.033570701954886, 3786341.200406917370856 ], [ 396549.338758901343681, 3786340.895218718331307 ], [ 396549.643947100732476, 3786340.895218718331307 ], [ 396549.94913530012127, 3786340.590030518826097 ], [ 396549.94913530012127, 3786339.674465920776129 ], [ 396550.254323499510065, 3786339.369277721270919 ], [ 396550.559511698898859, 3786339.674465920776129 ], [ 396550.864699898287654, 3786339.674465920776129 ], [ 396551.169888097676449, 3786339.979654119815677 ], [ 396551.169888097676449, 3786340.590030518826097 ], [ 396551.475076297065243, 3786340.895218718331307 ], [ 396551.475076297065243, 3786342.115971515886486 ], [ 396551.169888097676449, 3786342.421159714926034 ], [ 396551.169888097676449, 3786343.031536113936454 ], [ 396550.559511698898859, 3786343.641912512946874 ], [ 396550.559511698898859, 3786343.947100711986423 ], [ 396550.254323499510065, 3786344.252288911491632 ], [ 396550.254323499510065, 3786344.557477110996842 ], [ 396549.94913530012127, 3786344.862665310502052 ], [ 396549.94913530012127, 3786345.167853509541601 ], [ 396549.643947100732476, 3786345.473041709046811 ], [ 396549.643947100732476, 3786345.778229908552021 ], [ 396549.033570701954886, 3786346.388606307096779 ], [ 396548.728382502566092, 3786346.388606307096779 ], [ 396548.423194303177297, 3786346.693794506601989 ], [ 396548.118006103788503, 3786346.693794506601989 ], [ 396547.812817904399708, 3786346.998982706107199 ], [ 396546.59206510684453, 3786346.998982706107199 ] ] ] } },
{ "type": "Feature", "properties": { "confidence": 0.27304014563560486, "class": 1 }, "geometry": { "type": "Polygon", "coordinates": [ [ [ 396421.464903357089497, 3786100.712105798535049 ], [ 396420.549338758923113, 3786099.79654120048508 ], [ 396420.549338758923113, 3786099.491353000979871 ], [ 396420.244150559534319, 3786099.186164801474661 ], [ 396420.244150559534319, 3786098.880976602435112 ], [ 396419.938962360145524, 3786098.575788402929902 ], [ 396419.938962360145524, 3786098.270600203424692 ], [ 396419.63377416075673, 3786097.965412003919482 ], [ 396419.63377416075673, 3786097.049847405869514 ], [ 396419.328585961367935, 3786096.744659206364304 ], [ 396419.328585961367935, 3786096.439471007324755 ], [ 396419.02339776197914, 3786096.134282807819545 ], [ 396419.02339776197914, 3786094.913530010264367 ], [ 396418.718209562590346, 3786094.608341810759157 ], [ 396418.413021363201551, 3786094.608341810759157 ], [ 396418.413021363201551, 3786093.387589013203979 ], [ 396419.328585961367935, 3786093.387589013203979 ], [ 396419.63377416075673, 3786093.082400813698769 ], [ 396419.938962360145524, 3786093.082400813698769 ], [ 396420.244150559534319, 3786093.387589013203979 ], [ 396421.464903357089497, 3786093.387589013203979 ], [ 396421.770091556478292, 3786093.082400813698769 ], [ 396424.516785350977443, 3786093.082400813698769 ], [ 396425.737538148532622, 3786094.303153611253947 ], [ 396425.737538148532622, 3786095.523906408809125 ], [ 396426.042726347921416, 3786095.829094608314335 ], [ 396426.042726347921416, 3786098.575788402929902 ], [ 396425.737538148532622, 3786098.880976602435112 ], [ 396425.737538148532622, 3786099.186164801474661 ], [ 396425.432349949143827, 3786099.491353000979871 ], [ 396425.432349949143827, 3786100.406917599029839 ], [ 396425.127161749755032, 3786100.712105798535049 ], [ 396421.464903357089497, 3786100.712105798535049 ] ] ] } },
{ "type": "Feature", "properties": { "confidence": 0.2679690420627594, "class": 1 }, "geometry": { "type": "Polygon", "coordinates": [ [ [ 396449.542217700916808, 3786401.627670396585017 ], [ 396449.237029501528013, 3786401.322482197545469 ], [ 396448.32146490336163, 3786401.322482197545469 ], [ 396448.016276703972835, 3786401.017293998040259 ], [ 396447.405900305195246, 3786401.017293998040259 ], [ 396446.795523906417657, 3786400.406917599029839 ], [ 396446.795523906417657, 3786398.270600203424692 ], [ 396448.32146490336163, 3786396.744659206364304 ], [ 396448.32146490336163, 3786396.439471007324755 ], [ 396448.626653102750424, 3786396.439471007324755 ], [ 396448.931841302139219, 3786396.134282807819545 ], [ 396449.847405900305603, 3786396.134282807819545 ], [ 396450.152594099694397, 3786395.829094608314335 ], [ 396451.068158697860781, 3786395.829094608314335 ], [ 396451.373346897249576, 3786396.134282807819545 ], [ 396451.373346897249576, 3786397.049847405869514 ], [ 396451.67853509663837, 3786397.355035605374724 ], [ 396451.67853509663837, 3786397.965412003919482 ], [ 396451.373346897249576, 3786398.270600203424692 ], [ 396451.373346897249576, 3786400.10172939999029 ], [ 396451.068158697860781, 3786400.406917599029839 ], [ 396451.068158697860781, 3786400.712105798535049 ], [ 396450.152594099694397, 3786401.627670396585017 ], [ 396449.542217700916808, 3786401.627670396585017 ] ] ] } },
{ "type": "Feature", "properties": { "confidence": 0.26211434602737427, "class": 1 }, "geometry": { "type": "Polygon", "coordinates": [ [ [ 396462.665310274693184, 3786399.186164801474661 ], [ 396461.444557477138005, 3786397.965412003919482 ], [ 396461.444557477138005, 3786397.660223804879934 ], [ 396461.139369277749211, 3786397.355035605374724 ], [ 396461.139369277749211, 3786397.049847405869514 ], [ 396460.528992878913414, 3786396.439471007324755 ], [ 396460.528992878913414, 3786395.218718209769577 ], [ 396460.223804679524619, 3786394.913530010264367 ], [ 396460.223804679524619, 3786394.303153611253947 ], [ 396460.528992878913414, 3786393.997965412214398 ], [ 396460.528992878913414, 3786393.692777212709188 ], [ 396461.7497456765268, 3786393.692777212709188 ], [ 396462.360122075304389, 3786394.303153611253947 ], [ 396462.360122075304389, 3786394.608341810759157 ], [ 396462.665310274693184, 3786394.913530010264367 ], [ 396462.970498474081978, 3786394.913530010264367 ], [ 396463.275686673470773, 3786395.218718209769577 ], [ 396466.022380467969924, 3786395.218718209769577 ], [ 396466.327568667358719, 3786395.523906408809125 ], [ 396466.327568667358719, 3786397.049847405869514 ], [ 396466.022380467969924, 3786397.355035605374724 ], [ 396466.022380467969924, 3786397.660223804879934 ], [ 396465.10681586980354, 3786398.575788402929902 ], [ 396464.801627670414746, 3786398.575788402929902 ], [ 396464.496439471025951, 3786398.880976602435112 ], [ 396463.886063072248362, 3786398.880976602435112 ], [ 396463.580874872859567, 3786399.186164801474661 ], [ 396462.665310274693184, 3786399.186164801474661 ] ] ] } },
{ "type": "Feature", "properties": { "confidence": 0.26132687926292419, "class": 1 }, "geometry": { "type": "Polygon", "coordinates": [ [ [ 396453.814852492359933, 3786423.601220752578229 ], [ 396453.509664292971138, 3786423.29603255353868 ], [ 396452.899287894193549, 3786423.29603255353868 ], [ 396452.899287894193549, 3786422.99084435403347 ], [ 396452.594099694804754, 3786422.68565615452826 ], [ 396452.594099694804754, 3786420.549338758923113 ], [ 396452.28891149541596, 3786420.244150559417903 ], [ 396452.28891149541596, 3786419.023397761862725 ], [ 396452.594099694804754, 3786418.718209562357515 ], [ 396452.594099694804754, 3786417.497456764802337 ], [ 396453.509664292971138, 3786416.581892166752368 ], [ 396453.814852492359933, 3786416.581892166752368 ], [ 396454.120040691748727, 3786416.276703967247158 ], [ 396455.6459816886927, 3786416.276703967247158 ], [ 396455.951169888081495, 3786416.581892166752368 ], [ 396456.561546286859084, 3786416.581892166752368 ], [ 396456.866734486247879, 3786416.887080366257578 ], [ 396457.171922685636673, 3786416.887080366257578 ], [ 396457.171922685636673, 3786420.854526958428323 ], [ 396457.477110885025468, 3786421.159715157467872 ], [ 396457.171922685636673, 3786421.464903356973082 ], [ 396457.171922685636673, 3786422.38046795502305 ], [ 396456.866734486247879, 3786422.68565615452826 ], [ 396456.866734486247879, 3786422.99084435403347 ], [ 396456.256358087470289, 3786422.99084435403347 ], [ 396455.951169888081495, 3786423.29603255353868 ], [ 396454.730417090526316, 3786423.29603255353868 ], [ 396454.425228891137522, 3786423.601220752578229 ], [ 396453.814852492359933, 3786423.601220752578229 ] ] ] } }
]
}
