{
"type": "FeatureCollection",
"name": "cell_00195_pre",
"crs": { "type": "name", "properties": { "name": "urn:ogc:def:crs:EPSG::32611" } },
"features": [
{ "type": "Feature", "properties": { "confidence": 0.79688596725463867, "class": 1 }, "geometry": { "type": "Polygon", "coordinates": [ [ [ 356898.067141403851565, 3777217.904374364297837 ], [ 356897.76195320446277, 3777217.599186164792627 ], [ 356897.151576805685181, 3777217.599186164792627 ], [ 356896.846388606296387, 3777217.293997965287417 ], [ 356896.541200406907592, 3777217.293997965287417 ], [ 356896.236012207518797, 3777216.988809766247869 ], [ 356895.625635808741208, 3777216.988809766247869 ], [ 356895.015259409963619, 3777216.378433367237449 ], [ 356894.710071210574824, 3777216.378433367237449 ], [ 356894.40488301118603, 3777216.073245167732239 ], [ 356894.40488301118603, 3777215.76805696869269 ], [ 356893.489318413019646, 3777214.85249237017706 ], [ 356893.489318413019646, 3777214.547304171137512 ], [ 356893.184130213630851, 3777214.242115971632302 ], [ 356893.184130213630851, 3777213.936927772127092 ], [ 356892.878942014242057, 3777213.631739572621882 ], [ 356892.878942014242057, 3777213.021363174077123 ], [ 356892.573753814853262, 3777212.716174974571913 ], [ 356892.268565615464468, 3777212.716174974571913 ], [ 356892.268565615464468, 3777212.410986775066704 ], [ 356891.963377416075673, 3777212.105798575561494 ], [ 356891.963377416075673, 3777211.190233977511525 ], [ 356892.573753814853262, 3777210.579857578966767 ], [ 356895.015259409963619, 3777210.579857578966767 ], [ 356895.320447609352414, 3777210.885045778006315 ], [ 356897.76195320446277, 3777210.885045778006315 ], [ 356898.067141403851565, 3777211.190233977511525 ], [ 356898.677517802629154, 3777211.190233977511525 ], [ 356898.677517802629154, 3777211.495422177016735 ], [ 356899.287894201406743, 3777212.105798575561494 ], [ 356899.287894201406743, 3777212.716174974571913 ], [ 356899.593082400795538, 3777213.021363174077123 ], [ 356899.593082400795538, 3777213.326551373116672 ], [ 356899.898270600184333, 3777213.631739572621882 ], [ 356900.203458799573127, 3777213.631739572621882 ], [ 356900.203458799573127, 3777213.936927772127092 ], [ 356900.508646998961922, 3777214.242115971632302 ], [ 356900.508646998961922, 3777214.547304171137512 ], [ 356901.119023397739511, 3777215.15768056968227 ], [ 356901.119023397739511, 3777215.76805696869269 ], [ 356901.424211597128306, 3777216.073245167732239 ], [ 356901.424211597128306, 3777216.683621566742659 ], [ 356901.119023397739511, 3777216.988809766247869 ], [ 356901.119023397739511, 3777217.293997965287417 ], [ 356900.813835198350716, 3777217.293997965287417 ], [ 356900.508646998961922, 3777217.599186164792627 ], [ 356899.898270600184333, 3777217.599186164792627 ], [ 356899.593082400795538, 3777217.904374364297837 ], [ 356898.067141403851565, 3777217.904374364297837 ] ] ] } },
{ "type": "Feature", "properties": { "confidence": 0.26849862933158875, "class": 1 }, "geometry": { "type": "Polygon", "coordinates": [ [ [ 356956.968463886063546, 3777349.135300101712346 ], [ 356956.968463886063546, 3777348.830111902207136 ], [ 356956.663275686674751, 3777348.524923703167588 ], [ 356956.663275686674751, 3777348.219735503662378 ], [ 356956.358087487285957, 3777347.914547304157168 ], [ 356956.358087487285957, 3777346.388606307096779 ], [ 356956.052899287897162, 3777346.083418108057231 ], [ 356956.358087487285957, 3777345.778229908552021 ], [ 356956.358087487285957, 3777345.167853509541601 ], [ 356956.663275686674751, 3777345.167853509541601 ], [ 356956.968463886063546, 3777344.862665310502052 ], [ 356956.968463886063546, 3777342.726347914431244 ], [ 356957.578840284841135, 3777342.115971515886486 ], [ 356961.546286876895465, 3777342.115971515886486 ], [ 356961.85147507628426, 3777342.421159714926034 ], [ 356961.85147507628426, 3777343.336724313441664 ], [ 356962.156663275673054, 3777343.641912512946874 ], [ 356962.156663275673054, 3777343.947100711986423 ], [ 356963.682604272617027, 3777345.473041709046811 ], [ 356963.682604272617027, 3777346.693794506601989 ], [ 356963.377416073228233, 3777346.998982706107199 ], [ 356963.072227873839438, 3777346.998982706107199 ], [ 356962.767039674450643, 3777347.304170905612409 ], [ 356962.461851475061849, 3777347.304170905612409 ], [ 356962.156663275673054, 3777347.609359104651958 ], [ 356961.85147507628426, 3777347.609359104651958 ], [ 356961.24109867750667, 3777348.219735503662378 ], [ 356960.935910478117876, 3777348.219735503662378 ], [ 356960.630722278729081, 3777348.524923703167588 ], [ 356960.325534079340287, 3777348.524923703167588 ], [ 356959.715157680562697, 3777349.135300101712346 ], [ 356956.968463886063546, 3777349.135300101712346 ] ] ] } }
]
}
