{
"type": "FeatureCollection",
"name": "cell_00088_pre",
"crs": { "type": "name", "properties": { "name": "urn:ogc:def:crs:EPSG::32611" } },
"features": [
{ "type": "Feature", "properties": { "confidence": 0.99848216772079468, "class": 1, "regularized": "rectangle" }, "geometry": { "type": "Polygon", "coordinates": [ [ [ 351015.875, 3770158.0 ], [ 351026.5625, 3770158.0 ], [ 351026.5625, 3770170.0 ], [ 351015.875, 3770170.0 ], [ 351015.875, 3770158.0 ] ] ] } },
{ "type": "Feature", "properties": { "confidence": 0.99777406454086304, "class": 1, "regularized": null }, "geometry": { "type": "Polygon", "coordinates": [ [ [ 351443.743641912529711, 3770351.475076296832412 ], [ 351443.743641912529711, 3770345.37131230905652 ], [ 351444.048830111918505, 3770345.37131230905652 ], [ 351444.3540183113073, 3770345.066124110016972 ], [ 351445.574771108862478, 3770345.066124110016972 ], [ 351445.879959308251273, 3770344.760935910511762 ], [ 351447.71108850458404, 3770344.760935910511762 ], [ 351448.016276703972835, 3770345.066124110016972 ], [ 351448.016276703972835, 3770345.67650050856173 ], [ 351448.32146490336163, 3770345.98168870806694 ], [ 351448.32146490336163, 3770346.592065106611699 ], [ 351448.626653102750424, 3770346.897253306116909 ], [ 351448.626653102750424, 3770347.202441505622119 ], [ 351448.931841302139219, 3770347.507629705127329 ], [ 351448.931841302139219, 3770348.423194303177297 ], [ 351449.237029501528013, 3770348.728382502682507 ], [ 351449.237029501528013, 3770349.949135300237685 ], [ 351448.32146490336163, 3770350.864699898287654 ], [ 351446.490335707028862, 3770350.864699898287654 ], [ 351446.185147507640067, 3770351.169888097792864 ], [ 351445.574771108862478, 3770351.169888097792864 ], [ 351445.269582909473684, 3770351.475076296832412 ], [ 351443.743641912529711, 3770351.475076296832412 ] ] ] } },
{ "type": "Feature", "properties": { "confidence": 0.95011776685714722, "class": 1, "regularized": null }, "geometry": { "type": "Polygon", "coordinates": [ [ [ 351270.396744659228716, 3770118.921668362338096 ], [ 351270.396744659228716, 3770113.733468972612172 ], [ 351270.701932858617511, 3770113.428280773106962 ], [ 351273.143438453727867, 3770113.428280773106962 ], [ 351273.143438453727867, 3770118.311291963327676 ], [ 351272.227873855561484, 3770118.311291963327676 ], [ 351271.922685656172689, 3770118.616480162832886 ], [ 351271.617497456783894, 3770118.616480162832886 ], [ 351271.3123092573951, 3770118.921668362338096 ], [ 351270.396744659228716, 3770118.921668362338096 ] ] ] } },
{ "type": "Feature", "properties": { "confidence": 0.94044643640518188, "class": 1, "regularized": null }, "geometry": { "type": "Polygon", "coordinates": [ [ [ 351341.200406917603686, 3770127.161749745719135 ], [ 351340.895218718214892, 3770126.856561546213925 ], [ 351340.590030518826097, 3770126.856561546213925 ], [ 351340.590030518826097, 3770126.551373346708715 ], [ 351340.284842319437303, 3770126.246185147669166 ], [ 351340.284842319437303, 3770122.88911495404318 ], [ 351340.590030518826097, 3770122.88911495404318 ], [ 351340.895218718214892, 3770122.583926755003631 ], [ 351343.336724313325249, 3770122.583926755003631 ], [ 351343.336724313325249, 3770122.88911495404318 ], [ 351343.641912512714043, 3770123.19430315354839 ], [ 351343.641912512714043, 3770123.4994913530536 ], [ 351343.947100712102838, 3770123.80467955255881 ], [ 351343.947100712102838, 3770124.415055951103568 ], [ 351344.557477110880427, 3770125.025432350113988 ], [ 351344.557477110880427, 3770125.635808748658746 ], [ 351344.862665310269222, 3770125.940996948163956 ], [ 351344.862665310269222, 3770126.551373346708715 ], [ 351344.557477110880427, 3770126.856561546213925 ], [ 351343.031536113936454, 3770126.856561546213925 ], [ 351342.726347914547659, 3770127.161749745719135 ], [ 351341.200406917603686, 3770127.161749745719135 ] ] ] } },
{ "type": "Feature", "properties": { "confidence": 0.93737274408340454, "class": 1, "regularized": null }, "geometry": { "type": "Polygon", "coordinates": [ [ [ 351354.018311291991267, 3770042.624618514906615 ], [ 351353.713123092602473, 3770042.319430315401405 ], [ 351353.102746693766676, 3770042.319430315401405 ], [ 351353.102746693766676, 3770042.014242115896195 ], [ 351352.492370294989087, 3770041.403865717351437 ], [ 351352.492370294989087, 3770034.689725330565125 ], [ 351352.797558494377881, 3770034.384537131059915 ], [ 351352.797558494377881, 3770032.858596134465188 ], [ 351353.102746693766676, 3770032.553407934959978 ], [ 351353.102746693766676, 3770031.943031535949558 ], [ 351353.713123092602473, 3770031.332655137404799 ], [ 351356.459816887101624, 3770031.332655137404799 ], [ 351356.765005086490419, 3770031.637843336910009 ], [ 351358.596134282823186, 3770031.637843336910009 ], [ 351358.901322482211981, 3770031.943031535949558 ], [ 351359.206510681600776, 3770031.943031535949558 ], [ 351359.51169888098957, 3770032.248219735454768 ], [ 351359.816887080378365, 3770032.248219735454768 ], [ 351359.816887080378365, 3770032.553407934959978 ], [ 351360.427263479155954, 3770033.163784333504736 ], [ 351361.342828077322338, 3770033.163784333504736 ], [ 351361.342828077322338, 3770033.468972533009946 ], [ 351361.648016276711132, 3770033.774160732515156 ], [ 351361.953204476099927, 3770033.774160732515156 ], [ 351361.953204476099927, 3770034.689725330565125 ], [ 351362.258392675488722, 3770034.994913530070335 ], [ 351362.258392675488722, 3770035.910478128120303 ], [ 351361.953204476099927, 3770036.215666327625513 ], [ 351361.953204476099927, 3770038.35198372323066 ], [ 351361.648016276711132, 3770038.65717192273587 ], [ 351361.648016276711132, 3770038.96236012224108 ], [ 351361.037639877933543, 3770039.572736520785838 ], [ 351361.037639877933543, 3770039.877924720291048 ], [ 351360.122075279767159, 3770040.793489318341017 ], [ 351360.122075279767159, 3770041.098677517846227 ], [ 351359.816887080378365, 3770041.098677517846227 ], [ 351359.206510681600776, 3770041.709053916390985 ], [ 351358.901322482211981, 3770041.709053916390985 ], [ 351358.596134282823186, 3770042.014242115896195 ], [ 351357.985757884045597, 3770042.014242115896195 ], [ 351357.680569684656803, 3770042.319430315401405 ], [ 351356.15462868771283, 3770042.319430315401405 ], [ 351355.849440488324035, 3770042.624618514906615 ], [ 351354.018311291991267, 3770042.624618514906615 ] ] ] } },
{ "type": "Feature", "properties": { "confidence": 0.93244904279708862, "class": 1, "regularized": null }, "geometry": { "type": "Polygon", "coordinates": [ [ [ 351022.278738555440214, 3770044.760935910511762 ], [ 351021.973550356051419, 3770044.455747711006552 ], [ 351021.668362156662624, 3770044.455747711006552 ], [ 351021.36317395727383, 3770044.150559511501342 ], [ 351020.752797558496241, 3770044.150559511501342 ], [ 351020.447609359107446, 3770043.845371312461793 ], [ 351020.142421159718651, 3770043.845371312461793 ], [ 351019.837232960329857, 3770043.540183112956583 ], [ 351019.226856561552268, 3770043.540183112956583 ], [ 351018.921668362163473, 3770043.234994913451374 ], [ 351018.616480162774678, 3770043.234994913451374 ], [ 351018.311291963385884, 3770042.929806713946164 ], [ 351017.3957273652195, 3770042.929806713946164 ], [ 351017.090539165830705, 3770042.624618514906615 ], [ 351016.785350966441911, 3770042.624618514906615 ], [ 351016.480162767053116, 3770042.319430315401405 ], [ 351016.480162767053116, 3770042.014242115896195 ], [ 351016.785350966441911, 3770041.709053916390985 ], [ 351016.785350966441911, 3770037.741607324685901 ], [ 351017.090539165830705, 3770037.436419125180691 ], [ 351017.090539165830705, 3770036.826042726170272 ], [ 351017.3957273652195, 3770036.520854527130723 ], [ 351017.700915564608295, 3770036.520854527130723 ], [ 351018.006103763997089, 3770036.215666327625513 ], [ 351018.311291963385884, 3770036.215666327625513 ], [ 351018.616480162774678, 3770035.910478128120303 ], [ 351018.616480162774678, 3770035.605289928615093 ], [ 351018.921668362163473, 3770035.605289928615093 ], [ 351019.226856561552268, 3770035.300101729575545 ], [ 351020.142421159718651, 3770035.300101729575545 ], [ 351020.447609359107446, 3770035.605289928615093 ], [ 351021.973550356051419, 3770035.605289928615093 ], [ 351022.278738555440214, 3770035.910478128120303 ], [ 351022.889114954217803, 3770035.910478128120303 ], [ 351023.194303153606597, 3770036.215666327625513 ], [ 351024.109867751772981, 3770036.215666327625513 ], [ 351024.415055951161776, 3770036.520854527130723 ], [ 351025.635808748716954, 3770036.520854527130723 ], [ 351026.246185147494543, 3770037.131230925675482 ], [ 351026.246185147494543, 3770038.65717192273587 ], [ 351025.940996948105749, 3770038.96236012224108 ], [ 351025.940996948105749, 3770040.183112919796258 ], [ 351025.635808748716954, 3770040.488301118835807 ], [ 351025.635808748716954, 3770041.098677517846227 ], [ 351025.33062054932816, 3770041.403865717351437 ], [ 351025.33062054932816, 3770042.319430315401405 ], [ 351025.025432349939365, 3770042.624618514906615 ], [ 351025.025432349939365, 3770043.845371312461793 ], [ 351024.415055951161776, 3770044.455747711006552 ], [ 351024.415055951161776, 3770044.760935910511762 ], [ 351022.278738555440214, 3770044.760935910511762 ] ] ] } },
{ "type": "Feature", "properties": { "confidence": 0.91270679235458374, "class": 1, "regularized": null }, "geometry": { "type": "Polygon", "coordinates": [ [ [ 351204.476093591074459, 3769995.320447609294206 ], [ 351204.170905391685665, 3769995.015259409788996 ], [ 351203.86571719229687, 3769995.015259409788996 ], [ 351203.86571719229687, 3769993.184130213689059 ], [ 351204.170905391685665, 3769992.878942014183849 ], [ 351204.170905391685665, 3769992.268565615639091 ], [ 351204.476093591074459, 3769991.963377416133881 ], [ 351204.476093591074459, 3769991.353001017123461 ], [ 351204.781281790463254, 3769991.047812818083912 ], [ 351204.781281790463254, 3769990.132248219568282 ], [ 351205.086469989852048, 3769989.827060020528734 ], [ 351205.696846388629638, 3769989.827060020528734 ], [ 351206.002034588018432, 3769989.521871821023524 ], [ 351213.631739572738297, 3769989.521871821023524 ], [ 351213.936927772127092, 3769989.827060020528734 ], [ 351216.378433367237449, 3769989.827060020528734 ], [ 351216.683621566626243, 3769990.132248219568282 ], [ 351216.683621566626243, 3769990.742624618578702 ], [ 351217.599186164792627, 3769991.658189216628671 ], [ 351219.430315361125395, 3769991.658189216628671 ], [ 351219.735503560514189, 3769991.963377416133881 ], [ 351219.735503560514189, 3769992.268565615639091 ], [ 351220.040691759902984, 3769992.573753814678639 ], [ 351220.651068158680573, 3769992.573753814678639 ], [ 351220.956256358069368, 3769992.878942014183849 ], [ 351220.956256358069368, 3769993.184130213689059 ], [ 351221.261444557458162, 3769993.489318413194269 ], [ 351221.261444557458162, 3769994.404883011244237 ], [ 351220.956256358069368, 3769994.404883011244237 ], [ 351220.651068158680573, 3769994.710071210749447 ], [ 351213.326551373349503, 3769994.710071210749447 ], [ 351213.021363173960708, 3769995.015259409788996 ], [ 351208.443540183128789, 3769995.015259409788996 ], [ 351208.138351983739994, 3769995.320447609294206 ], [ 351204.476093591074459, 3769995.320447609294206 ] ] ] } },
{ "type": "Feature", "properties": { "confidence": 0.88306361436843872, "class": 1, "regularized": null }, "geometry": { "type": "Polygon", "coordinates": [ [ [ 351361.648016276711132, 3770141.505595116876066 ], [ 351361.342828077322338, 3770141.200406917370856 ], [ 351360.122075279767159, 3770141.200406917370856 ], [ 351359.816887080378365, 3770140.895218718331307 ], [ 351359.51169888098957, 3770140.895218718331307 ], [ 351359.51169888098957, 3770140.590030518826097 ], [ 351359.206510681600776, 3770140.284842319320887 ], [ 351359.206510681600776, 3770139.674465920776129 ], [ 351359.51169888098957, 3770139.369277721270919 ], [ 351359.51169888098957, 3770138.14852492371574 ], [ 351359.816887080378365, 3770137.843336724210531 ], [ 351359.816887080378365, 3770136.622583926655352 ], [ 351360.427263479155954, 3770136.012207528110594 ], [ 351360.427263479155954, 3770134.791454730555415 ], [ 351360.732451678544749, 3770134.486266531050205 ], [ 351360.732451678544749, 3770132.655137334484607 ], [ 351361.037639877933543, 3770132.349949135445058 ], [ 351361.342828077322338, 3770132.349949135445058 ], [ 351361.648016276711132, 3770132.044760935939848 ], [ 351361.953204476099927, 3770132.044760935939848 ], [ 351362.258392675488722, 3770132.349949135445058 ], [ 351362.563580874877516, 3770132.349949135445058 ], [ 351362.868769074266311, 3770132.655137334484607 ], [ 351363.173957273655105, 3770132.655137334484607 ], [ 351364.089521871821489, 3770133.570701933000237 ], [ 351364.089521871821489, 3770133.875890132039785 ], [ 351364.394710071210284, 3770134.181078331544995 ], [ 351364.699898270599078, 3770134.181078331544995 ], [ 351364.699898270599078, 3770140.284842319320887 ], [ 351364.394710071210284, 3770140.590030518826097 ], [ 351364.394710071210284, 3770141.505595116876066 ], [ 351361.648016276711132, 3770141.505595116876066 ] ] ] } },
{ "type": "Feature", "properties": { "confidence": 0.73675471544265747, "class": 1, "regularized": null }, "geometry": { "type": "Polygon", "coordinates": [ [ [ 351506.307222787407227, 3769942.828077314421535 ], [ 351506.002034588018432, 3769942.522889114916325 ], [ 351505.391658189240843, 3769942.522889114916325 ], [ 351504.781281790463254, 3769941.912512716371566 ], [ 351504.476093591074459, 3769941.912512716371566 ], [ 351503.560528992908075, 3769940.996948117855936 ], [ 351503.255340793461073, 3769940.996948117855936 ], [ 351502.950152594072279, 3769940.691759918816388 ], [ 351502.950152594072279, 3769940.386571719311178 ], [ 351501.7293997965171, 3769939.165818921755999 ], [ 351501.7293997965171, 3769938.860630722250789 ], [ 351501.424211597128306, 3769938.555442522745579 ], [ 351501.424211597128306, 3769938.250254323706031 ], [ 351501.119023397739511, 3769937.945066124200821 ], [ 351501.119023397739511, 3769937.639877924695611 ], [ 351500.813835198350716, 3769937.334689725190401 ], [ 351500.813835198350716, 3769936.419125127140433 ], [ 351501.119023397739511, 3769936.419125127140433 ], [ 351501.424211597128306, 3769936.113936927635223 ], [ 351501.7293997965171, 3769936.419125127140433 ], [ 351502.644964394683484, 3769936.419125127140433 ], [ 351502.644964394683484, 3769936.724313326645643 ], [ 351502.950152594072279, 3769937.029501526150852 ], [ 351504.476093591074459, 3769937.029501526150852 ], [ 351505.086469989852048, 3769937.639877924695611 ], [ 351505.696846388629638, 3769937.639877924695611 ], [ 351506.002034588018432, 3769937.945066124200821 ], [ 351506.307222787407227, 3769937.945066124200821 ], [ 351506.612410986796021, 3769938.250254323706031 ], [ 351506.917599186184816, 3769938.250254323706031 ], [ 351506.917599186184816, 3769938.555442522745579 ], [ 351508.443540183128789, 3769940.081383519805968 ], [ 351508.443540183128789, 3769940.386571719311178 ], [ 351508.748728382517584, 3769940.691759918816388 ], [ 351508.748728382517584, 3769940.996948117855936 ], [ 351509.053916581906378, 3769941.302136317361146 ], [ 351509.053916581906378, 3769941.607324516866356 ], [ 351509.359104781295173, 3769941.912512716371566 ], [ 351509.359104781295173, 3769942.522889114916325 ], [ 351509.053916581906378, 3769942.522889114916325 ], [ 351508.748728382517584, 3769942.828077314421535 ], [ 351506.307222787407227, 3769942.828077314421535 ] ] ] } },
{ "type": "Feature", "properties": { "confidence": 0.69195383787155151, "class": 1, "regularized": null }, "geometry": { "type": "Polygon", "coordinates": [ [ [ 351004.272634791443124, 3770165.005086469929665 ], [ 351003.96744659205433, 3770164.699898270424455 ], [ 351003.662258392665535, 3770164.699898270424455 ], [ 351003.357070193276741, 3770164.394710071384907 ], [ 351003.357070193276741, 3770164.089521871879697 ], [ 351003.662258392665535, 3770163.784333672374487 ], [ 351003.662258392665535, 3770163.479145472869277 ], [ 351003.96744659205433, 3770163.173957273829728 ], [ 351003.96744659205433, 3770162.563580874819309 ], [ 351004.577822990831919, 3770161.95320447627455 ], [ 351004.577822990831919, 3770161.64801627676934 ], [ 351004.883011190220714, 3770161.34282807726413 ], [ 351004.883011190220714, 3770161.03763987775892 ], [ 351005.188199389609508, 3770160.732451678719372 ], [ 351005.188199389609508, 3770159.816887080203742 ], [ 351005.493387588998303, 3770159.511698881164193 ], [ 351005.493387588998303, 3770158.596134282648563 ], [ 351006.103763987775892, 3770157.985757884103805 ], [ 351007.32451678533107, 3770157.985757884103805 ], [ 351007.629704984719865, 3770158.290946083609015 ], [ 351008.850457782275043, 3770158.290946083609015 ], [ 351009.460834181052633, 3770158.901322482153773 ], [ 351009.766022380441427, 3770158.901322482153773 ], [ 351009.766022380441427, 3770159.816887080203742 ], [ 351009.460834181052633, 3770160.122075279708952 ], [ 351009.460834181052633, 3770160.732451678719372 ], [ 351008.850457782275043, 3770161.34282807726413 ], [ 351008.850457782275043, 3770161.95320447627455 ], [ 351008.545269582886249, 3770162.258392675314099 ], [ 351008.545269582886249, 3770162.563580874819309 ], [ 351008.240081383497454, 3770162.868769074324518 ], [ 351008.240081383497454, 3770163.784333672374487 ], [ 351007.93489318410866, 3770164.089521871879697 ], [ 351007.93489318410866, 3770164.394710071384907 ], [ 351007.629704984719865, 3770164.699898270424455 ], [ 351007.32451678533107, 3770164.699898270424455 ], [ 351007.019328585942276, 3770165.005086469929665 ], [ 351004.272634791443124, 3770165.005086469929665 ] ] ] } },
{ "type": "Feature", "properties": { "confidence": 0.63787806034088135, "class": 1, "regularized": null }, "geometry": { "type": "Polygon", "coordinates": [ [ [ 351347.609359104768373, 3770135.401831129100174 ], [ 351347.304170905379578, 3770135.096642929594964 ], [ 351346.998982705990784, 3770135.096642929594964 ], [ 351346.998982705990784, 3770133.265513733495027 ], [ 351346.693794506601989, 3770132.960325533989817 ], [ 351346.693794506601989, 3770130.51881993887946 ], [ 351346.998982705990784, 3770130.21363173937425 ], [ 351347.609359104768373, 3770130.21363173937425 ], [ 351347.914547304157168, 3770130.51881993887946 ], [ 351348.830111902323551, 3770130.51881993887946 ], [ 351349.135300101712346, 3770130.82400813838467 ], [ 351350.05086469987873, 3770130.82400813838467 ], [ 351350.356052899267524, 3770131.12919633788988 ], [ 351350.356052899267524, 3770132.349949135445058 ], [ 351350.05086469987873, 3770132.655137334484607 ], [ 351350.05086469987873, 3770132.960325533989817 ], [ 351349.745676500489935, 3770133.265513733495027 ], [ 351349.745676500489935, 3770135.096642929594964 ], [ 351348.524923702934757, 3770135.096642929594964 ], [ 351348.219735503545962, 3770135.401831129100174 ], [ 351347.609359104768373, 3770135.401831129100174 ] ] ] } },
{ "type": "Feature", "properties": { "confidence": 0.53203362226486206, "class": 1, "regularized": null }, "geometry": { "type": "Polygon", "coordinates": [ [ [ 351424.211597151588649, 3770073.753814852330834 ], [ 351423.906408952199854, 3770073.448626653291285 ], [ 351423.296032553422265, 3770073.448626653291285 ], [ 351422.075279755867086, 3770072.227873855736107 ], [ 351422.075279755867086, 3770071.922685656230897 ], [ 351421.464903357089497, 3770071.312309257220477 ], [ 351421.464903357089497, 3770071.007121058180928 ], [ 351421.159715157700703, 3770070.701932858675718 ], [ 351421.159715157700703, 3770069.48118006112054 ], [ 351420.854526958311908, 3770069.17599186161533 ], [ 351420.854526958311908, 3770066.124109867960215 ], [ 351421.159715157700703, 3770065.818921668455005 ], [ 351422.075279755867086, 3770065.818921668455005 ], [ 351422.380467955255881, 3770065.513733468949795 ], [ 351423.296032553422265, 3770065.513733468949795 ], [ 351423.601220752811059, 3770065.208545269444585 ], [ 351424.211597151588649, 3770065.208545269444585 ], [ 351424.516785350977443, 3770065.513733468949795 ], [ 351424.821973550366238, 3770065.513733468949795 ], [ 351425.127161749755032, 3770065.818921668455005 ], [ 351425.432349949143827, 3770065.818921668455005 ], [ 351425.737538148532622, 3770066.124109867960215 ], [ 351426.347914547310211, 3770066.124109867960215 ], [ 351426.347914547310211, 3770066.429298066999763 ], [ 351426.9582909460878, 3770067.039674466010183 ], [ 351427.263479145476595, 3770067.039674466010183 ], [ 351427.263479145476595, 3770067.650050864554942 ], [ 351427.568667344865389, 3770067.955239064060152 ], [ 351427.568667344865389, 3770068.260427263565361 ], [ 351427.873855544254184, 3770068.565615463070571 ], [ 351427.873855544254184, 3770071.922685656230897 ], [ 351427.568667344865389, 3770072.227873855736107 ], [ 351427.568667344865389, 3770072.533062054775655 ], [ 351427.263479145476595, 3770072.533062054775655 ], [ 351426.9582909460878, 3770072.838250254280865 ], [ 351426.9582909460878, 3770073.143438453786075 ], [ 351426.347914547310211, 3770073.753814852330834 ], [ 351424.211597151588649, 3770073.753814852330834 ] ] ] } },
{ "type": "Feature", "properties": { "confidence": 0.43140044808387756, "class": 1, "regularized": null }, "geometry": { "type": "Polygon", "coordinates": [ [ [ 351503.86571719229687, 3770171.719226856715977 ], [ 351503.560528992908075, 3770171.414038657210767 ], [ 351503.255340793461073, 3770171.414038657210767 ], [ 351502.950152594072279, 3770171.108850457705557 ], [ 351499.287894201406743, 3770171.108850457705557 ], [ 351499.287894201406743, 3770168.056968464050442 ], [ 351499.593082400795538, 3770167.751780264545232 ], [ 351499.593082400795538, 3770163.784333672374487 ], [ 351499.898270600184333, 3770163.479145472869277 ], [ 351499.898270600184333, 3770162.868769074324518 ], [ 351500.203458799573127, 3770162.563580874819309 ], [ 351500.203458799573127, 3770161.95320447627455 ], [ 351500.508646998961922, 3770161.64801627676934 ], [ 351500.508646998961922, 3770160.427263479214162 ], [ 351500.813835198350716, 3770160.122075279708952 ], [ 351500.813835198350716, 3770159.816887080203742 ], [ 351501.119023397739511, 3770159.511698881164193 ], [ 351504.170905391685665, 3770159.511698881164193 ], [ 351504.476093591074459, 3770159.816887080203742 ], [ 351504.476093591074459, 3770162.258392675314099 ], [ 351504.781281790463254, 3770162.563580874819309 ], [ 351504.781281790463254, 3770163.173957273829728 ], [ 351505.086469989852048, 3770163.479145472869277 ], [ 351505.086469989852048, 3770166.836215666495264 ], [ 351505.391658189240843, 3770167.141403865534812 ], [ 351505.391658189240843, 3770171.108850457705557 ], [ 351504.781281790463254, 3770171.719226856715977 ], [ 351503.86571719229687, 3770171.719226856715977 ] ] ] } },
{ "type": "Feature", "properties": { "confidence": 0.42408102750778198, "class": 1, "regularized": null }, "geometry": { "type": "Polygon", "coordinates": [ [ [ 351465.71719226858113, 3770161.95320447627455 ], [ 351465.412004069192335, 3770161.64801627676934 ], [ 351464.801627670414746, 3770161.64801627676934 ], [ 351464.191251271637157, 3770161.03763987775892 ], [ 351464.191251271637157, 3770160.732451678719372 ], [ 351463.580874872859567, 3770160.122075279708952 ], [ 351463.580874872859567, 3770159.816887080203742 ], [ 351462.970498474081978, 3770159.206510681658983 ], [ 351462.970498474081978, 3770157.070193286053836 ], [ 351465.10681586980354, 3770157.070193286053836 ], [ 351465.412004069192335, 3770157.375381485093385 ], [ 351465.71719226858113, 3770157.375381485093385 ], [ 351466.327568667358719, 3770157.985757884103805 ], [ 351467.548321464913897, 3770157.985757884103805 ], [ 351467.853509664302692, 3770158.290946083609015 ], [ 351467.853509664302692, 3770158.596134282648563 ], [ 351468.158697863691486, 3770158.901322482153773 ], [ 351468.158697863691486, 3770161.64801627676934 ], [ 351467.853509664302692, 3770161.95320447627455 ], [ 351465.71719226858113, 3770161.95320447627455 ] ] ] } },
{ "type": "Feature", "properties": { "confidence": 0.37260201573371887, "class": 1, "regularized": null }, "geometry": { "type": "Polygon", "coordinates": [ [ [ 351433.367243133252487, 3770372.227873855736107 ], [ 351433.062054933863692, 3770371.922685656230897 ], [ 351433.062054933863692, 3770371.617497456725687 ], [ 351431.841302136308514, 3770370.396744659170508 ], [ 351431.841302136308514, 3770370.091556459665298 ], [ 351431.536113936919719, 3770369.78636826062575 ], [ 351431.230925737530924, 3770369.78636826062575 ], [ 351431.230925737530924, 3770369.48118006112054 ], [ 351430.620549338753335, 3770368.87080366211012 ], [ 351430.620549338753335, 3770368.565615463070571 ], [ 351430.315361139364541, 3770368.260427263565361 ], [ 351430.315361139364541, 3770367.955239064060152 ], [ 351430.010172939975746, 3770367.650050864554942 ], [ 351430.010172939975746, 3770366.734486266504973 ], [ 351430.315361139364541, 3770366.429298066999763 ], [ 351430.315361139364541, 3770366.124109867960215 ], [ 351430.620549338753335, 3770366.124109867960215 ], [ 351430.92573753814213, 3770365.818921668455005 ], [ 351431.230925737530924, 3770365.818921668455005 ], [ 351431.536113936919719, 3770365.513733468949795 ], [ 351431.841302136308514, 3770365.513733468949795 ], [ 351432.146490335697308, 3770365.208545269444585 ], [ 351432.451678535086103, 3770365.208545269444585 ], [ 351432.756866734474897, 3770364.903357070405036 ], [ 351433.367243133252487, 3770364.903357070405036 ], [ 351434.28280773141887, 3770363.987792471889406 ], [ 351435.808748728362843, 3770363.987792471889406 ], [ 351436.419125127140433, 3770364.598168870899826 ], [ 351436.419125127140433, 3770364.903357070405036 ], [ 351437.029501525918022, 3770365.513733468949795 ], [ 351437.029501525918022, 3770366.124109867960215 ], [ 351435.808748728362843, 3770367.344862665515393 ], [ 351435.808748728362843, 3770367.650050864554942 ], [ 351435.503560528974049, 3770367.955239064060152 ], [ 351435.503560528974049, 3770371.922685656230897 ], [ 351435.198372329585254, 3770371.922685656230897 ], [ 351434.89318413019646, 3770372.227873855736107 ], [ 351433.367243133252487, 3770372.227873855736107 ] ] ] } },
{ "type": "Feature", "properties": { "confidence": 0.34927701950073242, "class": 1, "regularized": null }, "geometry": { "type": "Polygon", "coordinates": [ [ [ 351440.996948118030559, 3770012.105798575561494 ], [ 351440.691759918641765, 3770011.800610376521945 ], [ 351439.471007121086586, 3770011.800610376521945 ], [ 351439.165818921639584, 3770011.495422177016735 ], [ 351438.555442522861995, 3770011.495422177016735 ], [ 351438.555442522861995, 3770011.190233977511525 ], [ 351438.2502543234732, 3770010.885045778006315 ], [ 351438.2502543234732, 3770010.579857578966767 ], [ 351437.945066124084406, 3770010.274669379461557 ], [ 351437.945066124084406, 3770009.664292980451137 ], [ 351446.185147507640067, 3770009.664292980451137 ], [ 351446.185147507640067, 3770009.969481179956347 ], [ 351445.879959308251273, 3770010.274669379461557 ], [ 351445.879959308251273, 3770010.885045778006315 ], [ 351445.574771108862478, 3770011.190233977511525 ], [ 351444.964394710084889, 3770011.190233977511525 ], [ 351444.659206510696094, 3770011.495422177016735 ], [ 351444.048830111918505, 3770011.495422177016735 ], [ 351443.743641912529711, 3770011.800610376521945 ], [ 351442.217700915585738, 3770011.800610376521945 ], [ 351441.912512716196943, 3770012.105798575561494 ], [ 351440.996948118030559, 3770012.105798575561494 ] ] ] } },
{ "type": "Feature", "properties": { "confidence": 0.32811447978019714, "class": 1, "regularized": null }, "geometry": { "type": "Polygon", "coordinates": [ [ [ 351273.143438453727867, 3770175.381485249381512 ], [ 351272.838250254339073, 3770175.076297049876302 ], [ 351272.533062054950278, 3770175.076297049876302 ], [ 351272.227873855561484, 3770174.771108850371093 ], [ 351271.617497456783894, 3770174.771108850371093 ], [ 351270.701932858617511, 3770173.855544252321124 ], [ 351270.701932858617511, 3770173.550356052815914 ], [ 351270.396744659228716, 3770173.245167853310704 ], [ 351270.396744659228716, 3770172.939979654271156 ], [ 351270.091556459839921, 3770172.634791454765946 ], [ 351270.091556459839921, 3770172.329603255260736 ], [ 351269.786368260451127, 3770172.024415055755526 ], [ 351269.786368260451127, 3770171.719226856715977 ], [ 351269.481180061062332, 3770171.414038657210767 ], [ 351269.481180061062332, 3770170.803662258200347 ], [ 351269.175991861673538, 3770170.498474059160799 ], [ 351269.175991861673538, 3770170.193285859655589 ], [ 351268.870803662284743, 3770169.888097660150379 ], [ 351268.870803662284743, 3770169.27772126160562 ], [ 351268.565615462895948, 3770168.97253306210041 ], [ 351268.565615462895948, 3770166.225839267484844 ], [ 351268.870803662284743, 3770165.920651067979634 ], [ 351270.396744659228716, 3770165.920651067979634 ], [ 351272.533062054950278, 3770163.784333672374487 ], [ 351273.143438453727867, 3770163.784333672374487 ], [ 351273.143438453727867, 3770175.381485249381512 ] ] ] } },
{ "type": "Feature", "properties": { "confidence": 0.32478636503219604, "class": 1, "regularized": null }, "geometry": { "type": "Polygon", "coordinates": [ [ [ 351470.600203458801843, 3770247.100712105631828 ], [ 351469.989827060024254, 3770246.49033570708707 ], [ 351469.989827060024254, 3770246.18514750758186 ], [ 351469.379450661246665, 3770245.574771109037101 ], [ 351469.379450661246665, 3770244.048830111976713 ], [ 351473.652085452689789, 3770244.048830111976713 ], [ 351473.652085452689789, 3770245.87995930807665 ], [ 351472.431332655134611, 3770247.100712105631828 ], [ 351470.600203458801843, 3770247.100712105631828 ] ] ] } }
]
}
