{
"type": "FeatureCollection",
"name": "cell_00361_pre",
"crs": { "type": "name", "properties": { "name": "urn:ogc:def:crs:EPSG::32611" } },
"features": [
{ "type": "Feature", "properties": { "confidence": 0.95961678028106689, "class": 1 }, "geometry": { "type": "Polygon", "coordinates": [ [ [ 394855.849440488324035, 3786256.052899288013577 ], [ 394855.54425228893524, 3786255.747711088508368 ], [ 394855.239064089546446, 3786255.747711088508368 ], [ 394854.628687690768857, 3786255.137334689497948 ], [ 394854.628687690768857, 3786254.832146490458399 ], [ 394854.323499491380062, 3786254.526958290953189 ], [ 394854.323499491380062, 3786253.916581891942769 ], [ 394854.628687690768857, 3786253.611393692903221 ], [ 394854.628687690768857, 3786253.001017293892801 ], [ 394855.849440488324035, 3786251.780264496337622 ], [ 394856.15462868771283, 3786251.780264496337622 ], [ 394857.070193285879213, 3786250.864699898287654 ], [ 394857.375381485268008, 3786250.864699898287654 ], [ 394857.985757884045597, 3786250.254323499277234 ], [ 394858.290946083434392, 3786250.254323499277234 ], [ 394858.596134282823186, 3786249.949135300237685 ], [ 394858.596134282823186, 3786249.643947100732476 ], [ 394859.206510681600776, 3786249.033570701722056 ], [ 394859.51169888098957, 3786249.033570701722056 ], [ 394859.816887080378365, 3786248.728382502682507 ], [ 394861.342828077322338, 3786248.728382502682507 ], [ 394861.648016276711132, 3786248.423194303177297 ], [ 394861.953204476099927, 3786248.423194303177297 ], [ 394862.258392675488722, 3786248.728382502682507 ], [ 394862.563580874877516, 3786248.728382502682507 ], [ 394862.563580874877516, 3786250.864699898287654 ], [ 394861.953204476099927, 3786251.475076296832412 ], [ 394861.953204476099927, 3786251.780264496337622 ], [ 394861.648016276711132, 3786252.085452695842832 ], [ 394861.648016276711132, 3786252.390640895348042 ], [ 394861.342828077322338, 3786252.695829094387591 ], [ 394861.342828077322338, 3786253.001017293892801 ], [ 394860.122075279767159, 3786254.221770091447979 ], [ 394860.122075279767159, 3786254.526958290953189 ], [ 394859.206510681600776, 3786255.442522889003158 ], [ 394858.901322482211981, 3786255.442522889003158 ], [ 394858.596134282823186, 3786255.747711088508368 ], [ 394858.290946083434392, 3786255.747711088508368 ], [ 394857.985757884045597, 3786256.052899288013577 ], [ 394855.849440488324035, 3786256.052899288013577 ] ] ] } },
{ "type": "Feature", "properties": { "confidence": 0.95314455032348633, "class": 1 }, "geometry": { "type": "Polygon", "coordinates": [ [ [ 394917.802644964365754, 3786142.828077314421535 ], [ 394917.49745676497696, 3786142.522889114916325 ], [ 394917.192268565588165, 3786142.522889114916325 ], [ 394917.192268565588165, 3786134.587995931040496 ], [ 394917.49745676497696, 3786134.587995931040496 ], [ 394917.802644964365754, 3786134.282807731535286 ], [ 394918.413021363201551, 3786134.282807731535286 ], [ 394918.718209562590346, 3786134.587995931040496 ], [ 394919.63377416075673, 3786134.587995931040496 ], [ 394919.938962360145524, 3786134.893184130080044 ], [ 394920.244150559534319, 3786134.893184130080044 ], [ 394920.854526958311908, 3786135.503560529090464 ], [ 394920.854526958311908, 3786135.808748728595674 ], [ 394921.770091556478292, 3786136.724313326645643 ], [ 394922.075279755867086, 3786136.724313326645643 ], [ 394922.685656154644676, 3786137.334689725190401 ], [ 394923.296032553422265, 3786137.334689725190401 ], [ 394923.296032553422265, 3786137.639877924695611 ], [ 394923.601220752811059, 3786137.945066124200821 ], [ 394923.601220752811059, 3786138.250254323706031 ], [ 394923.296032553422265, 3786138.555442522745579 ], [ 394923.296032553422265, 3786139.165818921755999 ], [ 394922.99084435403347, 3786139.471007121261209 ], [ 394922.99084435403347, 3786139.776195320300758 ], [ 394922.685656154644676, 3786140.081383519805968 ], [ 394922.685656154644676, 3786140.386571719311178 ], [ 394922.380467955255881, 3786140.691759918816388 ], [ 394922.380467955255881, 3786140.996948117855936 ], [ 394922.075279755867086, 3786141.302136317361146 ], [ 394922.075279755867086, 3786141.607324516866356 ], [ 394921.770091556478292, 3786141.912512716371566 ], [ 394921.159715157700703, 3786141.912512716371566 ], [ 394920.854526958311908, 3786142.217700915411115 ], [ 394919.938962360145524, 3786142.217700915411115 ], [ 394919.328585961367935, 3786142.828077314421535 ], [ 394917.802644964365754, 3786142.828077314421535 ] ] ] } },
{ "type": "Feature", "properties": { "confidence": 0.90977472066879272, "class": 1 }, "geometry": { "type": "Polygon", "coordinates": [ [ [ 394918.107833163812757, 3786143.133265513926744 ], [ 394917.802644964365754, 3786142.828077314421535 ], [ 394915.055951169866603, 3786142.828077314421535 ], [ 394914.750762970477808, 3786142.522889114916325 ], [ 394912.919633774145041, 3786142.522889114916325 ], [ 394912.614445574756246, 3786142.217700915411115 ], [ 394912.004069175978657, 3786142.217700915411115 ], [ 394911.698880976589862, 3786141.912512716371566 ], [ 394911.393692777201068, 3786141.912512716371566 ], [ 394911.088504577812273, 3786141.607324516866356 ], [ 394911.088504577812273, 3786141.302136317361146 ], [ 394910.783316378423478, 3786140.996948117855936 ], [ 394910.783316378423478, 3786138.250254323706031 ], [ 394911.088504577812273, 3786137.945066124200821 ], [ 394911.088504577812273, 3786136.113936927635223 ], [ 394910.783316378423478, 3786135.808748728595674 ], [ 394910.783316378423478, 3786134.282807731535286 ], [ 394911.088504577812273, 3786133.977619532030076 ], [ 394914.750762970477808, 3786133.977619532030076 ], [ 394915.055951169866603, 3786134.282807731535286 ], [ 394916.276703967421781, 3786134.282807731535286 ], [ 394916.581892166810576, 3786134.587995931040496 ], [ 394918.107833163812757, 3786134.587995931040496 ], [ 394918.413021363201551, 3786134.893184130080044 ], [ 394919.328585961367935, 3786134.893184130080044 ], [ 394920.244150559534319, 3786135.808748728595674 ], [ 394920.244150559534319, 3786136.113936927635223 ], [ 394921.464903357089497, 3786137.334689725190401 ], [ 394922.075279755867086, 3786137.334689725190401 ], [ 394922.99084435403347, 3786138.250254323706031 ], [ 394922.99084435403347, 3786138.860630722250789 ], [ 394922.685656154644676, 3786139.165818921755999 ], [ 394922.685656154644676, 3786140.386571719311178 ], [ 394922.380467955255881, 3786140.691759918816388 ], [ 394922.380467955255881, 3786141.302136317361146 ], [ 394922.075279755867086, 3786141.607324516866356 ], [ 394922.075279755867086, 3786141.912512716371566 ], [ 394921.770091556478292, 3786142.217700915411115 ], [ 394921.159715157700703, 3786142.217700915411115 ], [ 394920.854526958311908, 3786142.522889114916325 ], [ 394920.244150559534319, 3786142.522889114916325 ], [ 394919.938962360145524, 3786142.828077314421535 ], [ 394918.413021363201551, 3786142.828077314421535 ], [ 394918.107833163812757, 3786143.133265513926744 ] ] ] } },
{ "type": "Feature", "properties": { "confidence": 0.89218586683273315, "class": 1 }, "geometry": { "type": "Polygon", "coordinates": [ [ [ 395053.9165818921756, 3786331.12919633788988 ], [ 395053.611393692786805, 3786330.82400813838467 ], [ 395053.306205493398011, 3786330.82400813838467 ], [ 395053.001017294009216, 3786330.51881993887946 ], [ 395052.695829094620422, 3786330.51881993887946 ], [ 395051.780264496454038, 3786329.603255340829492 ], [ 395051.780264496454038, 3786328.687690742779523 ], [ 395052.085452695842832, 3786328.382502543274313 ], [ 395052.085452695842832, 3786328.077314343769103 ], [ 395052.695829094620422, 3786327.466937945224345 ], [ 395052.695829094620422, 3786326.856561546213925 ], [ 395057.88402848422993, 3786326.856561546213925 ], [ 395057.88402848422993, 3786328.077314343769103 ], [ 395058.189216683618724, 3786328.382502543274313 ], [ 395058.189216683618724, 3786328.992878941819072 ], [ 395058.494404883007519, 3786329.298067141324282 ], [ 395058.494404883007519, 3786329.908443540334702 ], [ 395058.189216683618724, 3786330.21363173937425 ], [ 395058.189216683618724, 3786330.51881993887946 ], [ 395057.88402848422993, 3786330.51881993887946 ], [ 395057.578840284841135, 3786330.82400813838467 ], [ 395057.273652085452341, 3786330.82400813838467 ], [ 395056.968463886063546, 3786331.12919633788988 ], [ 395053.9165818921756, 3786331.12919633788988 ] ] ] } },
{ "type": "Feature", "properties": { "confidence": 0.87887400388717651, "class": 1 }, "geometry": { "type": "Polygon", "coordinates": [ [ [ 395311.19023397762794, 3786095.829094608314335 ], [ 395310.274669379461557, 3786094.913530010264367 ], [ 395310.274669379461557, 3786094.608341810759157 ], [ 395309.664292980683967, 3786093.997965412214398 ], [ 395309.664292980683967, 3786093.387589013203979 ], [ 395309.969481180072762, 3786093.082400813698769 ], [ 395309.969481180072762, 3786092.47202441515401 ], [ 395320.040691759902984, 3786092.47202441515401 ], [ 395320.040691759902984, 3786092.77721261465922 ], [ 395319.430315361125395, 3786093.387589013203979 ], [ 395319.1251271617366, 3786093.387589013203979 ], [ 395318.514750762959011, 3786093.997965412214398 ], [ 395318.209562563570216, 3786093.997965412214398 ], [ 395317.904374364181422, 3786094.303153611253947 ], [ 395317.599186164792627, 3786094.303153611253947 ], [ 395317.293997965403832, 3786094.608341810759157 ], [ 395316.683621566626243, 3786094.608341810759157 ], [ 395316.378433367237449, 3786094.913530010264367 ], [ 395315.768056968459859, 3786094.913530010264367 ], [ 395315.462868769071065, 3786095.218718209769577 ], [ 395314.852492370293476, 3786095.218718209769577 ], [ 395314.547304170904681, 3786095.523906408809125 ], [ 395313.936927772127092, 3786095.523906408809125 ], [ 395313.631739572738297, 3786095.829094608314335 ], [ 395311.19023397762794, 3786095.829094608314335 ] ] ] } },
{ "type": "Feature", "properties": { "confidence": 0.78452581167221069, "class": 1 }, "geometry": { "type": "Polygon", "coordinates": [ [ [ 395110.376398779219016, 3786013.428280773106962 ], [ 395110.071210579830222, 3786013.123092573601753 ], [ 395109.460834181052633, 3786013.123092573601753 ], [ 395108.850457782275043, 3786012.512716175056994 ], [ 395108.850457782275043, 3786012.207527975551784 ], [ 395108.545269582886249, 3786011.902339776046574 ], [ 395108.545269582886249, 3786009.155645981896669 ], [ 395108.240081383497454, 3786008.850457782391459 ], [ 395108.240081383497454, 3786006.103763987775892 ], [ 395108.545269582886249, 3786005.798575788270682 ], [ 395108.545269582886249, 3786005.493387589231133 ], [ 395108.850457782275043, 3786005.188199389725924 ], [ 395108.850457782275043, 3786004.883011190220714 ], [ 395109.155645981663838, 3786004.577822990715504 ], [ 395109.460834181052633, 3786004.577822990715504 ], [ 395109.766022380441427, 3786004.272634791675955 ], [ 395110.071210579830222, 3786004.272634791675955 ], [ 395110.376398779219016, 3786003.967446592170745 ], [ 395110.986775178054813, 3786003.967446592170745 ], [ 395111.291963377443608, 3786003.662258392665535 ], [ 395114.954221770109143, 3786003.662258392665535 ], [ 395115.259409969497938, 3786003.967446592170745 ], [ 395115.259409969497938, 3786005.798575788270682 ], [ 395114.954221770109143, 3786006.103763987775892 ], [ 395114.954221770109143, 3786009.155645981896669 ], [ 395114.649033570720349, 3786009.460834180936217 ], [ 395114.649033570720349, 3786009.766022380441427 ], [ 395114.343845371331554, 3786010.071210579946637 ], [ 395114.343845371331554, 3786010.376398779451847 ], [ 395114.038657171942759, 3786010.681586978491396 ], [ 395114.038657171942759, 3786011.597151577007025 ], [ 395113.733468972553965, 3786011.902339776046574 ], [ 395113.733468972553965, 3786012.817904374562204 ], [ 395113.42828077316517, 3786012.817904374562204 ], [ 395112.817904374387581, 3786013.428280773106962 ], [ 395110.376398779219016, 3786013.428280773106962 ] ] ] } },
{ "type": "Feature", "properties": { "confidence": 0.78050422668457031, "class": 1 }, "geometry": { "type": "Polygon", "coordinates": [ [ [ 395153.40793489315547, 3786097.965412003919482 ], [ 395153.102746693766676, 3786097.660223804879934 ], [ 395152.797558494377881, 3786097.660223804879934 ], [ 395152.797558494377881, 3786097.355035605374724 ], [ 395152.492370294989087, 3786097.049847405869514 ], [ 395152.492370294989087, 3786096.744659206364304 ], [ 395152.797558494377881, 3786096.439471007324755 ], [ 395152.797558494377881, 3786096.134282807819545 ], [ 395153.102746693766676, 3786096.134282807819545 ], [ 395153.40793489315547, 3786095.829094608314335 ], [ 395153.40793489315547, 3786095.218718209769577 ], [ 395152.797558494377881, 3786094.608341810759157 ], [ 395152.492370294989087, 3786094.608341810759157 ], [ 395152.492370294989087, 3786093.692777212709188 ], [ 395152.797558494377881, 3786093.387589013203979 ], [ 395152.797558494377881, 3786093.082400813698769 ], [ 395153.102746693766676, 3786092.77721261465922 ], [ 395153.102746693766676, 3786092.47202441515401 ], [ 395160.122075279767159, 3786092.47202441515401 ], [ 395160.122075279767159, 3786093.997965412214398 ], [ 395159.51169888098957, 3786094.608341810759157 ], [ 395159.51169888098957, 3786095.218718209769577 ], [ 395159.206510681600776, 3786095.523906408809125 ], [ 395158.901322482211981, 3786095.523906408809125 ], [ 395158.596134282823186, 3786095.829094608314335 ], [ 395158.290946083434392, 3786095.829094608314335 ], [ 395157.985757884045597, 3786096.134282807819545 ], [ 395156.459816887101624, 3786096.134282807819545 ], [ 395156.15462868771283, 3786096.439471007324755 ], [ 395155.849440488324035, 3786096.439471007324755 ], [ 395154.628687690768857, 3786097.660223804879934 ], [ 395154.018311291991267, 3786097.660223804879934 ], [ 395153.713123092602473, 3786097.965412003919482 ], [ 395153.40793489315547, 3786097.965412003919482 ] ] ] } },
{ "type": "Feature", "properties": { "confidence": 0.75847780704498291, "class": 1 }, "geometry": { "type": "Polygon", "coordinates": [ [ [ 395313.326551373349503, 3786171.820956256240606 ], [ 395313.021363173960708, 3786171.515768057201058 ], [ 395312.716174974571913, 3786171.515768057201058 ], [ 395312.105798575794324, 3786170.905391658190638 ], [ 395312.105798575794324, 3786170.600203458685428 ], [ 395311.80061037640553, 3786170.295015259180218 ], [ 395311.80061037640553, 3786169.989827060140669 ], [ 395311.495422177016735, 3786169.684638860635459 ], [ 395311.495422177016735, 3786168.463886063080281 ], [ 395312.105798575794324, 3786167.853509664069861 ], [ 395312.410986775183119, 3786167.853509664069861 ], [ 395313.326551373349503, 3786166.937945066019893 ], [ 395313.631739572738297, 3786166.937945066019893 ], [ 395313.936927772127092, 3786166.632756866514683 ], [ 395314.547304170904681, 3786166.632756866514683 ], [ 395314.852492370293476, 3786166.327568667475134 ], [ 395316.988809766015038, 3786166.327568667475134 ], [ 395317.293997965403832, 3786166.632756866514683 ], [ 395317.599186164792627, 3786166.632756866514683 ], [ 395318.209562563570216, 3786167.243133265525103 ], [ 395318.209562563570216, 3786168.463886063080281 ], [ 395317.904374364181422, 3786168.769074262585491 ], [ 395317.904374364181422, 3786170.295015259180218 ], [ 395317.599186164792627, 3786170.600203458685428 ], [ 395317.599186164792627, 3786170.905391658190638 ], [ 395316.988809766015038, 3786171.515768057201058 ], [ 395316.683621566626243, 3786171.515768057201058 ], [ 395316.378433367237449, 3786171.820956256240606 ], [ 395313.326551373349503, 3786171.820956256240606 ] ] ] } },
{ "type": "Feature", "properties": { "confidence": 0.74702143669128418, "class": 1 }, "geometry": { "type": "Polygon", "coordinates": [ [ [ 394848.830111902323551, 3786131.230925737414509 ], [ 394848.830111902323551, 3786130.315361139364541 ], [ 394848.524923702934757, 3786130.010172939859331 ], [ 394848.219735503545962, 3786130.010172939859331 ], [ 394848.219735503545962, 3786129.094608341809362 ], [ 394848.524923702934757, 3786128.789420142304152 ], [ 394848.524923702934757, 3786127.873855544254184 ], [ 394848.830111902323551, 3786127.873855544254184 ], [ 394849.135300101712346, 3786127.568667344748974 ], [ 394849.135300101712346, 3786127.263479145243764 ], [ 394849.440488301101141, 3786126.958290946204215 ], [ 394849.440488301101141, 3786126.653102746699005 ], [ 394849.745676500489935, 3786126.347914547193795 ], [ 394849.745676500489935, 3786126.042726347688586 ], [ 394850.966429298045114, 3786124.821973550133407 ], [ 394850.966429298045114, 3786124.516785351093858 ], [ 394851.271617497433908, 3786124.211597151588649 ], [ 394851.271617497433908, 3786123.906408952083439 ], [ 394851.576805696822703, 3786123.601220752578229 ], [ 394851.881993896211497, 3786123.601220752578229 ], [ 394852.187182095600292, 3786123.29603255353868 ], [ 394852.797558494377881, 3786123.29603255353868 ], [ 394853.102746693766676, 3786123.601220752578229 ], [ 394853.40793489315547, 3786123.601220752578229 ], [ 394853.713123092602473, 3786123.906408952083439 ], [ 394853.713123092602473, 3786125.127161749638617 ], [ 394854.018311291991267, 3786125.432349949143827 ], [ 394854.018311291991267, 3786126.958290946204215 ], [ 394853.713123092602473, 3786127.263479145243764 ], [ 394853.713123092602473, 3786128.484231942798942 ], [ 394853.40793489315547, 3786128.789420142304152 ], [ 394853.40793489315547, 3786130.62054933886975 ], [ 394853.102746693766676, 3786130.92573753837496 ], [ 394853.102746693766676, 3786131.230925737414509 ], [ 394848.830111902323551, 3786131.230925737414509 ] ] ] } },
{ "type": "Feature", "properties": { "confidence": 0.72988379001617432, "class": 1 }, "geometry": { "type": "Polygon", "coordinates": [ [ [ 395035.605289928789716, 3786214.547304171137512 ], [ 395035.300101729400922, 3786214.242115971632302 ], [ 395035.300101729400922, 3786212.105798575561494 ], [ 395034.689725330623332, 3786211.495422177016735 ], [ 395034.384537131234538, 3786211.495422177016735 ], [ 395034.384537131234538, 3786209.664292980451137 ], [ 395038.046795523900073, 3786209.664292980451137 ], [ 395038.046795523900073, 3786210.885045778006315 ], [ 395037.741607324511278, 3786211.190233977511525 ], [ 395037.741607324511278, 3786211.495422177016735 ], [ 395037.436419125122484, 3786211.800610376521945 ], [ 395037.436419125122484, 3786213.631739572621882 ], [ 395036.826042726344895, 3786214.242115971632302 ], [ 395036.215666327567305, 3786214.242115971632302 ], [ 395035.910478128178511, 3786214.547304171137512 ], [ 395035.605289928789716, 3786214.547304171137512 ] ] ] } },
{ "type": "Feature", "properties": { "confidence": 0.7160184383392334, "class": 1 }, "geometry": { "type": "Polygon", "coordinates": [ [ [ 395069.175991861673538, 3786011.902339776046574 ], [ 395068.870803662284743, 3786011.597151577007025 ], [ 395068.565615462895948, 3786011.597151577007025 ], [ 395067.344862665282562, 3786010.376398779451847 ], [ 395067.344862665282562, 3786008.240081383381039 ], [ 395067.039674465893768, 3786007.93489318434149 ], [ 395067.039674465893768, 3786004.883011190220714 ], [ 395067.344862665282562, 3786004.577822990715504 ], [ 395067.344862665282562, 3786003.967446592170745 ], [ 395067.650050864671357, 3786003.967446592170745 ], [ 395068.260427263507154, 3786003.357070193160325 ], [ 395068.260427263507154, 3786003.051881994120777 ], [ 395068.565615462895948, 3786003.051881994120777 ], [ 395068.870803662284743, 3786002.746693794615567 ], [ 395068.870803662284743, 3786002.441505595110357 ], [ 395069.175991861673538, 3786002.136317395605147 ], [ 395069.175991861673538, 3786001.525940997060388 ], [ 395074.974567650060635, 3786001.525940997060388 ], [ 395075.27975584944943, 3786001.831129196565598 ], [ 395074.974567650060635, 3786002.136317395605147 ], [ 395074.974567650060635, 3786004.577822990715504 ], [ 395075.27975584944943, 3786004.883011190220714 ], [ 395075.584944048838224, 3786004.883011190220714 ], [ 395075.584944048838224, 3786005.798575788270682 ], [ 395076.500508647004608, 3786006.714140386786312 ], [ 395076.500508647004608, 3786007.019328585825861 ], [ 395077.110885045782197, 3786007.62970498483628 ], [ 395077.110885045782197, 3786008.850457782391459 ], [ 395076.805696846393403, 3786009.155645981896669 ], [ 395076.805696846393403, 3786009.766022380441427 ], [ 395076.500508647004608, 3786009.766022380441427 ], [ 395074.974567650060635, 3786011.291963377501816 ], [ 395074.66937945067184, 3786011.291963377501816 ], [ 395074.364191251283046, 3786011.597151577007025 ], [ 395072.533062054950278, 3786011.597151577007025 ], [ 395072.227873855561484, 3786011.902339776046574 ], [ 395069.175991861673538, 3786011.902339776046574 ] ] ] } },
{ "type": "Feature", "properties": { "confidence": 0.70038485527038574, "class": 1 }, "geometry": { "type": "Polygon", "coordinates": [ [ [ 395044.45574771106476, 3786333.265513733495027 ], [ 395043.84537131228717, 3786332.655137334484607 ], [ 395043.84537131228717, 3786330.51881993887946 ], [ 395043.540183112898376, 3786330.21363173937425 ], [ 395043.540183112898376, 3786329.908443540334702 ], [ 395043.84537131228717, 3786329.603255340829492 ], [ 395043.84537131228717, 3786327.466937945224345 ], [ 395047.812817904399708, 3786327.466937945224345 ], [ 395047.812817904399708, 3786331.12919633788988 ], [ 395047.507629705010913, 3786331.434384536929429 ], [ 395047.507629705010913, 3786332.044760935939848 ], [ 395047.202441505622119, 3786332.349949135445058 ], [ 395047.202441505622119, 3786332.655137334484607 ], [ 395046.897253306233324, 3786332.960325533989817 ], [ 395045.981688708008733, 3786332.960325533989817 ], [ 395045.676500508619938, 3786333.265513733495027 ], [ 395044.45574771106476, 3786333.265513733495027 ] ] ] } },
{ "type": "Feature", "properties": { "confidence": 0.68067705631256104, "class": 1 }, "geometry": { "type": "Polygon", "coordinates": [ [ [ 395022.787385554402135, 3786336.622583926655352 ], [ 395022.482197355013341, 3786336.317395727150142 ], [ 395022.177009155624546, 3786336.317395727150142 ], [ 395021.566632756846957, 3786335.707019328605384 ], [ 395021.566632756846957, 3786332.960325533989817 ], [ 395021.871820956235752, 3786332.655137334484607 ], [ 395022.177009155624546, 3786332.655137334484607 ], [ 395022.482197355013341, 3786332.349949135445058 ], [ 395022.787385554402135, 3786332.349949135445058 ], [ 395024.008138351957314, 3786331.12919633788988 ], [ 395024.008138351957314, 3786330.82400813838467 ], [ 395024.313326551346108, 3786330.51881993887946 ], [ 395024.313326551346108, 3786330.21363173937425 ], [ 395026.144455747737084, 3786328.382502543274313 ], [ 395026.449643947125878, 3786328.382502543274313 ], [ 395026.754832146514673, 3786328.077314343769103 ], [ 395027.670396744681057, 3786328.077314343769103 ], [ 395027.975584944069851, 3786328.382502543274313 ], [ 395027.975584944069851, 3786328.992878941819072 ], [ 395028.891149542236235, 3786329.908443540334702 ], [ 395028.891149542236235, 3786330.82400813838467 ], [ 395029.19633774162503, 3786331.12919633788988 ], [ 395028.891149542236235, 3786331.434384536929429 ], [ 395028.891149542236235, 3786332.655137334484607 ], [ 395028.58596134284744, 3786332.655137334484607 ], [ 395028.280773143458646, 3786332.960325533989817 ], [ 395028.280773143458646, 3786333.265513733495027 ], [ 395027.060020345903467, 3786334.486266531050205 ], [ 395027.060020345903467, 3786334.791454730555415 ], [ 395026.754832146514673, 3786335.096642929594964 ], [ 395026.449643947125878, 3786335.096642929594964 ], [ 395025.534079348959494, 3786336.012207528110594 ], [ 395025.2288911495707, 3786336.012207528110594 ], [ 395024.923702950123698, 3786336.317395727150142 ], [ 395024.313326551346108, 3786336.317395727150142 ], [ 395024.008138351957314, 3786336.622583926655352 ], [ 395022.787385554402135, 3786336.622583926655352 ] ] ] } },
{ "type": "Feature", "properties": { "confidence": 0.66275614500045776, "class": 1 }, "geometry": { "type": "Polygon", "coordinates": [ [ [ 395005.391658189240843, 3786216.073245167732239 ], [ 395005.086469989852048, 3786215.76805696869269 ], [ 395004.781281790463254, 3786215.76805696869269 ], [ 395004.476093591074459, 3786215.46286876918748 ], [ 395004.476093591074459, 3786215.15768056968227 ], [ 395004.170905391685665, 3786214.85249237017706 ], [ 395004.170905391685665, 3786214.547304171137512 ], [ 395003.86571719229687, 3786214.242115971632302 ], [ 395003.86571719229687, 3786213.021363174077123 ], [ 395004.170905391685665, 3786212.716174974571913 ], [ 395004.170905391685665, 3786211.190233977511525 ], [ 395004.476093591074459, 3786210.885045778006315 ], [ 395004.476093591074459, 3786210.274669379461557 ], [ 395004.781281790463254, 3786210.274669379461557 ], [ 395005.086469989852048, 3786209.969481179956347 ], [ 395005.086469989852048, 3786209.664292980451137 ], [ 395013.021363173960708, 3786209.664292980451137 ], [ 395013.021363173960708, 3786210.274669379461557 ], [ 395012.716174974571913, 3786210.579857578966767 ], [ 395012.716174974571913, 3786210.885045778006315 ], [ 395012.410986775183119, 3786211.190233977511525 ], [ 395012.410986775183119, 3786211.495422177016735 ], [ 395009.053916581906378, 3786214.85249237017706 ], [ 395008.138351983739994, 3786214.85249237017706 ], [ 395007.8331637843512, 3786215.15768056968227 ], [ 395007.222787385573611, 3786215.15768056968227 ], [ 395006.917599186184816, 3786215.46286876918748 ], [ 395006.612410986796021, 3786215.46286876918748 ], [ 395006.307222787407227, 3786215.76805696869269 ], [ 395005.696846388629638, 3786215.76805696869269 ], [ 395005.391658189240843, 3786216.073245167732239 ] ] ] } },
{ "type": "Feature", "properties": { "confidence": 0.65874975919723511, "class": 1 }, "geometry": { "type": "Polygon", "coordinates": [ [ [ 395084.435401831113268, 3786403.458799593150616 ], [ 395084.130213631724473, 3786403.153611393645406 ], [ 395083.214649033558089, 3786403.153611393645406 ], [ 395082.909460834169295, 3786402.848423194140196 ], [ 395082.6042726347805, 3786402.848423194140196 ], [ 395081.688708036614116, 3786401.932858596090227 ], [ 395081.688708036614116, 3786401.322482197545469 ], [ 395081.383519837225322, 3786401.017293998040259 ], [ 395081.383519837225322, 3786400.712105798535049 ], [ 395081.078331637836527, 3786400.406917599029839 ], [ 395081.078331637836527, 3786400.10172939999029 ], [ 395080.773143438447732, 3786399.79654120048508 ], [ 395080.773143438447732, 3786399.186164801474661 ], [ 395081.383519837225322, 3786398.575788402929902 ], [ 395081.383519837225322, 3786398.270600203424692 ], [ 395082.299084435391705, 3786397.355035605374724 ], [ 395085.656154628668446, 3786397.355035605374724 ], [ 395086.266531027446035, 3786396.744659206364304 ], [ 395086.876907426223624, 3786396.744659206364304 ], [ 395087.182095625612419, 3786396.439471007324755 ], [ 395089.013224821945187, 3786396.439471007324755 ], [ 395089.318413021392189, 3786396.744659206364304 ], [ 395089.623601220780984, 3786396.744659206364304 ], [ 395089.318413021392189, 3786397.049847405869514 ], [ 395089.318413021392189, 3786398.270600203424692 ], [ 395089.623601220780984, 3786398.575788402929902 ], [ 395089.623601220780984, 3786399.491353000979871 ], [ 395090.233977619558573, 3786400.10172939999029 ], [ 395090.233977619558573, 3786400.406917599029839 ], [ 395090.539165818947367, 3786400.712105798535049 ], [ 395090.539165818947367, 3786401.017293998040259 ], [ 395090.233977619558573, 3786401.017293998040259 ], [ 395089.928789420169778, 3786401.322482197545469 ], [ 395089.928789420169778, 3786401.932858596090227 ], [ 395089.623601220780984, 3786401.932858596090227 ], [ 395089.318413021392189, 3786402.238046795595437 ], [ 395089.318413021392189, 3786402.543234995100647 ], [ 395089.013224821945187, 3786402.848423194140196 ], [ 395089.013224821945187, 3786403.153611393645406 ], [ 395087.792472024390008, 3786403.153611393645406 ], [ 395087.487283825001214, 3786403.458799593150616 ], [ 395084.435401831113268, 3786403.458799593150616 ] ] ] } },
{ "type": "Feature", "properties": { "confidence": 0.61039376258850098, "class": 1 }, "geometry": { "type": "Polygon", "coordinates": [ [ [ 395042.014242115954403, 3786170.295015259180218 ], [ 395041.709053916565608, 3786169.989827060140669 ], [ 395041.709053916565608, 3786169.684638860635459 ], [ 395041.098677517788019, 3786169.07426246162504 ], [ 395041.098677517788019, 3786168.158697863575071 ], [ 395040.793489318399224, 3786167.853509664069861 ], [ 395040.793489318399224, 3786166.632756866514683 ], [ 395040.48830111901043, 3786166.327568667475134 ], [ 395040.48830111901043, 3786162.970498473849148 ], [ 395040.793489318399224, 3786162.665310274809599 ], [ 395040.793489318399224, 3786162.054933875799179 ], [ 395041.098677517788019, 3786161.749745676293969 ], [ 395041.098677517788019, 3786161.444557477254421 ], [ 395041.709053916565608, 3786160.834181078244001 ], [ 395042.014242115954403, 3786160.834181078244001 ], [ 395042.319430315343197, 3786160.528992878738791 ], [ 395042.929806714120787, 3786160.528992878738791 ], [ 395043.234994913509581, 3786160.223804679699242 ], [ 395044.760935910453554, 3786160.223804679699242 ], [ 395045.066124109842349, 3786159.918616480194032 ], [ 395045.676500508619938, 3786159.918616480194032 ], [ 395045.981688708008733, 3786160.223804679699242 ], [ 395046.59206510684453, 3786160.223804679699242 ], [ 395047.507629705010913, 3786161.139369277749211 ], [ 395047.507629705010913, 3786161.444557477254421 ], [ 395047.812817904399708, 3786161.749745676293969 ], [ 395048.118006103788503, 3786161.749745676293969 ], [ 395048.728382502566092, 3786162.360122075304389 ], [ 395048.728382502566092, 3786162.970498473849148 ], [ 395049.033570701954886, 3786163.275686673354357 ], [ 395049.033570701954886, 3786164.801627670414746 ], [ 395048.728382502566092, 3786165.106815869919956 ], [ 395048.728382502566092, 3786166.632756866514683 ], [ 395048.423194303177297, 3786166.937945066019893 ], [ 395048.423194303177297, 3786167.853509664069861 ], [ 395048.118006103788503, 3786168.158697863575071 ], [ 395048.118006103788503, 3786168.463886063080281 ], [ 395047.812817904399708, 3786168.463886063080281 ], [ 395047.507629705010913, 3786168.769074262585491 ], [ 395047.507629705010913, 3786169.07426246162504 ], [ 395047.202441505622119, 3786169.07426246162504 ], [ 395046.59206510684453, 3786169.684638860635459 ], [ 395046.286876907397527, 3786169.684638860635459 ], [ 395045.981688708008733, 3786169.989827060140669 ], [ 395044.760935910453554, 3786169.989827060140669 ], [ 395044.45574771106476, 3786170.295015259180218 ], [ 395042.014242115954403, 3786170.295015259180218 ] ] ] } },
{ "type": "Feature", "properties": { "confidence": 0.5807989239692688, "class": 1 }, "geometry": { "type": "Polygon", "coordinates": [ [ [ 395076.500508647004608, 3786331.12919633788988 ], [ 395075.27975584944943, 3786329.908443540334702 ], [ 395075.27975584944943, 3786329.603255340829492 ], [ 395074.974567650060635, 3786329.298067141324282 ], [ 395074.974567650060635, 3786328.077314343769103 ], [ 395075.27975584944943, 3786327.772126144263893 ], [ 395075.27975584944943, 3786327.466937945224345 ], [ 395082.6042726347805, 3786327.466937945224345 ], [ 395082.6042726347805, 3786327.772126144263893 ], [ 395082.299084435391705, 3786328.077314343769103 ], [ 395082.299084435391705, 3786328.992878941819072 ], [ 395081.688708036614116, 3786329.603255340829492 ], [ 395081.383519837225322, 3786329.603255340829492 ], [ 395080.467955239058938, 3786330.51881993887946 ], [ 395080.162767039670143, 3786330.51881993887946 ], [ 395079.857578840281349, 3786330.82400813838467 ], [ 395079.247202441503759, 3786330.82400813838467 ], [ 395078.942014242114965, 3786331.12919633788988 ], [ 395076.500508647004608, 3786331.12919633788988 ] ] ] } },
{ "type": "Feature", "properties": { "confidence": 0.5675278902053833, "class": 1 }, "geometry": { "type": "Polygon", "coordinates": [ [ [ 394869.888097660208587, 3786376.297049847431481 ], [ 394869.582909460819792, 3786375.991861647926271 ], [ 394868.972533062042203, 3786375.991861647926271 ], [ 394868.667344862653408, 3786375.686673448421061 ], [ 394868.362156663264614, 3786375.686673448421061 ], [ 394867.44659206509823, 3786374.771108850371093 ], [ 394867.44659206509823, 3786374.160732451826334 ], [ 394867.141403865709435, 3786373.855544252321124 ], [ 394867.141403865709435, 3786372.939979654271156 ], [ 394866.225839267543051, 3786372.024415055755526 ], [ 394866.225839267543051, 3786371.719226856715977 ], [ 394865.920651068154257, 3786371.414038657210767 ], [ 394865.920651068154257, 3786370.498474059160799 ], [ 394866.225839267543051, 3786370.193285859655589 ], [ 394867.141403865709435, 3786370.193285859655589 ], [ 394867.44659206509823, 3786369.888097660150379 ], [ 394869.277721261430997, 3786369.888097660150379 ], [ 394869.582909460819792, 3786370.193285859655589 ], [ 394870.193285859597381, 3786370.193285859655589 ], [ 394870.498474058986176, 3786370.498474059160799 ], [ 394870.80366225837497, 3786370.498474059160799 ], [ 394870.80366225837497, 3786370.803662258200347 ], [ 394871.719226856541354, 3786371.719226856715977 ], [ 394871.719226856541354, 3786375.991861647926271 ], [ 394871.41403865715256, 3786376.297049847431481 ], [ 394869.888097660208587, 3786376.297049847431481 ] ] ] } },
{ "type": "Feature", "properties": { "confidence": 0.53557616472244263, "class": 1 }, "geometry": { "type": "Polygon", "coordinates": [ [ [ 394886.673448626650497, 3786227.060020345728844 ], [ 394886.673448626650497, 3786225.534079349134117 ], [ 394886.978636826039292, 3786225.228891149628907 ], [ 394886.978636826039292, 3786224.618514750618488 ], [ 394887.283825025428087, 3786224.313326551578939 ], [ 394887.283825025428087, 3786224.008138352073729 ], [ 394887.589013224816881, 3786223.702950152568519 ], [ 394887.589013224816881, 3786223.397761953063309 ], [ 394887.894201424205676, 3786223.092573754023761 ], [ 394887.894201424205676, 3786222.787385554518551 ], [ 394888.19938962359447, 3786222.482197355013341 ], [ 394888.19938962359447, 3786221.261444557458162 ], [ 394888.504577822983265, 3786220.956256357952952 ], [ 394890.640895218704827, 3786220.956256357952952 ], [ 394890.946083418093622, 3786220.651068158913404 ], [ 394894.303153611370362, 3786220.651068158913404 ], [ 394894.608341810759157, 3786220.345879959408194 ], [ 394895.829094608314335, 3786220.345879959408194 ], [ 394896.13428280770313, 3786220.651068158913404 ], [ 394896.439471007150132, 3786220.651068158913404 ], [ 394896.439471007150132, 3786222.482197355013341 ], [ 394896.13428280770313, 3786222.787385554518551 ], [ 394896.13428280770313, 3786223.397761953063309 ], [ 394895.829094608314335, 3786223.702950152568519 ], [ 394895.829094608314335, 3786224.313326551578939 ], [ 394894.303153611370362, 3786225.839267548173666 ], [ 394893.997965411981568, 3786225.839267548173666 ], [ 394893.692777212592773, 3786226.144455747678876 ], [ 394893.082400813815184, 3786226.144455747678876 ], [ 394892.777212614426389, 3786226.449643947184086 ], [ 394892.472024415037595, 3786226.449643947184086 ], [ 394892.1668362156488, 3786226.754832146689296 ], [ 394890.946083418093622, 3786226.754832146689296 ], [ 394890.640895218704827, 3786227.060020345728844 ], [ 394886.673448626650497, 3786227.060020345728844 ] ] ] } },
{ "type": "Feature", "properties": { "confidence": 0.53098410367965698, "class": 1 }, "geometry": { "type": "Polygon", "coordinates": [ [ [ 394853.40793489315547, 3786188.301119023468345 ], [ 394853.102746693766676, 3786187.995930823963135 ], [ 394853.102746693766676, 3786187.690742624457926 ], [ 394852.797558494377881, 3786187.385554425418377 ], [ 394852.797558494377881, 3786186.164801627863199 ], [ 394852.492370294989087, 3786185.859613428357989 ], [ 394852.492370294989087, 3786183.723296032752842 ], [ 394852.187182095600292, 3786183.418107833247632 ], [ 394852.187182095600292, 3786182.807731434237212 ], [ 394851.881993896211497, 3786182.502543235197663 ], [ 394851.881993896211497, 3786180.976602238137275 ], [ 394851.576805696822703, 3786180.671414038632065 ], [ 394851.576805696822703, 3786178.229908443521708 ], [ 394851.881993896211497, 3786177.924720244016498 ], [ 394852.492370294989087, 3786177.924720244016498 ], [ 394852.797558494377881, 3786177.61953204497695 ], [ 394854.018311291991267, 3786177.61953204497695 ], [ 394854.323499491380062, 3786177.31434384547174 ], [ 394855.849440488324035, 3786177.31434384547174 ], [ 394856.15462868771283, 3786177.61953204497695 ], [ 394856.459816887101624, 3786177.61953204497695 ], [ 394856.459816887101624, 3786178.535096643026918 ], [ 394856.765005086490419, 3786178.840284842532128 ], [ 394856.765005086490419, 3786180.366225839126855 ], [ 394857.070193285879213, 3786180.671414038632065 ], [ 394857.070193285879213, 3786182.197355035692453 ], [ 394857.375381485268008, 3786182.502543235197663 ], [ 394857.375381485268008, 3786187.385554425418377 ], [ 394856.459816887101624, 3786187.385554425418377 ], [ 394856.15462868771283, 3786187.690742624457926 ], [ 394855.54425228893524, 3786187.690742624457926 ], [ 394855.239064089546446, 3786187.995930823963135 ], [ 394854.628687690768857, 3786187.995930823963135 ], [ 394854.323499491380062, 3786188.301119023468345 ], [ 394853.40793489315547, 3786188.301119023468345 ] ] ] } },
{ "type": "Feature", "properties": { "confidence": 0.51866012811660767, "class": 1 }, "geometry": { "type": "Polygon", "coordinates": [ [ [ 395307.527975584962405, 3786018.921668362338096 ], [ 395307.222787385573611, 3786018.616480162832886 ], [ 395306.917599186184816, 3786018.616480162832886 ], [ 395306.612410986796021, 3786018.311291963327676 ], [ 395306.002034588018432, 3786018.311291963327676 ], [ 395305.086469989852048, 3786017.395727365277708 ], [ 395304.781281790463254, 3786017.395727365277708 ], [ 395304.781281790463254, 3786017.090539165772498 ], [ 395304.476093591074459, 3786016.785350966267288 ], [ 395304.476093591074459, 3786015.259409969672561 ], [ 395304.781281790463254, 3786014.954221770167351 ], [ 395304.781281790463254, 3786014.343845371156931 ], [ 395305.086469989852048, 3786014.038657172117382 ], [ 395305.086469989852048, 3786013.123092573601753 ], [ 395305.391658189240843, 3786012.817904374562204 ], [ 395305.391658189240843, 3786012.512716175056994 ], [ 395306.307222787407227, 3786011.597151577007025 ], [ 395306.307222787407227, 3786011.291963377501816 ], [ 395306.612410986796021, 3786010.986775177996606 ], [ 395306.612410986796021, 3786010.681586978491396 ], [ 395306.917599186184816, 3786010.376398779451847 ], [ 395307.527975584962405, 3786010.376398779451847 ], [ 395307.527975584962405, 3786018.921668362338096 ] ] ] } },
{ "type": "Feature", "properties": { "confidence": 0.50981628894805908, "class": 1 }, "geometry": { "type": "Polygon", "coordinates": [ [ [ 395181.180061037652194, 3786382.706002034712583 ], [ 395180.569684638874605, 3786382.095625635702163 ], [ 395180.264496439485811, 3786382.095625635702163 ], [ 395179.959308240097016, 3786381.790437436196953 ], [ 395179.959308240097016, 3786381.180061037652194 ], [ 395179.654120040708221, 3786380.874872838146985 ], [ 395179.654120040708221, 3786379.959308240097016 ], [ 395179.959308240097016, 3786379.654120040591806 ], [ 395179.959308240097016, 3786379.348931841086596 ], [ 395181.180061037652194, 3786378.128179043531418 ], [ 395181.180061037652194, 3786377.822990844491869 ], [ 395181.485249237040989, 3786377.517802644986659 ], [ 395181.485249237040989, 3786377.212614445481449 ], [ 395181.790437436429784, 3786376.907426245976239 ], [ 395181.790437436429784, 3786376.602238046936691 ], [ 395182.400813835207373, 3786376.602238046936691 ], [ 395182.706002034596168, 3786376.297049847431481 ], [ 395184.84231943031773, 3786376.297049847431481 ], [ 395185.452695829095319, 3786376.907426245976239 ], [ 395185.452695829095319, 3786377.822990844491869 ], [ 395185.757884028484114, 3786378.128179043531418 ], [ 395185.757884028484114, 3786380.569684638641775 ], [ 395185.452695829095319, 3786380.874872838146985 ], [ 395185.452695829095319, 3786381.180061037652194 ], [ 395184.84231943031773, 3786381.180061037652194 ], [ 395184.537131230928935, 3786381.485249237157404 ], [ 395184.537131230928935, 3786381.790437436196953 ], [ 395184.231943031540141, 3786381.790437436196953 ], [ 395183.926754832151346, 3786382.095625635702163 ], [ 395183.926754832151346, 3786382.706002034712583 ], [ 395181.180061037652194, 3786382.706002034712583 ] ] ] } },
{ "type": "Feature", "properties": { "confidence": 0.50978130102157593, "class": 1 }, "geometry": { "type": "Polygon", "coordinates": [ [ [ 395131.129196337715257, 3786215.76805696869269 ], [ 395131.129196337715257, 3786215.46286876918748 ], [ 395130.518819938937668, 3786214.85249237017706 ], [ 395130.213631739548873, 3786214.85249237017706 ], [ 395129.603255340771284, 3786214.242115971632302 ], [ 395129.603255340771284, 3786213.936927772127092 ], [ 395129.298067141382489, 3786213.631739572621882 ], [ 395129.298067141382489, 3786212.716174974571913 ], [ 395129.603255340771284, 3786212.410986775066704 ], [ 395129.603255340771284, 3786212.105798575561494 ], [ 395129.908443540160079, 3786212.105798575561494 ], [ 395130.213631739548873, 3786211.800610376521945 ], [ 395130.213631739548873, 3786211.495422177016735 ], [ 395130.518819938937668, 3786211.190233977511525 ], [ 395130.518819938937668, 3786209.664292980451137 ], [ 395135.401831129216589, 3786209.664292980451137 ], [ 395135.401831129216589, 3786210.885045778006315 ], [ 395135.707019328605384, 3786211.190233977511525 ], [ 395135.401831129216589, 3786211.495422177016735 ], [ 395135.401831129216589, 3786211.800610376521945 ], [ 395134.791454730439, 3786212.410986775066704 ], [ 395134.791454730439, 3786213.021363174077123 ], [ 395134.486266531050205, 3786213.326551373116672 ], [ 395134.486266531050205, 3786213.631739572621882 ], [ 395134.181078331661411, 3786213.936927772127092 ], [ 395133.875890132272616, 3786213.936927772127092 ], [ 395132.960325534106232, 3786214.85249237017706 ], [ 395132.655137334717438, 3786214.85249237017706 ], [ 395132.349949135328643, 3786215.15768056968227 ], [ 395132.349949135328643, 3786215.46286876918748 ], [ 395132.044760935881641, 3786215.76805696869269 ], [ 395131.129196337715257, 3786215.76805696869269 ] ] ] } },
{ "type": "Feature", "properties": { "confidence": 0.50683188438415527, "class": 1 }, "geometry": { "type": "Polygon", "coordinates": [ [ [ 394900.101729399815667, 3786248.423194303177297 ], [ 394900.101729399815667, 3786248.118006103672087 ], [ 394899.796541200426873, 3786247.812817904166877 ], [ 394899.796541200426873, 3786247.507629705127329 ], [ 394899.491353001038078, 3786247.202441505622119 ], [ 394899.491353001038078, 3786245.67650050856173 ], [ 394900.101729399815667, 3786245.066124110016972 ], [ 394901.62767039675964, 3786245.066124110016972 ], [ 394901.932858596148435, 3786245.37131230905652 ], [ 394902.543234994926024, 3786245.37131230905652 ], [ 394902.848423194314819, 3786245.67650050856173 ], [ 394903.153611393703613, 3786245.67650050856173 ], [ 394903.153611393703613, 3786246.592065106611699 ], [ 394903.458799593092408, 3786246.897253306116909 ], [ 394903.458799593092408, 3786248.423194303177297 ], [ 394900.101729399815667, 3786248.423194303177297 ] ] ] } },
{ "type": "Feature", "properties": { "confidence": 0.49299943447113037, "class": 1 }, "geometry": { "type": "Polygon", "coordinates": [ [ [ 395384.435401831113268, 3786448.321464903187007 ], [ 395383.519837232946884, 3786447.405900305137038 ], [ 395383.519837232946884, 3786447.100712105631828 ], [ 395382.909460834169295, 3786446.49033570708707 ], [ 395382.6042726347805, 3786446.49033570708707 ], [ 395382.299084435391705, 3786446.18514750758186 ], [ 395382.299084435391705, 3786445.87995930807665 ], [ 395381.993896236002911, 3786445.574771109037101 ], [ 395381.993896236002911, 3786444.659206510521472 ], [ 395391.149542217724957, 3786444.659206510521472 ], [ 395391.149542217724957, 3786446.49033570708707 ], [ 395390.539165818947367, 3786447.100712105631828 ], [ 395390.233977619558573, 3786447.100712105631828 ], [ 395389.623601220780984, 3786447.711088504642248 ], [ 395388.708036622556392, 3786447.711088504642248 ], [ 395388.402848423167598, 3786448.016276704147458 ], [ 395386.876907426223624, 3786448.016276704147458 ], [ 395386.57171922683483, 3786448.321464903187007 ], [ 395384.435401831113268, 3786448.321464903187007 ] ] ] } },
{ "type": "Feature", "properties": { "confidence": 0.49248349666595459, "class": 1 }, "geometry": { "type": "Polygon", "coordinates": [ [ [ 394876.602238046820275, 3786324.109867751598358 ], [ 394876.297049847431481, 3786323.80467955255881 ], [ 394876.297049847431481, 3786323.19430315354839 ], [ 394875.991861648042686, 3786322.88911495404318 ], [ 394875.991861648042686, 3786321.057985757943243 ], [ 394876.297049847431481, 3786320.752797558438033 ], [ 394876.297049847431481, 3786320.142421159893274 ], [ 394876.90742624620907, 3786319.532044760882854 ], [ 394877.212614445597865, 3786319.532044760882854 ], [ 394877.517802644986659, 3786319.226856561377645 ], [ 394878.128179043764248, 3786319.226856561377645 ], [ 394878.738555442541838, 3786318.616480162832886 ], [ 394879.654120040708221, 3786318.616480162832886 ], [ 394879.959308240097016, 3786318.311291963327676 ], [ 394881.485249237040989, 3786318.311291963327676 ], [ 394881.790437436429784, 3786318.616480162832886 ], [ 394881.790437436429784, 3786320.142421159893274 ], [ 394881.485249237040989, 3786320.447609358932823 ], [ 394881.485249237040989, 3786321.973550355993211 ], [ 394880.8748728382634, 3786321.973550355993211 ], [ 394880.264496439485811, 3786322.583926755003631 ], [ 394879.959308240097016, 3786322.583926755003631 ], [ 394879.654120040708221, 3786322.88911495404318 ], [ 394879.348931841319427, 3786322.88911495404318 ], [ 394878.433367243153043, 3786323.80467955255881 ], [ 394878.128179043764248, 3786323.80467955255881 ], [ 394877.822990844375454, 3786324.109867751598358 ], [ 394876.602238046820275, 3786324.109867751598358 ] ] ] } },
{ "type": "Feature", "properties": { "confidence": 0.48620733618736267, "class": 1 }, "geometry": { "type": "Polygon", "coordinates": [ [ [ 394875.381485249265097, 3786183.723296032752842 ], [ 394875.076297049876302, 3786183.418107833247632 ], [ 394875.076297049876302, 3786183.112919633742422 ], [ 394874.7711088504293, 3786182.807731434237212 ], [ 394874.7711088504293, 3786181.281790437642485 ], [ 394874.465920651040506, 3786180.976602238137275 ], [ 394874.465920651040506, 3786179.755849440582097 ], [ 394874.160732451651711, 3786179.450661241076887 ], [ 394874.160732451651711, 3786177.61953204497695 ], [ 394873.855544252262916, 3786177.31434384547174 ], [ 394873.855544252262916, 3786174.872838250361383 ], [ 394874.465920651040506, 3786174.872838250361383 ], [ 394874.7711088504293, 3786175.178026449866593 ], [ 394875.686673448653892, 3786175.178026449866593 ], [ 394876.602238046820275, 3786174.262461851350963 ], [ 394876.602238046820275, 3786173.957273652311414 ], [ 394876.90742624620907, 3786173.652085452806205 ], [ 394877.212614445597865, 3786173.652085452806205 ], [ 394877.822990844375454, 3786174.262461851350963 ], [ 394877.822990844375454, 3786174.872838250361383 ], [ 394878.128179043764248, 3786175.178026449866593 ], [ 394878.128179043764248, 3786175.788402848411351 ], [ 394878.433367243153043, 3786176.093591047916561 ], [ 394878.433367243153043, 3786177.00915564596653 ], [ 394878.738555442541838, 3786177.31434384547174 ], [ 394878.738555442541838, 3786178.535096643026918 ], [ 394878.433367243153043, 3786178.840284842532128 ], [ 394878.433367243153043, 3786179.450661241076887 ], [ 394878.128179043764248, 3786179.755849440582097 ], [ 394878.128179043764248, 3786181.281790437642485 ], [ 394877.822990844375454, 3786181.586978636682034 ], [ 394877.822990844375454, 3786182.502543235197663 ], [ 394876.90742624620907, 3786183.418107833247632 ], [ 394876.602238046820275, 3786183.418107833247632 ], [ 394876.297049847431481, 3786183.723296032752842 ], [ 394875.381485249265097, 3786183.723296032752842 ] ] ] } },
{ "type": "Feature", "properties": { "confidence": 0.46858221292495728, "class": 1 }, "geometry": { "type": "Polygon", "coordinates": [ [ [ 394837.843336724326946, 3786260.935910478234291 ], [ 394837.538148524938151, 3786260.630722278729081 ], [ 394837.232960325549357, 3786260.630722278729081 ], [ 394836.927772126160562, 3786260.325534079223871 ], [ 394836.622583926771767, 3786260.325534079223871 ], [ 394836.317395727382973, 3786260.020345880184323 ], [ 394836.317395727382973, 3786259.715157680679113 ], [ 394835.401831129216589, 3786258.799593082629144 ], [ 394835.401831129216589, 3786257.884028484113514 ], [ 394835.096642929827794, 3786257.578840285073966 ], [ 394835.096642929827794, 3786256.663275686558336 ], [ 394834.791454730439, 3786256.358087487053126 ], [ 394834.791454730439, 3786252.390640895348042 ], [ 394835.401831129216589, 3786251.780264496337622 ], [ 394836.622583926771767, 3786251.780264496337622 ], [ 394836.927772126160562, 3786251.475076296832412 ], [ 394837.538148524938151, 3786251.475076296832412 ], [ 394837.843336724326946, 3786251.169888097792864 ], [ 394837.843336724326946, 3786250.864699898287654 ], [ 394838.14852492371574, 3786250.864699898287654 ], [ 394838.453713123104535, 3786250.559511698782444 ], [ 394839.979654120048508, 3786250.559511698782444 ], [ 394840.895218718214892, 3786251.475076296832412 ], [ 394841.505595116992481, 3786251.475076296832412 ], [ 394842.421159715158865, 3786252.390640895348042 ], [ 394842.421159715158865, 3786252.695829094387591 ], [ 394843.031536113936454, 3786253.306205493398011 ], [ 394843.031536113936454, 3786255.442522889003158 ], [ 394842.726347914547659, 3786255.747711088508368 ], [ 394842.726347914547659, 3786256.358087487053126 ], [ 394842.421159715158865, 3786256.663275686558336 ], [ 394842.421159715158865, 3786258.189216683618724 ], [ 394842.11597151577007, 3786258.189216683618724 ], [ 394841.810783316381276, 3786258.494404883123934 ], [ 394841.810783316381276, 3786258.799593082629144 ], [ 394840.895218718214892, 3786259.715157680679113 ], [ 394840.895218718214892, 3786260.020345880184323 ], [ 394839.979654120048508, 3786260.935910478234291 ], [ 394837.843336724326946, 3786260.935910478234291 ] ] ] } },
{ "type": "Feature", "properties": { "confidence": 0.4465613067150116, "class": 1 }, "geometry": { "type": "Polygon", "coordinates": [ [ [ 395067.955239064118359, 3786331.739572736434639 ], [ 395067.650050864671357, 3786331.434384536929429 ], [ 395067.344862665282562, 3786331.434384536929429 ], [ 395067.344862665282562, 3786331.12919633788988 ], [ 395067.039674465893768, 3786330.82400813838467 ], [ 395067.039674465893768, 3786330.21363173937425 ], [ 395067.344862665282562, 3786329.908443540334702 ], [ 395067.344862665282562, 3786327.466937945224345 ], [ 395067.039674465893768, 3786327.161749745719135 ], [ 395067.039674465893768, 3786326.856561546213925 ], [ 395073.143438453727867, 3786326.856561546213925 ], [ 395073.143438453727867, 3786327.161749745719135 ], [ 395072.838250254339073, 3786327.161749745719135 ], [ 395072.533062054950278, 3786327.466937945224345 ], [ 395072.533062054950278, 3786328.077314343769103 ], [ 395071.922685656172689, 3786328.687690742779523 ], [ 395071.922685656172689, 3786328.992878941819072 ], [ 395071.617497456783894, 3786328.992878941819072 ], [ 395071.3123092573951, 3786329.298067141324282 ], [ 395071.3123092573951, 3786330.21363173937425 ], [ 395071.007121058006305, 3786330.51881993887946 ], [ 395071.007121058006305, 3786330.82400813838467 ], [ 395070.701932858617511, 3786331.12919633788988 ], [ 395070.701932858617511, 3786331.434384536929429 ], [ 395070.396744659228716, 3786331.434384536929429 ], [ 395070.091556459839921, 3786331.739572736434639 ], [ 395067.955239064118359, 3786331.739572736434639 ] ] ] } },
{ "type": "Feature", "properties": { "confidence": 0.44258752465248108, "class": 1 }, "geometry": { "type": "Polygon", "coordinates": [ [ [ 395364.903357070172206, 3786170.905391658190638 ], [ 395364.598168870783411, 3786170.600203458685428 ], [ 395364.598168870783411, 3786166.632756866514683 ], [ 395365.208545269561, 3786166.022380467969924 ], [ 395365.208545269561, 3786165.717192268464714 ], [ 395365.513733468949795, 3786165.717192268464714 ], [ 395366.124109867727384, 3786165.106815869919956 ], [ 395366.124109867727384, 3786164.801627670414746 ], [ 395366.429298067116179, 3786164.496439470909536 ], [ 395366.429298067116179, 3786163.886063072364777 ], [ 395366.734486266504973, 3786163.580874872859567 ], [ 395367.039674465893768, 3786163.580874872859567 ], [ 395367.344862665282562, 3786163.275686673354357 ], [ 395367.650050864671357, 3786163.275686673354357 ], [ 395367.955239064118359, 3786162.970498473849148 ], [ 395369.481180061062332, 3786162.970498473849148 ], [ 395369.786368260451127, 3786162.665310274809599 ], [ 395370.091556459839921, 3786162.970498473849148 ], [ 395370.091556459839921, 3786167.853509664069861 ], [ 395369.786368260451127, 3786168.158697863575071 ], [ 395369.786368260451127, 3786169.37945066113025 ], [ 395369.481180061062332, 3786169.684638860635459 ], [ 395369.481180061062332, 3786169.989827060140669 ], [ 395368.565615462895948, 3786170.905391658190638 ], [ 395364.903357070172206, 3786170.905391658190638 ] ] ] } },
{ "type": "Feature", "properties": { "confidence": 0.44186273217201233, "class": 1 }, "geometry": { "type": "Polygon", "coordinates": [ [ [ 395152.187182095600292, 3786094.608341810759157 ], [ 395151.881993896211497, 3786094.303153611253947 ], [ 395151.576805696822703, 3786094.303153611253947 ], [ 395151.576805696822703, 3786092.47202441515401 ], [ 395157.375381485268008, 3786092.47202441515401 ], [ 395157.375381485268008, 3786093.082400813698769 ], [ 395157.070193285879213, 3786093.387589013203979 ], [ 395157.070193285879213, 3786093.692777212709188 ], [ 395156.459816887101624, 3786094.303153611253947 ], [ 395156.459816887101624, 3786094.608341810759157 ], [ 395152.187182095600292, 3786094.608341810759157 ] ] ] } },
{ "type": "Feature", "properties": { "confidence": 0.4409063458442688, "class": 1 }, "geometry": { "type": "Polygon", "coordinates": [ [ [ 395153.102746693766676, 3786519.125127161853015 ], [ 395152.797558494377881, 3786518.819938962347806 ], [ 395151.576805696822703, 3786518.819938962347806 ], [ 395150.661241098656319, 3786517.904374364297837 ], [ 395150.661241098656319, 3786516.988809766247869 ], [ 395150.966429298045114, 3786516.683621566742659 ], [ 395150.966429298045114, 3786516.378433367237449 ], [ 395151.271617497433908, 3786516.073245167732239 ], [ 395151.576805696822703, 3786516.073245167732239 ], [ 395151.881993896211497, 3786515.76805696869269 ], [ 395152.187182095600292, 3786515.76805696869269 ], [ 395152.492370294989087, 3786515.46286876918748 ], [ 395156.15462868771283, 3786515.46286876918748 ], [ 395156.459816887101624, 3786515.76805696869269 ], [ 395156.459816887101624, 3786516.073245167732239 ], [ 395156.15462868771283, 3786516.378433367237449 ], [ 395156.15462868771283, 3786516.683621566742659 ], [ 395155.849440488324035, 3786516.988809766247869 ], [ 395155.849440488324035, 3786517.293997965287417 ], [ 395155.54425228893524, 3786517.599186164792627 ], [ 395155.54425228893524, 3786518.514750762842596 ], [ 395155.239064089546446, 3786518.819938962347806 ], [ 395154.933875890157651, 3786518.819938962347806 ], [ 395154.628687690768857, 3786519.125127161853015 ], [ 395153.102746693766676, 3786519.125127161853015 ] ] ] } },
{ "type": "Feature", "properties": { "confidence": 0.39993569254875183, "class": 1 }, "geometry": { "type": "Polygon", "coordinates": [ [ [ 395211.393692777201068, 3786044.557477110996842 ], [ 395211.088504577812273, 3786044.252288911491632 ], [ 395210.478128179034684, 3786044.252288911491632 ], [ 395210.172939979645889, 3786043.947100711986423 ], [ 395209.867751780257095, 3786043.947100711986423 ], [ 395208.952187182090711, 3786043.031536113936454 ], [ 395208.646998982701916, 3786043.031536113936454 ], [ 395207.426246185146738, 3786041.810783316381276 ], [ 395207.426246185146738, 3786040.895218718331307 ], [ 395207.731434384535532, 3786040.590030518826097 ], [ 395207.731434384535532, 3786040.284842319320887 ], [ 395208.036622583924327, 3786040.284842319320887 ], [ 395208.646998982701916, 3786039.674465920776129 ], [ 395208.952187182090711, 3786039.674465920776129 ], [ 395209.257375381479505, 3786039.369277721270919 ], [ 395211.088504577812273, 3786039.369277721270919 ], [ 395211.393692777201068, 3786039.674465920776129 ], [ 395211.698880976589862, 3786039.674465920776129 ], [ 395212.004069175978657, 3786039.979654119815677 ], [ 395212.309257375367451, 3786039.979654119815677 ], [ 395212.614445574756246, 3786040.284842319320887 ], [ 395212.919633774145041, 3786040.284842319320887 ], [ 395213.53001017292263, 3786040.895218718331307 ], [ 395213.835198372311424, 3786040.895218718331307 ], [ 395214.140386571700219, 3786041.200406917370856 ], [ 395214.140386571700219, 3786041.810783316381276 ], [ 395214.445574771089014, 3786042.115971515886486 ], [ 395214.445574771089014, 3786043.641912512946874 ], [ 395214.140386571700219, 3786043.947100711986423 ], [ 395213.835198372311424, 3786043.947100711986423 ], [ 395213.224821973533835, 3786044.557477110996842 ], [ 395211.393692777201068, 3786044.557477110996842 ] ] ] } },
{ "type": "Feature", "properties": { "confidence": 0.39746597409248352, "class": 1 }, "geometry": { "type": "Polygon", "coordinates": [ [ [ 395065.513733468949795, 3786022.583926755003631 ], [ 395065.208545269561, 3786022.278738555498421 ], [ 395064.598168870783411, 3786022.278738555498421 ], [ 395063.987792472005822, 3786021.668362156488001 ], [ 395063.682604272617027, 3786021.668362156488001 ], [ 395063.682604272617027, 3786021.363173957448453 ], [ 395063.377416073228233, 3786021.057985757943243 ], [ 395063.377416073228233, 3786020.752797558438033 ], [ 395063.072227873839438, 3786020.447609358932823 ], [ 395063.072227873839438, 3786020.142421159893274 ], [ 395062.767039674450643, 3786019.837232960388064 ], [ 395062.767039674450643, 3786018.616480162832886 ], [ 395063.072227873839438, 3786018.311291963327676 ], [ 395063.072227873839438, 3786016.785350966267288 ], [ 395063.377416073228233, 3786016.480162767227739 ], [ 395063.377416073228233, 3786013.123092573601753 ], [ 395063.682604272617027, 3786012.817904374562204 ], [ 395063.682604272617027, 3786012.512716175056994 ], [ 395063.987792472005822, 3786012.207527975551784 ], [ 395064.292980671394616, 3786012.207527975551784 ], [ 395064.598168870783411, 3786011.902339776046574 ], [ 395065.818921668338589, 3786011.902339776046574 ], [ 395066.124109867727384, 3786012.207527975551784 ], [ 395067.039674465893768, 3786012.207527975551784 ], [ 395067.344862665282562, 3786012.512716175056994 ], [ 395068.260427263507154, 3786012.512716175056994 ], [ 395068.565615462895948, 3786012.817904374562204 ], [ 395069.481180061062332, 3786012.817904374562204 ], [ 395069.786368260451127, 3786013.123092573601753 ], [ 395070.396744659228716, 3786013.123092573601753 ], [ 395071.3123092573951, 3786014.038657172117382 ], [ 395071.3123092573951, 3786017.090539165772498 ], [ 395071.007121058006305, 3786017.395727365277708 ], [ 395071.007121058006305, 3786019.226856561377645 ], [ 395070.701932858617511, 3786019.532044760882854 ], [ 395070.701932858617511, 3786020.752797558438033 ], [ 395069.481180061062332, 3786021.973550355993211 ], [ 395069.175991861673538, 3786021.973550355993211 ], [ 395068.870803662284743, 3786022.278738555498421 ], [ 395068.260427263507154, 3786022.278738555498421 ], [ 395067.955239064118359, 3786022.583926755003631 ], [ 395065.513733468949795, 3786022.583926755003631 ] ] ] } },
{ "type": "Feature", "properties": { "confidence": 0.37790605425834656, "class": 1 }, "geometry": { "type": "Polygon", "coordinates": [ [ [ 395239.471007121086586, 3786109.257375381421298 ], [ 395238.860630722250789, 3786108.646998982876539 ], [ 395238.860630722250789, 3786107.731434384360909 ], [ 395238.555442522861995, 3786107.426246185321361 ], [ 395238.555442522861995, 3786106.510681586805731 ], [ 395238.2502543234732, 3786106.205493387766182 ], [ 395238.2502543234732, 3786105.900305188260972 ], [ 395238.555442522861995, 3786105.595116988755763 ], [ 395238.555442522861995, 3786104.984740590211004 ], [ 395239.165818921639584, 3786104.374364191200584 ], [ 395239.165818921639584, 3786103.763987792655826 ], [ 395239.471007121086586, 3786103.458799593150616 ], [ 395239.471007121086586, 3786103.153611393645406 ], [ 395239.776195320475381, 3786102.848423194140196 ], [ 395239.776195320475381, 3786102.238046795595437 ], [ 395240.691759918641765, 3786101.322482197545469 ], [ 395240.691759918641765, 3786100.712105798535049 ], [ 395241.302136317419354, 3786100.10172939999029 ], [ 395242.522889114974532, 3786100.10172939999029 ], [ 395242.828077314363327, 3786100.406917599029839 ], [ 395242.828077314363327, 3786100.712105798535049 ], [ 395243.133265513752121, 3786101.017293998040259 ], [ 395243.133265513752121, 3786101.322482197545469 ], [ 395243.438453713140916, 3786101.627670396585017 ], [ 395243.438453713140916, 3786102.238046795595437 ], [ 395243.743641912529711, 3786102.543234995100647 ], [ 395243.743641912529711, 3786104.374364191200584 ], [ 395243.438453713140916, 3786104.679552390705794 ], [ 395243.438453713140916, 3786105.595116988755763 ], [ 395243.133265513752121, 3786105.900305188260972 ], [ 395243.133265513752121, 3786106.510681586805731 ], [ 395242.828077314363327, 3786106.815869786310941 ], [ 395242.828077314363327, 3786107.426246185321361 ], [ 395242.217700915585738, 3786108.036622583866119 ], [ 395242.217700915585738, 3786108.341810783371329 ], [ 395241.912512716196943, 3786108.341810783371329 ], [ 395241.607324516808148, 3786108.646998982876539 ], [ 395240.996948118030559, 3786108.646998982876539 ], [ 395240.38657171925297, 3786109.257375381421298 ], [ 395239.471007121086586, 3786109.257375381421298 ] ] ] } },
{ "type": "Feature", "properties": { "confidence": 0.37383812665939331, "class": 1 }, "geometry": { "type": "Polygon", "coordinates": [ [ [ 395271.820956256357022, 3786012.817904374562204 ], [ 395271.515768056968227, 3786012.512716175056994 ], [ 395270.905391658190638, 3786012.512716175056994 ], [ 395270.905391658190638, 3786011.597151577007025 ], [ 395271.210579857579432, 3786011.291963377501816 ], [ 395271.210579857579432, 3786009.155645981896669 ], [ 395271.515768056968227, 3786008.850457782391459 ], [ 395271.515768056968227, 3786008.545269582886249 ], [ 395271.820956256357022, 3786008.240081383381039 ], [ 395271.820956256357022, 3786007.93489318434149 ], [ 395272.126144455745816, 3786007.93489318434149 ], [ 395272.431332655134611, 3786007.62970498483628 ], [ 395272.431332655134611, 3786007.32451678533107 ], [ 395272.736520854523405, 3786007.019328585825861 ], [ 395273.0417090539122, 3786007.019328585825861 ], [ 395273.346897253300995, 3786006.714140386786312 ], [ 395273.652085452689789, 3786006.714140386786312 ], [ 395274.262461851467378, 3786006.103763987775892 ], [ 395274.567650050856173, 3786006.103763987775892 ], [ 395275.178026449633762, 3786005.493387589231133 ], [ 395275.788402848411351, 3786006.103763987775892 ], [ 395275.483214649022557, 3786006.408952187281102 ], [ 395275.483214649022557, 3786007.019328585825861 ], [ 395275.178026449633762, 3786007.32451678533107 ], [ 395275.178026449633762, 3786009.460834180936217 ], [ 395274.872838250244968, 3786009.766022380441427 ], [ 395274.872838250244968, 3786010.376398779451847 ], [ 395274.262461851467378, 3786010.986775177996606 ], [ 395274.262461851467378, 3786011.291963377501816 ], [ 395273.957273652078584, 3786011.597151577007025 ], [ 395273.957273652078584, 3786011.902339776046574 ], [ 395273.652085452689789, 3786011.902339776046574 ], [ 395273.0417090539122, 3786012.512716175056994 ], [ 395272.431332655134611, 3786012.512716175056994 ], [ 395272.126144455745816, 3786012.817904374562204 ], [ 395271.820956256357022, 3786012.817904374562204 ] ] ] } },
{ "type": "Feature", "properties": { "confidence": 0.37300583720207214, "class": 1 }, "geometry": { "type": "Polygon", "coordinates": [ [ [ 394850.661241098656319, 3786296.948118005879223 ], [ 394850.356052899267524, 3786296.642929806839675 ], [ 394849.135300101712346, 3786296.642929806839675 ], [ 394848.524923702934757, 3786296.032553407829255 ], [ 394848.524923702934757, 3786295.727365208324045 ], [ 394847.609359104768373, 3786294.811800610274076 ], [ 394847.609359104768373, 3786294.506612410768867 ], [ 394847.304170905379578, 3786294.201424211729318 ], [ 394847.304170905379578, 3786293.896236012224108 ], [ 394846.998982705990784, 3786293.591047812718898 ], [ 394846.998982705990784, 3786292.67548321466893 ], [ 394847.304170905379578, 3786292.37029501516372 ], [ 394847.304170905379578, 3786291.759918616618961 ], [ 394848.219735503545962, 3786290.844354018103331 ], [ 394848.524923702934757, 3786290.844354018103331 ], [ 394848.830111902323551, 3786290.539165819063783 ], [ 394850.356052899267524, 3786290.539165819063783 ], [ 394850.661241098656319, 3786290.844354018103331 ], [ 394851.271617497433908, 3786290.844354018103331 ], [ 394851.271617497433908, 3786291.149542217608541 ], [ 394851.576805696822703, 3786291.454730417113751 ], [ 394851.576805696822703, 3786291.759918616618961 ], [ 394852.797558494377881, 3786292.980671414174139 ], [ 394853.102746693766676, 3786292.980671414174139 ], [ 394853.713123092602473, 3786293.591047812718898 ], [ 394853.713123092602473, 3786295.727365208324045 ], [ 394853.102746693766676, 3786296.337741607334465 ], [ 394852.492370294989087, 3786296.337741607334465 ], [ 394852.187182095600292, 3786296.642929806839675 ], [ 394850.966429298045114, 3786296.642929806839675 ], [ 394850.661241098656319, 3786296.948118005879223 ] ] ] } },
{ "type": "Feature", "properties": { "confidence": 0.35900533199310303, "class": 1 }, "geometry": { "type": "Polygon", "coordinates": [ [ [ 395152.797558494377881, 3786119.938962359912694 ], [ 395152.492370294989087, 3786119.633774160873145 ], [ 395152.492370294989087, 3786115.6663275687024 ], [ 395152.797558494377881, 3786115.36113936919719 ], [ 395152.797558494377881, 3786114.750762970652431 ], [ 395153.102746693766676, 3786114.445574771147221 ], [ 395153.102746693766676, 3786114.140386571642011 ], [ 395153.40793489315547, 3786113.835198372136801 ], [ 395153.40793489315547, 3786113.224821973592043 ], [ 395154.323499491380062, 3786112.309257375542074 ], [ 395154.628687690768857, 3786112.309257375542074 ], [ 395154.933875890157651, 3786112.004069176036865 ], [ 395156.15462868771283, 3786112.004069176036865 ], [ 395156.459816887101624, 3786111.698880976531655 ], [ 395160.122075279767159, 3786111.698880976531655 ], [ 395160.122075279767159, 3786112.004069176036865 ], [ 395160.427263479155954, 3786112.309257375542074 ], [ 395160.732451678544749, 3786112.309257375542074 ], [ 395161.037639877933543, 3786112.614445574581623 ], [ 395161.342828077322338, 3786112.614445574581623 ], [ 395161.953204476099927, 3786113.224821973592043 ], [ 395161.953204476099927, 3786114.445574771147221 ], [ 395161.037639877933543, 3786115.36113936919719 ], [ 395160.732451678544749, 3786115.36113936919719 ], [ 395160.427263479155954, 3786115.6663275687024 ], [ 395160.427263479155954, 3786115.97151576820761 ], [ 395157.985757884045597, 3786118.413021363317966 ], [ 395157.680569684656803, 3786118.413021363317966 ], [ 395157.070193285879213, 3786119.023397761862725 ], [ 395156.459816887101624, 3786119.023397761862725 ], [ 395156.15462868771283, 3786119.328585961367935 ], [ 395155.849440488324035, 3786119.328585961367935 ], [ 395155.54425228893524, 3786119.633774160873145 ], [ 395154.628687690768857, 3786119.633774160873145 ], [ 395154.323499491380062, 3786119.938962359912694 ], [ 395152.797558494377881, 3786119.938962359912694 ] ] ] } },
{ "type": "Feature", "properties": { "confidence": 0.33243060111999512, "class": 1 }, "geometry": { "type": "Polygon", "coordinates": [ [ [ 395282.807731434411835, 3786122.68565615452826 ], [ 395282.50254323502304, 3786122.38046795502305 ], [ 395282.50254323502304, 3786121.159715157467872 ], [ 395283.11291963380063, 3786120.549338758923113 ], [ 395283.418107833189424, 3786120.549338758923113 ], [ 395283.723296032578219, 3786120.244150559417903 ], [ 395284.028484231967013, 3786120.244150559417903 ], [ 395284.333672431355808, 3786119.938962359912694 ], [ 395284.638860630744603, 3786119.938962359912694 ], [ 395284.944048830133397, 3786119.633774160873145 ], [ 395286.775178026466165, 3786119.633774160873145 ], [ 395287.080366225854959, 3786119.328585961367935 ], [ 395287.385554425243754, 3786119.633774160873145 ], [ 395287.995930824021343, 3786119.633774160873145 ], [ 395288.606307222798932, 3786120.244150559417903 ], [ 395288.606307222798932, 3786121.159715157467872 ], [ 395288.301119023410138, 3786121.464903356973082 ], [ 395287.995930824021343, 3786121.464903356973082 ], [ 395287.690742624632549, 3786121.770091556478292 ], [ 395287.385554425243754, 3786121.770091556478292 ], [ 395287.080366225854959, 3786122.075279755983502 ], [ 395286.46998982707737, 3786122.075279755983502 ], [ 395286.164801627688576, 3786122.38046795502305 ], [ 395285.859613428299781, 3786122.38046795502305 ], [ 395285.554425228910986, 3786122.68565615452826 ], [ 395282.807731434411835, 3786122.68565615452826 ] ] ] } },
{ "type": "Feature", "properties": { "confidence": 0.32836005091667175, "class": 1 }, "geometry": { "type": "Polygon", "coordinates": [ [ [ 395303.86571719229687, 3786029.298067141324282 ], [ 395303.560528992908075, 3786028.992878941819072 ], [ 395303.255340793461073, 3786028.992878941819072 ], [ 395303.255340793461073, 3786028.687690742779523 ], [ 395302.950152594072279, 3786028.382502543274313 ], [ 395302.950152594072279, 3786022.88911495404318 ], [ 395303.255340793461073, 3786022.583926755003631 ], [ 395303.255340793461073, 3786021.973550355993211 ], [ 395303.86571719229687, 3786021.363173957448453 ], [ 395303.86571719229687, 3786021.057985757943243 ], [ 395304.781281790463254, 3786020.142421159893274 ], [ 395305.086469989852048, 3786020.142421159893274 ], [ 395305.086469989852048, 3786020.447609358932823 ], [ 395305.391658189240843, 3786020.752797558438033 ], [ 395305.391658189240843, 3786021.057985757943243 ], [ 395306.917599186184816, 3786022.583926755003631 ], [ 395307.527975584962405, 3786022.583926755003631 ], [ 395307.527975584962405, 3786028.992878941819072 ], [ 395305.696846388629638, 3786028.992878941819072 ], [ 395305.391658189240843, 3786029.298067141324282 ], [ 395303.86571719229687, 3786029.298067141324282 ] ] ] } },
{ "type": "Feature", "properties": { "confidence": 0.29682445526123047, "class": 1 }, "geometry": { "type": "Polygon", "coordinates": [ [ [ 394948.016276703972835, 3786156.256358087528497 ], [ 394948.016276703972835, 3786155.951169888023287 ], [ 394947.405900305195246, 3786155.340793489478528 ], [ 394947.100712105806451, 3786155.340793489478528 ], [ 394946.795523906417657, 3786155.035605289973319 ], [ 394946.490335707028862, 3786155.035605289973319 ], [ 394946.490335707028862, 3786154.730417090468109 ], [ 394944.964394710084889, 3786153.20447609340772 ], [ 394944.964394710084889, 3786152.899287894368172 ], [ 394944.659206510696094, 3786152.594099694862962 ], [ 394944.659206510696094, 3786152.288911495357752 ], [ 394944.3540183113073, 3786151.983723295852542 ], [ 394944.3540183113073, 3786151.678535096812993 ], [ 394948.32146490336163, 3786151.678535096812993 ], [ 394948.626653102750424, 3786151.983723295852542 ], [ 394950.152594099694397, 3786151.983723295852542 ], [ 394950.457782299083192, 3786152.288911495357752 ], [ 394954.425228891137522, 3786152.288911495357752 ], [ 394954.730417090526316, 3786152.594099694862962 ], [ 394956.866734486247879, 3786152.594099694862962 ], [ 394957.171922685636673, 3786152.899287894368172 ], [ 394957.171922685636673, 3786154.730417090468109 ], [ 394956.866734486247879, 3786154.730417090468109 ], [ 394956.256358087470289, 3786155.340793489478528 ], [ 394956.256358087470289, 3786155.645981688518077 ], [ 394955.951169888081495, 3786155.951169888023287 ], [ 394955.951169888081495, 3786156.256358087528497 ], [ 394948.016276703972835, 3786156.256358087528497 ] ] ] } }
]
}
