{
"type": "FeatureCollection",
"name": "cell_00049_pre",
"crs": { "type": "name", "properties": { "name": "urn:ogc:def:crs:EPSG::32611" } },
"features": [
{ "type": "Feature", "properties": { "confidence": 0.99716043472290039, "class": 1 }, "geometry": { "type": "Polygon", "coordinates": [ [ [ 348578.026449643948581, 3772286.368260427378118 ], [ 348577.721261444559786, 3772286.063072227872908 ], [ 348577.110885045782197, 3772286.063072227872908 ], [ 348576.805696846393403, 3772285.757884028367698 ], [ 348576.195320447615813, 3772285.757884028367698 ], [ 348575.890132248227019, 3772285.452695828862488 ], [ 348575.890132248227019, 3772285.14750762982294 ], [ 348575.584944048838224, 3772284.84231943031773 ], [ 348575.584944048838224, 3772281.180061037652194 ], [ 348575.890132248227019, 3772280.874872838146985 ], [ 348575.890132248227019, 3772279.654120040591806 ], [ 348576.195320447615813, 3772279.348931841086596 ], [ 348576.195320447615813, 3772279.043743642047048 ], [ 348576.805696846393403, 3772278.433367243036628 ], [ 348576.805696846393403, 3772278.128179043531418 ], [ 348577.416073245170992, 3772277.517802644986659 ], [ 348577.721261444559786, 3772277.517802644986659 ], [ 348578.331637843337376, 3772276.907426245976239 ], [ 348578.942014242114965, 3772276.907426245976239 ], [ 348579.552390640892554, 3772276.297049847431481 ], [ 348579.857578840281349, 3772276.297049847431481 ], [ 348580.162767039670143, 3772275.991861647926271 ], [ 348580.773143438447732, 3772275.991861647926271 ], [ 348581.688708036614116, 3772275.076297049876302 ], [ 348582.909460834169295, 3772275.076297049876302 ], [ 348583.214649033558089, 3772274.771108850371093 ], [ 348583.825025432335678, 3772274.771108850371093 ], [ 348584.130213631724473, 3772275.076297049876302 ], [ 348584.740590030502062, 3772275.076297049876302 ], [ 348585.045778229890857, 3772275.381485249381512 ], [ 348585.350966429279651, 3772275.381485249381512 ], [ 348585.350966429279651, 3772278.128179043531418 ], [ 348585.045778229890857, 3772278.433367243036628 ], [ 348585.045778229890857, 3772279.043743642047048 ], [ 348584.435401831113268, 3772279.654120040591806 ], [ 348584.435401831113268, 3772280.264496439602226 ], [ 348584.130213631724473, 3772280.569684638641775 ], [ 348584.130213631724473, 3772281.790437436196953 ], [ 348583.825025432335678, 3772282.095625635702163 ], [ 348583.825025432335678, 3772282.706002034712583 ], [ 348583.519837232946884, 3772283.011190233752131 ], [ 348583.519837232946884, 3772283.926754832267761 ], [ 348582.6042726347805, 3772284.84231943031773 ], [ 348581.993896236002911, 3772284.84231943031773 ], [ 348581.078331637836527, 3772285.757884028367698 ], [ 348580.773143438447732, 3772285.757884028367698 ], [ 348580.467955239058938, 3772286.063072227872908 ], [ 348580.162767039670143, 3772286.063072227872908 ], [ 348579.857578840281349, 3772286.368260427378118 ], [ 348578.026449643948581, 3772286.368260427378118 ] ] ] } },
{ "type": "Feature", "properties": { "confidence": 0.89793908596038818, "class": 1 }, "geometry": { "type": "Polygon", "coordinates": [ [ [ 348360.732451678544749, 3772748.423194303177297 ], [ 348360.427263479155954, 3772748.118006103672087 ], [ 348359.51169888098957, 3772748.118006103672087 ], [ 348359.206510681600776, 3772747.812817904166877 ], [ 348358.901322482211981, 3772747.812817904166877 ], [ 348358.596134282823186, 3772747.507629705127329 ], [ 348357.985757884045597, 3772747.507629705127329 ], [ 348357.680569684656803, 3772747.202441505622119 ], [ 348357.070193285879213, 3772747.202441505622119 ], [ 348356.765005086490419, 3772746.897253306116909 ], [ 348356.15462868771283, 3772746.897253306116909 ], [ 348355.54425228893524, 3772746.28687690757215 ], [ 348355.54425228893524, 3772745.67650050856173 ], [ 348355.239064089546446, 3772745.37131230905652 ], [ 348355.239064089546446, 3772743.540183112956583 ], [ 348355.54425228893524, 3772743.234994913451374 ], [ 348359.206510681600776, 3772743.234994913451374 ], [ 348359.51169888098957, 3772743.540183112956583 ], [ 348360.427263479155954, 3772743.540183112956583 ], [ 348360.732451678544749, 3772743.845371312461793 ], [ 348361.037639877933543, 3772743.845371312461793 ], [ 348361.342828077322338, 3772744.150559511501342 ], [ 348361.037639877933543, 3772744.455747711006552 ], [ 348361.037639877933543, 3772745.066124110016972 ], [ 348361.342828077322338, 3772745.37131230905652 ], [ 348361.648016276711132, 3772745.37131230905652 ], [ 348361.953204476099927, 3772745.67650050856173 ], [ 348362.258392675488722, 3772745.67650050856173 ], [ 348362.563580874877516, 3772745.98168870806694 ], [ 348362.563580874877516, 3772746.897253306116909 ], [ 348362.868769074266311, 3772747.202441505622119 ], [ 348362.868769074266311, 3772747.507629705127329 ], [ 348363.173957273655105, 3772747.812817904166877 ], [ 348363.173957273655105, 3772748.118006103672087 ], [ 348362.868769074266311, 3772748.423194303177297 ], [ 348360.732451678544749, 3772748.423194303177297 ] ] ] } },
{ "type": "Feature", "properties": { "confidence": 0.64218348264694214, "class": 1 }, "geometry": { "type": "Polygon", "coordinates": [ [ [ 348380.264496439485811, 3772304.984740590211004 ], [ 348379.959308240097016, 3772304.679552390705794 ], [ 348379.654120040708221, 3772304.679552390705794 ], [ 348379.654120040708221, 3772304.374364191200584 ], [ 348378.128179043764248, 3772302.848423194140196 ], [ 348378.128179043764248, 3772302.238046795595437 ], [ 348378.738555442541838, 3772301.627670396585017 ], [ 348379.043743641930632, 3772301.627670396585017 ], [ 348379.348931841319427, 3772301.322482197545469 ], [ 348379.654120040708221, 3772301.322482197545469 ], [ 348381.790437436429784, 3772299.186164801474661 ], [ 348383.011190233984962, 3772299.186164801474661 ], [ 348383.926754832151346, 3772300.10172939999029 ], [ 348384.231943031540141, 3772300.10172939999029 ], [ 348384.84231943031773, 3772300.712105798535049 ], [ 348384.84231943031773, 3772301.017293998040259 ], [ 348384.537131230928935, 3772301.322482197545469 ], [ 348384.537131230928935, 3772301.627670396585017 ], [ 348384.231943031540141, 3772301.932858596090227 ], [ 348383.621566632762551, 3772301.932858596090227 ], [ 348382.706002034596168, 3772302.848423194140196 ], [ 348382.706002034596168, 3772303.458799593150616 ], [ 348382.400813835207373, 3772303.763987792655826 ], [ 348382.400813835207373, 3772304.374364191200584 ], [ 348382.095625635818578, 3772304.374364191200584 ], [ 348381.790437436429784, 3772304.679552390705794 ], [ 348381.180061037652194, 3772304.679552390705794 ], [ 348380.8748728382634, 3772304.984740590211004 ], [ 348380.264496439485811, 3772304.984740590211004 ] ] ] } },
{ "type": "Feature", "properties": { "confidence": 0.43957230448722839, "class": 1 }, "geometry": { "type": "Polygon", "coordinates": [ [ [ 348383.011190233984962, 3772302.543234995100647 ], [ 348382.706002034596168, 3772302.238046795595437 ], [ 348382.400813835207373, 3772302.238046795595437 ], [ 348382.095625635818578, 3772301.932858596090227 ], [ 348381.790437436429784, 3772301.932858596090227 ], [ 348381.485249237040989, 3772301.627670396585017 ], [ 348380.8748728382634, 3772301.627670396585017 ], [ 348380.264496439485811, 3772301.017293998040259 ], [ 348380.264496439485811, 3772300.406917599029839 ], [ 348381.180061037652194, 3772299.491353000979871 ], [ 348381.790437436429784, 3772299.491353000979871 ], [ 348382.095625635818578, 3772299.186164801474661 ], [ 348382.706002034596168, 3772299.186164801474661 ], [ 348383.011190233984962, 3772299.491353000979871 ], [ 348383.316378433373757, 3772299.491353000979871 ], [ 348383.621566632762551, 3772299.79654120048508 ], [ 348383.926754832151346, 3772299.79654120048508 ], [ 348384.231943031540141, 3772300.10172939999029 ], [ 348384.537131230928935, 3772300.10172939999029 ], [ 348384.84231943031773, 3772300.406917599029839 ], [ 348385.147507629706524, 3772300.406917599029839 ], [ 348385.147507629706524, 3772300.712105798535049 ], [ 348385.452695829095319, 3772301.017293998040259 ], [ 348385.147507629706524, 3772301.322482197545469 ], [ 348385.147507629706524, 3772301.932858596090227 ], [ 348384.84231943031773, 3772302.238046795595437 ], [ 348384.231943031540141, 3772302.238046795595437 ], [ 348383.926754832151346, 3772302.543234995100647 ], [ 348383.011190233984962, 3772302.543234995100647 ] ] ] } },
{ "type": "Feature", "properties": { "confidence": 0.26645401120185852, "class": 1 }, "geometry": { "type": "Polygon", "coordinates": [ [ [ 348380.264496439485811, 3772304.679552390705794 ], [ 348379.959308240097016, 3772304.374364191200584 ], [ 348379.654120040708221, 3772304.374364191200584 ], [ 348379.654120040708221, 3772304.069175991695374 ], [ 348378.738555442541838, 3772303.153611393645406 ], [ 348378.433367243153043, 3772303.153611393645406 ], [ 348378.433367243153043, 3772302.848423194140196 ], [ 348378.128179043764248, 3772302.543234995100647 ], [ 348378.128179043764248, 3772301.932858596090227 ], [ 348378.433367243153043, 3772301.627670396585017 ], [ 348379.959308240097016, 3772301.627670396585017 ], [ 348380.264496439485811, 3772301.322482197545469 ], [ 348380.8748728382634, 3772301.322482197545469 ], [ 348381.180061037652194, 3772301.627670396585017 ], [ 348381.485249237040989, 3772301.627670396585017 ], [ 348382.095625635818578, 3772302.238046795595437 ], [ 348382.400813835207373, 3772302.238046795595437 ], [ 348382.706002034596168, 3772302.543234995100647 ], [ 348382.706002034596168, 3772303.458799593150616 ], [ 348382.400813835207373, 3772303.763987792655826 ], [ 348382.400813835207373, 3772304.069175991695374 ], [ 348381.790437436429784, 3772304.679552390705794 ], [ 348380.264496439485811, 3772304.679552390705794 ] ] ] } }
]
}
