{
"type": "FeatureCollection",
"name": "cell_00072_pre",
"crs": { "type": "name", "properties": { "name": "urn:ogc:def:crs:EPSG::32611" } },
"features": [
{ "type": "Feature", "properties": { "confidence": 0.73034787178039551, "class": 1 }, "geometry": { "type": "Polygon", "coordinates": [ [ [ 350375.890132248227019, 3769895.218718209769577 ], [ 350375.584944048838224, 3769894.913530010264367 ], [ 350374.974567650060635, 3769894.913530010264367 ], [ 350374.974567650060635, 3769894.608341810759157 ], [ 350374.66937945067184, 3769894.303153611253947 ], [ 350374.66937945067184, 3769893.692777212709188 ], [ 350374.364191251283046, 3769893.387589013203979 ], [ 350374.364191251283046, 3769892.47202441515401 ], [ 350380.773143438447732, 3769892.47202441515401 ], [ 350380.773143438447732, 3769893.387589013203979 ], [ 350380.162767039670143, 3769893.997965412214398 ], [ 350380.162767039670143, 3769894.303153611253947 ], [ 350379.552390640892554, 3769894.913530010264367 ], [ 350378.942014242114965, 3769894.913530010264367 ], [ 350378.63682604272617, 3769895.218718209769577 ], [ 350375.890132248227019, 3769895.218718209769577 ] ] ] } },
{ "type": "Feature", "properties": { "confidence": 0.5298539400100708, "class": 1 }, "geometry": { "type": "Polygon", "coordinates": [ [ [ 349947.405900305195246, 3770340.488301118835807 ], [ 349947.100712105806451, 3770340.183112919796258 ], [ 349946.490335707028862, 3770340.183112919796258 ], [ 349946.185147507640067, 3770339.877924720291048 ], [ 349945.879959308251273, 3770339.877924720291048 ], [ 349945.269582909473684, 3770339.267548321280628 ], [ 349944.659206510696094, 3770339.267548321280628 ], [ 349944.3540183113073, 3770338.96236012224108 ], [ 349944.048830111918505, 3770338.96236012224108 ], [ 349943.743641912529711, 3770338.65717192273587 ], [ 349943.133265513752121, 3770338.65717192273587 ], [ 349942.828077314363327, 3770338.35198372323066 ], [ 349942.522889114974532, 3770338.35198372323066 ], [ 349941.607324516808148, 3770337.436419125180691 ], [ 349941.607324516808148, 3770337.131230925675482 ], [ 349941.302136317419354, 3770336.826042726170272 ], [ 349941.302136317419354, 3770336.520854527130723 ], [ 349940.996948118030559, 3770336.215666327625513 ], [ 349940.996948118030559, 3770334.079348932020366 ], [ 349942.828077314363327, 3770334.079348932020366 ], [ 349943.133265513752121, 3770334.384537131059915 ], [ 349943.743641912529711, 3770334.384537131059915 ], [ 349944.048830111918505, 3770334.689725330565125 ], [ 349945.269582909473684, 3770334.689725330565125 ], [ 349945.574771108862478, 3770334.994913530070335 ], [ 349946.795523906417657, 3770334.994913530070335 ], [ 349947.100712105806451, 3770335.300101729575545 ], [ 349947.405900305195246, 3770335.300101729575545 ], [ 349947.71108850458404, 3770335.605289928615093 ], [ 349948.016276703972835, 3770335.605289928615093 ], [ 349948.32146490336163, 3770335.910478128120303 ], [ 349948.626653102750424, 3770335.910478128120303 ], [ 349948.931841302139219, 3770336.215666327625513 ], [ 349949.542217700916808, 3770336.215666327625513 ], [ 349949.542217700916808, 3770336.520854527130723 ], [ 349950.152594099694397, 3770337.131230925675482 ], [ 349950.152594099694397, 3770338.65717192273587 ], [ 349950.457782299083192, 3770338.96236012224108 ], [ 349950.152594099694397, 3770339.267548321280628 ], [ 349950.152594099694397, 3770340.183112919796258 ], [ 349949.847405900305603, 3770340.488301118835807 ], [ 349947.405900305195246, 3770340.488301118835807 ] ] ] } },
{ "type": "Feature", "properties": { "confidence": 0.26195544004440308, "class": 1 }, "geometry": { "type": "Polygon", "coordinates": [ [ [ 350304.476093591074459, 3770131.12919633788988 ], [ 350304.170905391685665, 3770130.82400813838467 ], [ 350304.170905391685665, 3770129.603255340829492 ], [ 350303.86571719229687, 3770129.298067141324282 ], [ 350303.560528992908075, 3770129.298067141324282 ], [ 350303.255340793461073, 3770128.992878941819072 ], [ 350303.255340793461073, 3770127.466937945224345 ], [ 350302.950152594072279, 3770127.161749745719135 ], [ 350302.950152594072279, 3770126.856561546213925 ], [ 350307.527975584962405, 3770126.856561546213925 ], [ 350307.527975584962405, 3770130.82400813838467 ], [ 350306.917599186184816, 3770130.82400813838467 ], [ 350306.612410986796021, 3770130.51881993887946 ], [ 350306.002034588018432, 3770130.51881993887946 ], [ 350305.696846388629638, 3770130.82400813838467 ], [ 350305.391658189240843, 3770130.82400813838467 ], [ 350305.086469989852048, 3770131.12919633788988 ], [ 350304.476093591074459, 3770131.12919633788988 ] ] ] } }
]
}
