{
"type": "FeatureCollection",
"name": "cell_00474_pre",
"crs": { "type": "name", "properties": { "name": "urn:ogc:def:crs:EPSG::32611" } },
"features": [
{ "type": "Feature", "properties": { "confidence": 0.93934273719787598, "class": 1 }, "geometry": { "type": "Polygon", "coordinates": [ [ [ 400922.075279755867086, 3783677.212614445481449 ], [ 400921.770091556478292, 3783676.907426245976239 ], [ 400921.464903357089497, 3783676.907426245976239 ], [ 400921.159715157700703, 3783676.602238046936691 ], [ 400921.159715157700703, 3783675.991861647926271 ], [ 400921.464903357089497, 3783675.686673448421061 ], [ 400921.464903357089497, 3783675.381485249381512 ], [ 400922.99084435403347, 3783673.855544252321124 ], [ 400923.296032553422265, 3783673.855544252321124 ], [ 400924.211597151588649, 3783672.939979654271156 ], [ 400924.516785350977443, 3783672.939979654271156 ], [ 400925.127161749755032, 3783672.329603255260736 ], [ 400925.432349949143827, 3783672.329603255260736 ], [ 400926.042726347921416, 3783671.719226856715977 ], [ 400927.263479145476595, 3783671.719226856715977 ], [ 400925.737538148532622, 3783673.245167853310704 ], [ 400925.737538148532622, 3783673.550356052815914 ], [ 400925.432349949143827, 3783673.855544252321124 ], [ 400925.432349949143827, 3783674.160732451826334 ], [ 400925.127161749755032, 3783674.465920650865883 ], [ 400925.127161749755032, 3783674.771108850371093 ], [ 400924.211597151588649, 3783675.686673448421061 ], [ 400923.906408952199854, 3783675.686673448421061 ], [ 400922.380467955255881, 3783677.212614445481449 ], [ 400922.075279755867086, 3783677.212614445481449 ] ] ] } },
{ "type": "Feature", "properties": { "confidence": 0.88920724391937256, "class": 1 }, "geometry": { "type": "Polygon", "coordinates": [ [ [ 401351.169888097676449, 3783625.940996948163956 ], [ 401351.169888097676449, 3783622.88911495404318 ], [ 401352.695829094620422, 3783621.363173957448453 ], [ 401353.001017294009216, 3783621.363173957448453 ], [ 401353.306205493398011, 3783621.057985757943243 ], [ 401353.611393692786805, 3783621.057985757943243 ], [ 401353.9165818921756, 3783620.752797558438033 ], [ 401354.221770091564395, 3783620.752797558438033 ], [ 401355.137334689730778, 3783619.837232960388064 ], [ 401357.578840284841135, 3783619.837232960388064 ], [ 401358.494404883007519, 3783620.752797558438033 ], [ 401358.494404883007519, 3783621.973550355993211 ], [ 401358.189216683618724, 3783621.973550355993211 ], [ 401357.88402848422993, 3783622.278738555498421 ], [ 401357.88402848422993, 3783622.583926755003631 ], [ 401356.968463886063546, 3783623.4994913530536 ], [ 401356.663275686674751, 3783623.4994913530536 ], [ 401356.358087487285957, 3783623.80467955255881 ], [ 401355.747711088508368, 3783623.80467955255881 ], [ 401355.442522889119573, 3783624.109867751598358 ], [ 401355.137334689730778, 3783624.109867751598358 ], [ 401354.832146490341984, 3783624.415055951103568 ], [ 401354.526958290953189, 3783624.415055951103568 ], [ 401354.221770091564395, 3783624.720244150608778 ], [ 401353.9165818921756, 3783624.720244150608778 ], [ 401353.611393692786805, 3783625.025432350113988 ], [ 401353.306205493398011, 3783625.025432350113988 ], [ 401352.390640895231627, 3783625.940996948163956 ], [ 401351.169888097676449, 3783625.940996948163956 ] ] ] } },
{ "type": "Feature", "properties": { "confidence": 0.87465107440948486, "class": 1 }, "geometry": { "type": "Polygon", "coordinates": [ [ [ 401164.394710071210284, 3783662.563580874819309 ], [ 401164.089521871821489, 3783662.258392675314099 ], [ 401163.784333672432695, 3783662.258392675314099 ], [ 401163.173957273655105, 3783661.64801627676934 ], [ 401163.173957273655105, 3783661.34282807726413 ], [ 401162.563580874877516, 3783660.732451678719372 ], [ 401162.563580874877516, 3783660.427263479214162 ], [ 401161.953204476099927, 3783659.816887080203742 ], [ 401161.953204476099927, 3783658.901322482153773 ], [ 401161.648016276711132, 3783658.596134282648563 ], [ 401161.953204476099927, 3783658.290946083609015 ], [ 401161.953204476099927, 3783657.985757884103805 ], [ 401162.258392675488722, 3783657.680569684598595 ], [ 401163.173957273655105, 3783657.680569684598595 ], [ 401163.4791454730439, 3783657.985757884103805 ], [ 401164.089521871821489, 3783657.985757884103805 ], [ 401164.394710071210284, 3783658.290946083609015 ], [ 401165.005086469987873, 3783658.290946083609015 ], [ 401165.615462868765462, 3783658.901322482153773 ], [ 401166.225839267543051, 3783658.901322482153773 ], [ 401166.225839267543051, 3783659.206510681658983 ], [ 401166.836215666320641, 3783659.816887080203742 ], [ 401167.141403865709435, 3783659.816887080203742 ], [ 401167.141403865709435, 3783661.95320447627455 ], [ 401166.836215666320641, 3783661.95320447627455 ], [ 401166.531027466931846, 3783662.258392675314099 ], [ 401165.920651068154257, 3783662.258392675314099 ], [ 401165.615462868765462, 3783662.563580874819309 ], [ 401164.394710071210284, 3783662.563580874819309 ] ] ] } },
{ "type": "Feature", "properties": { "confidence": 0.87177091836929321, "class": 1 }, "geometry": { "type": "Polygon", "coordinates": [ [ [ 401104.577822990831919, 3783659.816887080203742 ], [ 401104.272634791443124, 3783659.511698881164193 ], [ 401104.272634791443124, 3783659.206510681658983 ], [ 401103.662258392665535, 3783658.596134282648563 ], [ 401103.662258392665535, 3783657.070193286053836 ], [ 401103.96744659205433, 3783656.765005086548626 ], [ 401103.96744659205433, 3783656.154628687538207 ], [ 401104.272634791443124, 3783655.849440488498658 ], [ 401104.272634791443124, 3783652.797558494377881 ], [ 401105.188199389609508, 3783651.881993896327913 ], [ 401105.798575788387097, 3783651.881993896327913 ], [ 401106.408952187164687, 3783651.271617497317493 ], [ 401106.714140386553481, 3783651.271617497317493 ], [ 401107.93489318410866, 3783650.050864699762315 ], [ 401109.766022380441427, 3783650.050864699762315 ], [ 401110.071210579830222, 3783650.356052899267524 ], [ 401110.376398779219016, 3783650.356052899267524 ], [ 401110.986775178054813, 3783650.966429298277944 ], [ 401110.986775178054813, 3783651.576805696822703 ], [ 401111.291963377443608, 3783651.881993896327913 ], [ 401111.291963377443608, 3783652.187182095833123 ], [ 401111.597151576832402, 3783652.492370294872671 ], [ 401111.902339776221197, 3783652.492370294872671 ], [ 401111.902339776221197, 3783652.797558494377881 ], [ 401112.207527975609992, 3783653.102746693883091 ], [ 401112.207527975609992, 3783655.544252288993448 ], [ 401112.512716174998786, 3783655.849440488498658 ], [ 401112.512716174998786, 3783657.070193286053836 ], [ 401111.597151576832402, 3783657.985757884103805 ], [ 401111.597151576832402, 3783658.290946083609015 ], [ 401110.681586978607811, 3783659.206510681658983 ], [ 401110.376398779219016, 3783659.206510681658983 ], [ 401110.071210579830222, 3783659.511698881164193 ], [ 401109.460834181052633, 3783659.511698881164193 ], [ 401109.155645981663838, 3783659.816887080203742 ], [ 401104.577822990831919, 3783659.816887080203742 ] ] ] } },
{ "type": "Feature", "properties": { "confidence": 0.86867690086364746, "class": 1 }, "geometry": { "type": "Polygon", "coordinates": [ [ [ 401307.527975584962405, 3783951.576805696822703 ], [ 401307.222787385573611, 3783951.271617497317493 ], [ 401304.781281790463254, 3783951.271617497317493 ], [ 401304.476093591074459, 3783950.966429298277944 ], [ 401304.170905391685665, 3783950.966429298277944 ], [ 401304.170905391685665, 3783950.661241098772734 ], [ 401303.86571719229687, 3783950.356052899267524 ], [ 401303.86571719229687, 3783943.336724313441664 ], [ 401304.781281790463254, 3783942.421159714926034 ], [ 401307.527975584962405, 3783942.421159714926034 ], [ 401307.527975584962405, 3783951.576805696822703 ] ] ] } },
{ "type": "Feature", "properties": { "confidence": 0.85921823978424072, "class": 1 }, "geometry": { "type": "Polygon", "coordinates": [ [ [ 401355.747711088508368, 3783842.319430315401405 ], [ 401355.442522889119573, 3783842.014242115896195 ], [ 401355.442522889119573, 3783839.877924720291048 ], [ 401355.137334689730778, 3783839.572736520785838 ], [ 401355.137334689730778, 3783838.65717192273587 ], [ 401355.442522889119573, 3783838.35198372323066 ], [ 401355.442522889119573, 3783838.04679552372545 ], [ 401356.358087487285957, 3783837.131230925675482 ], [ 401356.358087487285957, 3783836.826042726170272 ], [ 401356.663275686674751, 3783836.520854527130723 ], [ 401356.663275686674751, 3783836.215666327625513 ], [ 401357.273652085452341, 3783835.605289928615093 ], [ 401358.189216683618724, 3783835.605289928615093 ], [ 401358.494404883007519, 3783835.910478128120303 ], [ 401358.799593082396314, 3783835.910478128120303 ], [ 401358.799593082396314, 3783836.520854527130723 ], [ 401359.104781281785108, 3783836.826042726170272 ], [ 401359.104781281785108, 3783837.131230925675482 ], [ 401359.715157680562697, 3783837.741607324685901 ], [ 401359.715157680562697, 3783839.267548321280628 ], [ 401360.020345879951492, 3783839.572736520785838 ], [ 401360.020345879951492, 3783841.098677517846227 ], [ 401359.715157680562697, 3783841.403865717351437 ], [ 401359.715157680562697, 3783841.709053916390985 ], [ 401359.104781281785108, 3783841.709053916390985 ], [ 401358.799593082396314, 3783842.014242115896195 ], [ 401357.88402848422993, 3783842.014242115896195 ], [ 401357.578840284841135, 3783842.319430315401405 ], [ 401355.747711088508368, 3783842.319430315401405 ] ] ] } },
{ "type": "Feature", "properties": { "confidence": 0.84785270690917969, "class": 1 }, "geometry": { "type": "Polygon", "coordinates": [ [ [ 401305.391658189240843, 3783790.132248219568282 ], [ 401304.781281790463254, 3783789.521871821023524 ], [ 401304.781281790463254, 3783788.911495422013104 ], [ 401303.86571719229687, 3783787.995930823963135 ], [ 401303.560528992908075, 3783787.995930823963135 ], [ 401303.255340793461073, 3783787.690742624457926 ], [ 401303.255340793461073, 3783784.94404883030802 ], [ 401302.950152594072279, 3783784.63886063080281 ], [ 401302.950152594072279, 3783783.723296032752842 ], [ 401302.644964394683484, 3783783.418107833247632 ], [ 401302.644964394683484, 3783782.197355035692453 ], [ 401302.950152594072279, 3783781.892166836187243 ], [ 401303.255340793461073, 3783781.892166836187243 ], [ 401303.560528992908075, 3783781.586978636682034 ], [ 401303.86571719229687, 3783781.586978636682034 ], [ 401304.170905391685665, 3783781.281790437642485 ], [ 401304.476093591074459, 3783781.281790437642485 ], [ 401305.086469989852048, 3783780.671414038632065 ], [ 401305.696846388629638, 3783780.671414038632065 ], [ 401306.002034588018432, 3783780.366225839126855 ], [ 401306.307222787407227, 3783780.366225839126855 ], [ 401306.612410986796021, 3783780.061037640087306 ], [ 401307.527975584962405, 3783780.061037640087306 ], [ 401307.527975584962405, 3783790.132248219568282 ], [ 401305.391658189240843, 3783790.132248219568282 ] ] ] } },
{ "type": "Feature", "properties": { "confidence": 0.83189773559570312, "class": 1 }, "geometry": { "type": "Polygon", "coordinates": [ [ [ 401246.185147507640067, 3783670.803662258200347 ], [ 401245.879959308251273, 3783670.498474059160799 ], [ 401245.574771108862478, 3783670.498474059160799 ], [ 401245.574771108862478, 3783670.193285859655589 ], [ 401245.269582909473684, 3783669.888097660150379 ], [ 401245.269582909473684, 3783667.141403865534812 ], [ 401245.574771108862478, 3783666.836215666495264 ], [ 401245.574771108862478, 3783666.531027466990054 ], [ 401246.490335707028862, 3783665.615462868940085 ], [ 401246.795523906417657, 3783665.615462868940085 ], [ 401247.100712105806451, 3783665.310274669434875 ], [ 401247.100712105806451, 3783665.005086469929665 ], [ 401247.71108850458404, 3783664.394710071384907 ], [ 401248.016276703972835, 3783664.394710071384907 ], [ 401248.32146490336163, 3783664.089521871879697 ], [ 401249.847405900305603, 3783664.089521871879697 ], [ 401250.152594099694397, 3783664.394710071384907 ], [ 401251.068158697860781, 3783664.394710071384907 ], [ 401251.373346897249576, 3783664.699898270424455 ], [ 401251.67853509663837, 3783664.699898270424455 ], [ 401251.983723296027165, 3783665.005086469929665 ], [ 401252.594099694804754, 3783665.005086469929665 ], [ 401252.594099694804754, 3783666.836215666495264 ], [ 401252.28891149541596, 3783667.141403865534812 ], [ 401252.28891149541596, 3783667.446592065040022 ], [ 401251.67853509663837, 3783668.056968464050442 ], [ 401251.67853509663837, 3783668.362156663089991 ], [ 401250.762970498471987, 3783669.27772126160562 ], [ 401250.457782299083192, 3783669.27772126160562 ], [ 401250.152594099694397, 3783669.582909460645169 ], [ 401249.847405900305603, 3783669.582909460645169 ], [ 401249.542217700916808, 3783669.888097660150379 ], [ 401249.237029501528013, 3783669.888097660150379 ], [ 401248.931841302139219, 3783670.193285859655589 ], [ 401248.626653102750424, 3783670.193285859655589 ], [ 401248.32146490336163, 3783670.498474059160799 ], [ 401247.405900305195246, 3783670.498474059160799 ], [ 401247.100712105806451, 3783670.803662258200347 ], [ 401246.185147507640067, 3783670.803662258200347 ] ] ] } },
{ "type": "Feature", "properties": { "confidence": 0.80700826644897461, "class": 1 }, "geometry": { "type": "Polygon", "coordinates": [ [ [ 400950.762970498471987, 3783952.797558494377881 ], [ 400950.457782299083192, 3783952.492370294872671 ], [ 400950.152594099694397, 3783952.492370294872671 ], [ 400949.847405900305603, 3783952.187182095833123 ], [ 400949.542217700916808, 3783952.187182095833123 ], [ 400949.542217700916808, 3783951.881993896327913 ], [ 400949.237029501528013, 3783951.576805696822703 ], [ 400949.237029501528013, 3783951.271617497317493 ], [ 400948.931841302139219, 3783950.966429298277944 ], [ 400948.931841302139219, 3783950.661241098772734 ], [ 400948.626653102750424, 3783950.356052899267524 ], [ 400948.626653102750424, 3783950.050864699762315 ], [ 400948.32146490336163, 3783949.745676500722766 ], [ 400948.32146490336163, 3783949.440488301217556 ], [ 400948.016276703972835, 3783949.135300101712346 ], [ 400948.016276703972835, 3783947.914547304157168 ], [ 400948.32146490336163, 3783947.609359104651958 ], [ 400948.32146490336163, 3783947.304170905612409 ], [ 400949.237029501528013, 3783946.388606307096779 ], [ 400951.068158697860781, 3783946.388606307096779 ], [ 400951.373346897249576, 3783946.693794506601989 ], [ 400951.983723296027165, 3783946.693794506601989 ], [ 400952.28891149541596, 3783946.998982706107199 ], [ 400952.28891149541596, 3783947.304170905612409 ], [ 400952.594099694804754, 3783947.609359104651958 ], [ 400952.899287894193549, 3783947.609359104651958 ], [ 400952.899287894193549, 3783947.914547304157168 ], [ 400953.204476093582343, 3783948.219735503662378 ], [ 400953.204476093582343, 3783950.356052899267524 ], [ 400952.899287894193549, 3783950.661241098772734 ], [ 400952.899287894193549, 3783951.881993896327913 ], [ 400952.594099694804754, 3783952.187182095833123 ], [ 400952.594099694804754, 3783952.492370294872671 ], [ 400952.28891149541596, 3783952.492370294872671 ], [ 400951.983723296027165, 3783952.797558494377881 ], [ 400950.762970498471987, 3783952.797558494377881 ] ] ] } },
{ "type": "Feature", "properties": { "confidence": 0.66802829504013062, "class": 1 }, "geometry": { "type": "Polygon", "coordinates": [ [ [ 401070.396744659228716, 3783782.807731434237212 ], [ 401070.091556459839921, 3783782.502543235197663 ], [ 401069.481180061062332, 3783782.502543235197663 ], [ 401069.481180061062332, 3783780.976602238137275 ], [ 401069.786368260451127, 3783780.671414038632065 ], [ 401069.786368260451127, 3783780.366225839126855 ], [ 401070.091556459839921, 3783780.061037640087306 ], [ 401070.091556459839921, 3783779.450661241076887 ], [ 401070.396744659228716, 3783779.145473041571677 ], [ 401070.396744659228716, 3783778.535096643026918 ], [ 401071.007121058006305, 3783778.535096643026918 ], [ 401071.3123092573951, 3783778.840284842532128 ], [ 401071.922685656172689, 3783778.840284842532128 ], [ 401072.227873855561484, 3783778.535096643026918 ], [ 401072.227873855561484, 3783777.31434384547174 ], [ 401072.533062054950278, 3783777.00915564596653 ], [ 401072.533062054950278, 3783776.70396744646132 ], [ 401073.143438453727867, 3783776.70396744646132 ], [ 401073.143438453727867, 3783782.197355035692453 ], [ 401072.533062054950278, 3783782.197355035692453 ], [ 401072.227873855561484, 3783782.502543235197663 ], [ 401071.617497456783894, 3783782.502543235197663 ], [ 401071.3123092573951, 3783782.807731434237212 ], [ 401070.396744659228716, 3783782.807731434237212 ] ] ] } },
{ "type": "Feature", "properties": { "confidence": 0.62532502412796021, "class": 1 }, "geometry": { "type": "Polygon", "coordinates": [ [ [ 401013.021363173960708, 3783648.219735503662378 ], [ 401012.716174974571913, 3783647.914547304157168 ], [ 401013.021363173960708, 3783647.609359104651958 ], [ 401013.021363173960708, 3783646.998982706107199 ], [ 401012.716174974571913, 3783646.693794506601989 ], [ 401013.021363173960708, 3783646.388606307096779 ], [ 401013.021363173960708, 3783645.473041709046811 ], [ 401014.242115971515886, 3783644.252288911491632 ], [ 401014.547304170904681, 3783644.252288911491632 ], [ 401015.462868769071065, 3783643.336724313441664 ], [ 401015.462868769071065, 3783643.031536113936454 ], [ 401016.073245167848654, 3783642.421159714926034 ], [ 401016.683621566626243, 3783642.421159714926034 ], [ 401016.988809766015038, 3783642.115971515886486 ], [ 401020.345879959291779, 3783642.115971515886486 ], [ 401020.651068158680573, 3783642.421159714926034 ], [ 401020.651068158680573, 3783644.252288911491632 ], [ 401020.345879959291779, 3783644.557477110996842 ], [ 401020.345879959291779, 3783644.862665310502052 ], [ 401019.430315361125395, 3783645.778229908552021 ], [ 401019.1251271617366, 3783645.778229908552021 ], [ 401018.819938962347806, 3783646.083418108057231 ], [ 401018.514750762959011, 3783646.083418108057231 ], [ 401018.209562563570216, 3783646.388606307096779 ], [ 401017.904374364181422, 3783646.388606307096779 ], [ 401017.599186164792627, 3783646.693794506601989 ], [ 401017.293997965403832, 3783646.693794506601989 ], [ 401015.768056968459859, 3783648.219735503662378 ], [ 401013.021363173960708, 3783648.219735503662378 ] ] ] } },
{ "type": "Feature", "properties": { "confidence": 0.61657536029815674, "class": 1 }, "geometry": { "type": "Polygon", "coordinates": [ [ [ 401110.986775178054813, 3783724.211597151588649 ], [ 401110.681586978607811, 3783723.906408952083439 ], [ 401110.376398779219016, 3783723.906408952083439 ], [ 401110.071210579830222, 3783723.601220752578229 ], [ 401110.071210579830222, 3783723.29603255353868 ], [ 401109.766022380441427, 3783722.99084435403347 ], [ 401109.766022380441427, 3783720.244150559417903 ], [ 401109.460834181052633, 3783719.938962359912694 ], [ 401109.460834181052633, 3783719.328585961367935 ], [ 401109.766022380441427, 3783719.023397761862725 ], [ 401109.766022380441427, 3783717.497456764802337 ], [ 401110.376398779219016, 3783716.887080366257578 ], [ 401112.817904374387581, 3783716.887080366257578 ], [ 401113.123092573776376, 3783717.192268565762788 ], [ 401113.42828077316517, 3783717.192268565762788 ], [ 401114.038657171942759, 3783717.802644964307547 ], [ 401114.343845371331554, 3783717.802644964307547 ], [ 401114.649033570720349, 3783718.107833163812757 ], [ 401114.954221770109143, 3783718.107833163812757 ], [ 401116.174974567664322, 3783719.328585961367935 ], [ 401116.480162767053116, 3783719.328585961367935 ], [ 401116.480162767053116, 3783719.633774160873145 ], [ 401116.785350966441911, 3783719.938962359912694 ], [ 401116.785350966441911, 3783721.159715157467872 ], [ 401116.480162767053116, 3783721.464903356973082 ], [ 401116.174974567664322, 3783721.464903356973082 ], [ 401115.259409969497938, 3783722.38046795502305 ], [ 401114.954221770109143, 3783722.38046795502305 ], [ 401114.343845371331554, 3783722.99084435403347 ], [ 401114.038657171942759, 3783722.99084435403347 ], [ 401113.733468972553965, 3783723.29603255353868 ], [ 401113.42828077316517, 3783723.29603255353868 ], [ 401112.817904374387581, 3783723.906408952083439 ], [ 401112.512716174998786, 3783723.906408952083439 ], [ 401112.207527975609992, 3783724.211597151588649 ], [ 401110.986775178054813, 3783724.211597151588649 ] ] ] } },
{ "type": "Feature", "properties": { "confidence": 0.53221970796585083, "class": 1 }, "geometry": { "type": "Polygon", "coordinates": [ [ [ 401137.232960325549357, 3783787.690742624457926 ], [ 401136.622583926771767, 3783787.080366225913167 ], [ 401136.622583926771767, 3783783.418107833247632 ], [ 401138.14852492371574, 3783781.892166836187243 ], [ 401138.453713123104535, 3783781.892166836187243 ], [ 401138.75890132249333, 3783781.586978636682034 ], [ 401139.369277721270919, 3783781.586978636682034 ], [ 401139.674465920659713, 3783781.281790437642485 ], [ 401142.11597151577007, 3783781.281790437642485 ], [ 401142.421159715158865, 3783781.586978636682034 ], [ 401142.726347914547659, 3783781.586978636682034 ], [ 401143.031536113936454, 3783781.892166836187243 ], [ 401143.336724313325249, 3783781.892166836187243 ], [ 401144.252288911491632, 3783782.807731434237212 ], [ 401144.252288911491632, 3783785.249237029347569 ], [ 401143.947100712102838, 3783785.554425228852779 ], [ 401143.641912512714043, 3783785.554425228852779 ], [ 401143.336724313325249, 3783785.859613428357989 ], [ 401143.031536113936454, 3783785.859613428357989 ], [ 401142.726347914547659, 3783786.164801627863199 ], [ 401142.421159715158865, 3783786.164801627863199 ], [ 401141.810783316381276, 3783786.775178026407957 ], [ 401141.505595116992481, 3783786.775178026407957 ], [ 401140.895218718214892, 3783787.385554425418377 ], [ 401140.284842319437303, 3783787.385554425418377 ], [ 401139.979654120048508, 3783787.690742624457926 ], [ 401137.232960325549357, 3783787.690742624457926 ] ] ] } },
{ "type": "Feature", "properties": { "confidence": 0.5056149959564209, "class": 1 }, "geometry": { "type": "Polygon", "coordinates": [ [ [ 400946.795523906417657, 3783655.544252288993448 ], [ 400946.490335707028862, 3783655.239064089488238 ], [ 400946.490335707028862, 3783654.01831129193306 ], [ 400947.100712105806451, 3783653.407934893388301 ], [ 400947.100712105806451, 3783653.102746693883091 ], [ 400947.405900305195246, 3783652.797558494377881 ], [ 400947.71108850458404, 3783652.797558494377881 ], [ 400948.32146490336163, 3783652.187182095833123 ], [ 400948.626653102750424, 3783652.187182095833123 ], [ 400948.931841302139219, 3783651.881993896327913 ], [ 400950.457782299083192, 3783651.881993896327913 ], [ 400950.457782299083192, 3783653.407934893388301 ], [ 400950.152594099694397, 3783653.407934893388301 ], [ 400949.847405900305603, 3783653.71312309242785 ], [ 400949.847405900305603, 3783654.01831129193306 ], [ 400949.542217700916808, 3783654.32349949143827 ], [ 400949.542217700916808, 3783654.62868769094348 ], [ 400948.931841302139219, 3783655.239064089488238 ], [ 400948.626653102750424, 3783655.239064089488238 ], [ 400948.32146490336163, 3783655.544252288993448 ], [ 400946.795523906417657, 3783655.544252288993448 ] ] ] } },
{ "type": "Feature", "properties": { "confidence": 0.45112541317939758, "class": 1 }, "geometry": { "type": "Polygon", "coordinates": [ [ [ 401334.994913530012127, 3783948.524923703167588 ], [ 401334.994913530012127, 3783948.219735503662378 ], [ 401334.689725330623332, 3783947.914547304157168 ], [ 401334.689725330623332, 3783947.304170905612409 ], [ 401334.994913530012127, 3783946.998982706107199 ], [ 401334.994913530012127, 3783946.083418108057231 ], [ 401335.300101729400922, 3783945.778229908552021 ], [ 401335.300101729400922, 3783945.167853509541601 ], [ 401335.605289928789716, 3783944.862665310502052 ], [ 401335.605289928789716, 3783944.252288911491632 ], [ 401336.5208545269561, 3783943.336724313441664 ], [ 401336.5208545269561, 3783943.031536113936454 ], [ 401337.436419125122484, 3783942.115971515886486 ], [ 401338.351983723288868, 3783942.115971515886486 ], [ 401338.657171922677662, 3783942.421159714926034 ], [ 401340.48830111901043, 3783942.421159714926034 ], [ 401340.793489318399224, 3783942.726347914431244 ], [ 401340.793489318399224, 3783943.641912512946874 ], [ 401340.183112919621635, 3783944.252288911491632 ], [ 401339.877924720232841, 3783944.252288911491632 ], [ 401338.657171922677662, 3783945.473041709046811 ], [ 401338.657171922677662, 3783945.778229908552021 ], [ 401336.5208545269561, 3783947.914547304157168 ], [ 401336.215666327567305, 3783947.914547304157168 ], [ 401335.910478128178511, 3783948.219735503662378 ], [ 401335.910478128178511, 3783948.524923703167588 ], [ 401334.994913530012127, 3783948.524923703167588 ] ] ] } },
{ "type": "Feature", "properties": { "confidence": 0.4128422737121582, "class": 1 }, "geometry": { "type": "Polygon", "coordinates": [ [ [ 401358.494404883007519, 3783938.14852492371574 ], [ 401358.189216683618724, 3783937.843336724210531 ], [ 401358.189216683618724, 3783936.317395727150142 ], [ 401357.88402848422993, 3783936.012207528110594 ], [ 401357.88402848422993, 3783935.096642929594964 ], [ 401357.578840284841135, 3783934.791454730555415 ], [ 401357.578840284841135, 3783934.486266531050205 ], [ 401357.273652085452341, 3783934.181078331544995 ], [ 401357.273652085452341, 3783933.875890132039785 ], [ 401356.968463886063546, 3783933.570701933000237 ], [ 401357.273652085452341, 3783933.265513733495027 ], [ 401357.273652085452341, 3783932.960325533989817 ], [ 401357.578840284841135, 3783932.655137334484607 ], [ 401357.88402848422993, 3783932.655137334484607 ], [ 401358.189216683618724, 3783932.349949135445058 ], [ 401359.409969481173903, 3783932.349949135445058 ], [ 401359.715157680562697, 3783932.044760935939848 ], [ 401360.325534079340287, 3783932.044760935939848 ], [ 401360.630722278729081, 3783931.739572736434639 ], [ 401360.935910478117876, 3783931.739572736434639 ], [ 401361.546286876895465, 3783931.12919633788988 ], [ 401361.85147507628426, 3783931.12919633788988 ], [ 401362.156663275673054, 3783930.82400813838467 ], [ 401364.598168870783411, 3783930.82400813838467 ], [ 401365.208545269561, 3783931.434384536929429 ], [ 401365.208545269561, 3783934.181078331544995 ], [ 401364.903357070172206, 3783934.486266531050205 ], [ 401364.903357070172206, 3783936.012207528110594 ], [ 401364.292980671394616, 3783936.622583926655352 ], [ 401364.292980671394616, 3783936.927772126160562 ], [ 401363.987792472005822, 3783936.927772126160562 ], [ 401363.377416073228233, 3783937.538148524705321 ], [ 401362.461851475061849, 3783937.538148524705321 ], [ 401362.156663275673054, 3783937.843336724210531 ], [ 401360.935910478117876, 3783937.843336724210531 ], [ 401360.630722278729081, 3783938.14852492371574 ], [ 401358.494404883007519, 3783938.14852492371574 ] ] ] } },
{ "type": "Feature", "properties": { "confidence": 0.36673972010612488, "class": 1 }, "geometry": { "type": "Polygon", "coordinates": [ [ [ 401011.19023397762794, 3783691.86164801614359 ], [ 401011.19023397762794, 3783691.556459817104042 ], [ 401011.495422177016735, 3783691.251271617598832 ], [ 401011.495422177016735, 3783690.640895218588412 ], [ 401011.80061037640553, 3783690.335707019548863 ], [ 401011.80061037640553, 3783690.030518820043653 ], [ 401012.716174974571913, 3783689.114954221993685 ], [ 401013.021363173960708, 3783689.114954221993685 ], [ 401013.631739572738297, 3783688.504577822983265 ], [ 401013.936927772127092, 3783688.504577822983265 ], [ 401014.242115971515886, 3783688.199389623478055 ], [ 401014.547304170904681, 3783688.199389623478055 ], [ 401014.852492370293476, 3783687.894201424438506 ], [ 401015.768056968459859, 3783687.894201424438506 ], [ 401015.768056968459859, 3783688.504577822983265 ], [ 401015.462868769071065, 3783688.809766022488475 ], [ 401015.462868769071065, 3783689.114954221993685 ], [ 401015.15768056968227, 3783689.420142421033233 ], [ 401015.15768056968227, 3783689.725330620538443 ], [ 401014.852492370293476, 3783690.030518820043653 ], [ 401014.852492370293476, 3783690.946083418093622 ], [ 401014.547304170904681, 3783691.251271617598832 ], [ 401013.631739572738297, 3783691.251271617598832 ], [ 401013.326551373349503, 3783691.556459817104042 ], [ 401012.716174974571913, 3783691.556459817104042 ], [ 401012.410986775183119, 3783691.86164801614359 ], [ 401011.19023397762794, 3783691.86164801614359 ] ] ] } },
{ "type": "Feature", "properties": { "confidence": 0.36586654186248779, "class": 1 }, "geometry": { "type": "Polygon", "coordinates": [ [ [ 401174.465920651040506, 3783682.706002034712583 ], [ 401174.160732451651711, 3783682.400813835207373 ], [ 401174.160732451651711, 3783680.569684638641775 ], [ 401173.855544252262916, 3783680.264496439602226 ], [ 401173.855544252262916, 3783679.348931841086596 ], [ 401173.550356052874122, 3783679.043743642047048 ], [ 401173.550356052874122, 3783678.738555442541838 ], [ 401173.855544252262916, 3783678.433367243036628 ], [ 401173.855544252262916, 3783678.128179043531418 ], [ 401174.160732451651711, 3783677.822990844491869 ], [ 401175.076297049876302, 3783677.822990844491869 ], [ 401175.381485249265097, 3783677.517802644986659 ], [ 401178.433367243153043, 3783677.517802644986659 ], [ 401178.433367243153043, 3783681.180061037652194 ], [ 401178.738555442541838, 3783681.485249237157404 ], [ 401178.738555442541838, 3783682.095625635702163 ], [ 401178.433367243153043, 3783682.095625635702163 ], [ 401178.128179043764248, 3783682.400813835207373 ], [ 401176.602238046820275, 3783682.400813835207373 ], [ 401176.297049847431481, 3783682.706002034712583 ], [ 401174.465920651040506, 3783682.706002034712583 ] ] ] } },
{ "type": "Feature", "properties": { "confidence": 0.33087843656539917, "class": 1 }, "geometry": { "type": "Polygon", "coordinates": [ [ [ 401071.007121058006305, 3783782.502543235197663 ], [ 401070.701932858617511, 3783782.197355035692453 ], [ 401070.701932858617511, 3783780.671414038632065 ], [ 401071.617497456783894, 3783779.755849440582097 ], [ 401071.617497456783894, 3783779.450661241076887 ], [ 401071.922685656172689, 3783779.145473041571677 ], [ 401071.922685656172689, 3783778.840284842532128 ], [ 401072.227873855561484, 3783778.535096643026918 ], [ 401072.227873855561484, 3783777.924720244016498 ], [ 401072.838250254339073, 3783777.31434384547174 ], [ 401072.838250254339073, 3783777.00915564596653 ], [ 401073.143438453727867, 3783776.70396744646132 ], [ 401074.66937945067184, 3783776.70396744646132 ], [ 401074.974567650060635, 3783777.00915564596653 ], [ 401075.584944048838224, 3783777.00915564596653 ], [ 401076.500508647004608, 3783777.924720244016498 ], [ 401076.500508647004608, 3783778.229908443521708 ], [ 401076.805696846393403, 3783778.535096643026918 ], [ 401076.805696846393403, 3783779.450661241076887 ], [ 401075.890132248227019, 3783780.366225839126855 ], [ 401075.584944048838224, 3783780.366225839126855 ], [ 401074.974567650060635, 3783780.976602238137275 ], [ 401074.059003051894251, 3783780.976602238137275 ], [ 401073.448626653116662, 3783781.586978636682034 ], [ 401073.143438453727867, 3783781.586978636682034 ], [ 401072.533062054950278, 3783782.197355035692453 ], [ 401071.922685656172689, 3783782.197355035692453 ], [ 401071.617497456783894, 3783782.502543235197663 ], [ 401071.007121058006305, 3783782.502543235197663 ] ] ] } },
{ "type": "Feature", "properties": { "confidence": 0.32926225662231445, "class": 1 }, "geometry": { "type": "Polygon", "coordinates": [ [ [ 400890.335707019316033, 3783639.674465920776129 ], [ 400890.030518819927238, 3783639.369277721270919 ], [ 400889.725330620538443, 3783639.369277721270919 ], [ 400889.725330620538443, 3783638.45371312322095 ], [ 400890.030518819927238, 3783638.14852492371574 ], [ 400890.030518819927238, 3783637.843336724210531 ], [ 400890.335707019316033, 3783637.538148524705321 ], [ 400890.335707019316033, 3783637.232960325665772 ], [ 400892.1668362156488, 3783635.401831129100174 ], [ 400892.472024415037595, 3783635.401831129100174 ], [ 400892.777212614426389, 3783635.096642929594964 ], [ 400893.082400813815184, 3783635.096642929594964 ], [ 400893.692777212592773, 3783634.486266531050205 ], [ 400894.303153611370362, 3783634.486266531050205 ], [ 400894.913530010147952, 3783633.875890132039785 ], [ 400895.829094608314335, 3783633.875890132039785 ], [ 400896.13428280770313, 3783633.570701933000237 ], [ 400896.439471007150132, 3783633.570701933000237 ], [ 400896.744659206538927, 3783633.265513733495027 ], [ 400899.186164801649284, 3783633.265513733495027 ], [ 400899.491353001038078, 3783633.570701933000237 ], [ 400899.796541200426873, 3783633.570701933000237 ], [ 400900.101729399815667, 3783633.875890132039785 ], [ 400900.101729399815667, 3783635.096642929594964 ], [ 400899.796541200426873, 3783635.401831129100174 ], [ 400899.796541200426873, 3783636.012207528110594 ], [ 400898.2706002034829, 3783637.538148524705321 ], [ 400898.2706002034829, 3783637.843336724210531 ], [ 400897.965412004094105, 3783637.843336724210531 ], [ 400897.660223804705311, 3783638.14852492371574 ], [ 400897.049847405927721, 3783638.14852492371574 ], [ 400896.744659206538927, 3783638.45371312322095 ], [ 400895.829094608314335, 3783638.45371312322095 ], [ 400895.523906408925541, 3783638.758901322260499 ], [ 400894.913530010147952, 3783638.758901322260499 ], [ 400894.608341810759157, 3783639.064089521765709 ], [ 400893.997965411981568, 3783639.064089521765709 ], [ 400893.692777212592773, 3783639.369277721270919 ], [ 400893.387589013203979, 3783639.369277721270919 ], [ 400893.082400813815184, 3783639.674465920776129 ], [ 400890.335707019316033, 3783639.674465920776129 ] ] ] } }
]
}
