{
"type": "FeatureCollection",
"name": "cell_00162_pre",
"crs": { "type": "name", "properties": { "name": "urn:ogc:def:crs:EPSG::32611" } },
"features": [
{ "type": "Feature", "properties": { "confidence": 0.68740791082382202, "class": 1 }, "geometry": { "type": "Polygon", "coordinates": [ [ [ 355553.40793489315547, 3774848.423194303177297 ], [ 355553.40793489315547, 3774847.812817904166877 ], [ 355552.797558494377881, 3774847.202441505622119 ], [ 355552.797558494377881, 3774846.592065106611699 ], [ 355552.492370294989087, 3774846.28687690757215 ], [ 355552.492370294989087, 3774845.67650050856173 ], [ 355552.187182095600292, 3774845.37131230905652 ], [ 355552.187182095600292, 3774844.760935910511762 ], [ 355551.881993896211497, 3774844.455747711006552 ], [ 355551.576805696822703, 3774844.455747711006552 ], [ 355551.576805696822703, 3774841.709053916390985 ], [ 355552.492370294989087, 3774841.709053916390985 ], [ 355553.102746693766676, 3774842.319430315401405 ], [ 355553.40793489315547, 3774842.319430315401405 ], [ 355555.849440488324035, 3774844.760935910511762 ], [ 355556.15462868771283, 3774844.760935910511762 ], [ 355556.459816887101624, 3774845.066124110016972 ], [ 355556.765005086490419, 3774845.066124110016972 ], [ 355557.070193285879213, 3774845.37131230905652 ], [ 355557.070193285879213, 3774845.67650050856173 ], [ 355557.680569684656803, 3774846.28687690757215 ], [ 355557.680569684656803, 3774846.592065106611699 ], [ 355557.985757884045597, 3774846.897253306116909 ], [ 355557.985757884045597, 3774848.423194303177297 ], [ 355553.40793489315547, 3774848.423194303177297 ] ] ] } },
{ "type": "Feature", "properties": { "confidence": 0.27583074569702148, "class": 1 }, "geometry": { "type": "Polygon", "coordinates": [ [ [ 355794.811800610390492, 3774816.988809766247869 ], [ 355794.506612411001697, 3774816.683621566742659 ], [ 355792.67548321466893, 3774816.683621566742659 ], [ 355792.370295015280135, 3774816.378433367237449 ], [ 355792.06510681589134, 3774816.378433367237449 ], [ 355791.759918616502546, 3774816.073245167732239 ], [ 355791.454730417113751, 3774816.073245167732239 ], [ 355791.149542217724957, 3774815.76805696869269 ], [ 355789.013224821945187, 3774815.76805696869269 ], [ 355788.708036622556392, 3774815.46286876918748 ], [ 355787.182095625612419, 3774815.46286876918748 ], [ 355787.182095625612419, 3774814.85249237017706 ], [ 355785.961342828057241, 3774813.631739572621882 ], [ 355785.961342828057241, 3774813.326551373116672 ], [ 355785.656154628668446, 3774813.021363174077123 ], [ 355785.656154628668446, 3774812.716174974571913 ], [ 355785.350966429279651, 3774812.410986775066704 ], [ 355785.350966429279651, 3774812.105798575561494 ], [ 355785.045778229890857, 3774811.800610376521945 ], [ 355785.045778229890857, 3774811.495422177016735 ], [ 355784.740590030502062, 3774811.190233977511525 ], [ 355784.740590030502062, 3774809.664292980451137 ], [ 355793.591047812835313, 3774809.664292980451137 ], [ 355793.591047812835313, 3774809.969481179956347 ], [ 355793.896236012224108, 3774810.274669379461557 ], [ 355793.896236012224108, 3774810.579857578966767 ], [ 355794.506612411001697, 3774811.190233977511525 ], [ 355795.116988809779286, 3774811.190233977511525 ], [ 355795.116988809779286, 3774811.495422177016735 ], [ 355795.727365208556876, 3774812.105798575561494 ], [ 355795.727365208556876, 3774812.410986775066704 ], [ 355796.03255340794567, 3774812.716174974571913 ], [ 355796.03255340794567, 3774813.631739572621882 ], [ 355796.337741607334465, 3774813.936927772127092 ], [ 355796.337741607334465, 3774815.46286876918748 ], [ 355796.03255340794567, 3774815.46286876918748 ], [ 355795.422177009168081, 3774816.073245167732239 ], [ 355795.422177009168081, 3774816.683621566742659 ], [ 355795.116988809779286, 3774816.683621566742659 ], [ 355794.811800610390492, 3774816.988809766247869 ] ] ] } }
]
}
