{
"type": "FeatureCollection",
"name": "cell_00411_pre",
"crs": { "type": "name", "properties": { "name": "urn:ogc:def:crs:EPSG::32611" } },
"features": [
{ "type": "Feature", "properties": { "confidence": 0.79298907518386841, "class": 1 }, "geometry": { "type": "Polygon", "coordinates": [ [ [ 397849.135300101712346, 3787294.913530010264367 ], [ 397848.830111902323551, 3787294.608341810759157 ], [ 397848.524923702934757, 3787294.608341810759157 ], [ 397848.524923702934757, 3787294.303153611253947 ], [ 397847.609359104768373, 3787293.387589013203979 ], [ 397847.609359104768373, 3787292.47202441515401 ], [ 397854.018311291991267, 3787292.47202441515401 ], [ 397854.018311291991267, 3787293.997965412214398 ], [ 397853.713123092602473, 3787294.303153611253947 ], [ 397853.713123092602473, 3787294.608341810759157 ], [ 397853.102746693766676, 3787294.608341810759157 ], [ 397852.797558494377881, 3787294.913530010264367 ], [ 397849.135300101712346, 3787294.913530010264367 ] ] ] } },
{ "type": "Feature", "properties": { "confidence": 0.46579137444496155, "class": 1 }, "geometry": { "type": "Polygon", "coordinates": [ [ [ 398168.667344862653408, 3787627.873855544254184 ], [ 398168.362156663264614, 3787627.568667344748974 ], [ 398167.751780264487024, 3787627.568667344748974 ], [ 398167.44659206509823, 3787627.263479145243764 ], [ 398166.836215666320641, 3787627.263479145243764 ], [ 398166.531027466931846, 3787626.958290946204215 ], [ 398166.225839267543051, 3787626.958290946204215 ], [ 398166.225839267543051, 3787626.042726347688586 ], [ 398165.920651068154257, 3787625.737538148649037 ], [ 398165.920651068154257, 3787625.432349949143827 ], [ 398166.225839267543051, 3787625.127161749638617 ], [ 398166.225839267543051, 3787624.821973550133407 ], [ 398166.531027466931846, 3787624.516785351093858 ], [ 398166.531027466931846, 3787624.211597151588649 ], [ 398166.836215666320641, 3787623.906408952083439 ], [ 398167.141403865709435, 3787623.906408952083439 ], [ 398167.44659206509823, 3787623.601220752578229 ], [ 398167.751780264487024, 3787623.601220752578229 ], [ 398168.056968463875819, 3787623.29603255353868 ], [ 398168.667344862653408, 3787623.29603255353868 ], [ 398168.972533062042203, 3787622.99084435403347 ], [ 398169.277721261430997, 3787622.99084435403347 ], [ 398169.582909460819792, 3787622.68565615452826 ], [ 398169.888097660208587, 3787622.68565615452826 ], [ 398170.193285859597381, 3787622.38046795502305 ], [ 398172.024415055930149, 3787622.38046795502305 ], [ 398172.329603255318943, 3787622.075279755983502 ], [ 398173.855544252262916, 3787622.075279755983502 ], [ 398174.160732451651711, 3787622.38046795502305 ], [ 398174.465920651040506, 3787622.38046795502305 ], [ 398174.7711088504293, 3787622.68565615452826 ], [ 398175.381485249265097, 3787622.68565615452826 ], [ 398175.381485249265097, 3787623.29603255353868 ], [ 398175.686673448653892, 3787623.601220752578229 ], [ 398175.686673448653892, 3787624.211597151588649 ], [ 398175.381485249265097, 3787624.516785351093858 ], [ 398175.381485249265097, 3787624.821973550133407 ], [ 398174.7711088504293, 3787625.432349949143827 ], [ 398174.465920651040506, 3787625.432349949143827 ], [ 398174.160732451651711, 3787625.737538148649037 ], [ 398173.855544252262916, 3787625.737538148649037 ], [ 398172.634791454707738, 3787626.958290946204215 ], [ 398172.024415055930149, 3787626.958290946204215 ], [ 398171.719226856541354, 3787627.263479145243764 ], [ 398171.108850457763765, 3787627.263479145243764 ], [ 398170.80366225837497, 3787627.568667344748974 ], [ 398168.972533062042203, 3787627.568667344748974 ], [ 398168.667344862653408, 3787627.873855544254184 ] ] ] } },
{ "type": "Feature", "properties": { "confidence": 0.4264967143535614, "class": 1 }, "geometry": { "type": "Polygon", "coordinates": [ [ [ 397851.576805696822703, 3787448.423194303177297 ], [ 397851.576805696822703, 3787447.812817904166877 ], [ 397851.271617497433908, 3787447.507629705127329 ], [ 397851.271617497433908, 3787447.202441505622119 ], [ 397850.966429298045114, 3787446.897253306116909 ], [ 397850.966429298045114, 3787443.845371312461793 ], [ 397851.271617497433908, 3787443.540183112956583 ], [ 397851.271617497433908, 3787441.709053916390985 ], [ 397851.576805696822703, 3787441.403865717351437 ], [ 397851.576805696822703, 3787441.098677517846227 ], [ 397851.881993896211497, 3787441.098677517846227 ], [ 397852.187182095600292, 3787440.793489318341017 ], [ 397852.797558494377881, 3787440.793489318341017 ], [ 397854.018311291991267, 3787442.014242115896195 ], [ 397854.018311291991267, 3787442.319430315401405 ], [ 397854.323499491380062, 3787442.624618514906615 ], [ 397854.323499491380062, 3787446.592065106611699 ], [ 397854.018311291991267, 3787446.897253306116909 ], [ 397854.018311291991267, 3787447.507629705127329 ], [ 397853.40793489315547, 3787448.118006103672087 ], [ 397853.40793489315547, 3787448.423194303177297 ], [ 397851.576805696822703, 3787448.423194303177297 ] ] ] } },
{ "type": "Feature", "properties": { "confidence": 0.2805955708026886, "class": 1 }, "geometry": { "type": "Polygon", "coordinates": [ [ [ 398155.54425228893524, 3787297.660223804879934 ], [ 398155.239064089546446, 3787297.355035605374724 ], [ 398154.933875890157651, 3787297.355035605374724 ], [ 398155.239064089546446, 3787297.049847405869514 ], [ 398155.239064089546446, 3787296.744659206364304 ], [ 398156.459816887101624, 3787295.523906408809125 ], [ 398156.459816887101624, 3787295.218718209769577 ], [ 398157.070193285879213, 3787295.218718209769577 ], [ 398157.375381485268008, 3787294.913530010264367 ], [ 398157.375381485268008, 3787294.608341810759157 ], [ 398157.680569684656803, 3787294.303153611253947 ], [ 398157.680569684656803, 3787293.997965412214398 ], [ 398157.985757884045597, 3787293.692777212709188 ], [ 398157.985757884045597, 3787293.387589013203979 ], [ 398158.290946083434392, 3787293.082400813698769 ], [ 398160.122075279767159, 3787293.082400813698769 ], [ 398160.122075279767159, 3787294.913530010264367 ], [ 398158.596134282823186, 3787296.439471007324755 ], [ 398158.596134282823186, 3787296.744659206364304 ], [ 398157.985757884045597, 3787297.355035605374724 ], [ 398157.070193285879213, 3787297.355035605374724 ], [ 398156.765005086490419, 3787297.660223804879934 ], [ 398155.54425228893524, 3787297.660223804879934 ] ] ] } },
{ "type": "Feature", "properties": { "confidence": 0.26768386363983154, "class": 1 }, "geometry": { "type": "Polygon", "coordinates": [ [ [ 398276.093591047800146, 3787295.523906408809125 ], [ 398275.788402848411351, 3787295.218718209769577 ], [ 398275.178026449633762, 3787295.218718209769577 ], [ 398274.872838250244968, 3787294.913530010264367 ], [ 398274.567650050856173, 3787294.913530010264367 ], [ 398274.262461851467378, 3787294.608341810759157 ], [ 398273.957273652078584, 3787294.608341810759157 ], [ 398273.346897253300995, 3787293.997965412214398 ], [ 398273.0417090539122, 3787293.997965412214398 ], [ 398273.0417090539122, 3787293.692777212709188 ], [ 398272.736520854523405, 3787293.387589013203979 ], [ 398272.736520854523405, 3787292.47202441515401 ], [ 398282.807731434411835, 3787292.47202441515401 ], [ 398282.807731434411835, 3787293.082400813698769 ], [ 398281.892166836187243, 3787293.997965412214398 ], [ 398281.892166836187243, 3787294.303153611253947 ], [ 398281.586978636798449, 3787294.608341810759157 ], [ 398281.586978636798449, 3787294.913530010264367 ], [ 398281.281790437409654, 3787294.913530010264367 ], [ 398280.97660223802086, 3787295.218718209769577 ], [ 398280.061037639854476, 3787295.218718209769577 ], [ 398279.755849440465681, 3787295.523906408809125 ], [ 398276.093591047800146, 3787295.523906408809125 ] ] ] } },
{ "type": "Feature", "properties": { "confidence": 0.25292634963989258, "class": 1 }, "geometry": { "type": "Polygon", "coordinates": [ [ [ 397940.081383519864175, 3787288.809766022488475 ], [ 397939.776195320475381, 3787288.504577822983265 ], [ 397938.860630722250789, 3787288.504577822983265 ], [ 397938.555442522861995, 3787288.199389623478055 ], [ 397938.2502543234732, 3787288.199389623478055 ], [ 397937.945066124084406, 3787287.894201424438506 ], [ 397937.639877924695611, 3787287.894201424438506 ], [ 397937.639877924695611, 3787287.283825025428087 ], [ 397937.945066124084406, 3787286.978636825922877 ], [ 397937.945066124084406, 3787286.368260427378118 ], [ 397938.2502543234732, 3787286.063072227872908 ], [ 397938.2502543234732, 3787285.757884028367698 ], [ 397938.555442522861995, 3787285.757884028367698 ], [ 397939.165818921639584, 3787285.14750762982294 ], [ 397939.471007121086586, 3787285.14750762982294 ], [ 397939.776195320475381, 3787284.84231943031773 ], [ 397940.081383519864175, 3787284.84231943031773 ], [ 397940.691759918641765, 3787284.23194303130731 ], [ 397940.996948118030559, 3787284.23194303130731 ], [ 397941.302136317419354, 3787283.926754832267761 ], [ 397941.607324516808148, 3787283.926754832267761 ], [ 397941.912512716196943, 3787283.621566632762551 ], [ 397946.795523906417657, 3787283.621566632762551 ], [ 397947.100712105806451, 3787283.926754832267761 ], [ 397947.100712105806451, 3787284.53713123081252 ], [ 397947.405900305195246, 3787284.84231943031773 ], [ 397947.405900305195246, 3787286.673448626883328 ], [ 397947.100712105806451, 3787286.978636825922877 ], [ 397947.100712105806451, 3787287.283825025428087 ], [ 397946.795523906417657, 3787287.589013224933296 ], [ 397946.490335707028862, 3787287.589013224933296 ], [ 397946.185147507640067, 3787287.894201424438506 ], [ 397945.269582909473684, 3787287.894201424438506 ], [ 397944.964394710084889, 3787288.199389623478055 ], [ 397944.659206510696094, 3787288.199389623478055 ], [ 397944.3540183113073, 3787288.504577822983265 ], [ 397943.133265513752121, 3787288.504577822983265 ], [ 397942.828077314363327, 3787288.809766022488475 ], [ 397940.081383519864175, 3787288.809766022488475 ] ] ] } }
]
}
