{
"type": "FeatureCollection",
"name": "cell_00115_pre",
"crs": { "type": "name", "properties": { "name": "urn:ogc:def:crs:EPSG::32611" } },
"features": [
{ "type": "Feature", "properties": { "confidence": 0.45518451929092407, "class": 1 }, "geometry": { "type": "Polygon", "coordinates": [ [ [ 353000.508646998961922, 3771310.376398779451847 ], [ 353000.203458799573127, 3771310.071210579946637 ], [ 352998.677517802629154, 3771310.071210579946637 ], [ 352998.37232960324036, 3771309.766022380441427 ], [ 352998.067141403851565, 3771309.766022380441427 ], [ 352997.456765005073976, 3771309.155645981896669 ], [ 352997.456765005073976, 3771308.545269582886249 ], [ 352997.151576805685181, 3771308.240081383381039 ], [ 352997.151576805685181, 3771306.714140386786312 ], [ 352996.846388606296387, 3771306.408952187281102 ], [ 352996.846388606296387, 3771305.798575788270682 ], [ 352996.541200406907592, 3771305.493387589231133 ], [ 352996.541200406907592, 3771304.577822990715504 ], [ 352996.236012207518797, 3771304.272634791675955 ], [ 352996.236012207518797, 3771303.357070193160325 ], [ 352996.541200406907592, 3771303.051881994120777 ], [ 352996.541200406907592, 3771300.915564598049968 ], [ 352996.846388606296387, 3771300.61037639901042 ], [ 352996.846388606296387, 3771300.30518819950521 ], [ 352998.982706002017949, 3771300.30518819950521 ], [ 352999.287894201406743, 3771300.61037639901042 ], [ 353001.119023397739511, 3771300.61037639901042 ], [ 353001.424211597128306, 3771300.915564598049968 ], [ 353001.7293997965171, 3771300.915564598049968 ], [ 353002.034587995905895, 3771301.220752797555178 ], [ 353002.034587995905895, 3771301.525940997060388 ], [ 353002.339776195294689, 3771301.831129196565598 ], [ 353002.644964394683484, 3771301.831129196565598 ], [ 353002.644964394683484, 3771302.441505595110357 ], [ 353002.950152594072279, 3771302.746693794615567 ], [ 353002.950152594072279, 3771303.357070193160325 ], [ 353003.255340793461073, 3771303.662258392665535 ], [ 353003.255340793461073, 3771305.188199389725924 ], [ 353003.560528992849868, 3771305.493387589231133 ], [ 353003.560528992849868, 3771308.545269582886249 ], [ 353003.86571719229687, 3771308.850457782391459 ], [ 353003.560528992849868, 3771309.155645981896669 ], [ 353003.560528992849868, 3771310.071210579946637 ], [ 353002.950152594072279, 3771310.071210579946637 ], [ 353002.644964394683484, 3771310.376398779451847 ], [ 353000.508646998961922, 3771310.376398779451847 ] ] ] } }
]
}
