{
"type": "FeatureCollection",
"name": "cell_00503_pre",
"crs": { "type": "name", "properties": { "name": "urn:ogc:def:crs:EPSG::32611" } },
"features": [
{ "type": "Feature", "properties": { "confidence": 0.98293900489807129, "class": 1 }, "geometry": { "type": "Polygon", "coordinates": [ [ [ 402455.6459816886927, 3786560.325534079223871 ], [ 402455.340793489303906, 3786560.020345880184323 ], [ 402454.730417090526316, 3786560.020345880184323 ], [ 402454.425228891137522, 3786559.715157680679113 ], [ 402454.120040691748727, 3786559.715157680679113 ], [ 402453.814852492359933, 3786559.409969481173903 ], [ 402453.509664292971138, 3786559.409969481173903 ], [ 402452.899287894193549, 3786558.799593082629144 ], [ 402452.28891149541596, 3786558.799593082629144 ], [ 402451.67853509663837, 3786558.189216683618724 ], [ 402451.373346897249576, 3786558.189216683618724 ], [ 402451.373346897249576, 3786557.578840285073966 ], [ 402451.068158697860781, 3786557.273652085568756 ], [ 402451.068158697860781, 3786555.747711088508368 ], [ 402451.373346897249576, 3786555.442522889003158 ], [ 402451.373346897249576, 3786555.137334689497948 ], [ 402451.983723296027165, 3786554.526958290953189 ], [ 402452.28891149541596, 3786554.526958290953189 ], [ 402452.899287894193549, 3786553.916581891942769 ], [ 402453.204476093582343, 3786553.916581891942769 ], [ 402453.509664292971138, 3786553.611393692903221 ], [ 402458.087487283803057, 3786553.611393692903221 ], [ 402458.392675483191852, 3786553.916581891942769 ], [ 402459.003051881969441, 3786553.916581891942769 ], [ 402459.003051881969441, 3786554.221770091447979 ], [ 402459.308240081358235, 3786554.526958290953189 ], [ 402459.308240081358235, 3786554.832146490458399 ], [ 402459.61342828074703, 3786555.137334689497948 ], [ 402459.61342828074703, 3786556.052899288013577 ], [ 402459.918616480135825, 3786556.358087487053126 ], [ 402459.918616480135825, 3786558.189216683618724 ], [ 402459.003051881969441, 3786559.104781281668693 ], [ 402458.697863682580646, 3786559.104781281668693 ], [ 402458.087487283803057, 3786559.715157680679113 ], [ 402457.782299084414262, 3786559.715157680679113 ], [ 402457.477110885025468, 3786560.020345880184323 ], [ 402455.951169888081495, 3786560.020345880184323 ], [ 402455.6459816886927, 3786560.325534079223871 ] ] ] } },
{ "type": "Feature", "properties": { "confidence": 0.95507621765136719, "class": 1 }, "geometry": { "type": "Polygon", "coordinates": [ [ [ 402437.334689725306816, 3786226.449643947184086 ], [ 402436.724313326529227, 3786225.839267548173666 ], [ 402436.419125127140433, 3786225.839267548173666 ], [ 402435.808748728362843, 3786225.228891149628907 ], [ 402435.503560528974049, 3786225.228891149628907 ], [ 402434.587995930807665, 3786224.313326551578939 ], [ 402434.587995930807665, 3786224.008138352073729 ], [ 402434.28280773141887, 3786223.702950152568519 ], [ 402434.28280773141887, 3786222.787385554518551 ], [ 402433.977619532030076, 3786222.482197355013341 ], [ 402433.977619532030076, 3786220.651068158913404 ], [ 402434.587995930807665, 3786220.040691759902984 ], [ 402435.198372329585254, 3786220.040691759902984 ], [ 402435.503560528974049, 3786219.735503560397774 ], [ 402436.724313326529227, 3786219.735503560397774 ], [ 402437.334689725306816, 3786219.125127161853015 ], [ 402437.639877924695611, 3786219.125127161853015 ], [ 402437.945066124084406, 3786218.819938962347806 ], [ 402439.776195320475381, 3786218.819938962347806 ], [ 402440.081383519864175, 3786219.125127161853015 ], [ 402440.691759918641765, 3786219.125127161853015 ], [ 402440.996948118030559, 3786219.430315361358225 ], [ 402441.302136317419354, 3786219.430315361358225 ], [ 402441.607324516808148, 3786219.735503560397774 ], [ 402441.912512716196943, 3786219.735503560397774 ], [ 402442.522889114974532, 3786220.345879959408194 ], [ 402442.522889114974532, 3786220.651068158913404 ], [ 402442.828077314363327, 3786220.956256357952952 ], [ 402442.828077314363327, 3786223.397761953063309 ], [ 402442.522889114974532, 3786223.702950152568519 ], [ 402442.522889114974532, 3786224.618514750618488 ], [ 402442.217700915585738, 3786224.923702950123698 ], [ 402442.217700915585738, 3786225.228891149628907 ], [ 402441.912512716196943, 3786225.228891149628907 ], [ 402440.691759918641765, 3786226.449643947184086 ], [ 402437.334689725306816, 3786226.449643947184086 ] ] ] } },
{ "type": "Feature", "properties": { "confidence": 0.94916617870330811, "class": 1 }, "geometry": { "type": "Polygon", "coordinates": [ [ [ 402119.02339776197914, 3786144.964394710026681 ], [ 402119.02339776197914, 3786144.659206510521472 ], [ 402118.413021363201551, 3786144.048830111976713 ], [ 402118.413021363201551, 3786143.438453712966293 ], [ 402118.107833163812757, 3786143.133265513926744 ], [ 402118.107833163812757, 3786142.828077314421535 ], [ 402117.802644964365754, 3786142.522889114916325 ], [ 402117.802644964365754, 3786142.217700915411115 ], [ 402117.49745676497696, 3786141.912512716371566 ], [ 402117.192268565588165, 3786141.912512716371566 ], [ 402117.192268565588165, 3786136.419125127140433 ], [ 402117.802644964365754, 3786136.419125127140433 ], [ 402118.107833163812757, 3786136.113936927635223 ], [ 402120.244150559534319, 3786136.113936927635223 ], [ 402120.549338758923113, 3786136.419125127140433 ], [ 402120.854526958311908, 3786136.419125127140433 ], [ 402120.854526958311908, 3786136.724313326645643 ], [ 402121.159715157700703, 3786137.029501526150852 ], [ 402121.159715157700703, 3786137.334689725190401 ], [ 402121.770091556478292, 3786137.945066124200821 ], [ 402121.770091556478292, 3786138.250254323706031 ], [ 402122.075279755867086, 3786138.555442522745579 ], [ 402122.685656154644676, 3786138.555442522745579 ], [ 402122.99084435403347, 3786138.860630722250789 ], [ 402123.296032553422265, 3786138.860630722250789 ], [ 402123.296032553422265, 3786139.471007121261209 ], [ 402123.601220752811059, 3786139.776195320300758 ], [ 402123.601220752811059, 3786141.607324516866356 ], [ 402123.296032553422265, 3786141.912512716371566 ], [ 402123.296032553422265, 3786142.217700915411115 ], [ 402122.99084435403347, 3786142.522889114916325 ], [ 402122.99084435403347, 3786143.133265513926744 ], [ 402122.685656154644676, 3786143.438453712966293 ], [ 402122.685656154644676, 3786143.743641912471503 ], [ 402121.770091556478292, 3786144.659206510521472 ], [ 402121.464903357089497, 3786144.659206510521472 ], [ 402121.159715157700703, 3786144.964394710026681 ], [ 402119.02339776197914, 3786144.964394710026681 ] ] ] } },
{ "type": "Feature", "properties": { "confidence": 0.92650401592254639, "class": 1 }, "geometry": { "type": "Polygon", "coordinates": [ [ [ 402117.49745676497696, 3786145.574771109037101 ], [ 402117.192268565588165, 3786145.269582909531891 ], [ 402116.581892166810576, 3786145.269582909531891 ], [ 402115.971515768032987, 3786144.659206510521472 ], [ 402115.361139369255397, 3786144.659206510521472 ], [ 402114.750762970477808, 3786144.048830111976713 ], [ 402114.140386571700219, 3786144.048830111976713 ], [ 402112.919633774145041, 3786142.828077314421535 ], [ 402112.919633774145041, 3786141.302136317361146 ], [ 402112.614445574756246, 3786140.996948117855936 ], [ 402112.614445574756246, 3786138.860630722250789 ], [ 402112.309257375367451, 3786138.555442522745579 ], [ 402112.309257375367451, 3786134.893184130080044 ], [ 402116.276703967421781, 3786134.893184130080044 ], [ 402116.581892166810576, 3786135.198372329585254 ], [ 402117.192268565588165, 3786135.198372329585254 ], [ 402117.49745676497696, 3786135.503560529090464 ], [ 402118.413021363201551, 3786135.503560529090464 ], [ 402118.718209562590346, 3786135.808748728595674 ], [ 402119.328585961367935, 3786135.808748728595674 ], [ 402119.63377416075673, 3786136.113936927635223 ], [ 402119.938962360145524, 3786136.113936927635223 ], [ 402119.938962360145524, 3786136.419125127140433 ], [ 402120.244150559534319, 3786136.724313326645643 ], [ 402120.549338758923113, 3786136.724313326645643 ], [ 402120.854526958311908, 3786137.029501526150852 ], [ 402120.854526958311908, 3786137.334689725190401 ], [ 402121.159715157700703, 3786137.639877924695611 ], [ 402121.464903357089497, 3786137.639877924695611 ], [ 402122.075279755867086, 3786138.250254323706031 ], [ 402122.380467955255881, 3786138.250254323706031 ], [ 402122.380467955255881, 3786138.555442522745579 ], [ 402122.685656154644676, 3786138.860630722250789 ], [ 402122.685656154644676, 3786140.081383519805968 ], [ 402122.99084435403347, 3786140.386571719311178 ], [ 402122.685656154644676, 3786140.691759918816388 ], [ 402122.685656154644676, 3786142.217700915411115 ], [ 402122.380467955255881, 3786142.522889114916325 ], [ 402122.380467955255881, 3786143.743641912471503 ], [ 402122.075279755867086, 3786144.048830111976713 ], [ 402122.075279755867086, 3786144.659206510521472 ], [ 402121.770091556478292, 3786144.659206510521472 ], [ 402121.464903357089497, 3786144.964394710026681 ], [ 402121.159715157700703, 3786144.964394710026681 ], [ 402120.854526958311908, 3786145.269582909531891 ], [ 402119.63377416075673, 3786145.269582909531891 ], [ 402119.328585961367935, 3786145.574771109037101 ], [ 402117.49745676497696, 3786145.574771109037101 ] ] ] } },
{ "type": "Feature", "properties": { "confidence": 0.83487874269485474, "class": 1 }, "geometry": { "type": "Polygon", "coordinates": [ [ [ 402045.778229908435605, 3786288.708036622498184 ], [ 402045.473041709046811, 3786288.402848422992975 ], [ 402045.167853509658016, 3786288.402848422992975 ], [ 402044.557477110880427, 3786287.792472024448216 ], [ 402044.557477110880427, 3786285.961342827882618 ], [ 402044.862665310269222, 3786285.656154628843069 ], [ 402044.862665310269222, 3786283.825025432277471 ], [ 402045.473041709046811, 3786283.214649033732712 ], [ 402045.473041709046811, 3786282.909460834227502 ], [ 402045.778229908435605, 3786282.909460834227502 ], [ 402046.693794506601989, 3786281.993896236177534 ], [ 402046.693794506601989, 3786281.688708036672324 ], [ 402047.304170905379578, 3786281.078331637661904 ], [ 402047.304170905379578, 3786280.773143438622355 ], [ 402047.609359104768373, 3786280.467955239117146 ], [ 402047.609359104768373, 3786280.162767039611936 ], [ 402048.830111902323551, 3786278.942014242056757 ], [ 402049.135300101712346, 3786278.942014242056757 ], [ 402049.440488301101141, 3786278.636826042551547 ], [ 402049.745676500489935, 3786278.636826042551547 ], [ 402050.05086469987873, 3786278.331637843511999 ], [ 402050.356052899267524, 3786278.331637843511999 ], [ 402050.661241098656319, 3786278.026449644006789 ], [ 402052.187182095600292, 3786278.026449644006789 ], [ 402052.797558494377881, 3786278.636826042551547 ], [ 402052.797558494377881, 3786279.857578840106726 ], [ 402052.492370294989087, 3786280.162767039611936 ], [ 402052.492370294989087, 3786281.688708036672324 ], [ 402052.187182095600292, 3786281.993896236177534 ], [ 402052.187182095600292, 3786282.604272634722292 ], [ 402051.881993896211497, 3786282.909460834227502 ], [ 402051.881993896211497, 3786283.214649033732712 ], [ 402051.576805696822703, 3786283.519837232772261 ], [ 402051.576805696822703, 3786283.825025432277471 ], [ 402050.966429298045114, 3786284.435401831287891 ], [ 402050.966429298045114, 3786285.045778229832649 ], [ 402050.661241098656319, 3786285.350966429337859 ], [ 402050.661241098656319, 3786286.571719226893038 ], [ 402050.356052899267524, 3786286.876907426398247 ], [ 402050.356052899267524, 3786287.182095625437796 ], [ 402049.440488301101141, 3786288.097660223953426 ], [ 402048.524923702934757, 3786288.097660223953426 ], [ 402048.219735503545962, 3786288.402848422992975 ], [ 402046.693794506601989, 3786288.402848422992975 ], [ 402046.388606307213195, 3786288.708036622498184 ], [ 402045.778229908435605, 3786288.708036622498184 ] ] ] } },
{ "type": "Feature", "properties": { "confidence": 0.79967963695526123, "class": 1 }, "geometry": { "type": "Polygon", "coordinates": [ [ [ 402242.929806714120787, 3786323.19430315354839 ], [ 402242.319430315343197, 3786322.583926755003631 ], [ 402242.319430315343197, 3786322.278738555498421 ], [ 402242.014242115954403, 3786321.973550355993211 ], [ 402242.014242115954403, 3786321.057985757943243 ], [ 402241.709053916565608, 3786320.752797558438033 ], [ 402241.709053916565608, 3786320.447609358932823 ], [ 402241.403865717176814, 3786320.142421159893274 ], [ 402241.403865717176814, 3786319.837232960388064 ], [ 402241.098677517788019, 3786319.532044760882854 ], [ 402241.098677517788019, 3786317.090539165772498 ], [ 402242.014242115954403, 3786316.174974567722529 ], [ 402242.319430315343197, 3786316.174974567722529 ], [ 402243.540183112898376, 3786314.954221770167351 ], [ 402243.540183112898376, 3786314.649033570662141 ], [ 402243.84537131228717, 3786314.649033570662141 ], [ 402244.45574771106476, 3786314.038657172117382 ], [ 402246.59206510684453, 3786314.038657172117382 ], [ 402247.202441505622119, 3786314.649033570662141 ], [ 402247.507629705010913, 3786314.649033570662141 ], [ 402248.423194303177297, 3786315.564598168712109 ], [ 402248.423194303177297, 3786315.869786368217319 ], [ 402248.728382502566092, 3786316.174974567722529 ], [ 402248.728382502566092, 3786319.226856561377645 ], [ 402248.423194303177297, 3786319.532044760882854 ], [ 402248.423194303177297, 3786319.837232960388064 ], [ 402248.118006103788503, 3786320.142421159893274 ], [ 402248.118006103788503, 3786320.447609358932823 ], [ 402247.812817904399708, 3786320.752797558438033 ], [ 402247.812817904399708, 3786321.057985757943243 ], [ 402246.897253306233324, 3786321.973550355993211 ], [ 402246.59206510684453, 3786321.973550355993211 ], [ 402246.286876907397527, 3786322.278738555498421 ], [ 402245.371312309231143, 3786322.278738555498421 ], [ 402244.45574771106476, 3786323.19430315354839 ], [ 402242.929806714120787, 3786323.19430315354839 ] ] ] } },
{ "type": "Feature", "properties": { "confidence": 0.68539243936538696, "class": 1 }, "geometry": { "type": "Polygon", "coordinates": [ [ [ 402234.384537131234538, 3786332.044760935939848 ], [ 402234.384537131234538, 3786326.856561546213925 ], [ 402238.351983723288868, 3786326.856561546213925 ], [ 402238.351983723288868, 3786328.077314343769103 ], [ 402238.046795523900073, 3786328.382502543274313 ], [ 402238.046795523900073, 3786328.992878941819072 ], [ 402237.741607324511278, 3786329.298067141324282 ], [ 402237.741607324511278, 3786329.908443540334702 ], [ 402237.436419125122484, 3786330.21363173937425 ], [ 402237.436419125122484, 3786330.82400813838467 ], [ 402236.215666327567305, 3786332.044760935939848 ], [ 402234.384537131234538, 3786332.044760935939848 ] ] ] } },
{ "type": "Feature", "properties": { "confidence": 0.68310719728469849, "class": 1 }, "geometry": { "type": "Polygon", "coordinates": [ [ [ 402049.440488301101141, 3786564.292980671394616 ], [ 402048.830111902323551, 3786563.682604272849858 ], [ 402048.830111902323551, 3786563.377416073344648 ], [ 402048.524923702934757, 3786563.072227873839438 ], [ 402048.830111902323551, 3786562.767039674334228 ], [ 402048.830111902323551, 3786560.630722278729081 ], [ 402049.135300101712346, 3786560.325534079223871 ], [ 402049.135300101712346, 3786560.020345880184323 ], [ 402049.440488301101141, 3786559.715157680679113 ], [ 402049.440488301101141, 3786558.799593082629144 ], [ 402049.745676500489935, 3786558.494404883123934 ], [ 402050.05086469987873, 3786558.494404883123934 ], [ 402050.356052899267524, 3786558.189216683618724 ], [ 402053.40793489315547, 3786558.189216683618724 ], [ 402053.40793489315547, 3786562.767039674334228 ], [ 402053.102746693766676, 3786562.767039674334228 ], [ 402052.492370294989087, 3786563.377416073344648 ], [ 402052.187182095600292, 3786563.377416073344648 ], [ 402051.881993896211497, 3786563.682604272849858 ], [ 402051.576805696822703, 3786563.682604272849858 ], [ 402050.966429298045114, 3786564.292980671394616 ], [ 402049.440488301101141, 3786564.292980671394616 ] ] ] } },
{ "type": "Feature", "properties": { "confidence": 0.67457538843154907, "class": 1 }, "geometry": { "type": "Polygon", "coordinates": [ [ [ 402189.827060020354111, 3786331.739572736434639 ], [ 402189.521871820965316, 3786331.434384536929429 ], [ 402188.301119023410138, 3786331.434384536929429 ], [ 402187.995930824021343, 3786331.12919633788988 ], [ 402187.690742624632549, 3786331.12919633788988 ], [ 402187.080366225854959, 3786330.51881993887946 ], [ 402187.080366225854959, 3786327.466937945224345 ], [ 402186.775178026466165, 3786327.161749745719135 ], [ 402186.775178026466165, 3786324.415055951103568 ], [ 402187.080366225854959, 3786324.109867751598358 ], [ 402187.080366225854959, 3786323.80467955255881 ], [ 402189.827060020354111, 3786323.80467955255881 ], [ 402190.4374364191317, 3786324.415055951103568 ], [ 402190.742624618520495, 3786324.415055951103568 ], [ 402191.047812817909289, 3786324.720244150608778 ], [ 402191.658189216686878, 3786324.720244150608778 ], [ 402191.963377416075673, 3786325.025432350113988 ], [ 402192.268565615464468, 3786325.025432350113988 ], [ 402192.573753814853262, 3786325.330620549153537 ], [ 402192.573753814853262, 3786326.551373346708715 ], [ 402192.268565615464468, 3786326.856561546213925 ], [ 402192.268565615464468, 3786327.161749745719135 ], [ 402191.963377416075673, 3786327.161749745719135 ], [ 402191.658189216686878, 3786327.466937945224345 ], [ 402191.658189216686878, 3786327.772126144263893 ], [ 402191.353001017298084, 3786328.077314343769103 ], [ 402191.353001017298084, 3786330.51881993887946 ], [ 402191.047812817909289, 3786330.82400813838467 ], [ 402191.047812817909289, 3786331.12919633788988 ], [ 402190.742624618520495, 3786331.434384536929429 ], [ 402190.132248219742905, 3786331.434384536929429 ], [ 402189.827060020354111, 3786331.739572736434639 ] ] ] } },
{ "type": "Feature", "properties": { "confidence": 0.65578955411911011, "class": 1 }, "geometry": { "type": "Polygon", "coordinates": [ [ [ 402412.309257375367451, 3786461.444557477254421 ], [ 402412.004069175978657, 3786461.139369277749211 ], [ 402412.004069175978657, 3786460.223804679699242 ], [ 402411.698880976589862, 3786459.918616480194032 ], [ 402411.698880976589862, 3786459.613428280688822 ], [ 402411.393692777201068, 3786459.308240081183612 ], [ 402411.393692777201068, 3786458.392675483133644 ], [ 402411.698880976589862, 3786458.087487283628434 ], [ 402413.835198372311424, 3786458.087487283628434 ], [ 402414.140386571700219, 3786457.782299084588885 ], [ 402414.445574771089014, 3786458.087487283628434 ], [ 402417.192268565588165, 3786458.087487283628434 ], [ 402417.49745676497696, 3786458.392675483133644 ], [ 402417.802644964365754, 3786458.392675483133644 ], [ 402418.107833163812757, 3786458.697863682638854 ], [ 402418.107833163812757, 3786460.223804679699242 ], [ 402417.802644964365754, 3786460.528992878738791 ], [ 402415.361139369255397, 3786460.528992878738791 ], [ 402415.055951169866603, 3786460.834181078244001 ], [ 402414.750762970477808, 3786460.834181078244001 ], [ 402414.445574771089014, 3786461.139369277749211 ], [ 402414.140386571700219, 3786461.139369277749211 ], [ 402413.835198372311424, 3786461.444557477254421 ], [ 402412.309257375367451, 3786461.444557477254421 ] ] ] } },
{ "type": "Feature", "properties": { "confidence": 0.64403116703033447, "class": 1 }, "geometry": { "type": "Polygon", "coordinates": [ [ [ 402502.950152594072279, 3786386.978636825922877 ], [ 402502.034587995905895, 3786386.063072227872908 ], [ 402502.034587995905895, 3786384.23194303130731 ], [ 402501.7293997965171, 3786383.926754832267761 ], [ 402501.7293997965171, 3786383.011190233752131 ], [ 402501.424211597128306, 3786382.706002034712583 ], [ 402501.424211597128306, 3786381.790437436196953 ], [ 402501.119023397739511, 3786381.485249237157404 ], [ 402501.119023397739511, 3786378.433367243036628 ], [ 402501.424211597128306, 3786378.128179043531418 ], [ 402501.424211597128306, 3786377.822990844491869 ], [ 402501.7293997965171, 3786377.822990844491869 ], [ 402502.034587995905895, 3786377.517802644986659 ], [ 402502.339776195294689, 3786377.517802644986659 ], [ 402502.644964394683484, 3786377.212614445481449 ], [ 402502.950152594072279, 3786377.212614445481449 ], [ 402503.255340793461073, 3786376.907426245976239 ], [ 402504.476093591074459, 3786376.907426245976239 ], [ 402504.781281790463254, 3786376.602238046936691 ], [ 402505.696846388629638, 3786376.602238046936691 ], [ 402506.002034588018432, 3786376.907426245976239 ], [ 402506.307222787407227, 3786376.907426245976239 ], [ 402506.612410986796021, 3786377.212614445481449 ], [ 402506.612410986796021, 3786377.822990844491869 ], [ 402506.917599186184816, 3786378.128179043531418 ], [ 402506.917599186184816, 3786378.433367243036628 ], [ 402507.222787385573611, 3786378.738555442541838 ], [ 402507.222787385573611, 3786379.043743642047048 ], [ 402507.527975584962405, 3786379.348931841086596 ], [ 402507.8331637843512, 3786379.348931841086596 ], [ 402507.8331637843512, 3786379.959308240097016 ], [ 402508.138351983739994, 3786380.264496439602226 ], [ 402508.138351983739994, 3786385.452695828862488 ], [ 402507.8331637843512, 3786385.757884028367698 ], [ 402507.8331637843512, 3786386.063072227872908 ], [ 402507.527975584962405, 3786386.368260427378118 ], [ 402506.917599186184816, 3786386.368260427378118 ], [ 402506.612410986796021, 3786386.673448626883328 ], [ 402504.476093591074459, 3786386.673448626883328 ], [ 402504.170905391685665, 3786386.978636825922877 ], [ 402502.950152594072279, 3786386.978636825922877 ] ] ] } },
{ "type": "Feature", "properties": { "confidence": 0.62828898429870605, "class": 1 }, "geometry": { "type": "Polygon", "coordinates": [ [ [ 402119.63377416075673, 3786387.589013224933296 ], [ 402119.328585961367935, 3786387.283825025428087 ], [ 402118.413021363201551, 3786387.283825025428087 ], [ 402118.107833163812757, 3786386.978636825922877 ], [ 402118.107833163812757, 3786383.011190233752131 ], [ 402118.413021363201551, 3786382.706002034712583 ], [ 402118.413021363201551, 3786382.095625635702163 ], [ 402119.02339776197914, 3786382.095625635702163 ], [ 402119.328585961367935, 3786381.790437436196953 ], [ 402122.075279755867086, 3786381.790437436196953 ], [ 402122.075279755867086, 3786382.400813835207373 ], [ 402122.380467955255881, 3786382.706002034712583 ], [ 402122.380467955255881, 3786383.926754832267761 ], [ 402122.075279755867086, 3786384.23194303130731 ], [ 402122.075279755867086, 3786384.84231943031773 ], [ 402121.464903357089497, 3786385.452695828862488 ], [ 402121.464903357089497, 3786386.063072227872908 ], [ 402121.159715157700703, 3786386.368260427378118 ], [ 402121.159715157700703, 3786386.673448626883328 ], [ 402120.854526958311908, 3786386.978636825922877 ], [ 402120.549338758923113, 3786386.978636825922877 ], [ 402120.244150559534319, 3786387.283825025428087 ], [ 402119.938962360145524, 3786387.283825025428087 ], [ 402119.63377416075673, 3786387.589013224933296 ] ] ] } },
{ "type": "Feature", "properties": { "confidence": 0.62672370672225952, "class": 1 }, "geometry": { "type": "Polygon", "coordinates": [ [ [ 402036.012207527994178, 3786171.515768057201058 ], [ 402035.707019328605384, 3786171.210579857695848 ], [ 402035.096642929827794, 3786171.210579857695848 ], [ 402034.486266531050205, 3786170.600203458685428 ], [ 402034.486266531050205, 3786170.295015259180218 ], [ 402034.181078331661411, 3786169.989827060140669 ], [ 402034.181078331661411, 3786167.853509664069861 ], [ 402034.486266531050205, 3786167.548321465030313 ], [ 402034.486266531050205, 3786167.243133265525103 ], [ 402034.791454730439, 3786166.937945066019893 ], [ 402036.012207527994178, 3786166.937945066019893 ], [ 402036.317395727382973, 3786167.243133265525103 ], [ 402037.843336724326946, 3786167.243133265525103 ], [ 402038.14852492371574, 3786166.937945066019893 ], [ 402038.75890132249333, 3786166.937945066019893 ], [ 402039.064089521882124, 3786167.243133265525103 ], [ 402041.505595116992481, 3786167.243133265525103 ], [ 402041.505595116992481, 3786168.158697863575071 ], [ 402040.895218718214892, 3786168.769074262585491 ], [ 402040.895218718214892, 3786169.07426246162504 ], [ 402040.590030518826097, 3786169.07426246162504 ], [ 402040.284842319437303, 3786169.37945066113025 ], [ 402040.284842319437303, 3786169.684638860635459 ], [ 402039.979654120048508, 3786169.989827060140669 ], [ 402039.979654120048508, 3786170.295015259180218 ], [ 402039.369277721270919, 3786170.905391658190638 ], [ 402039.369277721270919, 3786171.515768057201058 ], [ 402036.012207527994178, 3786171.515768057201058 ] ] ] } },
{ "type": "Feature", "properties": { "confidence": 0.61943727731704712, "class": 1 }, "geometry": { "type": "Polygon", "coordinates": [ [ [ 402319.226856561552268, 3786454.12004069192335 ], [ 402318.921668362163473, 3786453.81485249241814 ], [ 402318.616480162774678, 3786453.81485249241814 ], [ 402318.311291963385884, 3786453.50966429291293 ], [ 402315.869786368275527, 3786453.50966429291293 ], [ 402315.564598168886732, 3786453.81485249241814 ], [ 402314.954221770109143, 3786453.81485249241814 ], [ 402314.649033570720349, 3786453.50966429291293 ], [ 402314.649033570720349, 3786450.762970498297364 ], [ 402314.954221770109143, 3786450.457782299257815 ], [ 402314.954221770109143, 3786449.847405900247395 ], [ 402315.259409969497938, 3786449.542217700742185 ], [ 402315.259409969497938, 3786448.931841302197427 ], [ 402315.564598168886732, 3786448.931841302197427 ], [ 402315.869786368275527, 3786448.626653102692217 ], [ 402315.869786368275527, 3786448.016276704147458 ], [ 402316.174974567664322, 3786447.711088504642248 ], [ 402316.174974567664322, 3786447.100712105631828 ], [ 402316.785350966441911, 3786446.49033570708707 ], [ 402317.090539165830705, 3786446.49033570708707 ], [ 402317.3957273652195, 3786446.18514750758186 ], [ 402318.921668362163473, 3786446.18514750758186 ], [ 402319.226856561552268, 3786446.49033570708707 ], [ 402322.278738555440214, 3786446.49033570708707 ], [ 402322.583926754829008, 3786446.79552390659228 ], [ 402322.583926754829008, 3786447.711088504642248 ], [ 402322.889114954217803, 3786448.016276704147458 ], [ 402322.889114954217803, 3786448.931841302197427 ], [ 402322.583926754829008, 3786449.237029501702636 ], [ 402322.583926754829008, 3786450.457782299257815 ], [ 402322.278738555440214, 3786450.762970498297364 ], [ 402322.278738555440214, 3786451.068158697802573 ], [ 402321.057985757885035, 3786452.288911495357752 ], [ 402321.057985757885035, 3786452.594099694862962 ], [ 402320.752797558496241, 3786452.899287894368172 ], [ 402320.752797558496241, 3786453.20447609340772 ], [ 402319.837232960329857, 3786454.12004069192335 ], [ 402319.226856561552268, 3786454.12004069192335 ] ] ] } },
{ "type": "Feature", "properties": { "confidence": 0.60774695873260498, "class": 1 }, "geometry": { "type": "Polygon", "coordinates": [ [ [ 402579.857578840281349, 3786301.525940997060388 ], [ 402579.857578840281349, 3786301.220752797555178 ], [ 402579.552390640892554, 3786300.915564598049968 ], [ 402579.552390640892554, 3786298.168870803434402 ], [ 402579.857578840281349, 3786297.863682604394853 ], [ 402579.857578840281349, 3786297.558494404889643 ], [ 402580.162767039670143, 3786297.558494404889643 ], [ 402580.773143438447732, 3786296.948118005879223 ], [ 402581.078331637836527, 3786296.948118005879223 ], [ 402581.688708036614116, 3786296.337741607334465 ], [ 402583.214649033558089, 3786296.337741607334465 ], [ 402583.825025432335678, 3786296.948118005879223 ], [ 402584.435401831113268, 3786296.948118005879223 ], [ 402584.435401831113268, 3786297.253306205384433 ], [ 402584.740590030502062, 3786297.558494404889643 ], [ 402584.740590030502062, 3786298.474059002939612 ], [ 402584.435401831113268, 3786298.779247202444822 ], [ 402584.435401831113268, 3786299.38962360098958 ], [ 402584.130213631724473, 3786299.38962360098958 ], [ 402583.214649033558089, 3786300.30518819950521 ], [ 402582.909460834169295, 3786300.30518819950521 ], [ 402581.993896236002911, 3786301.220752797555178 ], [ 402581.688708036614116, 3786301.220752797555178 ], [ 402581.383519837225322, 3786301.525940997060388 ], [ 402579.857578840281349, 3786301.525940997060388 ] ] ] } },
{ "type": "Feature", "properties": { "confidence": 0.55447942018508911, "class": 1 }, "geometry": { "type": "Polygon", "coordinates": [ [ [ 402522.787385554402135, 3786097.049847405869514 ], [ 402522.482197355013341, 3786096.744659206364304 ], [ 402522.177009155624546, 3786096.744659206364304 ], [ 402521.871820956235752, 3786096.439471007324755 ], [ 402521.871820956235752, 3786096.134282807819545 ], [ 402521.261444557458162, 3786095.523906408809125 ], [ 402521.261444557458162, 3786095.218718209769577 ], [ 402520.956256358069368, 3786094.913530010264367 ], [ 402520.956256358069368, 3786093.387589013203979 ], [ 402520.651068158680573, 3786093.082400813698769 ], [ 402522.482197355013341, 3786093.082400813698769 ], [ 402522.787385554402135, 3786092.77721261465922 ], [ 402522.787385554402135, 3786092.47202441515401 ], [ 402526.754832146514673, 3786092.47202441515401 ], [ 402526.754832146514673, 3786093.082400813698769 ], [ 402527.060020345903467, 3786093.387589013203979 ], [ 402527.060020345903467, 3786095.523906408809125 ], [ 402526.754832146514673, 3786095.523906408809125 ], [ 402526.144455747737084, 3786096.134282807819545 ], [ 402526.144455747737084, 3786096.439471007324755 ], [ 402525.839267548348289, 3786096.439471007324755 ], [ 402525.534079348959494, 3786096.744659206364304 ], [ 402524.618514750734903, 3786096.744659206364304 ], [ 402524.313326551346108, 3786097.049847405869514 ], [ 402522.787385554402135, 3786097.049847405869514 ] ] ] } },
{ "type": "Feature", "properties": { "confidence": 0.53469526767730713, "class": 1 }, "geometry": { "type": "Polygon", "coordinates": [ [ [ 402379.959308240097016, 3786286.266531027387828 ], [ 402379.348931841319427, 3786285.656154628843069 ], [ 402379.043743641930632, 3786285.656154628843069 ], [ 402378.738555442541838, 3786285.350966429337859 ], [ 402378.433367243153043, 3786285.350966429337859 ], [ 402378.128179043764248, 3786285.045778229832649 ], [ 402377.822990844375454, 3786285.045778229832649 ], [ 402377.212614445597865, 3786284.435401831287891 ], [ 402377.212614445597865, 3786283.825025432277471 ], [ 402376.90742624620907, 3786283.519837232772261 ], [ 402376.90742624620907, 3786280.467955239117146 ], [ 402377.212614445597865, 3786280.162767039611936 ], [ 402377.212614445597865, 3786279.857578840106726 ], [ 402377.517802644986659, 3786279.552390641067177 ], [ 402380.264496439485811, 3786279.552390641067177 ], [ 402380.569684638874605, 3786279.247202441561967 ], [ 402383.621566632762551, 3786279.247202441561967 ], [ 402383.926754832151346, 3786279.552390641067177 ], [ 402383.926754832151346, 3786279.857578840106726 ], [ 402384.231943031540141, 3786280.162767039611936 ], [ 402384.231943031540141, 3786281.078331637661904 ], [ 402383.926754832151346, 3786281.383519837167114 ], [ 402383.926754832151346, 3786281.993896236177534 ], [ 402383.621566632762551, 3786282.299084435217083 ], [ 402383.621566632762551, 3786282.604272634722292 ], [ 402383.316378433373757, 3786282.909460834227502 ], [ 402383.316378433373757, 3786283.214649033732712 ], [ 402383.011190233984962, 3786283.519837232772261 ], [ 402383.011190233984962, 3786284.740590030327439 ], [ 402382.706002034596168, 3786285.045778229832649 ], [ 402382.706002034596168, 3786285.350966429337859 ], [ 402382.400813835207373, 3786285.656154628843069 ], [ 402382.400813835207373, 3786285.961342827882618 ], [ 402382.095625635818578, 3786286.266531027387828 ], [ 402379.959308240097016, 3786286.266531027387828 ] ] ] } },
{ "type": "Feature", "properties": { "confidence": 0.52341848611831665, "class": 1 }, "geometry": { "type": "Polygon", "coordinates": [ [ [ 402505.696846388629638, 3786131.536113936919719 ], [ 402503.560528992908075, 3786129.399796541314572 ], [ 402503.560528992908075, 3786126.958290946204215 ], [ 402504.476093591074459, 3786126.042726347688586 ], [ 402505.086469989852048, 3786126.042726347688586 ], [ 402505.391658189240843, 3786125.737538148649037 ], [ 402505.696846388629638, 3786125.737538148649037 ], [ 402506.002034588018432, 3786126.042726347688586 ], [ 402506.612410986796021, 3786126.042726347688586 ], [ 402506.917599186184816, 3786125.737538148649037 ], [ 402507.527975584962405, 3786125.737538148649037 ], [ 402507.527975584962405, 3786131.536113936919719 ], [ 402505.696846388629638, 3786131.536113936919719 ] ] ] } },
{ "type": "Feature", "properties": { "confidence": 0.51275163888931274, "class": 1 }, "geometry": { "type": "Polygon", "coordinates": [ [ [ 402530.417090539180208, 3786249.949135300237685 ], [ 402530.111902339791413, 3786249.643947100732476 ], [ 402529.501525941013824, 3786249.643947100732476 ], [ 402528.891149542236235, 3786249.033570701722056 ], [ 402528.891149542236235, 3786247.812817904166877 ], [ 402529.501525941013824, 3786247.202441505622119 ], [ 402529.501525941013824, 3786246.897253306116909 ], [ 402529.806714140402619, 3786246.592065106611699 ], [ 402529.806714140402619, 3786245.98168870806694 ], [ 402530.111902339791413, 3786245.67650050856173 ], [ 402530.111902339791413, 3786245.37131230905652 ], [ 402530.722278738569003, 3786244.760935910511762 ], [ 402530.722278738569003, 3786244.455747711006552 ], [ 402531.332655137346592, 3786243.845371312461793 ], [ 402531.332655137346592, 3786243.540183112956583 ], [ 402531.943031536124181, 3786242.929806713946164 ], [ 402531.943031536124181, 3786241.403865717351437 ], [ 402532.248219735512976, 3786241.098677517846227 ], [ 402534.994913530012127, 3786241.098677517846227 ], [ 402535.300101729400922, 3786241.403865717351437 ], [ 402535.605289928789716, 3786241.403865717351437 ], [ 402536.215666327567305, 3786242.014242115896195 ], [ 402536.5208545269561, 3786242.014242115896195 ], [ 402536.826042726344895, 3786242.319430315401405 ], [ 402536.826042726344895, 3786242.624618514906615 ], [ 402537.131230925733689, 3786242.929806713946164 ], [ 402537.131230925733689, 3786247.202441505622119 ], [ 402536.826042726344895, 3786247.507629705127329 ], [ 402536.826042726344895, 3786247.812817904166877 ], [ 402536.215666327567305, 3786248.423194303177297 ], [ 402536.215666327567305, 3786248.728382502682507 ], [ 402535.910478128178511, 3786248.728382502682507 ], [ 402535.300101729400922, 3786249.338758901227266 ], [ 402534.994913530012127, 3786249.338758901227266 ], [ 402534.689725330623332, 3786249.643947100732476 ], [ 402534.079348931845743, 3786249.643947100732476 ], [ 402533.774160732456949, 3786249.949135300237685 ], [ 402530.417090539180208, 3786249.949135300237685 ] ] ] } },
{ "type": "Feature", "properties": { "confidence": 0.47174304723739624, "class": 1 }, "geometry": { "type": "Polygon", "coordinates": [ [ [ 402090.640895218704827, 3786238.65717192273587 ], [ 402090.030518819927238, 3786238.04679552372545 ], [ 402090.030518819927238, 3786237.741607324685901 ], [ 402089.725330620538443, 3786237.436419125180691 ], [ 402089.725330620538443, 3786236.215666327625513 ], [ 402090.030518819927238, 3786235.910478128120303 ], [ 402090.030518819927238, 3786235.605289928615093 ], [ 402090.335707019316033, 3786235.300101729575545 ], [ 402090.640895218704827, 3786235.300101729575545 ], [ 402090.946083418093622, 3786234.994913530070335 ], [ 402093.997965411981568, 3786234.994913530070335 ], [ 402094.303153611370362, 3786235.300101729575545 ], [ 402094.608341810759157, 3786235.300101729575545 ], [ 402095.218718209536746, 3786235.910478128120303 ], [ 402095.218718209536746, 3786238.04679552372545 ], [ 402094.913530010147952, 3786238.35198372323066 ], [ 402094.608341810759157, 3786238.35198372323066 ], [ 402094.303153611370362, 3786238.65717192273587 ], [ 402090.640895218704827, 3786238.65717192273587 ] ] ] } },
{ "type": "Feature", "properties": { "confidence": 0.44513234496116638, "class": 1 }, "geometry": { "type": "Polygon", "coordinates": [ [ [ 402159.003051881969441, 3786448.016276704147458 ], [ 402158.697863682580646, 3786447.711088504642248 ], [ 402158.697863682580646, 3786447.100712105631828 ], [ 402157.782299084414262, 3786446.18514750758186 ], [ 402158.087487283803057, 3786445.87995930807665 ], [ 402158.087487283803057, 3786444.048830111976713 ], [ 402163.886063072248362, 3786444.048830111976713 ], [ 402163.886063072248362, 3786445.269582909531891 ], [ 402163.580874872859567, 3786445.574771109037101 ], [ 402163.580874872859567, 3786445.87995930807665 ], [ 402163.275686673470773, 3786446.18514750758186 ], [ 402163.275686673470773, 3786446.49033570708707 ], [ 402162.360122075304389, 3786447.405900305137038 ], [ 402162.054933875915594, 3786447.405900305137038 ], [ 402161.444557477138005, 3786448.016276704147458 ], [ 402159.003051881969441, 3786448.016276704147458 ] ] ] } },
{ "type": "Feature", "properties": { "confidence": 0.41679304838180542, "class": 1 }, "geometry": { "type": "Polygon", "coordinates": [ [ [ 402435.808748728362843, 3786365.005086469929665 ], [ 402435.198372329585254, 3786364.394710071384907 ], [ 402435.198372329585254, 3786362.868769074324518 ], [ 402434.89318413019646, 3786362.563580874819309 ], [ 402434.89318413019646, 3786361.03763987775892 ], [ 402435.198372329585254, 3786360.732451678719372 ], [ 402436.113936927751638, 3786360.732451678719372 ], [ 402436.419125127140433, 3786360.427263479214162 ], [ 402437.029501525918022, 3786360.427263479214162 ], [ 402437.334689725306816, 3786360.122075279708952 ], [ 402441.607324516808148, 3786360.122075279708952 ], [ 402441.912512716196943, 3786360.427263479214162 ], [ 402441.912512716196943, 3786360.732451678719372 ], [ 402442.217700915585738, 3786361.03763987775892 ], [ 402442.217700915585738, 3786363.173957273829728 ], [ 402441.607324516808148, 3786363.784333672374487 ], [ 402441.607324516808148, 3786364.089521871879697 ], [ 402441.302136317419354, 3786364.394710071384907 ], [ 402440.691759918641765, 3786364.394710071384907 ], [ 402440.38657171925297, 3786364.699898270424455 ], [ 402439.776195320475381, 3786364.699898270424455 ], [ 402439.471007121086586, 3786365.005086469929665 ], [ 402435.808748728362843, 3786365.005086469929665 ] ] ] } },
{ "type": "Feature", "properties": { "confidence": 0.34467226266860962, "class": 1 }, "geometry": { "type": "Polygon", "coordinates": [ [ [ 402475.483214649022557, 3786365.615462868940085 ], [ 402475.483214649022557, 3786365.005086469929665 ], [ 402474.872838250244968, 3786364.394710071384907 ], [ 402474.872838250244968, 3786364.089521871879697 ], [ 402474.567650050856173, 3786363.784333672374487 ], [ 402474.567650050856173, 3786361.03763987775892 ], [ 402474.262461851467378, 3786360.732451678719372 ], [ 402474.567650050856173, 3786360.427263479214162 ], [ 402474.567650050856173, 3786359.511698881164193 ], [ 402476.093591047800146, 3786359.511698881164193 ], [ 402476.398779247188941, 3786359.816887080203742 ], [ 402477.00915564596653, 3786359.816887080203742 ], [ 402477.314343845355324, 3786360.122075279708952 ], [ 402477.924720244132914, 3786360.122075279708952 ], [ 402478.229908443521708, 3786359.816887080203742 ], [ 402479.145473041688092, 3786359.816887080203742 ], [ 402479.450661241076887, 3786359.511698881164193 ], [ 402479.450661241076887, 3786359.206510681658983 ], [ 402480.671414038632065, 3786359.206510681658983 ], [ 402480.97660223802086, 3786358.901322482153773 ], [ 402481.892166836187243, 3786358.901322482153773 ], [ 402482.197355035634246, 3786358.596134282648563 ], [ 402482.50254323502304, 3786358.901322482153773 ], [ 402482.807731434411835, 3786358.901322482153773 ], [ 402483.11291963380063, 3786359.206510681658983 ], [ 402483.11291963380063, 3786363.784333672374487 ], [ 402482.807731434411835, 3786364.089521871879697 ], [ 402482.807731434411835, 3786364.394710071384907 ], [ 402482.50254323502304, 3786364.699898270424455 ], [ 402482.50254323502304, 3786365.005086469929665 ], [ 402482.197355035634246, 3786365.310274669434875 ], [ 402482.197355035634246, 3786365.615462868940085 ], [ 402475.483214649022557, 3786365.615462868940085 ] ] ] } },
{ "type": "Feature", "properties": { "confidence": 0.34263116121292114, "class": 1 }, "geometry": { "type": "Polygon", "coordinates": [ [ [ 402231.637843336735386, 3786364.089521871879697 ], [ 402231.332655137346592, 3786363.784333672374487 ], [ 402231.027466937957797, 3786363.784333672374487 ], [ 402230.111902339791413, 3786362.868769074324518 ], [ 402230.111902339791413, 3786360.732451678719372 ], [ 402230.417090539180208, 3786360.427263479214162 ], [ 402230.417090539180208, 3786358.901322482153773 ], [ 402230.111902339791413, 3786358.596134282648563 ], [ 402230.417090539180208, 3786358.290946083609015 ], [ 402230.417090539180208, 3786357.375381485093385 ], [ 402230.722278738569003, 3786357.070193286053836 ], [ 402231.027466937957797, 3786357.070193286053836 ], [ 402231.332655137346592, 3786356.765005086548626 ], [ 402233.163784333679359, 3786356.765005086548626 ], [ 402233.468972533068154, 3786356.459816887043417 ], [ 402233.774160732456949, 3786356.459816887043417 ], [ 402234.079348931845743, 3786356.154628687538207 ], [ 402236.215666327567305, 3786356.154628687538207 ], [ 402236.215666327567305, 3786357.375381485093385 ], [ 402236.5208545269561, 3786357.680569684598595 ], [ 402236.5208545269561, 3786358.290946083609015 ], [ 402236.826042726344895, 3786358.596134282648563 ], [ 402236.826042726344895, 3786361.95320447627455 ], [ 402236.215666327567305, 3786362.563580874819309 ], [ 402235.910478128178511, 3786362.563580874819309 ], [ 402235.605289928789716, 3786362.868769074324518 ], [ 402234.994913530012127, 3786362.868769074324518 ], [ 402234.689725330623332, 3786362.563580874819309 ], [ 402234.079348931845743, 3786362.563580874819309 ], [ 402233.774160732456949, 3786362.868769074324518 ], [ 402233.468972533068154, 3786362.868769074324518 ], [ 402233.163784333679359, 3786363.173957273829728 ], [ 402233.163784333679359, 3786363.479145472869277 ], [ 402232.858596134290565, 3786363.784333672374487 ], [ 402232.55340793490177, 3786363.784333672374487 ], [ 402232.248219735512976, 3786364.089521871879697 ], [ 402231.637843336735386, 3786364.089521871879697 ] ] ] } },
{ "type": "Feature", "properties": { "confidence": 0.32886376976966858, "class": 1 }, "geometry": { "type": "Polygon", "coordinates": [ [ [ 402189.216683621576522, 3786430.010172939859331 ], [ 402189.216683621576522, 3786429.094608341809362 ], [ 402188.911495422187727, 3786428.789420142304152 ], [ 402188.911495422187727, 3786427.568667344748974 ], [ 402189.216683621576522, 3786427.263479145243764 ], [ 402189.216683621576522, 3786426.958290946204215 ], [ 402190.4374364191317, 3786425.737538148649037 ], [ 402192.878942014242057, 3786425.737538148649037 ], [ 402193.489318413019646, 3786425.127161749638617 ], [ 402194.40488301118603, 3786425.127161749638617 ], [ 402194.710071210574824, 3786425.432349949143827 ], [ 402195.015259409963619, 3786425.432349949143827 ], [ 402195.015259409963619, 3786426.042726347688586 ], [ 402194.710071210574824, 3786426.347914547193795 ], [ 402194.710071210574824, 3786426.653102746699005 ], [ 402193.794506612408441, 3786427.568667344748974 ], [ 402193.794506612408441, 3786427.873855544254184 ], [ 402193.184130213630851, 3786428.484231942798942 ], [ 402192.268565615464468, 3786428.484231942798942 ], [ 402191.963377416075673, 3786428.789420142304152 ], [ 402191.658189216686878, 3786428.789420142304152 ], [ 402191.353001017298084, 3786429.094608341809362 ], [ 402191.047812817909289, 3786429.094608341809362 ], [ 402190.4374364191317, 3786429.704984740819782 ], [ 402189.827060020354111, 3786429.704984740819782 ], [ 402189.521871820965316, 3786430.010172939859331 ], [ 402189.216683621576522, 3786430.010172939859331 ] ] ] } },
{ "type": "Feature", "properties": { "confidence": 0.29326573014259338, "class": 1 }, "geometry": { "type": "Polygon", "coordinates": [ [ [ 402343.031536113936454, 3786532.858596134465188 ], [ 402342.726347914547659, 3786532.553407934959978 ], [ 402342.421159715158865, 3786532.553407934959978 ], [ 402342.11597151577007, 3786532.248219735454768 ], [ 402342.11597151577007, 3786531.637843336910009 ], [ 402341.810783316381276, 3786531.332655137404799 ], [ 402341.810783316381276, 3786530.72227873839438 ], [ 402341.505595116992481, 3786530.417090539354831 ], [ 402341.505595116992481, 3786529.501525940839201 ], [ 402341.200406917603686, 3786529.196337741799653 ], [ 402341.200406917603686, 3786528.585961342789233 ], [ 402340.895218718214892, 3786528.280773143284023 ], [ 402340.895218718214892, 3786527.060020345728844 ], [ 402341.505595116992481, 3786526.449643947184086 ], [ 402341.810783316381276, 3786526.449643947184086 ], [ 402342.11597151577007, 3786526.144455747678876 ], [ 402343.031536113936454, 3786526.144455747678876 ], [ 402343.336724313325249, 3786526.449643947184086 ], [ 402343.641912512714043, 3786526.449643947184086 ], [ 402343.641912512714043, 3786526.754832146689296 ], [ 402343.947100712102838, 3786527.060020345728844 ], [ 402343.947100712102838, 3786527.365208545234054 ], [ 402344.557477110880427, 3786527.975584944244474 ], [ 402344.862665310269222, 3786527.975584944244474 ], [ 402346.0834181078244, 3786529.196337741799653 ], [ 402346.0834181078244, 3786530.111902339849621 ], [ 402346.388606307213195, 3786530.417090539354831 ], [ 402346.388606307213195, 3786531.02746693789959 ], [ 402346.0834181078244, 3786531.332655137404799 ], [ 402346.0834181078244, 3786531.943031535949558 ], [ 402345.473041709046811, 3786532.553407934959978 ], [ 402344.252288911491632, 3786532.553407934959978 ], [ 402343.947100712102838, 3786532.858596134465188 ], [ 402343.031536113936454, 3786532.858596134465188 ] ] ] } },
{ "type": "Feature", "properties": { "confidence": 0.28815370798110962, "class": 1 }, "geometry": { "type": "Polygon", "coordinates": [ [ [ 402238.657171922677662, 3786447.100712105631828 ], [ 402238.351983723288868, 3786446.79552390659228 ], [ 402238.351983723288868, 3786446.49033570708707 ], [ 402237.436419125122484, 3786445.574771109037101 ], [ 402237.436419125122484, 3786444.659206510521472 ], [ 402238.657171922677662, 3786444.659206510521472 ], [ 402238.962360122066457, 3786444.354018311481923 ], [ 402238.962360122066457, 3786444.048830111976713 ], [ 402241.403865717176814, 3786444.048830111976713 ], [ 402241.403865717176814, 3786446.18514750758186 ], [ 402240.793489318399224, 3786446.79552390659228 ], [ 402240.48830111901043, 3786446.79552390659228 ], [ 402240.183112919621635, 3786447.100712105631828 ], [ 402238.657171922677662, 3786447.100712105631828 ] ] ] } },
{ "type": "Feature", "properties": { "confidence": 0.2874487042427063, "class": 1 }, "geometry": { "type": "Polygon", "coordinates": [ [ [ 402122.380467955255881, 3786359.816887080203742 ], [ 402122.075279755867086, 3786359.511698881164193 ], [ 402122.075279755867086, 3786359.206510681658983 ], [ 402122.380467955255881, 3786358.901322482153773 ], [ 402122.380467955255881, 3786358.596134282648563 ], [ 402124.211597151588649, 3786356.765005086548626 ], [ 402126.347914547310211, 3786356.765005086548626 ], [ 402126.347914547310211, 3786358.901322482153773 ], [ 402125.737538148532622, 3786359.511698881164193 ], [ 402125.432349949143827, 3786359.511698881164193 ], [ 402125.127161749755032, 3786359.816887080203742 ], [ 402122.380467955255881, 3786359.816887080203742 ] ] ] } },
{ "type": "Feature", "properties": { "confidence": 0.27899828553199768, "class": 1 }, "geometry": { "type": "Polygon", "coordinates": [ [ [ 402126.9582909460878, 3786554.832146490458399 ], [ 402126.653102746699005, 3786554.526958290953189 ], [ 402126.347914547310211, 3786554.526958290953189 ], [ 402125.127161749755032, 3786553.306205493398011 ], [ 402125.127161749755032, 3786551.169888097792864 ], [ 402124.821973550366238, 3786550.864699898287654 ], [ 402124.821973550366238, 3786550.254323499277234 ], [ 402124.516785350977443, 3786549.949135300237685 ], [ 402124.516785350977443, 3786548.118006103672087 ], [ 402124.821973550366238, 3786547.812817904166877 ], [ 402126.347914547310211, 3786547.812817904166877 ], [ 402127.263479145476595, 3786548.728382502682507 ], [ 402130.010172939975746, 3786548.728382502682507 ], [ 402130.315361139364541, 3786549.033570701722056 ], [ 402130.92573753814213, 3786549.033570701722056 ], [ 402131.230925737530924, 3786549.338758901227266 ], [ 402131.536113936919719, 3786549.338758901227266 ], [ 402131.536113936919719, 3786549.643947100732476 ], [ 402131.841302136308514, 3786549.949135300237685 ], [ 402132.146490335697308, 3786549.949135300237685 ], [ 402132.146490335697308, 3786550.254323499277234 ], [ 402132.451678535086103, 3786550.559511698782444 ], [ 402132.451678535086103, 3786551.780264496337622 ], [ 402132.756866734474897, 3786552.085452695842832 ], [ 402132.756866734474897, 3786553.916581891942769 ], [ 402132.451678535086103, 3786554.221770091447979 ], [ 402132.146490335697308, 3786554.221770091447979 ], [ 402131.841302136308514, 3786554.526958290953189 ], [ 402131.536113936919719, 3786554.526958290953189 ], [ 402131.230925737530924, 3786554.832146490458399 ], [ 402126.9582909460878, 3786554.832146490458399 ] ] ] } },
{ "type": "Feature", "properties": { "confidence": 0.27494382858276367, "class": 1 }, "geometry": { "type": "Polygon", "coordinates": [ [ [ 402121.464903357089497, 3786122.68565615452826 ], [ 402120.854526958311908, 3786122.075279755983502 ], [ 402120.549338758923113, 3786122.075279755983502 ], [ 402120.549338758923113, 3786121.770091556478292 ], [ 402119.938962360145524, 3786121.159715157467872 ], [ 402119.938962360145524, 3786120.244150559417903 ], [ 402119.63377416075673, 3786119.938962359912694 ], [ 402119.328585961367935, 3786119.938962359912694 ], [ 402119.328585961367935, 3786119.023397761862725 ], [ 402119.02339776197914, 3786118.718209562357515 ], [ 402119.02339776197914, 3786118.107833163812757 ], [ 402118.718209562590346, 3786117.802644964307547 ], [ 402118.718209562590346, 3786115.36113936919719 ], [ 402119.02339776197914, 3786115.36113936919719 ], [ 402119.328585961367935, 3786115.05595116969198 ], [ 402120.244150559534319, 3786115.05595116969198 ], [ 402120.549338758923113, 3786115.36113936919719 ], [ 402120.854526958311908, 3786115.36113936919719 ], [ 402121.770091556478292, 3786116.276703967247158 ], [ 402121.770091556478292, 3786116.581892166752368 ], [ 402122.380467955255881, 3786117.192268565762788 ], [ 402122.380467955255881, 3786117.497456764802337 ], [ 402122.99084435403347, 3786118.107833163812757 ], [ 402122.99084435403347, 3786118.413021363317966 ], [ 402123.296032553422265, 3786118.718209562357515 ], [ 402123.296032553422265, 3786121.464903356973082 ], [ 402122.075279755867086, 3786122.68565615452826 ], [ 402121.464903357089497, 3786122.68565615452826 ] ] ] } },
{ "type": "Feature", "properties": { "confidence": 0.26816132664680481, "class": 1 }, "geometry": { "type": "Polygon", "coordinates": [ [ [ 402536.826042726344895, 3786096.744659206364304 ], [ 402536.5208545269561, 3786096.439471007324755 ], [ 402535.910478128178511, 3786096.439471007324755 ], [ 402535.605289928789716, 3786096.134282807819545 ], [ 402535.300101729400922, 3786096.134282807819545 ], [ 402534.994913530012127, 3786095.829094608314335 ], [ 402534.689725330623332, 3786095.829094608314335 ], [ 402533.468972533068154, 3786094.608341810759157 ], [ 402533.468972533068154, 3786094.303153611253947 ], [ 402533.163784333679359, 3786093.997965412214398 ], [ 402532.858596134290565, 3786093.997965412214398 ], [ 402532.55340793490177, 3786093.692777212709188 ], [ 402532.55340793490177, 3786093.387589013203979 ], [ 402539.267548321455251, 3786093.387589013203979 ], [ 402538.962360122066457, 3786093.692777212709188 ], [ 402538.962360122066457, 3786094.303153611253947 ], [ 402539.572736520844046, 3786094.913530010264367 ], [ 402539.572736520844046, 3786096.134282807819545 ], [ 402539.267548321455251, 3786096.439471007324755 ], [ 402538.962360122066457, 3786096.439471007324755 ], [ 402538.657171922677662, 3786096.744659206364304 ], [ 402536.826042726344895, 3786096.744659206364304 ] ] ] } },
{ "type": "Feature", "properties": { "confidence": 0.25638967752456665, "class": 1 }, "geometry": { "type": "Polygon", "coordinates": [ [ [ 402457.782299084414262, 3786463.580874872859567 ], [ 402457.477110885025468, 3786463.275686673354357 ], [ 402457.171922685636673, 3786463.275686673354357 ], [ 402457.171922685636673, 3786462.665310274809599 ], [ 402456.866734486247879, 3786462.360122075304389 ], [ 402456.866734486247879, 3786460.223804679699242 ], [ 402457.171922685636673, 3786459.918616480194032 ], [ 402457.171922685636673, 3786453.50966429291293 ], [ 402457.477110885025468, 3786453.20447609340772 ], [ 402457.477110885025468, 3786452.288911495357752 ], [ 402457.782299084414262, 3786451.983723295852542 ], [ 402457.782299084414262, 3786451.373346897307783 ], [ 402458.392675483191852, 3786451.373346897307783 ], [ 402458.697863682580646, 3786451.678535096812993 ], [ 402458.697863682580646, 3786451.983723295852542 ], [ 402459.61342828074703, 3786452.899287894368172 ], [ 402461.139369277749211, 3786452.899287894368172 ], [ 402461.444557477138005, 3786453.20447609340772 ], [ 402461.444557477138005, 3786460.223804679699242 ], [ 402461.139369277749211, 3786460.528992878738791 ], [ 402461.139369277749211, 3786461.139369277749211 ], [ 402460.834181078360416, 3786461.444557477254421 ], [ 402460.834181078360416, 3786462.360122075304389 ], [ 402460.528992878913414, 3786462.665310274809599 ], [ 402460.528992878913414, 3786462.970498473849148 ], [ 402460.223804679524619, 3786463.275686673354357 ], [ 402459.918616480135825, 3786463.275686673354357 ], [ 402459.61342828074703, 3786463.580874872859567 ], [ 402457.782299084414262, 3786463.580874872859567 ] ] ] } }
]
}
