{
"type": "FeatureCollection",
"name": "cell_00134_pre",
"crs": { "type": "name", "properties": { "name": "urn:ogc:def:crs:EPSG::32611" } },
"features": [
{ "type": "Feature", "properties": { "confidence": 0.93383169174194336, "class": 1 }, "geometry": { "type": "Polygon", "coordinates": [ [ [ 354280.773143438447732, 3770140.895218718331307 ], [ 354280.467955239058938, 3770140.590030518826097 ], [ 354279.552390640892554, 3770140.590030518826097 ], [ 354279.247202441503759, 3770140.284842319320887 ], [ 354278.63682604272617, 3770140.284842319320887 ], [ 354278.331637843337376, 3770139.979654119815677 ], [ 354278.331637843337376, 3770139.674465920776129 ], [ 354278.026449643948581, 3770139.369277721270919 ], [ 354278.026449643948581, 3770139.064089521765709 ], [ 354277.721261444559786, 3770138.758901322260499 ], [ 354277.721261444559786, 3770138.14852492371574 ], [ 354276.195320447615813, 3770136.622583926655352 ], [ 354276.195320447615813, 3770136.012207528110594 ], [ 354275.584944048838224, 3770135.401831129100174 ], [ 354275.584944048838224, 3770134.181078331544995 ], [ 354275.27975584944943, 3770133.875890132039785 ], [ 354275.27975584944943, 3770131.739572736434639 ], [ 354275.890132248227019, 3770131.12919633788988 ], [ 354276.500508647004608, 3770131.12919633788988 ], [ 354276.805696846393403, 3770130.82400813838467 ], [ 354277.110885045782197, 3770130.82400813838467 ], [ 354277.416073245170992, 3770130.51881993887946 ], [ 354277.416073245170992, 3770130.21363173937425 ], [ 354278.942014242114965, 3770130.21363173937425 ], [ 354278.942014242114965, 3770130.51881993887946 ], [ 354279.247202441503759, 3770130.82400813838467 ], [ 354280.773143438447732, 3770130.82400813838467 ], [ 354281.078331637836527, 3770131.12919633788988 ], [ 354281.383519837225322, 3770131.12919633788988 ], [ 354281.383519837225322, 3770131.739572736434639 ], [ 354281.688708036614116, 3770132.044760935939848 ], [ 354281.688708036614116, 3770132.655137334484607 ], [ 354281.993896236002911, 3770132.960325533989817 ], [ 354281.993896236002911, 3770136.317395727150142 ], [ 354282.299084435391705, 3770136.622583926655352 ], [ 354282.299084435391705, 3770139.674465920776129 ], [ 354281.993896236002911, 3770139.979654119815677 ], [ 354281.993896236002911, 3770140.590030518826097 ], [ 354281.688708036614116, 3770140.590030518826097 ], [ 354281.383519837225322, 3770140.895218718331307 ], [ 354280.773143438447732, 3770140.895218718331307 ] ] ] } },
{ "type": "Feature", "properties": { "confidence": 0.67286205291748047, "class": 1 }, "geometry": { "type": "Polygon", "coordinates": [ [ [ 354446.185147507640067, 3770130.51881993887946 ], [ 354445.879959308251273, 3770130.21363173937425 ], [ 354445.574771108862478, 3770130.21363173937425 ], [ 354445.574771108862478, 3770129.908443540334702 ], [ 354444.964394710084889, 3770129.298067141324282 ], [ 354444.659206510696094, 3770129.298067141324282 ], [ 354444.3540183113073, 3770128.992878941819072 ], [ 354444.3540183113073, 3770126.856561546213925 ], [ 354448.32146490336163, 3770126.856561546213925 ], [ 354448.32146490336163, 3770127.466937945224345 ], [ 354448.016276703972835, 3770127.772126144263893 ], [ 354448.016276703972835, 3770128.687690742779523 ], [ 354447.71108850458404, 3770128.992878941819072 ], [ 354447.71108850458404, 3770129.603255340829492 ], [ 354447.405900305195246, 3770129.908443540334702 ], [ 354447.405900305195246, 3770130.21363173937425 ], [ 354447.100712105806451, 3770130.51881993887946 ], [ 354446.185147507640067, 3770130.51881993887946 ] ] ] } },
{ "type": "Feature", "properties": { "confidence": 0.31198206543922424, "class": 1 }, "geometry": { "type": "Polygon", "coordinates": [ [ [ 354029.298067141382489, 3770311.495422177016735 ], [ 354028.992878941993695, 3770311.190233977511525 ], [ 354028.6876907426049, 3770311.190233977511525 ], [ 354028.382502543216106, 3770310.885045778006315 ], [ 354028.382502543216106, 3770308.748728382401168 ], [ 354028.6876907426049, 3770308.443540182895958 ], [ 354028.6876907426049, 3770308.13835198385641 ], [ 354029.908443540160079, 3770306.917599186301231 ], [ 354029.908443540160079, 3770306.612410986796021 ], [ 354030.518819938937668, 3770306.002034587785602 ], [ 354030.824008138326462, 3770306.002034587785602 ], [ 354031.129196337715257, 3770305.696846388746053 ], [ 354033.570701932883821, 3770305.696846388746053 ], [ 354034.181078331661411, 3770306.307222787290812 ], [ 354034.181078331661411, 3770307.22278738534078 ], [ 354034.486266531050205, 3770307.52797558484599 ], [ 354034.486266531050205, 3770308.443540182895958 ], [ 354034.181078331661411, 3770308.748728382401168 ], [ 354034.181078331661411, 3770309.053916581906378 ], [ 354033.570701932883821, 3770309.664292980451137 ], [ 354033.265513733495027, 3770309.664292980451137 ], [ 354032.349949135328643, 3770310.579857578966767 ], [ 354032.044760935881641, 3770310.579857578966767 ], [ 354031.739572736492846, 3770310.885045778006315 ], [ 354031.434384537104052, 3770310.885045778006315 ], [ 354030.824008138326462, 3770311.495422177016735 ], [ 354029.298067141382489, 3770311.495422177016735 ] ] ] } },
{ "type": "Feature", "properties": { "confidence": 0.2702888548374176, "class": 1 }, "geometry": { "type": "Polygon", "coordinates": [ [ [ 354506.002034588018432, 3769896.439471007324755 ], [ 354505.696846388629638, 3769896.134282807819545 ], [ 354504.476093591074459, 3769896.134282807819545 ], [ 354504.170905391685665, 3769895.829094608314335 ], [ 354504.170905391685665, 3769894.913530010264367 ], [ 354503.86571719229687, 3769894.608341810759157 ], [ 354503.86571719229687, 3769894.303153611253947 ], [ 354503.560528992908075, 3769893.997965412214398 ], [ 354503.560528992908075, 3769893.387589013203979 ], [ 354503.255340793461073, 3769893.082400813698769 ], [ 354503.255340793461073, 3769892.77721261465922 ], [ 354502.950152594072279, 3769892.47202441515401 ], [ 354507.527975584962405, 3769892.47202441515401 ], [ 354507.527975584962405, 3769896.439471007324755 ], [ 354506.002034588018432, 3769896.439471007324755 ] ] ] } }
]
}
