{
"type": "FeatureCollection",
"name": "cell_00536_pre",
"crs": { "type": "name", "properties": { "name": "urn:ogc:def:crs:EPSG::32611" } },
"features": [
{ "type": "Feature", "properties": { "confidence": 0.99362939596176147, "class": 1 }, "geometry": { "type": "Polygon", "coordinates": [ [ [ 404447.609359104768373, 3784331.841302136424929 ], [ 404446.693794506601989, 3784330.92573753837496 ], [ 404446.388606307213195, 3784330.92573753837496 ], [ 404445.778229908435605, 3784330.315361139364541 ], [ 404445.778229908435605, 3784328.484231942798942 ], [ 404446.0834181078244, 3784328.179043743759394 ], [ 404446.0834181078244, 3784327.873855544254184 ], [ 404446.693794506601989, 3784327.263479145243764 ], [ 404446.998982705990784, 3784327.263479145243764 ], [ 404447.304170905379578, 3784326.958290946204215 ], [ 404447.609359104768373, 3784326.958290946204215 ], [ 404448.219735503545962, 3784326.347914547193795 ], [ 404450.05086469987873, 3784326.347914547193795 ], [ 404450.356052899267524, 3784326.042726347688586 ], [ 404450.661241098656319, 3784326.347914547193795 ], [ 404450.966429298045114, 3784326.347914547193795 ], [ 404451.271617497433908, 3784326.653102746699005 ], [ 404451.271617497433908, 3784330.62054933886975 ], [ 404450.661241098656319, 3784331.230925737414509 ], [ 404449.745676500489935, 3784331.230925737414509 ], [ 404449.440488301101141, 3784331.536113936919719 ], [ 404448.830111902323551, 3784331.536113936919719 ], [ 404448.524923702934757, 3784331.841302136424929 ], [ 404447.609359104768373, 3784331.841302136424929 ] ] ] } },
{ "type": "Feature", "properties": { "confidence": 0.99154144525527954, "class": 1 }, "geometry": { "type": "Polygon", "coordinates": [ [ [ 404451.576805696822703, 3784425.228891149628907 ], [ 404451.271617497433908, 3784424.923702950123698 ], [ 404451.271617497433908, 3784422.482197355013341 ], [ 404451.576805696822703, 3784422.177009155508131 ], [ 404451.576805696822703, 3784421.566632756963372 ], [ 404451.881993896211497, 3784421.261444557458162 ], [ 404452.187182095600292, 3784421.261444557458162 ], [ 404452.492370294989087, 3784420.956256357952952 ], [ 404452.492370294989087, 3784420.651068158913404 ], [ 404453.102746693766676, 3784420.651068158913404 ], [ 404453.40793489315547, 3784420.345879959408194 ], [ 404455.239064089546446, 3784420.345879959408194 ], [ 404455.54425228893524, 3784420.651068158913404 ], [ 404455.849440488324035, 3784420.651068158913404 ], [ 404456.459816887101624, 3784421.261444557458162 ], [ 404456.765005086490419, 3784421.261444557458162 ], [ 404457.070193285879213, 3784421.566632756963372 ], [ 404457.070193285879213, 3784423.397761953063309 ], [ 404456.765005086490419, 3784423.702950152568519 ], [ 404456.459816887101624, 3784423.702950152568519 ], [ 404455.849440488324035, 3784424.313326551578939 ], [ 404455.849440488324035, 3784424.618514750618488 ], [ 404455.239064089546446, 3784424.618514750618488 ], [ 404454.933875890157651, 3784424.923702950123698 ], [ 404452.492370294989087, 3784424.923702950123698 ], [ 404452.187182095600292, 3784425.228891149628907 ], [ 404451.576805696822703, 3784425.228891149628907 ] ] ] } },
{ "type": "Feature", "properties": { "confidence": 0.98659956455230713, "class": 1 }, "geometry": { "type": "Polygon", "coordinates": [ [ [ 404479.348931841319427, 3784355.035605289973319 ], [ 404479.043743641930632, 3784354.730417090468109 ], [ 404478.433367243153043, 3784354.730417090468109 ], [ 404478.128179043764248, 3784354.425228890962899 ], [ 404478.128179043764248, 3784354.12004069192335 ], [ 404476.90742624620907, 3784352.899287894368172 ], [ 404476.90742624620907, 3784350.152594099752605 ], [ 404477.517802644986659, 3784349.542217700742185 ], [ 404479.654120040708221, 3784349.542217700742185 ], [ 404479.959308240097016, 3784349.237029501702636 ], [ 404479.959308240097016, 3784348.931841302197427 ], [ 404480.264496439485811, 3784348.931841302197427 ], [ 404480.569684638874605, 3784348.626653102692217 ], [ 404481.180061037652194, 3784348.626653102692217 ], [ 404481.485249237040989, 3784348.321464903187007 ], [ 404483.011190233984962, 3784348.321464903187007 ], [ 404483.011190233984962, 3784348.626653102692217 ], [ 404483.316378433373757, 3784348.931841302197427 ], [ 404483.316378433373757, 3784349.847405900247395 ], [ 404483.621566632762551, 3784350.152594099752605 ], [ 404483.621566632762551, 3784351.678535096812993 ], [ 404483.316378433373757, 3784351.983723295852542 ], [ 404483.316378433373757, 3784353.20447609340772 ], [ 404483.011190233984962, 3784353.50966429291293 ], [ 404483.011190233984962, 3784353.81485249241814 ], [ 404482.706002034596168, 3784353.81485249241814 ], [ 404481.790437436429784, 3784354.730417090468109 ], [ 404480.569684638874605, 3784354.730417090468109 ], [ 404480.264496439485811, 3784355.035605289973319 ], [ 404479.348931841319427, 3784355.035605289973319 ] ] ] } },
{ "type": "Feature", "properties": { "confidence": 0.96006923913955688, "class": 1 }, "geometry": { "type": "Polygon", "coordinates": [ [ [ 404554.425228891137522, 3784419.430315361358225 ], [ 404554.120040691748727, 3784419.125127161853015 ], [ 404553.814852492359933, 3784419.125127161853015 ], [ 404553.814852492359933, 3784418.514750762842596 ], [ 404553.509664292971138, 3784418.209562563803047 ], [ 404553.509664292971138, 3784416.683621566742659 ], [ 404553.204476093582343, 3784416.378433367237449 ], [ 404553.204476093582343, 3784415.15768056968227 ], [ 404552.899287894193549, 3784414.85249237017706 ], [ 404552.899287894193549, 3784413.326551373116672 ], [ 404552.594099694804754, 3784413.021363174077123 ], [ 404552.899287894193549, 3784412.716174974571913 ], [ 404552.899287894193549, 3784412.105798575561494 ], [ 404553.204476093582343, 3784411.800610376521945 ], [ 404553.204476093582343, 3784411.495422177016735 ], [ 404553.814852492359933, 3784410.885045778006315 ], [ 404553.814852492359933, 3784410.579857578966767 ], [ 404554.425228891137522, 3784409.969481179956347 ], [ 404554.425228891137522, 3784409.664292980451137 ], [ 404555.951169888081495, 3784409.664292980451137 ], [ 404555.951169888081495, 3784419.430315361358225 ], [ 404554.425228891137522, 3784419.430315361358225 ] ] ] } },
{ "type": "Feature", "properties": { "confidence": 0.95907634496688843, "class": 1 }, "geometry": { "type": "Polygon", "coordinates": [ [ [ 404547.100712105806451, 3784243.641912512946874 ], [ 404546.490335707028862, 3784243.031536113936454 ], [ 404546.490335707028862, 3784241.505595116876066 ], [ 404546.185147507640067, 3784241.200406917370856 ], [ 404546.185147507640067, 3784240.895218718331307 ], [ 404545.879959308251273, 3784240.590030518826097 ], [ 404545.879959308251273, 3784239.979654119815677 ], [ 404545.574771108862478, 3784239.674465920776129 ], [ 404545.574771108862478, 3784238.14852492371574 ], [ 404545.269582909473684, 3784237.843336724210531 ], [ 404545.269582909473684, 3784234.486266531050205 ], [ 404545.879959308251273, 3784233.875890132039785 ], [ 404547.71108850458404, 3784233.875890132039785 ], [ 404548.32146490336163, 3784234.486266531050205 ], [ 404548.626653102750424, 3784234.486266531050205 ], [ 404548.931841302139219, 3784234.791454730555415 ], [ 404549.847405900305603, 3784234.791454730555415 ], [ 404550.152594099694397, 3784234.486266531050205 ], [ 404550.457782299083192, 3784234.486266531050205 ], [ 404550.762970498471987, 3784234.791454730555415 ], [ 404551.068158697860781, 3784234.791454730555415 ], [ 404551.068158697860781, 3784235.401831129100174 ], [ 404551.373346897249576, 3784235.707019328605384 ], [ 404551.373346897249576, 3784237.232960325665772 ], [ 404551.67853509663837, 3784237.538148524705321 ], [ 404551.67853509663837, 3784237.843336724210531 ], [ 404551.983723296027165, 3784238.14852492371574 ], [ 404551.983723296027165, 3784239.064089521765709 ], [ 404552.28891149541596, 3784239.369277721270919 ], [ 404552.28891149541596, 3784241.200406917370856 ], [ 404551.983723296027165, 3784241.505595116876066 ], [ 404551.983723296027165, 3784241.810783316381276 ], [ 404551.67853509663837, 3784241.810783316381276 ], [ 404551.373346897249576, 3784242.115971515886486 ], [ 404551.068158697860781, 3784242.115971515886486 ], [ 404550.152594099694397, 3784243.031536113936454 ], [ 404549.847405900305603, 3784243.031536113936454 ], [ 404549.542217700916808, 3784243.336724313441664 ], [ 404548.626653102750424, 3784243.336724313441664 ], [ 404548.32146490336163, 3784243.641912512946874 ], [ 404547.100712105806451, 3784243.641912512946874 ] ] ] } },
{ "type": "Feature", "properties": { "confidence": 0.94521856307983398, "class": 1 }, "geometry": { "type": "Polygon", "coordinates": [ [ [ 404552.28891149541596, 3784356.256358087528497 ], [ 404552.28891149541596, 3784355.951169888023287 ], [ 404551.983723296027165, 3784355.645981688518077 ], [ 404551.983723296027165, 3784352.899287894368172 ], [ 404552.28891149541596, 3784352.594099694862962 ], [ 404552.899287894193549, 3784352.594099694862962 ], [ 404553.204476093582343, 3784352.288911495357752 ], [ 404553.509664292971138, 3784352.288911495357752 ], [ 404554.425228891137522, 3784351.373346897307783 ], [ 404554.425228891137522, 3784351.068158697802573 ], [ 404555.035605289915111, 3784350.457782299257815 ], [ 404555.951169888081495, 3784350.457782299257815 ], [ 404555.951169888081495, 3784356.256358087528497 ], [ 404552.28891149541596, 3784356.256358087528497 ] ] ] } },
{ "type": "Feature", "properties": { "confidence": 0.93585842847824097, "class": 1 }, "geometry": { "type": "Polygon", "coordinates": [ [ [ 404466.225839267543051, 3784406.002034587785602 ], [ 404465.920651068154257, 3784405.696846388746053 ], [ 404465.920651068154257, 3784403.255340793635696 ], [ 404466.225839267543051, 3784402.950152594130486 ], [ 404466.531027466931846, 3784402.950152594130486 ], [ 404467.751780264487024, 3784401.729399796575308 ], [ 404469.277721261430997, 3784401.729399796575308 ], [ 404469.582909460819792, 3784402.034587996080518 ], [ 404469.582909460819792, 3784402.339776195120066 ], [ 404469.888097660208587, 3784402.644964394625276 ], [ 404469.888097660208587, 3784404.781281790230423 ], [ 404469.277721261430997, 3784405.391658189240843 ], [ 404468.056968463875819, 3784405.391658189240843 ], [ 404467.751780264487024, 3784405.696846388746053 ], [ 404466.836215666320641, 3784405.696846388746053 ], [ 404466.531027466931846, 3784406.002034587785602 ], [ 404466.225839267543051, 3784406.002034587785602 ] ] ] } },
{ "type": "Feature", "properties": { "confidence": 0.88006168603897095, "class": 1 }, "geometry": { "type": "Polygon", "coordinates": [ [ [ 404499.491353001038078, 3784279.348931841086596 ], [ 404499.186164801649284, 3784279.043743642047048 ], [ 404498.2706002034829, 3784279.043743642047048 ], [ 404497.965412004094105, 3784278.738555442541838 ], [ 404497.660223804705311, 3784278.738555442541838 ], [ 404497.355035605316516, 3784278.433367243036628 ], [ 404497.355035605316516, 3784278.128179043531418 ], [ 404497.049847405927721, 3784277.822990844491869 ], [ 404497.049847405927721, 3784277.212614445481449 ], [ 404496.744659206538927, 3784276.907426245976239 ], [ 404496.744659206538927, 3784275.991861647926271 ], [ 404496.439471007150132, 3784275.686673448421061 ], [ 404496.439471007150132, 3784275.076297049876302 ], [ 404495.829094608314335, 3784274.465920650865883 ], [ 404495.829094608314335, 3784273.855544252321124 ], [ 404495.523906408925541, 3784273.550356052815914 ], [ 404495.523906408925541, 3784271.719226856715977 ], [ 404496.439471007150132, 3784270.803662258200347 ], [ 404497.660223804705311, 3784270.803662258200347 ], [ 404498.2706002034829, 3784271.414038657210767 ], [ 404498.2706002034829, 3784271.719226856715977 ], [ 404498.575788402871694, 3784272.024415055755526 ], [ 404498.575788402871694, 3784272.329603255260736 ], [ 404499.491353001038078, 3784273.245167853310704 ], [ 404499.491353001038078, 3784273.550356052815914 ], [ 404499.796541200426873, 3784273.855544252321124 ], [ 404499.796541200426873, 3784274.771108850371093 ], [ 404500.101729399815667, 3784275.076297049876302 ], [ 404500.101729399815667, 3784275.991861647926271 ], [ 404500.406917599204462, 3784276.297049847431481 ], [ 404500.406917599204462, 3784277.212614445481449 ], [ 404500.712105798593257, 3784277.517802644986659 ], [ 404500.712105798593257, 3784279.043743642047048 ], [ 404500.406917599204462, 3784279.043743642047048 ], [ 404500.101729399815667, 3784279.348931841086596 ], [ 404499.491353001038078, 3784279.348931841086596 ] ] ] } },
{ "type": "Feature", "properties": { "confidence": 0.85458099842071533, "class": 1 }, "geometry": { "type": "Polygon", "coordinates": [ [ [ 404472.329603255318943, 3784246.083418108057231 ], [ 404472.024415055930149, 3784245.778229908552021 ], [ 404471.719226856541354, 3784245.778229908552021 ], [ 404471.41403865715256, 3784245.473041709046811 ], [ 404471.41403865715256, 3784245.167853509541601 ], [ 404471.108850457763765, 3784244.862665310502052 ], [ 404471.108850457763765, 3784243.641912512946874 ], [ 404471.41403865715256, 3784243.336724313441664 ], [ 404471.41403865715256, 3784243.031536113936454 ], [ 404471.719226856541354, 3784243.031536113936454 ], [ 404472.024415055930149, 3784242.726347914431244 ], [ 404472.329603255318943, 3784242.726347914431244 ], [ 404472.634791454707738, 3784242.421159714926034 ], [ 404472.939979654096533, 3784242.421159714926034 ], [ 404473.245167853485327, 3784242.115971515886486 ], [ 404473.245167853485327, 3784241.810783316381276 ], [ 404473.855544252262916, 3784241.810783316381276 ], [ 404474.160732451651711, 3784241.505595116876066 ], [ 404474.7711088504293, 3784241.505595116876066 ], [ 404475.076297049876302, 3784241.200406917370856 ], [ 404476.602238046820275, 3784241.200406917370856 ], [ 404476.90742624620907, 3784241.505595116876066 ], [ 404476.90742624620907, 3784243.031536113936454 ], [ 404476.602238046820275, 3784243.336724313441664 ], [ 404476.602238046820275, 3784243.947100711986423 ], [ 404476.297049847431481, 3784244.252288911491632 ], [ 404476.297049847431481, 3784244.557477110996842 ], [ 404475.686673448653892, 3784245.167853509541601 ], [ 404475.381485249265097, 3784245.167853509541601 ], [ 404475.076297049876302, 3784245.473041709046811 ], [ 404474.7711088504293, 3784245.473041709046811 ], [ 404474.465920651040506, 3784245.778229908552021 ], [ 404473.245167853485327, 3784245.778229908552021 ], [ 404472.939979654096533, 3784246.083418108057231 ], [ 404472.329603255318943, 3784246.083418108057231 ] ] ] } },
{ "type": "Feature", "properties": { "confidence": 0.85081338882446289, "class": 1 }, "geometry": { "type": "Polygon", "coordinates": [ [ [ 404469.888097660208587, 3784440.488301118835807 ], [ 404469.582909460819792, 3784440.183112919796258 ], [ 404468.972533062042203, 3784440.183112919796258 ], [ 404468.972533062042203, 3784439.877924720291048 ], [ 404468.667344862653408, 3784439.572736520785838 ], [ 404468.667344862653408, 3784439.267548321280628 ], [ 404468.362156663264614, 3784438.96236012224108 ], [ 404468.362156663264614, 3784438.35198372323066 ], [ 404468.056968463875819, 3784438.04679552372545 ], [ 404468.056968463875819, 3784435.910478128120303 ], [ 404468.972533062042203, 3784434.994913530070335 ], [ 404468.972533062042203, 3784434.689725330565125 ], [ 404469.582909460819792, 3784434.079348932020366 ], [ 404469.582909460819792, 3784433.774160732515156 ], [ 404470.193285859597381, 3784433.163784333504736 ], [ 404470.193285859597381, 3784432.858596134465188 ], [ 404470.80366225837497, 3784432.248219735454768 ], [ 404471.41403865715256, 3784432.248219735454768 ], [ 404471.719226856541354, 3784431.943031535949558 ], [ 404473.245167853485327, 3784431.943031535949558 ], [ 404473.550356052874122, 3784431.637843336910009 ], [ 404474.465920651040506, 3784431.637843336910009 ], [ 404474.7711088504293, 3784431.943031535949558 ], [ 404476.297049847431481, 3784431.943031535949558 ], [ 404476.602238046820275, 3784432.248219735454768 ], [ 404476.602238046820275, 3784433.774160732515156 ], [ 404474.7711088504293, 3784435.605289928615093 ], [ 404474.7711088504293, 3784435.910478128120303 ], [ 404474.465920651040506, 3784436.215666327625513 ], [ 404474.465920651040506, 3784436.520854527130723 ], [ 404474.160732451651711, 3784436.826042726170272 ], [ 404474.160732451651711, 3784437.131230925675482 ], [ 404473.855544252262916, 3784437.436419125180691 ], [ 404473.855544252262916, 3784437.741607324685901 ], [ 404473.550356052874122, 3784438.04679552372545 ], [ 404473.550356052874122, 3784439.877924720291048 ], [ 404473.245167853485327, 3784440.183112919796258 ], [ 404472.939979654096533, 3784440.183112919796258 ], [ 404472.634791454707738, 3784440.488301118835807 ], [ 404469.888097660208587, 3784440.488301118835807 ] ] ] } },
{ "type": "Feature", "properties": { "confidence": 0.82057732343673706, "class": 1 }, "geometry": { "type": "Polygon", "coordinates": [ [ [ 404444.862665310269222, 3784405.391658189240843 ], [ 404444.557477110880427, 3784405.086469989735633 ], [ 404444.252288911491632, 3784405.086469989735633 ], [ 404443.031536113936454, 3784403.865717192180455 ], [ 404442.726347914547659, 3784403.865717192180455 ], [ 404442.11597151577007, 3784403.255340793635696 ], [ 404442.11597151577007, 3784401.119023397564888 ], [ 404442.421159715158865, 3784400.813835198525339 ], [ 404442.421159715158865, 3784398.982706001959741 ], [ 404443.031536113936454, 3784398.982706001959741 ], [ 404443.336724313325249, 3784398.677517802454531 ], [ 404445.167853509658016, 3784398.677517802454531 ], [ 404445.167853509658016, 3784399.593082400970161 ], [ 404446.693794506601989, 3784401.119023397564888 ], [ 404446.998982705990784, 3784401.119023397564888 ], [ 404447.304170905379578, 3784401.424211597070098 ], [ 404447.304170905379578, 3784402.034587996080518 ], [ 404447.609359104768373, 3784402.339776195120066 ], [ 404447.609359104768373, 3784404.781281790230423 ], [ 404447.304170905379578, 3784404.781281790230423 ], [ 404446.998982705990784, 3784405.086469989735633 ], [ 404446.388606307213195, 3784405.086469989735633 ], [ 404446.0834181078244, 3784405.391658189240843 ], [ 404444.862665310269222, 3784405.391658189240843 ] ] ] } },
{ "type": "Feature", "properties": { "confidence": 0.81669461727142334, "class": 1 }, "geometry": { "type": "Polygon", "coordinates": [ [ [ 404473.855544252262916, 3784288.809766022488475 ], [ 404473.550356052874122, 3784288.504577822983265 ], [ 404473.245167853485327, 3784288.504577822983265 ], [ 404473.245167853485327, 3784288.199389623478055 ], [ 404472.939979654096533, 3784287.894201424438506 ], [ 404472.939979654096533, 3784285.14750762982294 ], [ 404473.245167853485327, 3784284.84231943031773 ], [ 404473.245167853485327, 3784284.53713123081252 ], [ 404474.160732451651711, 3784283.621566632762551 ], [ 404476.297049847431481, 3784283.621566632762551 ], [ 404476.602238046820275, 3784283.926754832267761 ], [ 404477.212614445597865, 3784283.926754832267761 ], [ 404477.517802644986659, 3784284.23194303130731 ], [ 404477.517802644986659, 3784287.589013224933296 ], [ 404477.212614445597865, 3784287.894201424438506 ], [ 404477.212614445597865, 3784288.199389623478055 ], [ 404476.90742624620907, 3784288.504577822983265 ], [ 404476.602238046820275, 3784288.504577822983265 ], [ 404476.297049847431481, 3784288.809766022488475 ], [ 404473.855544252262916, 3784288.809766022488475 ] ] ] } },
{ "type": "Feature", "properties": { "confidence": 0.81161969900131226, "class": 1 }, "geometry": { "type": "Polygon", "coordinates": [ [ [ 404434.181078331661411, 3784442.014242115896195 ], [ 404434.181078331661411, 3784441.709053916390985 ], [ 404433.875890132272616, 3784441.403865717351437 ], [ 404433.875890132272616, 3784439.877924720291048 ], [ 404433.570701932883821, 3784439.572736520785838 ], [ 404433.570701932883821, 3784439.267548321280628 ], [ 404433.265513733495027, 3784438.96236012224108 ], [ 404433.265513733495027, 3784438.04679552372545 ], [ 404432.655137334717438, 3784437.436419125180691 ], [ 404432.655137334717438, 3784435.910478128120303 ], [ 404433.265513733495027, 3784435.300101729575545 ], [ 404433.875890132272616, 3784435.300101729575545 ], [ 404434.181078331661411, 3784434.994913530070335 ], [ 404435.707019328605384, 3784434.994913530070335 ], [ 404436.012207527994178, 3784435.300101729575545 ], [ 404437.232960325549357, 3784435.300101729575545 ], [ 404437.538148524938151, 3784435.605289928615093 ], [ 404437.843336724326946, 3784435.605289928615093 ], [ 404437.843336724326946, 3784436.215666327625513 ], [ 404438.14852492371574, 3784436.520854527130723 ], [ 404438.14852492371574, 3784439.877924720291048 ], [ 404437.843336724326946, 3784440.183112919796258 ], [ 404437.843336724326946, 3784440.793489318341017 ], [ 404436.927772126160562, 3784441.709053916390985 ], [ 404435.096642929827794, 3784441.709053916390985 ], [ 404434.791454730439, 3784442.014242115896195 ], [ 404434.181078331661411, 3784442.014242115896195 ] ] ] } },
{ "type": "Feature", "properties": { "confidence": 0.80340230464935303, "class": 1 }, "geometry": { "type": "Polygon", "coordinates": [ [ [ 404495.218718209536746, 3784301.017293998040259 ], [ 404494.913530010147952, 3784300.712105798535049 ], [ 404494.608341810759157, 3784300.712105798535049 ], [ 404494.303153611370362, 3784300.406917599029839 ], [ 404493.997965411981568, 3784300.406917599029839 ], [ 404493.692777212592773, 3784300.10172939999029 ], [ 404493.387589013203979, 3784300.10172939999029 ], [ 404492.777212614426389, 3784299.491353000979871 ], [ 404492.777212614426389, 3784298.880976602435112 ], [ 404492.472024415037595, 3784298.575788402929902 ], [ 404492.472024415037595, 3784297.965412003919482 ], [ 404492.777212614426389, 3784297.660223804879934 ], [ 404492.777212614426389, 3784296.439471007324755 ], [ 404492.472024415037595, 3784296.134282807819545 ], [ 404492.472024415037595, 3784294.608341810759157 ], [ 404492.777212614426389, 3784294.303153611253947 ], [ 404492.777212614426389, 3784293.692777212709188 ], [ 404493.082400813815184, 3784293.387589013203979 ], [ 404493.082400813815184, 3784293.082400813698769 ], [ 404493.692777212592773, 3784293.082400813698769 ], [ 404494.303153611370362, 3784293.692777212709188 ], [ 404494.303153611370362, 3784293.997965412214398 ], [ 404494.913530010147952, 3784294.608341810759157 ], [ 404495.218718209536746, 3784294.608341810759157 ], [ 404495.829094608314335, 3784295.218718209769577 ], [ 404496.439471007150132, 3784295.218718209769577 ], [ 404496.744659206538927, 3784295.523906408809125 ], [ 404497.660223804705311, 3784295.523906408809125 ], [ 404497.965412004094105, 3784295.829094608314335 ], [ 404497.965412004094105, 3784296.134282807819545 ], [ 404498.2706002034829, 3784296.439471007324755 ], [ 404498.2706002034829, 3784297.355035605374724 ], [ 404498.575788402871694, 3784297.660223804879934 ], [ 404498.575788402871694, 3784299.491353000979871 ], [ 404498.880976602260489, 3784299.79654120048508 ], [ 404498.880976602260489, 3784300.406917599029839 ], [ 404498.2706002034829, 3784301.017293998040259 ], [ 404495.218718209536746, 3784301.017293998040259 ] ] ] } },
{ "type": "Feature", "properties": { "confidence": 0.79097181558609009, "class": 1 }, "geometry": { "type": "Polygon", "coordinates": [ [ [ 404553.204476093582343, 3784413.936927772127092 ], [ 404552.899287894193549, 3784413.631739572621882 ], [ 404552.899287894193549, 3784412.410986775066704 ], [ 404553.204476093582343, 3784412.105798575561494 ], [ 404553.204476093582343, 3784411.495422177016735 ], [ 404553.814852492359933, 3784410.885045778006315 ], [ 404553.814852492359933, 3784410.274669379461557 ], [ 404553.509664292971138, 3784409.969481179956347 ], [ 404553.204476093582343, 3784409.969481179956347 ], [ 404553.204476093582343, 3784409.664292980451137 ], [ 404557.477110885025468, 3784409.664292980451137 ], [ 404557.477110885025468, 3784410.885045778006315 ], [ 404555.951169888081495, 3784412.410986775066704 ], [ 404555.951169888081495, 3784412.716174974571913 ], [ 404555.340793489303906, 3784413.326551373116672 ], [ 404555.035605289915111, 3784413.326551373116672 ], [ 404554.730417090526316, 3784413.631739572621882 ], [ 404554.120040691748727, 3784413.631739572621882 ], [ 404553.814852492359933, 3784413.936927772127092 ], [ 404553.204476093582343, 3784413.936927772127092 ] ] ] } },
{ "type": "Feature", "properties": { "confidence": 0.76912271976470947, "class": 1 }, "geometry": { "type": "Polygon", "coordinates": [ [ [ 404553.509664292971138, 3784536.012207528110594 ], [ 404553.204476093582343, 3784535.707019328605384 ], [ 404550.152594099694397, 3784535.707019328605384 ], [ 404549.847405900305603, 3784535.401831129100174 ], [ 404549.237029501528013, 3784535.401831129100174 ], [ 404549.237029501528013, 3784535.096642929594964 ], [ 404548.931841302139219, 3784534.791454730555415 ], [ 404548.931841302139219, 3784533.570701933000237 ], [ 404548.626653102750424, 3784533.265513733495027 ], [ 404548.626653102750424, 3784532.960325533989817 ], [ 404548.32146490336163, 3784532.655137334484607 ], [ 404548.016276703972835, 3784532.655137334484607 ], [ 404547.71108850458404, 3784532.349949135445058 ], [ 404547.405900305195246, 3784532.349949135445058 ], [ 404547.100712105806451, 3784532.044760935939848 ], [ 404547.100712105806451, 3784531.12919633788988 ], [ 404546.795523906417657, 3784530.82400813838467 ], [ 404546.795523906417657, 3784528.687690742779523 ], [ 404547.100712105806451, 3784528.382502543274313 ], [ 404547.100712105806451, 3784528.077314343769103 ], [ 404547.405900305195246, 3784528.077314343769103 ], [ 404547.71108850458404, 3784527.772126144263893 ], [ 404548.32146490336163, 3784527.772126144263893 ], [ 404548.626653102750424, 3784527.466937945224345 ], [ 404549.847405900305603, 3784527.466937945224345 ], [ 404550.152594099694397, 3784527.772126144263893 ], [ 404551.373346897249576, 3784527.772126144263893 ], [ 404551.983723296027165, 3784528.382502543274313 ], [ 404552.28891149541596, 3784528.382502543274313 ], [ 404552.594099694804754, 3784528.687690742779523 ], [ 404552.899287894193549, 3784528.687690742779523 ], [ 404553.204476093582343, 3784528.992878941819072 ], [ 404553.204476093582343, 3784529.908443540334702 ], [ 404553.509664292971138, 3784530.21363173937425 ], [ 404553.509664292971138, 3784530.51881993887946 ], [ 404553.814852492359933, 3784530.82400813838467 ], [ 404553.814852492359933, 3784531.739572736434639 ], [ 404554.120040691748727, 3784532.044760935939848 ], [ 404554.120040691748727, 3784532.349949135445058 ], [ 404554.425228891137522, 3784532.655137334484607 ], [ 404554.425228891137522, 3784532.960325533989817 ], [ 404554.730417090526316, 3784533.265513733495027 ], [ 404554.730417090526316, 3784533.570701933000237 ], [ 404555.035605289915111, 3784533.875890132039785 ], [ 404555.035605289915111, 3784534.791454730555415 ], [ 404554.730417090526316, 3784535.096642929594964 ], [ 404554.730417090526316, 3784535.401831129100174 ], [ 404554.425228891137522, 3784535.707019328605384 ], [ 404553.814852492359933, 3784535.707019328605384 ], [ 404553.509664292971138, 3784536.012207528110594 ] ] ] } },
{ "type": "Feature", "properties": { "confidence": 0.76874721050262451, "class": 1 }, "geometry": { "type": "Polygon", "coordinates": [ [ [ 404555.6459816886927, 3784479.552390641067177 ], [ 404555.340793489303906, 3784479.247202441561967 ], [ 404554.730417090526316, 3784479.247202441561967 ], [ 404554.425228891137522, 3784478.942014242056757 ], [ 404554.425228891137522, 3784475.890132248401642 ], [ 404555.035605289915111, 3784475.279755849391222 ], [ 404555.035605289915111, 3784474.669379450846463 ], [ 404555.340793489303906, 3784474.364191251341254 ], [ 404555.340793489303906, 3784474.059003051836044 ], [ 404555.6459816886927, 3784473.753814852330834 ], [ 404556.256358087470289, 3784473.753814852330834 ], [ 404556.866734486247879, 3784474.364191251341254 ], [ 404556.866734486247879, 3784474.974567649886012 ], [ 404557.171922685636673, 3784475.279755849391222 ], [ 404557.171922685636673, 3784475.890132248401642 ], [ 404557.477110885025468, 3784476.19532044744119 ], [ 404557.477110885025468, 3784476.80569684645161 ], [ 404557.782299084414262, 3784477.11088504595682 ], [ 404557.782299084414262, 3784477.721261444501579 ], [ 404557.477110885025468, 3784478.026449644006789 ], [ 404557.477110885025468, 3784478.331637843511999 ], [ 404556.561546286859084, 3784479.247202441561967 ], [ 404555.951169888081495, 3784479.247202441561967 ], [ 404555.6459816886927, 3784479.552390641067177 ] ] ] } },
{ "type": "Feature", "properties": { "confidence": 0.76752758026123047, "class": 1 }, "geometry": { "type": "Polygon", "coordinates": [ [ [ 404544.3540183113073, 3784417.599186164792627 ], [ 404544.048830111918505, 3784417.293997965287417 ], [ 404543.743641912529711, 3784417.293997965287417 ], [ 404543.743641912529711, 3784415.46286876918748 ], [ 404544.048830111918505, 3784415.15768056968227 ], [ 404544.048830111918505, 3784411.495422177016735 ], [ 404544.964394710084889, 3784411.495422177016735 ], [ 404545.269582909473684, 3784411.800610376521945 ], [ 404545.879959308251273, 3784411.800610376521945 ], [ 404546.490335707028862, 3784411.190233977511525 ], [ 404546.490335707028862, 3784410.885045778006315 ], [ 404546.795523906417657, 3784410.579857578966767 ], [ 404547.405900305195246, 3784410.579857578966767 ], [ 404547.71108850458404, 3784410.274669379461557 ], [ 404548.626653102750424, 3784410.274669379461557 ], [ 404549.237029501528013, 3784410.885045778006315 ], [ 404549.237029501528013, 3784411.495422177016735 ], [ 404549.542217700916808, 3784411.800610376521945 ], [ 404549.542217700916808, 3784416.988809766247869 ], [ 404549.237029501528013, 3784417.293997965287417 ], [ 404548.931841302139219, 3784417.293997965287417 ], [ 404548.626653102750424, 3784417.599186164792627 ], [ 404546.795523906417657, 3784417.599186164792627 ], [ 404546.490335707028862, 3784417.293997965287417 ], [ 404546.185147507640067, 3784417.293997965287417 ], [ 404545.879959308251273, 3784416.988809766247869 ], [ 404544.659206510696094, 3784416.988809766247869 ], [ 404544.3540183113073, 3784417.293997965287417 ], [ 404544.3540183113073, 3784417.599186164792627 ] ] ] } },
{ "type": "Feature", "properties": { "confidence": 0.76694184541702271, "class": 1 }, "geometry": { "type": "Polygon", "coordinates": [ [ [ 404522.99084435403347, 3784400.508646999020129 ], [ 404522.685656154644676, 3784400.20345879951492 ], [ 404522.380467955255881, 3784400.20345879951492 ], [ 404522.075279755867086, 3784399.89827060000971 ], [ 404521.770091556478292, 3784399.89827060000971 ], [ 404521.464903357089497, 3784399.593082400970161 ], [ 404520.854526958311908, 3784399.593082400970161 ], [ 404520.244150559534319, 3784398.982706001959741 ], [ 404520.244150559534319, 3784397.761953204404563 ], [ 404520.549338758923113, 3784397.456765004899353 ], [ 404520.549338758923113, 3784397.151576805859804 ], [ 404521.770091556478292, 3784395.930824008304626 ], [ 404522.380467955255881, 3784395.930824008304626 ], [ 404522.685656154644676, 3784395.625635808799416 ], [ 404522.99084435403347, 3784395.625635808799416 ], [ 404523.296032553422265, 3784395.320447609294206 ], [ 404524.211597151588649, 3784395.320447609294206 ], [ 404524.516785350977443, 3784395.625635808799416 ], [ 404524.821973550366238, 3784395.625635808799416 ], [ 404524.821973550366238, 3784395.930824008304626 ], [ 404525.127161749755032, 3784396.236012207344174 ], [ 404525.127161749755032, 3784396.846388606354594 ], [ 404525.432349949143827, 3784397.151576805859804 ], [ 404525.432349949143827, 3784398.067141403909773 ], [ 404525.737538148532622, 3784398.372329603414983 ], [ 404525.737538148532622, 3784398.982706001959741 ], [ 404525.432349949143827, 3784399.287894201464951 ], [ 404525.432349949143827, 3784399.593082400970161 ], [ 404525.127161749755032, 3784399.89827060000971 ], [ 404524.821973550366238, 3784399.89827060000971 ], [ 404524.516785350977443, 3784400.20345879951492 ], [ 404524.211597151588649, 3784400.20345879951492 ], [ 404523.906408952199854, 3784400.508646999020129 ], [ 404522.99084435403347, 3784400.508646999020129 ] ] ] } },
{ "type": "Feature", "properties": { "confidence": 0.76684659719467163, "class": 1 }, "geometry": { "type": "Polygon", "coordinates": [ [ [ 404424.415055951161776, 3784440.488301118835807 ], [ 404424.109867751772981, 3784440.183112919796258 ], [ 404424.109867751772981, 3784438.35198372323066 ], [ 404423.804679552384187, 3784438.04679552372545 ], [ 404423.804679552384187, 3784436.520854527130723 ], [ 404424.109867751772981, 3784436.215666327625513 ], [ 404424.109867751772981, 3784435.910478128120303 ], [ 404424.72024415055057, 3784435.300101729575545 ], [ 404427.466937945049722, 3784435.300101729575545 ], [ 404427.772126144438516, 3784435.605289928615093 ], [ 404428.6876907426049, 3784435.605289928615093 ], [ 404428.6876907426049, 3784435.910478128120303 ], [ 404428.992878941993695, 3784436.215666327625513 ], [ 404428.992878941993695, 3784437.131230925675482 ], [ 404428.6876907426049, 3784437.436419125180691 ], [ 404428.6876907426049, 3784437.741607324685901 ], [ 404428.382502543216106, 3784438.04679552372545 ], [ 404428.382502543216106, 3784438.35198372323066 ], [ 404428.077314343827311, 3784438.65717192273587 ], [ 404428.077314343827311, 3784439.267548321280628 ], [ 404427.772126144438516, 3784439.572736520785838 ], [ 404427.466937945049722, 3784439.572736520785838 ], [ 404427.161749745660927, 3784439.877924720291048 ], [ 404426.856561546272133, 3784439.877924720291048 ], [ 404426.551373346883338, 3784440.183112919796258 ], [ 404426.246185147494543, 3784440.183112919796258 ], [ 404425.940996948105749, 3784440.488301118835807 ], [ 404424.415055951161776, 3784440.488301118835807 ] ] ] } },
{ "type": "Feature", "properties": { "confidence": 0.76553612947463989, "class": 1 }, "geometry": { "type": "Polygon", "coordinates": [ [ [ 404537.029501525918022, 3784330.010172939859331 ], [ 404536.724313326529227, 3784329.704984740819782 ], [ 404535.503560528974049, 3784329.704984740819782 ], [ 404534.89318413019646, 3784329.094608341809362 ], [ 404534.89318413019646, 3784327.873855544254184 ], [ 404534.587995930807665, 3784327.568667344748974 ], [ 404534.587995930807665, 3784326.042726347688586 ], [ 404534.89318413019646, 3784325.737538148649037 ], [ 404534.89318413019646, 3784325.432349949143827 ], [ 404536.113936927751638, 3784324.211597151588649 ], [ 404536.724313326529227, 3784324.211597151588649 ], [ 404537.029501525918022, 3784323.906408952083439 ], [ 404538.555442522861995, 3784323.906408952083439 ], [ 404538.860630722250789, 3784324.211597151588649 ], [ 404539.471007121086586, 3784324.211597151588649 ], [ 404540.081383519864175, 3784324.821973550133407 ], [ 404540.081383519864175, 3784325.432349949143827 ], [ 404539.776195320475381, 3784325.737538148649037 ], [ 404539.776195320475381, 3784326.042726347688586 ], [ 404539.471007121086586, 3784326.347914547193795 ], [ 404539.471007121086586, 3784326.653102746699005 ], [ 404538.860630722250789, 3784327.263479145243764 ], [ 404538.860630722250789, 3784327.873855544254184 ], [ 404538.555442522861995, 3784328.179043743759394 ], [ 404538.555442522861995, 3784328.789420142304152 ], [ 404538.2502543234732, 3784329.094608341809362 ], [ 404538.2502543234732, 3784329.704984740819782 ], [ 404537.945066124084406, 3784329.704984740819782 ], [ 404537.639877924695611, 3784330.010172939859331 ], [ 404537.029501525918022, 3784330.010172939859331 ] ] ] } },
{ "type": "Feature", "properties": { "confidence": 0.71886038780212402, "class": 1 }, "geometry": { "type": "Polygon", "coordinates": [ [ [ 404443.641912512714043, 3784662.054933875799179 ], [ 404443.336724313325249, 3784661.749745676293969 ], [ 404443.031536113936454, 3784661.749745676293969 ], [ 404442.726347914547659, 3784661.444557477254421 ], [ 404442.726347914547659, 3784659.308240081183612 ], [ 404443.336724313325249, 3784658.697863682638854 ], [ 404443.947100712102838, 3784658.697863682638854 ], [ 404444.252288911491632, 3784658.392675483133644 ], [ 404444.557477110880427, 3784658.392675483133644 ], [ 404445.473041709046811, 3784657.477110885083675 ], [ 404446.693794506601989, 3784657.477110885083675 ], [ 404446.998982705990784, 3784657.782299084588885 ], [ 404446.998982705990784, 3784658.087487283628434 ], [ 404447.304170905379578, 3784658.392675483133644 ], [ 404447.304170905379578, 3784658.697863682638854 ], [ 404447.609359104768373, 3784659.003051882144064 ], [ 404447.609359104768373, 3784659.308240081183612 ], [ 404447.914547304157168, 3784659.613428280688822 ], [ 404447.914547304157168, 3784660.834181078244001 ], [ 404447.609359104768373, 3784661.139369277749211 ], [ 404447.609359104768373, 3784661.444557477254421 ], [ 404447.304170905379578, 3784661.444557477254421 ], [ 404446.998982705990784, 3784661.749745676293969 ], [ 404445.167853509658016, 3784661.749745676293969 ], [ 404444.862665310269222, 3784662.054933875799179 ], [ 404443.641912512714043, 3784662.054933875799179 ] ] ] } },
{ "type": "Feature", "properties": { "confidence": 0.67463237047195435, "class": 1 }, "geometry": { "type": "Polygon", "coordinates": [ [ [ 404485.757884028484114, 3784394.710071210749447 ], [ 404485.452695829095319, 3784394.404883011244237 ], [ 404485.147507629706524, 3784394.404883011244237 ], [ 404484.84231943031773, 3784394.099694811739028 ], [ 404484.84231943031773, 3784393.489318413194269 ], [ 404484.537131230928935, 3784393.184130213689059 ], [ 404484.537131230928935, 3784392.878942014183849 ], [ 404484.231943031540141, 3784392.573753814678639 ], [ 404484.231943031540141, 3784392.268565615639091 ], [ 404483.926754832151346, 3784391.963377416133881 ], [ 404483.926754832151346, 3784391.658189216628671 ], [ 404483.621566632762551, 3784391.353001017123461 ], [ 404483.621566632762551, 3784390.132248219568282 ], [ 404483.316378433373757, 3784389.827060020528734 ], [ 404483.316378433373757, 3784389.216683621518314 ], [ 404483.011190233984962, 3784388.911495422013104 ], [ 404483.011190233984962, 3784386.469989826902747 ], [ 404484.84231943031773, 3784386.469989826902747 ], [ 404485.147507629706524, 3784386.775178026407957 ], [ 404485.147507629706524, 3784387.385554425418377 ], [ 404485.757884028484114, 3784387.995930823963135 ], [ 404488.19938962359447, 3784387.995930823963135 ], [ 404488.80976602237206, 3784388.606307222973555 ], [ 404488.80976602237206, 3784388.911495422013104 ], [ 404489.114954221760854, 3784389.216683621518314 ], [ 404489.114954221760854, 3784389.521871821023524 ], [ 404489.725330620538443, 3784390.132248219568282 ], [ 404489.725330620538443, 3784392.878942014183849 ], [ 404489.114954221760854, 3784393.489318413194269 ], [ 404488.504577822983265, 3784393.489318413194269 ], [ 404488.19938962359447, 3784393.794506612233818 ], [ 404487.894201424205676, 3784393.794506612233818 ], [ 404487.589013224816881, 3784394.099694811739028 ], [ 404487.283825025428087, 3784394.099694811739028 ], [ 404486.978636826039292, 3784394.404883011244237 ], [ 404486.368260427261703, 3784394.404883011244237 ], [ 404486.063072227872908, 3784394.710071210749447 ], [ 404485.757884028484114, 3784394.710071210749447 ] ] ] } },
{ "type": "Feature", "properties": { "confidence": 0.6569901704788208, "class": 1 }, "geometry": { "type": "Polygon", "coordinates": [ [ [ 404501.017293997982051, 3784394.404883011244237 ], [ 404501.017293997982051, 3784394.099694811739028 ], [ 404500.712105798593257, 3784393.794506612233818 ], [ 404501.017293997982051, 3784393.489318413194269 ], [ 404501.017293997982051, 3784392.573753814678639 ], [ 404501.322482197370846, 3784392.268565615639091 ], [ 404501.322482197370846, 3784391.963377416133881 ], [ 404502.543234994926024, 3784390.742624618578702 ], [ 404502.543234994926024, 3784390.437436419073492 ], [ 404502.848423194314819, 3784390.437436419073492 ], [ 404503.153611393703613, 3784390.132248219568282 ], [ 404503.763987792481203, 3784390.132248219568282 ], [ 404504.069175991869997, 3784390.437436419073492 ], [ 404504.374364191258792, 3784390.437436419073492 ], [ 404504.679552390647586, 3784390.742624618578702 ], [ 404504.679552390647586, 3784392.268565615639091 ], [ 404503.153611393703613, 3784393.794506612233818 ], [ 404502.848423194314819, 3784393.794506612233818 ], [ 404502.23804679553723, 3784394.404883011244237 ], [ 404501.017293997982051, 3784394.404883011244237 ] ] ] } },
{ "type": "Feature", "properties": { "confidence": 0.63216495513916016, "class": 1 }, "geometry": { "type": "Polygon", "coordinates": [ [ [ 404543.743641912529711, 3784393.184130213689059 ], [ 404543.743641912529711, 3784391.963377416133881 ], [ 404543.438453713140916, 3784391.658189216628671 ], [ 404543.438453713140916, 3784390.742624618578702 ], [ 404543.133265513752121, 3784390.437436419073492 ], [ 404543.133265513752121, 3784388.606307222973555 ], [ 404543.438453713140916, 3784388.301119023468345 ], [ 404543.743641912529711, 3784388.301119023468345 ], [ 404544.048830111918505, 3784387.995930823963135 ], [ 404547.405900305195246, 3784387.995930823963135 ], [ 404547.71108850458404, 3784387.690742624457926 ], [ 404549.237029501528013, 3784387.690742624457926 ], [ 404549.542217700916808, 3784387.995930823963135 ], [ 404550.152594099694397, 3784387.995930823963135 ], [ 404550.457782299083192, 3784388.301119023468345 ], [ 404550.457782299083192, 3784388.606307222973555 ], [ 404550.762970498471987, 3784388.911495422013104 ], [ 404550.762970498471987, 3784390.742624618578702 ], [ 404550.457782299083192, 3784391.047812818083912 ], [ 404550.457782299083192, 3784391.963377416133881 ], [ 404550.152594099694397, 3784392.268565615639091 ], [ 404549.847405900305603, 3784392.268565615639091 ], [ 404549.542217700916808, 3784392.573753814678639 ], [ 404547.100712105806451, 3784392.573753814678639 ], [ 404546.795523906417657, 3784392.878942014183849 ], [ 404546.185147507640067, 3784392.878942014183849 ], [ 404545.879959308251273, 3784393.184130213689059 ], [ 404543.743641912529711, 3784393.184130213689059 ] ] ] } },
{ "type": "Feature", "properties": { "confidence": 0.58795428276062012, "class": 1 }, "geometry": { "type": "Polygon", "coordinates": [ [ [ 404409.766022380441427, 3784368.463886063080281 ], [ 404409.766022380441427, 3784366.327568667475134 ], [ 404410.071210579830222, 3784366.022380467969924 ], [ 404410.071210579830222, 3784365.717192268464714 ], [ 404411.902339776221197, 3784363.886063072364777 ], [ 404411.902339776221197, 3784363.580874872859567 ], [ 404412.817904374387581, 3784362.665310274809599 ], [ 404412.817904374387581, 3784362.054933875799179 ], [ 404413.123092573776376, 3784361.749745676293969 ], [ 404413.42828077316517, 3784361.749745676293969 ], [ 404413.733468972553965, 3784361.444557477254421 ], [ 404414.954221770109143, 3784361.444557477254421 ], [ 404415.259409969497938, 3784361.749745676293969 ], [ 404415.259409969497938, 3784362.665310274809599 ], [ 404414.954221770109143, 3784362.970498473849148 ], [ 404414.954221770109143, 3784364.191251271404326 ], [ 404414.649033570720349, 3784364.496439470909536 ], [ 404414.649033570720349, 3784365.106815869919956 ], [ 404414.343845371331554, 3784365.412004068959504 ], [ 404414.343845371331554, 3784366.632756866514683 ], [ 404414.038657171942759, 3784366.937945066019893 ], [ 404414.038657171942759, 3784367.243133265525103 ], [ 404413.733468972553965, 3784367.548321465030313 ], [ 404413.123092573776376, 3784367.548321465030313 ], [ 404412.817904374387581, 3784367.853509664069861 ], [ 404412.207527975609992, 3784367.853509664069861 ], [ 404411.902339776221197, 3784368.158697863575071 ], [ 404411.597151576832402, 3784368.158697863575071 ], [ 404411.291963377443608, 3784368.463886063080281 ], [ 404409.766022380441427, 3784368.463886063080281 ] ] ] } },
{ "type": "Feature", "properties": { "confidence": 0.58385461568832397, "class": 1 }, "geometry": { "type": "Polygon", "coordinates": [ [ [ 404559.61342828074703, 3784355.035605289973319 ], [ 404559.61342828074703, 3784351.983723295852542 ], [ 404560.223804679524619, 3784351.373346897307783 ], [ 404560.834181078360416, 3784351.373346897307783 ], [ 404561.139369277749211, 3784351.068158697802573 ], [ 404562.665310274693184, 3784351.068158697802573 ], [ 404562.665310274693184, 3784353.20447609340772 ], [ 404562.360122075304389, 3784353.50966429291293 ], [ 404562.360122075304389, 3784353.81485249241814 ], [ 404561.139369277749211, 3784355.035605289973319 ], [ 404559.61342828074703, 3784355.035605289973319 ] ] ] } },
{ "type": "Feature", "properties": { "confidence": 0.58122634887695312, "class": 1 }, "geometry": { "type": "Polygon", "coordinates": [ [ [ 404490.030518819927238, 3784414.85249237017706 ], [ 404489.725330620538443, 3784414.547304171137512 ], [ 404489.420142421149649, 3784414.547304171137512 ], [ 404489.420142421149649, 3784414.242115971632302 ], [ 404489.114954221760854, 3784413.936927772127092 ], [ 404489.114954221760854, 3784412.716174974571913 ], [ 404488.80976602237206, 3784412.410986775066704 ], [ 404488.80976602237206, 3784410.885045778006315 ], [ 404489.114954221760854, 3784410.579857578966767 ], [ 404489.114954221760854, 3784410.274669379461557 ], [ 404492.777212614426389, 3784410.274669379461557 ], [ 404492.777212614426389, 3784410.885045778006315 ], [ 404493.082400813815184, 3784411.190233977511525 ], [ 404493.082400813815184, 3784411.495422177016735 ], [ 404493.387589013203979, 3784411.800610376521945 ], [ 404493.387589013203979, 3784412.105798575561494 ], [ 404493.692777212592773, 3784412.410986775066704 ], [ 404493.692777212592773, 3784413.631739572621882 ], [ 404493.082400813815184, 3784414.242115971632302 ], [ 404492.777212614426389, 3784414.242115971632302 ], [ 404492.472024415037595, 3784414.547304171137512 ], [ 404491.861648016260006, 3784414.547304171137512 ], [ 404491.556459816871211, 3784414.85249237017706 ], [ 404490.030518819927238, 3784414.85249237017706 ] ] ] } },
{ "type": "Feature", "properties": { "confidence": 0.57487422227859497, "class": 1 }, "geometry": { "type": "Polygon", "coordinates": [ [ [ 404530.010172939975746, 3784381.892166836187243 ], [ 404529.704984740586951, 3784381.586978636682034 ], [ 404529.094608341809362, 3784381.586978636682034 ], [ 404529.094608341809362, 3784381.281790437642485 ], [ 404528.789420142420568, 3784380.976602238137275 ], [ 404528.789420142420568, 3784378.840284842532128 ], [ 404529.094608341809362, 3784378.535096643026918 ], [ 404529.094608341809362, 3784378.229908443521708 ], [ 404529.399796541198157, 3784377.924720244016498 ], [ 404529.399796541198157, 3784377.61953204497695 ], [ 404530.620549338753335, 3784376.398779247421771 ], [ 404530.620549338753335, 3784375.178026449866593 ], [ 404530.92573753814213, 3784374.872838250361383 ], [ 404533.367243133252487, 3784374.872838250361383 ], [ 404534.89318413019646, 3784376.398779247421771 ], [ 404534.89318413019646, 3784377.924720244016498 ], [ 404534.28280773141887, 3784378.535096643026918 ], [ 404533.977619532030076, 3784378.535096643026918 ], [ 404533.672431332641281, 3784378.840284842532128 ], [ 404533.367243133252487, 3784378.840284842532128 ], [ 404533.062054933863692, 3784379.145473041571677 ], [ 404532.451678535086103, 3784379.145473041571677 ], [ 404532.146490335697308, 3784379.450661241076887 ], [ 404531.841302136308514, 3784379.450661241076887 ], [ 404530.92573753814213, 3784380.366225839126855 ], [ 404530.92573753814213, 3784380.671414038632065 ], [ 404530.620549338753335, 3784380.976602238137275 ], [ 404530.620549338753335, 3784381.281790437642485 ], [ 404530.010172939975746, 3784381.892166836187243 ] ] ] } },
{ "type": "Feature", "properties": { "confidence": 0.56474310159683228, "class": 1 }, "geometry": { "type": "Polygon", "coordinates": [ [ [ 404482.095625635818578, 3784304.374364191200584 ], [ 404481.790437436429784, 3784304.069175991695374 ], [ 404480.8748728382634, 3784304.069175991695374 ], [ 404480.569684638874605, 3784303.763987792655826 ], [ 404480.569684638874605, 3784302.543234995100647 ], [ 404480.8748728382634, 3784302.238046795595437 ], [ 404480.8748728382634, 3784301.322482197545469 ], [ 404480.569684638874605, 3784301.017293998040259 ], [ 404480.264496439485811, 3784301.017293998040259 ], [ 404480.264496439485811, 3784300.712105798535049 ], [ 404479.959308240097016, 3784300.406917599029839 ], [ 404479.959308240097016, 3784300.10172939999029 ], [ 404479.654120040708221, 3784299.79654120048508 ], [ 404479.959308240097016, 3784299.491353000979871 ], [ 404479.959308240097016, 3784298.575788402929902 ], [ 404481.180061037652194, 3784297.355035605374724 ], [ 404481.485249237040989, 3784297.355035605374724 ], [ 404481.790437436429784, 3784297.049847405869514 ], [ 404482.095625635818578, 3784297.049847405869514 ], [ 404482.400813835207373, 3784297.355035605374724 ], [ 404484.84231943031773, 3784297.355035605374724 ], [ 404484.84231943031773, 3784297.660223804879934 ], [ 404485.147507629706524, 3784297.965412003919482 ], [ 404485.147507629706524, 3784298.270600203424692 ], [ 404486.063072227872908, 3784299.186164801474661 ], [ 404486.368260427261703, 3784299.186164801474661 ], [ 404486.673448626650497, 3784299.491353000979871 ], [ 404487.283825025428087, 3784299.491353000979871 ], [ 404487.283825025428087, 3784299.79654120048508 ], [ 404487.589013224816881, 3784300.10172939999029 ], [ 404487.589013224816881, 3784300.406917599029839 ], [ 404487.894201424205676, 3784300.712105798535049 ], [ 404487.894201424205676, 3784301.017293998040259 ], [ 404487.589013224816881, 3784301.322482197545469 ], [ 404487.589013224816881, 3784302.848423194140196 ], [ 404487.283825025428087, 3784303.153611393645406 ], [ 404487.283825025428087, 3784303.458799593150616 ], [ 404486.978636826039292, 3784303.763987792655826 ], [ 404486.673448626650497, 3784303.763987792655826 ], [ 404486.368260427261703, 3784304.069175991695374 ], [ 404484.231943031540141, 3784304.069175991695374 ], [ 404483.926754832151346, 3784304.374364191200584 ], [ 404482.095625635818578, 3784304.374364191200584 ] ] ] } },
{ "type": "Feature", "properties": { "confidence": 0.51178610324859619, "class": 1 }, "geometry": { "type": "Polygon", "coordinates": [ [ [ 404522.685656154644676, 3784283.926754832267761 ], [ 404522.380467955255881, 3784283.621566632762551 ], [ 404521.770091556478292, 3784283.621566632762551 ], [ 404521.464903357089497, 3784283.316378433257341 ], [ 404521.159715157700703, 3784283.316378433257341 ], [ 404520.854526958311908, 3784283.011190233752131 ], [ 404520.854526958311908, 3784279.959308240097016 ], [ 404522.075279755867086, 3784278.738555442541838 ], [ 404522.075279755867086, 3784278.433367243036628 ], [ 404522.685656154644676, 3784277.822990844491869 ], [ 404522.685656154644676, 3784277.517802644986659 ], [ 404523.296032553422265, 3784276.907426245976239 ], [ 404523.906408952199854, 3784276.907426245976239 ], [ 404523.906408952199854, 3784277.212614445481449 ], [ 404524.211597151588649, 3784277.517802644986659 ], [ 404524.821973550366238, 3784277.517802644986659 ], [ 404525.127161749755032, 3784277.822990844491869 ], [ 404525.432349949143827, 3784277.822990844491869 ], [ 404525.737538148532622, 3784278.128179043531418 ], [ 404526.042726347921416, 3784278.128179043531418 ], [ 404526.653102746699005, 3784278.738555442541838 ], [ 404526.653102746699005, 3784279.654120040591806 ], [ 404526.347914547310211, 3784279.959308240097016 ], [ 404526.347914547310211, 3784280.264496439602226 ], [ 404526.042726347921416, 3784280.569684638641775 ], [ 404526.042726347921416, 3784280.874872838146985 ], [ 404524.821973550366238, 3784282.095625635702163 ], [ 404524.821973550366238, 3784282.706002034712583 ], [ 404523.601220752811059, 3784283.926754832267761 ], [ 404522.685656154644676, 3784283.926754832267761 ] ] ] } },
{ "type": "Feature", "properties": { "confidence": 0.50877320766448975, "class": 1 }, "geometry": { "type": "Polygon", "coordinates": [ [ [ 404450.05086469987873, 3784245.778229908552021 ], [ 404449.745676500489935, 3784245.473041709046811 ], [ 404449.135300101712346, 3784245.473041709046811 ], [ 404448.524923702934757, 3784244.862665310502052 ], [ 404448.219735503545962, 3784244.862665310502052 ], [ 404447.914547304157168, 3784244.557477110996842 ], [ 404447.914547304157168, 3784242.726347914431244 ], [ 404448.219735503545962, 3784242.421159714926034 ], [ 404450.966429298045114, 3784242.421159714926034 ], [ 404451.881993896211497, 3784243.336724313441664 ], [ 404452.187182095600292, 3784243.336724313441664 ], [ 404452.492370294989087, 3784243.641912512946874 ], [ 404453.40793489315547, 3784243.641912512946874 ], [ 404453.713123092602473, 3784243.947100711986423 ], [ 404453.713123092602473, 3784245.167853509541601 ], [ 404453.40793489315547, 3784245.473041709046811 ], [ 404453.102746693766676, 3784245.473041709046811 ], [ 404452.797558494377881, 3784245.778229908552021 ], [ 404450.05086469987873, 3784245.778229908552021 ] ] ] } },
{ "type": "Feature", "properties": { "confidence": 0.50524735450744629, "class": 1 }, "geometry": { "type": "Polygon", "coordinates": [ [ [ 404567.243133265525103, 3784330.62054933886975 ], [ 404566.327568667358719, 3784329.704984740819782 ], [ 404566.327568667358719, 3784329.094608341809362 ], [ 404566.022380467969924, 3784328.789420142304152 ], [ 404566.022380467969924, 3784327.568667344748974 ], [ 404566.327568667358719, 3784327.263479145243764 ], [ 404566.327568667358719, 3784326.958290946204215 ], [ 404566.632756866747513, 3784326.653102746699005 ], [ 404566.632756866747513, 3784326.042726347688586 ], [ 404567.243133265525103, 3784325.432349949143827 ], [ 404568.158697863691486, 3784325.432349949143827 ], [ 404568.463886063080281, 3784325.737538148649037 ], [ 404569.684638860635459, 3784325.737538148649037 ], [ 404569.989827060024254, 3784326.042726347688586 ], [ 404570.905391658190638, 3784326.042726347688586 ], [ 404570.905391658190638, 3784328.789420142304152 ], [ 404570.600203458801843, 3784329.094608341809362 ], [ 404570.600203458801843, 3784329.399796541314572 ], [ 404570.295015259413049, 3784329.704984740819782 ], [ 404569.989827060024254, 3784329.704984740819782 ], [ 404569.684638860635459, 3784330.010172939859331 ], [ 404569.379450661246665, 3784330.010172939859331 ], [ 404569.07426246185787, 3784330.315361139364541 ], [ 404568.463886063080281, 3784330.315361139364541 ], [ 404568.158697863691486, 3784330.62054933886975 ], [ 404567.243133265525103, 3784330.62054933886975 ] ] ] } },
{ "type": "Feature", "properties": { "confidence": 0.491660475730896, "class": 1 }, "geometry": { "type": "Polygon", "coordinates": [ [ [ 404404.883011190220714, 3784339.165818921755999 ], [ 404404.577822990831919, 3784338.860630722250789 ], [ 404404.272634791443124, 3784338.860630722250789 ], [ 404403.357070193276741, 3784337.945066124200821 ], [ 404403.357070193276741, 3784336.419125127140433 ], [ 404404.272634791443124, 3784335.503560529090464 ], [ 404404.577822990831919, 3784335.503560529090464 ], [ 404405.798575788387097, 3784334.282807731535286 ], [ 404406.103763987775892, 3784334.282807731535286 ], [ 404406.408952187164687, 3784333.977619532030076 ], [ 404407.32451678533107, 3784333.977619532030076 ], [ 404407.629704984719865, 3784334.282807731535286 ], [ 404407.93489318410866, 3784334.282807731535286 ], [ 404407.93489318410866, 3784334.587995931040496 ], [ 404408.850457782275043, 3784335.503560529090464 ], [ 404408.850457782275043, 3784336.113936927635223 ], [ 404408.545269582886249, 3784336.419125127140433 ], [ 404408.545269582886249, 3784336.724313326645643 ], [ 404408.240081383497454, 3784337.029501526150852 ], [ 404408.240081383497454, 3784337.334689725190401 ], [ 404407.93489318410866, 3784337.639877924695611 ], [ 404407.93489318410866, 3784337.945066124200821 ], [ 404407.019328585942276, 3784338.860630722250789 ], [ 404406.408952187164687, 3784338.860630722250789 ], [ 404406.103763987775892, 3784339.165818921755999 ], [ 404404.883011190220714, 3784339.165818921755999 ] ] ] } },
{ "type": "Feature", "properties": { "confidence": 0.48167809844017029, "class": 1 }, "geometry": { "type": "Polygon", "coordinates": [ [ [ 404528.484231943031773, 3784267.446592065040022 ], [ 404528.179043743642978, 3784267.141403865534812 ], [ 404528.179043743642978, 3784263.479145472869277 ], [ 404531.230925737530924, 3784263.479145472869277 ], [ 404531.230925737530924, 3784266.531027466990054 ], [ 404530.620549338753335, 3784267.141403865534812 ], [ 404530.315361139364541, 3784267.141403865534812 ], [ 404530.010172939975746, 3784267.446592065040022 ], [ 404528.484231943031773, 3784267.446592065040022 ] ] ] } },
{ "type": "Feature", "properties": { "confidence": 0.48058420419692993, "class": 1 }, "geometry": { "type": "Polygon", "coordinates": [ [ [ 404538.860630722250789, 3784478.331637843511999 ], [ 404538.555442522861995, 3784478.026449644006789 ], [ 404538.2502543234732, 3784478.026449644006789 ], [ 404538.2502543234732, 3784477.721261444501579 ], [ 404537.945066124084406, 3784477.416073244996369 ], [ 404537.945066124084406, 3784477.11088504595682 ], [ 404537.639877924695611, 3784476.80569684645161 ], [ 404537.639877924695611, 3784476.5005086469464 ], [ 404537.334689725306816, 3784476.19532044744119 ], [ 404537.334689725306816, 3784475.890132248401642 ], [ 404537.029501525918022, 3784475.584944048896432 ], [ 404537.029501525918022, 3784471.922685656230897 ], [ 404537.334689725306816, 3784471.922685656230897 ], [ 404537.639877924695611, 3784471.617497456725687 ], [ 404539.165818921639584, 3784471.617497456725687 ], [ 404539.471007121086586, 3784471.922685656230897 ], [ 404540.081383519864175, 3784471.922685656230897 ], [ 404540.38657171925297, 3784472.227873855736107 ], [ 404541.607324516808148, 3784472.227873855736107 ], [ 404541.912512716196943, 3784472.533062054775655 ], [ 404543.133265513752121, 3784472.533062054775655 ], [ 404543.438453713140916, 3784472.838250254280865 ], [ 404543.743641912529711, 3784472.838250254280865 ], [ 404543.743641912529711, 3784473.143438453786075 ], [ 404544.048830111918505, 3784473.448626653291285 ], [ 404544.048830111918505, 3784474.059003051836044 ], [ 404544.3540183113073, 3784474.364191251341254 ], [ 404544.3540183113073, 3784476.19532044744119 ], [ 404542.828077314363327, 3784477.721261444501579 ], [ 404542.828077314363327, 3784478.026449644006789 ], [ 404542.522889114974532, 3784478.026449644006789 ], [ 404542.217700915585738, 3784478.331637843511999 ], [ 404538.860630722250789, 3784478.331637843511999 ] ] ] } },
{ "type": "Feature", "properties": { "confidence": 0.46058598160743713, "class": 1 }, "geometry": { "type": "Polygon", "coordinates": [ [ [ 404533.672431332641281, 3784409.359104781411588 ], [ 404533.367243133252487, 3784409.053916581906378 ], [ 404533.062054933863692, 3784409.053916581906378 ], [ 404532.451678535086103, 3784408.443540182895958 ], [ 404532.146490335697308, 3784408.443540182895958 ], [ 404531.841302136308514, 3784408.13835198385641 ], [ 404531.536113936919719, 3784408.13835198385641 ], [ 404531.230925737530924, 3784407.8331637843512 ], [ 404531.230925737530924, 3784407.52797558484599 ], [ 404530.92573753814213, 3784407.22278738534078 ], [ 404530.92573753814213, 3784406.917599186301231 ], [ 404530.315361139364541, 3784406.307222787290812 ], [ 404530.315361139364541, 3784404.476093591190875 ], [ 404530.92573753814213, 3784403.865717192180455 ], [ 404531.230925737530924, 3784403.865717192180455 ], [ 404531.536113936919719, 3784403.560528992675245 ], [ 404531.841302136308514, 3784403.560528992675245 ], [ 404532.146490335697308, 3784403.255340793635696 ], [ 404533.672431332641281, 3784403.255340793635696 ], [ 404533.977619532030076, 3784403.560528992675245 ], [ 404534.28280773141887, 3784403.560528992675245 ], [ 404534.587995930807665, 3784403.865717192180455 ], [ 404534.587995930807665, 3784404.170905391685665 ], [ 404534.89318413019646, 3784404.476093591190875 ], [ 404535.198372329585254, 3784404.476093591190875 ], [ 404535.198372329585254, 3784405.391658189240843 ], [ 404536.419125127140433, 3784406.612410986796021 ], [ 404536.419125127140433, 3784406.917599186301231 ], [ 404536.724313326529227, 3784407.22278738534078 ], [ 404536.724313326529227, 3784407.52797558484599 ], [ 404537.029501525918022, 3784407.8331637843512 ], [ 404537.029501525918022, 3784408.13835198385641 ], [ 404536.419125127140433, 3784408.748728382401168 ], [ 404535.808748728362843, 3784408.748728382401168 ], [ 404535.503560528974049, 3784409.053916581906378 ], [ 404534.89318413019646, 3784409.053916581906378 ], [ 404534.587995930807665, 3784409.359104781411588 ], [ 404533.672431332641281, 3784409.359104781411588 ] ] ] } },
{ "type": "Feature", "properties": { "confidence": 0.45090970396995544, "class": 1 }, "geometry": { "type": "Polygon", "coordinates": [ [ [ 404526.653102746699005, 3784343.743641912471503 ], [ 404526.347914547310211, 3784343.438453712966293 ], [ 404526.042726347921416, 3784343.438453712966293 ], [ 404525.737538148532622, 3784343.133265513926744 ], [ 404525.432349949143827, 3784343.133265513926744 ], [ 404524.821973550366238, 3784342.522889114916325 ], [ 404524.516785350977443, 3784342.522889114916325 ], [ 404524.516785350977443, 3784342.217700915411115 ], [ 404524.211597151588649, 3784341.912512716371566 ], [ 404524.211597151588649, 3784341.607324516866356 ], [ 404523.906408952199854, 3784341.302136317361146 ], [ 404523.906408952199854, 3784340.386571719311178 ], [ 404524.211597151588649, 3784340.081383519805968 ], [ 404528.179043743642978, 3784340.081383519805968 ], [ 404528.484231943031773, 3784340.386571719311178 ], [ 404529.094608341809362, 3784340.386571719311178 ], [ 404529.094608341809362, 3784340.691759918816388 ], [ 404529.399796541198157, 3784340.996948117855936 ], [ 404529.399796541198157, 3784343.438453712966293 ], [ 404529.094608341809362, 3784343.743641912471503 ], [ 404526.653102746699005, 3784343.743641912471503 ] ] ] } },
{ "type": "Feature", "properties": { "confidence": 0.44964176416397095, "class": 1 }, "geometry": { "type": "Polygon", "coordinates": [ [ [ 404553.509664292971138, 3784413.936927772127092 ], [ 404553.204476093582343, 3784413.631739572621882 ], [ 404553.204476093582343, 3784411.495422177016735 ], [ 404553.509664292971138, 3784411.495422177016735 ], [ 404553.814852492359933, 3784411.190233977511525 ], [ 404553.814852492359933, 3784410.885045778006315 ], [ 404554.120040691748727, 3784410.579857578966767 ], [ 404554.120040691748727, 3784409.969481179956347 ], [ 404553.814852492359933, 3784409.664292980451137 ], [ 404553.814852492359933, 3784408.748728382401168 ], [ 404553.509664292971138, 3784408.443540182895958 ], [ 404553.509664292971138, 3784407.8331637843512 ], [ 404553.814852492359933, 3784407.8331637843512 ], [ 404554.120040691748727, 3784407.52797558484599 ], [ 404557.782299084414262, 3784407.52797558484599 ], [ 404558.087487283803057, 3784407.8331637843512 ], [ 404558.087487283803057, 3784408.13835198385641 ], [ 404558.392675483191852, 3784408.443540182895958 ], [ 404558.392675483191852, 3784409.969481179956347 ], [ 404558.087487283803057, 3784410.274669379461557 ], [ 404558.087487283803057, 3784410.579857578966767 ], [ 404557.782299084414262, 3784410.885045778006315 ], [ 404557.782299084414262, 3784411.190233977511525 ], [ 404557.477110885025468, 3784411.190233977511525 ], [ 404556.256358087470289, 3784412.410986775066704 ], [ 404556.256358087470289, 3784412.716174974571913 ], [ 404555.951169888081495, 3784412.716174974571913 ], [ 404555.340793489303906, 3784413.326551373116672 ], [ 404555.035605289915111, 3784413.326551373116672 ], [ 404554.730417090526316, 3784413.631739572621882 ], [ 404553.814852492359933, 3784413.631739572621882 ], [ 404553.509664292971138, 3784413.936927772127092 ] ] ] } },
{ "type": "Feature", "properties": { "confidence": 0.41741549968719482, "class": 1 }, "geometry": { "type": "Polygon", "coordinates": [ [ [ 404523.601220752811059, 3784456.052899288013577 ], [ 404522.99084435403347, 3784455.442522889003158 ], [ 404522.99084435403347, 3784454.832146490458399 ], [ 404522.685656154644676, 3784454.526958290953189 ], [ 404522.685656154644676, 3784451.169888097792864 ], [ 404522.99084435403347, 3784450.864699898287654 ], [ 404524.211597151588649, 3784450.864699898287654 ], [ 404524.516785350977443, 3784450.559511698782444 ], [ 404524.821973550366238, 3784450.559511698782444 ], [ 404525.127161749755032, 3784450.254323499277234 ], [ 404528.179043743642978, 3784450.254323499277234 ], [ 404528.179043743642978, 3784451.475076296832412 ], [ 404528.484231943031773, 3784451.780264496337622 ], [ 404528.179043743642978, 3784452.085452695842832 ], [ 404528.179043743642978, 3784453.001017293892801 ], [ 404527.568667344865389, 3784453.611393692903221 ], [ 404527.263479145476595, 3784453.611393692903221 ], [ 404526.9582909460878, 3784453.916581891942769 ], [ 404526.9582909460878, 3784454.221770091447979 ], [ 404526.042726347921416, 3784455.137334689497948 ], [ 404525.737538148532622, 3784455.137334689497948 ], [ 404525.432349949143827, 3784455.442522889003158 ], [ 404525.127161749755032, 3784455.442522889003158 ], [ 404524.516785350977443, 3784456.052899288013577 ], [ 404523.601220752811059, 3784456.052899288013577 ] ] ] } },
{ "type": "Feature", "properties": { "confidence": 0.4109959602355957, "class": 1 }, "geometry": { "type": "Polygon", "coordinates": [ [ [ 404472.024415055930149, 3784445.066124110016972 ], [ 404472.024415055930149, 3784444.760935910511762 ], [ 404471.719226856541354, 3784444.455747711006552 ], [ 404471.719226856541354, 3784443.845371312461793 ], [ 404472.024415055930149, 3784443.540183112956583 ], [ 404472.024415055930149, 3784442.929806713946164 ], [ 404472.329603255318943, 3784442.624618514906615 ], [ 404472.329603255318943, 3784442.319430315401405 ], [ 404473.245167853485327, 3784441.403865717351437 ], [ 404473.550356052874122, 3784441.403865717351437 ], [ 404474.465920651040506, 3784440.488301118835807 ], [ 404474.7711088504293, 3784440.488301118835807 ], [ 404475.686673448653892, 3784439.572736520785838 ], [ 404475.991861648042686, 3784439.572736520785838 ], [ 404476.297049847431481, 3784439.267548321280628 ], [ 404476.602238046820275, 3784439.267548321280628 ], [ 404476.90742624620907, 3784438.96236012224108 ], [ 404478.738555442541838, 3784438.96236012224108 ], [ 404478.738555442541838, 3784440.793489318341017 ], [ 404478.433367243153043, 3784441.098677517846227 ], [ 404478.433367243153043, 3784441.403865717351437 ], [ 404478.128179043764248, 3784441.709053916390985 ], [ 404477.822990844375454, 3784441.709053916390985 ], [ 404477.212614445597865, 3784442.319430315401405 ], [ 404477.212614445597865, 3784442.624618514906615 ], [ 404476.602238046820275, 3784443.234994913451374 ], [ 404476.297049847431481, 3784443.234994913451374 ], [ 404475.686673448653892, 3784443.845371312461793 ], [ 404475.381485249265097, 3784443.845371312461793 ], [ 404475.076297049876302, 3784444.150559511501342 ], [ 404474.7711088504293, 3784444.150559511501342 ], [ 404474.465920651040506, 3784444.455747711006552 ], [ 404474.160732451651711, 3784444.455747711006552 ], [ 404473.855544252262916, 3784444.760935910511762 ], [ 404473.550356052874122, 3784444.760935910511762 ], [ 404473.245167853485327, 3784445.066124110016972 ], [ 404472.024415055930149, 3784445.066124110016972 ] ] ] } },
{ "type": "Feature", "properties": { "confidence": 0.40166741609573364, "class": 1 }, "geometry": { "type": "Polygon", "coordinates": [ [ [ 404486.063072227872908, 3784258.596134282648563 ], [ 404485.757884028484114, 3784258.290946083609015 ], [ 404485.452695829095319, 3784258.290946083609015 ], [ 404485.452695829095319, 3784256.459816887043417 ], [ 404486.063072227872908, 3784255.849440488498658 ], [ 404486.063072227872908, 3784255.544252288993448 ], [ 404486.368260427261703, 3784255.544252288993448 ], [ 404486.978636826039292, 3784254.933875889983028 ], [ 404487.283825025428087, 3784254.933875889983028 ], [ 404487.589013224816881, 3784254.62868769094348 ], [ 404490.030518819927238, 3784254.62868769094348 ], [ 404490.335707019316033, 3784254.933875889983028 ], [ 404491.556459816871211, 3784254.933875889983028 ], [ 404491.861648016260006, 3784255.239064089488238 ], [ 404492.1668362156488, 3784255.239064089488238 ], [ 404492.1668362156488, 3784257.070193286053836 ], [ 404491.861648016260006, 3784257.375381485093385 ], [ 404491.861648016260006, 3784257.985757884103805 ], [ 404491.556459816871211, 3784258.290946083609015 ], [ 404491.251271617482416, 3784258.290946083609015 ], [ 404490.946083418093622, 3784258.596134282648563 ], [ 404486.063072227872908, 3784258.596134282648563 ] ] ] } },
{ "type": "Feature", "properties": { "confidence": 0.39792802929878235, "class": 1 }, "geometry": { "type": "Polygon", "coordinates": [ [ [ 404532.451678535086103, 3784441.098677517846227 ], [ 404532.146490335697308, 3784440.793489318341017 ], [ 404531.841302136308514, 3784440.793489318341017 ], [ 404531.841302136308514, 3784440.488301118835807 ], [ 404531.536113936919719, 3784440.183112919796258 ], [ 404531.536113936919719, 3784439.267548321280628 ], [ 404531.230925737530924, 3784438.96236012224108 ], [ 404531.230925737530924, 3784437.741607324685901 ], [ 404531.536113936919719, 3784437.436419125180691 ], [ 404531.536113936919719, 3784437.131230925675482 ], [ 404531.841302136308514, 3784436.826042726170272 ], [ 404532.756866734474897, 3784436.826042726170272 ], [ 404533.062054933863692, 3784436.520854527130723 ], [ 404533.367243133252487, 3784436.826042726170272 ], [ 404534.587995930807665, 3784436.826042726170272 ], [ 404534.89318413019646, 3784436.520854527130723 ], [ 404535.198372329585254, 3784436.520854527130723 ], [ 404535.503560528974049, 3784436.215666327625513 ], [ 404535.808748728362843, 3784436.215666327625513 ], [ 404536.113936927751638, 3784435.910478128120303 ], [ 404537.334689725306816, 3784435.910478128120303 ], [ 404537.945066124084406, 3784436.520854527130723 ], [ 404537.945066124084406, 3784436.826042726170272 ], [ 404538.2502543234732, 3784437.131230925675482 ], [ 404538.2502543234732, 3784438.35198372323066 ], [ 404537.945066124084406, 3784438.65717192273587 ], [ 404537.945066124084406, 3784438.96236012224108 ], [ 404536.724313326529227, 3784440.183112919796258 ], [ 404536.419125127140433, 3784440.183112919796258 ], [ 404536.113936927751638, 3784440.488301118835807 ], [ 404534.28280773141887, 3784440.488301118835807 ], [ 404533.977619532030076, 3784440.793489318341017 ], [ 404533.672431332641281, 3784440.793489318341017 ], [ 404533.367243133252487, 3784441.098677517846227 ], [ 404532.451678535086103, 3784441.098677517846227 ] ] ] } },
{ "type": "Feature", "properties": { "confidence": 0.37684682011604309, "class": 1 }, "geometry": { "type": "Polygon", "coordinates": [ [ [ 404421.36317395727383, 3784363.580874872859567 ], [ 404420.447609359107446, 3784362.665310274809599 ], [ 404420.447609359107446, 3784362.360122075304389 ], [ 404420.142421159718651, 3784362.054933875799179 ], [ 404420.142421159718651, 3784361.749745676293969 ], [ 404419.837232960329857, 3784361.444557477254421 ], [ 404419.837232960329857, 3784360.528992878738791 ], [ 404420.447609359107446, 3784359.918616480194032 ], [ 404421.057985757885035, 3784359.918616480194032 ], [ 404421.36317395727383, 3784359.613428280688822 ], [ 404421.973550356051419, 3784359.613428280688822 ], [ 404422.278738555440214, 3784359.308240081183612 ], [ 404422.583926754829008, 3784359.308240081183612 ], [ 404422.889114954217803, 3784359.003051882144064 ], [ 404423.194303153606597, 3784359.308240081183612 ], [ 404423.194303153606597, 3784359.613428280688822 ], [ 404423.499491352995392, 3784359.918616480194032 ], [ 404423.499491352995392, 3784360.528992878738791 ], [ 404423.804679552384187, 3784360.834181078244001 ], [ 404423.804679552384187, 3784362.970498473849148 ], [ 404423.499491352995392, 3784362.970498473849148 ], [ 404423.194303153606597, 3784363.275686673354357 ], [ 404422.889114954217803, 3784363.275686673354357 ], [ 404422.583926754829008, 3784363.580874872859567 ], [ 404421.36317395727383, 3784363.580874872859567 ] ] ] } },
{ "type": "Feature", "properties": { "confidence": 0.37315568327903748, "class": 1 }, "geometry": { "type": "Polygon", "coordinates": [ [ [ 404475.991861648042686, 3784455.137334689497948 ], [ 404475.686673448653892, 3784454.832146490458399 ], [ 404475.381485249265097, 3784454.832146490458399 ], [ 404475.381485249265097, 3784450.559511698782444 ], [ 404475.076297049876302, 3784450.254323499277234 ], [ 404475.076297049876302, 3784449.643947100732476 ], [ 404475.381485249265097, 3784449.338758901227266 ], [ 404475.381485249265097, 3784449.033570701722056 ], [ 404475.686673448653892, 3784448.728382502682507 ], [ 404475.686673448653892, 3784448.423194303177297 ], [ 404476.297049847431481, 3784447.812817904166877 ], [ 404476.90742624620907, 3784447.812817904166877 ], [ 404477.212614445597865, 3784447.507629705127329 ], [ 404479.043743641930632, 3784447.507629705127329 ], [ 404479.348931841319427, 3784447.812817904166877 ], [ 404479.654120040708221, 3784447.812817904166877 ], [ 404479.959308240097016, 3784448.118006103672087 ], [ 404480.8748728382634, 3784448.118006103672087 ], [ 404480.8748728382634, 3784450.254323499277234 ], [ 404480.569684638874605, 3784450.559511698782444 ], [ 404480.569684638874605, 3784450.864699898287654 ], [ 404480.264496439485811, 3784451.169888097792864 ], [ 404480.264496439485811, 3784451.475076296832412 ], [ 404479.959308240097016, 3784451.780264496337622 ], [ 404479.959308240097016, 3784453.001017293892801 ], [ 404478.128179043764248, 3784454.832146490458399 ], [ 404477.822990844375454, 3784454.832146490458399 ], [ 404477.517802644986659, 3784455.137334689497948 ], [ 404475.991861648042686, 3784455.137334689497948 ] ] ] } },
{ "type": "Feature", "properties": { "confidence": 0.36663579940795898, "class": 1 }, "geometry": { "type": "Polygon", "coordinates": [ [ [ 404561.139369277749211, 3784314.750762970652431 ], [ 404560.834181078360416, 3784314.445574771147221 ], [ 404560.834181078360416, 3784312.919633774086833 ], [ 404560.528992878913414, 3784312.614445574581623 ], [ 404560.528992878913414, 3784312.309257375542074 ], [ 404559.918616480135825, 3784311.698880976531655 ], [ 404559.61342828074703, 3784311.698880976531655 ], [ 404559.308240081358235, 3784311.393692777026445 ], [ 404559.003051881969441, 3784311.393692777026445 ], [ 404558.697863682580646, 3784311.088504577986896 ], [ 404558.697863682580646, 3784310.783316378481686 ], [ 404558.392675483191852, 3784310.478128178976476 ], [ 404558.392675483191852, 3784308.952187181916088 ], [ 404558.697863682580646, 3784308.646998982876539 ], [ 404558.697863682580646, 3784308.036622583866119 ], [ 404559.003051881969441, 3784307.731434384360909 ], [ 404559.003051881969441, 3784307.426246185321361 ], [ 404559.918616480135825, 3784306.510681586805731 ], [ 404561.139369277749211, 3784306.510681586805731 ], [ 404561.139369277749211, 3784307.426246185321361 ], [ 404561.7497456765268, 3784308.036622583866119 ], [ 404562.665310274693184, 3784308.036622583866119 ], [ 404562.970498474081978, 3784307.731434384360909 ], [ 404564.496439471025951, 3784307.731434384360909 ], [ 404564.801627670414746, 3784308.036622583866119 ], [ 404564.801627670414746, 3784308.646998982876539 ], [ 404564.496439471025951, 3784308.952187181916088 ], [ 404564.496439471025951, 3784309.562563580926508 ], [ 404564.801627670414746, 3784309.867751780431718 ], [ 404564.801627670414746, 3784314.140386571642011 ], [ 404564.496439471025951, 3784314.445574771147221 ], [ 404563.580874872859567, 3784314.445574771147221 ], [ 404563.275686673470773, 3784314.750762970652431 ], [ 404561.139369277749211, 3784314.750762970652431 ] ] ] } },
{ "type": "Feature", "properties": { "confidence": 0.34185239672660828, "class": 1 }, "geometry": { "type": "Polygon", "coordinates": [ [ [ 404554.730417090526316, 3784267.446592065040022 ], [ 404554.120040691748727, 3784266.836215666495264 ], [ 404554.120040691748727, 3784266.531027466990054 ], [ 404553.814852492359933, 3784266.225839267484844 ], [ 404553.814852492359933, 3784265.920651067979634 ], [ 404553.509664292971138, 3784265.615462868940085 ], [ 404553.509664292971138, 3784265.310274669434875 ], [ 404553.204476093582343, 3784265.005086469929665 ], [ 404553.204476093582343, 3784264.089521871879697 ], [ 404552.899287894193549, 3784263.784333672374487 ], [ 404552.899287894193549, 3784262.563580874819309 ], [ 404552.594099694804754, 3784262.258392675314099 ], [ 404552.594099694804754, 3784261.95320447627455 ], [ 404552.899287894193549, 3784261.64801627676934 ], [ 404552.899287894193549, 3784261.03763987775892 ], [ 404553.204476093582343, 3784260.732451678719372 ], [ 404553.204476093582343, 3784260.427263479214162 ], [ 404554.120040691748727, 3784259.511698881164193 ], [ 404554.120040691748727, 3784259.206510681658983 ], [ 404554.425228891137522, 3784259.206510681658983 ], [ 404554.730417090526316, 3784258.901322482153773 ], [ 404555.951169888081495, 3784258.901322482153773 ], [ 404556.256358087470289, 3784259.206510681658983 ], [ 404556.256358087470289, 3784259.511698881164193 ], [ 404556.561546286859084, 3784259.816887080203742 ], [ 404556.866734486247879, 3784259.816887080203742 ], [ 404556.866734486247879, 3784260.427263479214162 ], [ 404557.477110885025468, 3784261.03763987775892 ], [ 404557.477110885025468, 3784264.394710071384907 ], [ 404557.171922685636673, 3784264.699898270424455 ], [ 404557.171922685636673, 3784265.615462868940085 ], [ 404556.866734486247879, 3784265.920651067979634 ], [ 404556.866734486247879, 3784266.225839267484844 ], [ 404555.951169888081495, 3784267.141403865534812 ], [ 404555.6459816886927, 3784267.141403865534812 ], [ 404555.340793489303906, 3784267.446592065040022 ], [ 404554.730417090526316, 3784267.446592065040022 ] ] ] } },
{ "type": "Feature", "properties": { "confidence": 0.33279132843017578, "class": 1 }, "geometry": { "type": "Polygon", "coordinates": [ [ [ 404518.718209562590346, 3784374.872838250361383 ], [ 404518.718209562590346, 3784372.431332655251026 ], [ 404519.02339776197914, 3784372.126144455745816 ], [ 404519.02339776197914, 3784370.600203458685428 ], [ 404519.328585961367935, 3784370.295015259180218 ], [ 404519.328585961367935, 3784369.989827060140669 ], [ 404519.63377416075673, 3784369.684638860635459 ], [ 404519.63377416075673, 3784369.37945066113025 ], [ 404521.770091556478292, 3784367.243133265525103 ], [ 404522.075279755867086, 3784367.243133265525103 ], [ 404522.380467955255881, 3784366.937945066019893 ], [ 404525.432349949143827, 3784366.937945066019893 ], [ 404525.737538148532622, 3784367.243133265525103 ], [ 404525.737538148532622, 3784367.548321465030313 ], [ 404525.432349949143827, 3784367.853509664069861 ], [ 404525.432349949143827, 3784368.769074262585491 ], [ 404525.127161749755032, 3784369.07426246162504 ], [ 404525.127161749755032, 3784369.684638860635459 ], [ 404524.821973550366238, 3784369.989827060140669 ], [ 404524.821973550366238, 3784370.295015259180218 ], [ 404524.516785350977443, 3784370.600203458685428 ], [ 404524.516785350977443, 3784370.905391658190638 ], [ 404521.770091556478292, 3784373.652085452806205 ], [ 404521.464903357089497, 3784373.652085452806205 ], [ 404520.549338758923113, 3784374.567650050856173 ], [ 404519.938962360145524, 3784374.567650050856173 ], [ 404519.63377416075673, 3784374.872838250361383 ], [ 404518.718209562590346, 3784374.872838250361383 ] ] ] } },
{ "type": "Feature", "properties": { "confidence": 0.33158773183822632, "class": 1 }, "geometry": { "type": "Polygon", "coordinates": [ [ [ 404515.666327568644192, 3784397.151576805859804 ], [ 404515.361139369255397, 3784396.846388606354594 ], [ 404515.055951169866603, 3784396.846388606354594 ], [ 404514.445574771089014, 3784396.236012207344174 ], [ 404514.445574771089014, 3784395.930824008304626 ], [ 404514.140386571700219, 3784395.625635808799416 ], [ 404514.140386571700219, 3784391.963377416133881 ], [ 404514.445574771089014, 3784391.658189216628671 ], [ 404514.445574771089014, 3784390.437436419073492 ], [ 404515.361139369255397, 3784389.521871821023524 ], [ 404515.666327568644192, 3784389.521871821023524 ], [ 404516.276703967421781, 3784388.911495422013104 ], [ 404516.276703967421781, 3784388.606307222973555 ], [ 404516.88708036619937, 3784387.995930823963135 ], [ 404518.413021363201551, 3784387.995930823963135 ], [ 404518.718209562590346, 3784388.301119023468345 ], [ 404520.549338758923113, 3784388.301119023468345 ], [ 404520.854526958311908, 3784388.606307222973555 ], [ 404521.159715157700703, 3784388.606307222973555 ], [ 404521.770091556478292, 3784389.216683621518314 ], [ 404521.770091556478292, 3784389.827060020528734 ], [ 404522.075279755867086, 3784390.132248219568282 ], [ 404522.075279755867086, 3784393.794506612233818 ], [ 404521.770091556478292, 3784394.099694811739028 ], [ 404521.159715157700703, 3784394.099694811739028 ], [ 404520.854526958311908, 3784394.404883011244237 ], [ 404520.244150559534319, 3784394.404883011244237 ], [ 404519.938962360145524, 3784394.710071210749447 ], [ 404519.02339776197914, 3784394.710071210749447 ], [ 404518.413021363201551, 3784395.320447609294206 ], [ 404518.107833163812757, 3784395.320447609294206 ], [ 404516.276703967421781, 3784397.151576805859804 ], [ 404515.666327568644192, 3784397.151576805859804 ] ] ] } },
{ "type": "Feature", "properties": { "confidence": 0.32332959771156311, "class": 1 }, "geometry": { "type": "Polygon", "coordinates": [ [ [ 404414.038657171942759, 3784284.23194303130731 ], [ 404414.038657171942759, 3784283.926754832267761 ], [ 404414.343845371331554, 3784283.621566632762551 ], [ 404414.343845371331554, 3784282.706002034712583 ], [ 404414.649033570720349, 3784282.400813835207373 ], [ 404414.649033570720349, 3784281.485249237157404 ], [ 404414.954221770109143, 3784281.180061037652194 ], [ 404414.954221770109143, 3784280.874872838146985 ], [ 404415.259409969497938, 3784280.569684638641775 ], [ 404415.259409969497938, 3784279.348931841086596 ], [ 404415.564598168886732, 3784279.043743642047048 ], [ 404415.564598168886732, 3784278.738555442541838 ], [ 404415.869786368275527, 3784278.433367243036628 ], [ 404415.869786368275527, 3784277.822990844491869 ], [ 404416.174974567664322, 3784277.517802644986659 ], [ 404416.174974567664322, 3784277.212614445481449 ], [ 404416.480162767053116, 3784276.907426245976239 ], [ 404416.480162767053116, 3784276.602238046936691 ], [ 404416.785350966441911, 3784276.297049847431481 ], [ 404416.785350966441911, 3784275.991861647926271 ], [ 404417.3957273652195, 3784275.991861647926271 ], [ 404417.700915564608295, 3784275.686673448421061 ], [ 404419.837232960329857, 3784275.686673448421061 ], [ 404420.447609359107446, 3784276.297049847431481 ], [ 404420.447609359107446, 3784277.822990844491869 ], [ 404420.752797558496241, 3784278.128179043531418 ], [ 404420.752797558496241, 3784280.569684638641775 ], [ 404420.447609359107446, 3784280.874872838146985 ], [ 404420.447609359107446, 3784281.180061037652194 ], [ 404420.142421159718651, 3784281.485249237157404 ], [ 404419.837232960329857, 3784281.485249237157404 ], [ 404419.532044760941062, 3784281.790437436196953 ], [ 404419.226856561552268, 3784281.790437436196953 ], [ 404418.921668362163473, 3784282.095625635702163 ], [ 404418.616480162774678, 3784282.095625635702163 ], [ 404418.006103763997089, 3784282.706002034712583 ], [ 404418.006103763997089, 3784283.011190233752131 ], [ 404417.700915564608295, 3784283.011190233752131 ], [ 404417.3957273652195, 3784283.316378433257341 ], [ 404416.785350966441911, 3784283.316378433257341 ], [ 404416.174974567664322, 3784283.926754832267761 ], [ 404415.869786368275527, 3784283.926754832267761 ], [ 404415.564598168886732, 3784284.23194303130731 ], [ 404414.038657171942759, 3784284.23194303130731 ] ] ] } },
{ "type": "Feature", "properties": { "confidence": 0.3226485550403595, "class": 1 }, "geometry": { "type": "Polygon", "coordinates": [ [ [ 404493.082400813815184, 3784321.159715157467872 ], [ 404492.777212614426389, 3784320.854526958428323 ], [ 404492.777212614426389, 3784320.549338758923113 ], [ 404492.472024415037595, 3784320.244150559417903 ], [ 404492.472024415037595, 3784319.938962359912694 ], [ 404492.1668362156488, 3784319.633774160873145 ], [ 404492.1668362156488, 3784315.36113936919719 ], [ 404492.472024415037595, 3784315.05595116969198 ], [ 404492.472024415037595, 3784314.750762970652431 ], [ 404493.387589013203979, 3784313.835198372136801 ], [ 404493.692777212592773, 3784313.835198372136801 ], [ 404493.997965411981568, 3784313.530010173097253 ], [ 404494.608341810759157, 3784313.530010173097253 ], [ 404495.218718209536746, 3784314.140386571642011 ], [ 404495.218718209536746, 3784314.445574771147221 ], [ 404495.829094608314335, 3784315.05595116969198 ], [ 404496.13428280770313, 3784315.05595116969198 ], [ 404496.13428280770313, 3784315.6663275687024 ], [ 404496.439471007150132, 3784315.97151576820761 ], [ 404496.439471007150132, 3784318.413021363317966 ], [ 404496.13428280770313, 3784318.718209562357515 ], [ 404496.13428280770313, 3784319.023397761862725 ], [ 404495.523906408925541, 3784319.633774160873145 ], [ 404495.523906408925541, 3784319.938962359912694 ], [ 404494.303153611370362, 3784321.159715157467872 ], [ 404493.082400813815184, 3784321.159715157467872 ] ] ] } },
{ "type": "Feature", "properties": { "confidence": 0.32001513242721558, "class": 1 }, "geometry": { "type": "Polygon", "coordinates": [ [ [ 404552.594099694804754, 3784337.639877924695611 ], [ 404551.373346897249576, 3784336.419125127140433 ], [ 404551.373346897249576, 3784336.113936927635223 ], [ 404551.068158697860781, 3784335.808748728595674 ], [ 404551.068158697860781, 3784335.198372329585254 ], [ 404550.762970498471987, 3784334.893184130080044 ], [ 404550.762970498471987, 3784334.587995931040496 ], [ 404550.457782299083192, 3784334.282807731535286 ], [ 404550.457782299083192, 3784333.367243133485317 ], [ 404550.762970498471987, 3784333.062054933980107 ], [ 404550.762970498471987, 3784332.756866734474897 ], [ 404551.373346897249576, 3784332.756866734474897 ], [ 404551.67853509663837, 3784333.062054933980107 ], [ 404551.983723296027165, 3784333.062054933980107 ], [ 404552.28891149541596, 3784333.367243133485317 ], [ 404552.899287894193549, 3784333.367243133485317 ], [ 404553.204476093582343, 3784333.672431332524866 ], [ 404553.509664292971138, 3784333.672431332524866 ], [ 404553.814852492359933, 3784333.977619532030076 ], [ 404553.814852492359933, 3784334.282807731535286 ], [ 404554.120040691748727, 3784334.587995931040496 ], [ 404554.120040691748727, 3784335.808748728595674 ], [ 404553.814852492359933, 3784336.113936927635223 ], [ 404553.814852492359933, 3784337.029501526150852 ], [ 404553.204476093582343, 3784337.639877924695611 ], [ 404552.594099694804754, 3784337.639877924695611 ] ] ] } },
{ "type": "Feature", "properties": { "confidence": 0.30946230888366699, "class": 1 }, "geometry": { "type": "Polygon", "coordinates": [ [ [ 404544.659206510696094, 3784437.741607324685901 ], [ 404544.048830111918505, 3784437.131230925675482 ], [ 404544.048830111918505, 3784436.215666327625513 ], [ 404543.743641912529711, 3784435.910478128120303 ], [ 404543.743641912529711, 3784434.994913530070335 ], [ 404543.438453713140916, 3784434.689725330565125 ], [ 404543.438453713140916, 3784433.774160732515156 ], [ 404542.828077314363327, 3784433.163784333504736 ], [ 404542.828077314363327, 3784431.637843336910009 ], [ 404543.438453713140916, 3784431.02746693789959 ], [ 404544.048830111918505, 3784431.02746693789959 ], [ 404544.3540183113073, 3784430.72227873839438 ], [ 404544.964394710084889, 3784430.72227873839438 ], [ 404545.269582909473684, 3784431.02746693789959 ], [ 404546.490335707028862, 3784431.02746693789959 ], [ 404547.100712105806451, 3784431.637843336910009 ], [ 404547.405900305195246, 3784431.637843336910009 ], [ 404547.405900305195246, 3784431.943031535949558 ], [ 404548.626653102750424, 3784433.163784333504736 ], [ 404548.931841302139219, 3784433.163784333504736 ], [ 404549.237029501528013, 3784433.468972533009946 ], [ 404549.237029501528013, 3784433.774160732515156 ], [ 404549.542217700916808, 3784434.079348932020366 ], [ 404549.542217700916808, 3784434.384537131059915 ], [ 404549.237029501528013, 3784434.689725330565125 ], [ 404549.237029501528013, 3784434.994913530070335 ], [ 404548.931841302139219, 3784435.300101729575545 ], [ 404548.931841302139219, 3784435.605289928615093 ], [ 404547.100712105806451, 3784437.436419125180691 ], [ 404546.185147507640067, 3784437.436419125180691 ], [ 404545.879959308251273, 3784437.741607324685901 ], [ 404544.659206510696094, 3784437.741607324685901 ] ] ] } },
{ "type": "Feature", "properties": { "confidence": 0.29487767815589905, "class": 1 }, "geometry": { "type": "Polygon", "coordinates": [ [ [ 404554.120040691748727, 3784228.992878941819072 ], [ 404553.814852492359933, 3784228.687690742779523 ], [ 404553.814852492359933, 3784224.720244150608778 ], [ 404554.120040691748727, 3784224.720244150608778 ], [ 404555.340793489303906, 3784223.4994913530536 ], [ 404555.951169888081495, 3784223.4994913530536 ], [ 404555.951169888081495, 3784228.992878941819072 ], [ 404554.120040691748727, 3784228.992878941819072 ] ] ] } },
{ "type": "Feature", "properties": { "confidence": 0.29378595948219299, "class": 1 }, "geometry": { "type": "Polygon", "coordinates": [ [ [ 404461.037639877933543, 3784415.46286876918748 ], [ 404460.732451678544749, 3784415.15768056968227 ], [ 404460.732451678544749, 3784413.631739572621882 ], [ 404461.037639877933543, 3784413.326551373116672 ], [ 404461.037639877933543, 3784412.716174974571913 ], [ 404461.342828077322338, 3784412.410986775066704 ], [ 404461.342828077322338, 3784410.274669379461557 ], [ 404464.394710071210284, 3784410.274669379461557 ], [ 404464.089521871821489, 3784410.579857578966767 ], [ 404464.089521871821489, 3784411.190233977511525 ], [ 404463.4791454730439, 3784411.800610376521945 ], [ 404463.4791454730439, 3784412.105798575561494 ], [ 404462.563580874877516, 3784413.021363174077123 ], [ 404462.563580874877516, 3784413.936927772127092 ], [ 404462.258392675488722, 3784414.242115971632302 ], [ 404462.258392675488722, 3784414.85249237017706 ], [ 404461.953204476099927, 3784415.15768056968227 ], [ 404461.953204476099927, 3784415.46286876918748 ], [ 404461.037639877933543, 3784415.46286876918748 ] ] ] } },
{ "type": "Feature", "properties": { "confidence": 0.28959199786186218, "class": 1 }, "geometry": { "type": "Polygon", "coordinates": [ [ [ 404462.563580874877516, 3784440.488301118835807 ], [ 404462.258392675488722, 3784440.183112919796258 ], [ 404461.648016276711132, 3784440.183112919796258 ], [ 404461.648016276711132, 3784439.877924720291048 ], [ 404461.342828077322338, 3784439.572736520785838 ], [ 404461.342828077322338, 3784438.35198372323066 ], [ 404461.037639877933543, 3784438.04679552372545 ], [ 404461.037639877933543, 3784437.436419125180691 ], [ 404460.732451678544749, 3784437.131230925675482 ], [ 404460.732451678544749, 3784436.520854527130723 ], [ 404460.427263479155954, 3784436.215666327625513 ], [ 404460.427263479155954, 3784435.300101729575545 ], [ 404460.732451678544749, 3784434.994913530070335 ], [ 404461.342828077322338, 3784434.994913530070335 ], [ 404461.648016276711132, 3784434.689725330565125 ], [ 404463.784333672432695, 3784434.689725330565125 ], [ 404463.784333672432695, 3784435.300101729575545 ], [ 404463.4791454730439, 3784435.605289928615093 ], [ 404463.4791454730439, 3784436.215666327625513 ], [ 404464.089521871821489, 3784436.826042726170272 ], [ 404464.089521871821489, 3784437.131230925675482 ], [ 404464.394710071210284, 3784437.436419125180691 ], [ 404464.394710071210284, 3784437.741607324685901 ], [ 404464.699898270599078, 3784438.04679552372545 ], [ 404464.699898270599078, 3784438.65717192273587 ], [ 404465.005086469987873, 3784438.96236012224108 ], [ 404464.699898270599078, 3784439.267548321280628 ], [ 404464.699898270599078, 3784439.877924720291048 ], [ 404464.089521871821489, 3784440.488301118835807 ], [ 404462.563580874877516, 3784440.488301118835807 ] ] ] } },
{ "type": "Feature", "properties": { "confidence": 0.28405329585075378, "class": 1 }, "geometry": { "type": "Polygon", "coordinates": [ [ [ 404562.970498474081978, 3784223.4994913530536 ], [ 404562.665310274693184, 3784223.19430315354839 ], [ 404562.360122075304389, 3784223.19430315354839 ], [ 404562.054933875915594, 3784222.88911495404318 ], [ 404561.7497456765268, 3784222.88911495404318 ], [ 404561.444557477138005, 3784222.583926755003631 ], [ 404561.139369277749211, 3784222.583926755003631 ], [ 404560.528992878913414, 3784221.973550355993211 ], [ 404560.528992878913414, 3784221.668362156488001 ], [ 404559.918616480135825, 3784221.057985757943243 ], [ 404559.918616480135825, 3784220.447609358932823 ], [ 404559.61342828074703, 3784220.142421159893274 ], [ 404559.61342828074703, 3784219.837232960388064 ], [ 404559.308240081358235, 3784219.532044760882854 ], [ 404559.308240081358235, 3784219.226856561377645 ], [ 404559.003051881969441, 3784218.921668362338096 ], [ 404559.003051881969441, 3784218.616480162832886 ], [ 404558.697863682580646, 3784218.311291963327676 ], [ 404558.697863682580646, 3784217.395727365277708 ], [ 404558.392675483191852, 3784217.090539165772498 ], [ 404558.697863682580646, 3784216.785350966267288 ], [ 404558.697863682580646, 3784216.480162767227739 ], [ 404559.308240081358235, 3784216.480162767227739 ], [ 404559.61342828074703, 3784216.174974567722529 ], [ 404561.7497456765268, 3784216.174974567722529 ], [ 404562.054933875915594, 3784216.480162767227739 ], [ 404562.054933875915594, 3784217.700915564782917 ], [ 404562.665310274693184, 3784218.311291963327676 ], [ 404562.665310274693184, 3784218.616480162832886 ], [ 404562.970498474081978, 3784218.921668362338096 ], [ 404562.970498474081978, 3784219.226856561377645 ], [ 404563.275686673470773, 3784219.532044760882854 ], [ 404563.275686673470773, 3784219.837232960388064 ], [ 404563.886063072248362, 3784220.447609358932823 ], [ 404563.886063072248362, 3784220.752797558438033 ], [ 404564.191251271637157, 3784221.057985757943243 ], [ 404564.191251271637157, 3784221.363173957448453 ], [ 404564.496439471025951, 3784221.668362156488001 ], [ 404564.496439471025951, 3784223.4994913530536 ], [ 404562.970498474081978, 3784223.4994913530536 ] ] ] } },
{ "type": "Feature", "properties": { "confidence": 0.27720823884010315, "class": 1 }, "geometry": { "type": "Polygon", "coordinates": [ [ [ 404518.413021363201551, 3784478.026449644006789 ], [ 404518.107833163812757, 3784477.721261444501579 ], [ 404518.107833163812757, 3784476.5005086469464 ], [ 404518.413021363201551, 3784476.19532044744119 ], [ 404518.413021363201551, 3784475.584944048896432 ], [ 404518.718209562590346, 3784475.279755849391222 ], [ 404518.718209562590346, 3784474.059003051836044 ], [ 404518.413021363201551, 3784473.753814852330834 ], [ 404518.718209562590346, 3784473.448626653291285 ], [ 404518.718209562590346, 3784471.922685656230897 ], [ 404518.413021363201551, 3784471.617497456725687 ], [ 404519.63377416075673, 3784471.617497456725687 ], [ 404519.938962360145524, 3784471.922685656230897 ], [ 404520.244150559534319, 3784471.922685656230897 ], [ 404522.075279755867086, 3784473.753814852330834 ], [ 404522.380467955255881, 3784473.753814852330834 ], [ 404522.380467955255881, 3784474.059003051836044 ], [ 404522.685656154644676, 3784474.364191251341254 ], [ 404522.685656154644676, 3784474.974567649886012 ], [ 404522.380467955255881, 3784475.279755849391222 ], [ 404522.380467955255881, 3784475.584944048896432 ], [ 404522.075279755867086, 3784475.584944048896432 ], [ 404520.549338758923113, 3784477.11088504595682 ], [ 404520.244150559534319, 3784477.11088504595682 ], [ 404519.63377416075673, 3784477.721261444501579 ], [ 404519.328585961367935, 3784477.721261444501579 ], [ 404519.02339776197914, 3784478.026449644006789 ], [ 404518.413021363201551, 3784478.026449644006789 ] ] ] } },
{ "type": "Feature", "properties": { "confidence": 0.25368097424507141, "class": 1 }, "geometry": { "type": "Polygon", "coordinates": [ [ [ 404553.814852492359933, 3784228.687690742779523 ], [ 404553.509664292971138, 3784228.382502543274313 ], [ 404553.509664292971138, 3784225.330620549153537 ], [ 404553.814852492359933, 3784225.025432350113988 ], [ 404553.814852492359933, 3784224.720244150608778 ], [ 404554.120040691748727, 3784224.720244150608778 ], [ 404554.730417090526316, 3784224.109867751598358 ], [ 404555.340793489303906, 3784224.109867751598358 ], [ 404555.6459816886927, 3784223.80467955255881 ], [ 404555.951169888081495, 3784224.109867751598358 ], [ 404558.697863682580646, 3784224.109867751598358 ], [ 404558.697863682580646, 3784224.720244150608778 ], [ 404559.003051881969441, 3784225.025432350113988 ], [ 404559.003051881969441, 3784226.246185147669166 ], [ 404558.697863682580646, 3784226.551373346708715 ], [ 404558.697863682580646, 3784227.161749745719135 ], [ 404557.782299084414262, 3784228.077314343769103 ], [ 404557.171922685636673, 3784228.077314343769103 ], [ 404556.866734486247879, 3784228.382502543274313 ], [ 404556.256358087470289, 3784228.382502543274313 ], [ 404555.951169888081495, 3784228.687690742779523 ], [ 404553.814852492359933, 3784228.687690742779523 ] ] ] } },
{ "type": "Feature", "properties": { "confidence": 0.25033071637153625, "class": 1 }, "geometry": { "type": "Polygon", "coordinates": [ [ [ 404533.977619532030076, 3784314.750762970652431 ], [ 404533.672431332641281, 3784314.445574771147221 ], [ 404533.367243133252487, 3784314.445574771147221 ], [ 404533.062054933863692, 3784314.140386571642011 ], [ 404533.062054933863692, 3784311.393692777026445 ], [ 404533.367243133252487, 3784311.088504577986896 ], [ 404533.367243133252487, 3784310.478128178976476 ], [ 404533.672431332641281, 3784310.478128178976476 ], [ 404533.977619532030076, 3784310.172939979471266 ], [ 404535.808748728362843, 3784310.172939979471266 ], [ 404536.113936927751638, 3784310.478128178976476 ], [ 404536.113936927751638, 3784311.088504577986896 ], [ 404536.419125127140433, 3784311.393692777026445 ], [ 404536.419125127140433, 3784311.698880976531655 ], [ 404536.113936927751638, 3784312.004069176036865 ], [ 404536.113936927751638, 3784312.919633774086833 ], [ 404535.808748728362843, 3784313.224821973592043 ], [ 404535.808748728362843, 3784313.835198372136801 ], [ 404535.198372329585254, 3784314.445574771147221 ], [ 404534.587995930807665, 3784314.445574771147221 ], [ 404534.28280773141887, 3784314.750762970652431 ], [ 404533.977619532030076, 3784314.750762970652431 ] ] ] } }
]
}
