{
"type": "FeatureCollection",
"name": "cell_00105_pre",
"crs": { "type": "name", "properties": { "name": "urn:ogc:def:crs:EPSG::32611" } },
"features": [
{ "type": "Feature", "properties": { "confidence": 0.99616724252700806, "class": 1 }, "geometry": { "type": "Polygon", "coordinates": [ [ [ 352257.375381485268008, 3771010.071210579946637 ], [ 352257.070193285879213, 3771009.766022380441427 ], [ 352256.765005086490419, 3771009.766022380441427 ], [ 352256.459816887101624, 3771009.460834180936217 ], [ 352256.15462868771283, 3771009.460834180936217 ], [ 352255.239064089546446, 3771008.545269582886249 ], [ 352254.933875890157651, 3771008.545269582886249 ], [ 352254.628687690768857, 3771008.240081383381039 ], [ 352254.628687690768857, 3771006.714140386786312 ], [ 352254.933875890157651, 3771006.408952187281102 ], [ 352254.933875890157651, 3771006.103763987775892 ], [ 352255.849440488324035, 3771005.188199389725924 ], [ 352255.849440488324035, 3771004.883011190220714 ], [ 352256.15462868771283, 3771004.577822990715504 ], [ 352256.15462868771283, 3771004.272634791675955 ], [ 352256.765005086490419, 3771003.662258392665535 ], [ 352258.901322482211981, 3771003.662258392665535 ], [ 352259.206510681600776, 3771003.967446592170745 ], [ 352260.427263479155954, 3771003.967446592170745 ], [ 352260.732451678544749, 3771004.272634791675955 ], [ 352260.732451678544749, 3771007.019328585825861 ], [ 352260.427263479155954, 3771007.32451678533107 ], [ 352260.427263479155954, 3771007.93489318434149 ], [ 352260.122075279767159, 3771008.240081383381039 ], [ 352260.122075279767159, 3771008.545269582886249 ], [ 352259.816887080378365, 3771008.850457782391459 ], [ 352259.816887080378365, 3771009.155645981896669 ], [ 352259.206510681600776, 3771009.766022380441427 ], [ 352258.901322482211981, 3771009.766022380441427 ], [ 352258.596134282823186, 3771010.071210579946637 ], [ 352257.375381485268008, 3771010.071210579946637 ] ] ] } },
{ "type": "Feature", "properties": { "confidence": 0.99370050430297852, "class": 1 }, "geometry": { "type": "Polygon", "coordinates": [ [ [ 352388.301119023410138, 3771131.230925737414509 ], [ 352388.301119023410138, 3771130.92573753837496 ], [ 352387.995930824021343, 3771130.62054933886975 ], [ 352387.995930824021343, 3771129.704984740819782 ], [ 352387.690742624632549, 3771129.399796541314572 ], [ 352387.690742624632549, 3771124.821973550133407 ], [ 352387.995930824021343, 3771124.516785351093858 ], [ 352387.995930824021343, 3771123.906408952083439 ], [ 352388.606307222798932, 3771123.29603255353868 ], [ 352388.911495422187727, 3771123.29603255353868 ], [ 352389.216683621576522, 3771122.99084435403347 ], [ 352389.521871820965316, 3771122.99084435403347 ], [ 352389.827060020354111, 3771122.68565615452826 ], [ 352390.132248219742905, 3771122.68565615452826 ], [ 352390.4374364191317, 3771122.38046795502305 ], [ 352390.742624618520495, 3771122.38046795502305 ], [ 352391.047812817909289, 3771122.075279755983502 ], [ 352391.963377416075673, 3771122.075279755983502 ], [ 352392.268565615464468, 3771121.770091556478292 ], [ 352393.794506612408441, 3771121.770091556478292 ], [ 352394.099694811797235, 3771122.075279755983502 ], [ 352394.710071210574824, 3771122.075279755983502 ], [ 352394.710071210574824, 3771122.68565615452826 ], [ 352395.625635808741208, 3771123.601220752578229 ], [ 352395.625635808741208, 3771123.906408952083439 ], [ 352395.930824008130003, 3771124.211597151588649 ], [ 352395.930824008130003, 3771124.516785351093858 ], [ 352396.236012207518797, 3771124.821973550133407 ], [ 352396.236012207518797, 3771125.127161749638617 ], [ 352396.541200406907592, 3771125.432349949143827 ], [ 352396.541200406907592, 3771126.042726347688586 ], [ 352396.846388606296387, 3771126.347914547193795 ], [ 352396.846388606296387, 3771126.958290946204215 ], [ 352397.151576805685181, 3771127.263479145243764 ], [ 352397.151576805685181, 3771128.179043743759394 ], [ 352397.456765005073976, 3771128.484231942798942 ], [ 352397.456765005073976, 3771131.230925737414509 ], [ 352388.301119023410138, 3771131.230925737414509 ] ] ] } },
{ "type": "Feature", "properties": { "confidence": 0.97110331058502197, "class": 1 }, "geometry": { "type": "Polygon", "coordinates": [ [ [ 352355.6459816886927, 3771577.721261444501579 ], [ 352355.340793489303906, 3771577.416073244996369 ], [ 352355.035605289915111, 3771577.416073244996369 ], [ 352354.730417090526316, 3771577.11088504595682 ], [ 352354.730417090526316, 3771574.974567649886012 ], [ 352355.035605289915111, 3771574.669379450846463 ], [ 352355.035605289915111, 3771574.364191251341254 ], [ 352355.951169888081495, 3771573.448626653291285 ], [ 352356.256358087470289, 3771573.448626653291285 ], [ 352357.171922685636673, 3771572.533062054775655 ], [ 352357.171922685636673, 3771572.227873855736107 ], [ 352358.087487283803057, 3771571.312309257220477 ], [ 352358.392675483191852, 3771571.312309257220477 ], [ 352359.003051881969441, 3771570.701932858675718 ], [ 352359.308240081358235, 3771570.701932858675718 ], [ 352360.834181078360416, 3771569.17599186161533 ], [ 352360.834181078360416, 3771568.87080366211012 ], [ 352362.054933875915594, 3771568.87080366211012 ], [ 352362.360122075304389, 3771568.565615463070571 ], [ 352362.665310274693184, 3771568.565615463070571 ], [ 352362.970498474081978, 3771568.87080366211012 ], [ 352363.275686673470773, 3771568.87080366211012 ], [ 352363.275686673470773, 3771569.17599186161533 ], [ 352363.580874872859567, 3771569.48118006112054 ], [ 352363.580874872859567, 3771569.78636826062575 ], [ 352363.275686673470773, 3771570.091556459665298 ], [ 352363.275686673470773, 3771572.227873855736107 ], [ 352362.970498474081978, 3771572.533062054775655 ], [ 352362.970498474081978, 3771573.143438453786075 ], [ 352362.665310274693184, 3771573.448626653291285 ], [ 352362.665310274693184, 3771573.753814852330834 ], [ 352361.139369277749211, 3771575.279755849391222 ], [ 352360.834181078360416, 3771575.279755849391222 ], [ 352360.223804679524619, 3771575.890132248401642 ], [ 352359.918616480135825, 3771575.890132248401642 ], [ 352359.003051881969441, 3771576.80569684645161 ], [ 352358.697863682580646, 3771576.80569684645161 ], [ 352358.392675483191852, 3771577.11088504595682 ], [ 352358.087487283803057, 3771577.11088504595682 ], [ 352357.782299084414262, 3771577.416073244996369 ], [ 352356.866734486247879, 3771577.416073244996369 ], [ 352356.561546286859084, 3771577.721261444501579 ], [ 352355.6459816886927, 3771577.721261444501579 ] ] ] } },
{ "type": "Feature", "properties": { "confidence": 0.94915860891342163, "class": 1 }, "geometry": { "type": "Polygon", "coordinates": [ [ [ 352296.13428280770313, 3771369.582909460645169 ], [ 352295.523906408925541, 3771368.97253306210041 ], [ 352295.218718209536746, 3771368.97253306210041 ], [ 352294.913530010147952, 3771368.667344862595201 ], [ 352294.913530010147952, 3771368.362156663089991 ], [ 352294.303153611370362, 3771367.751780264545232 ], [ 352294.303153611370362, 3771367.446592065040022 ], [ 352293.387589013203979, 3771366.531027466990054 ], [ 352293.387589013203979, 3771366.225839267484844 ], [ 352292.472024415037595, 3771365.310274669434875 ], [ 352292.472024415037595, 3771364.699898270424455 ], [ 352292.1668362156488, 3771364.394710071384907 ], [ 352292.1668362156488, 3771364.089521871879697 ], [ 352291.861648016260006, 3771363.784333672374487 ], [ 352291.861648016260006, 3771363.479145472869277 ], [ 352291.556459816871211, 3771363.173957273829728 ], [ 352291.556459816871211, 3771362.563580874819309 ], [ 352291.251271617482416, 3771362.258392675314099 ], [ 352291.251271617482416, 3771361.34282807726413 ], [ 352290.946083418093622, 3771361.03763987775892 ], [ 352290.946083418093622, 3771360.427263479214162 ], [ 352291.251271617482416, 3771360.122075279708952 ], [ 352291.251271617482416, 3771359.206510681658983 ], [ 352292.1668362156488, 3771358.290946083609015 ], [ 352292.472024415037595, 3771358.290946083609015 ], [ 352292.777212614426389, 3771357.985757884103805 ], [ 352293.997965411981568, 3771357.985757884103805 ], [ 352294.303153611370362, 3771357.680569684598595 ], [ 352294.608341810759157, 3771357.680569684598595 ], [ 352294.913530010147952, 3771357.985757884103805 ], [ 352295.829094608314335, 3771357.985757884103805 ], [ 352297.049847405927721, 3771359.206510681658983 ], [ 352297.049847405927721, 3771359.816887080203742 ], [ 352297.660223804705311, 3771360.427263479214162 ], [ 352297.660223804705311, 3771360.732451678719372 ], [ 352300.101729399815667, 3771363.173957273829728 ], [ 352300.406917599204462, 3771363.173957273829728 ], [ 352301.322482197370846, 3771364.089521871879697 ], [ 352301.322482197370846, 3771364.394710071384907 ], [ 352301.62767039675964, 3771364.699898270424455 ], [ 352301.62767039675964, 3771366.836215666495264 ], [ 352300.712105798593257, 3771367.751780264545232 ], [ 352300.406917599204462, 3771367.751780264545232 ], [ 352299.796541200426873, 3771368.362156663089991 ], [ 352299.186164801649284, 3771368.362156663089991 ], [ 352298.575788402871694, 3771368.97253306210041 ], [ 352298.2706002034829, 3771368.97253306210041 ], [ 352297.965412004094105, 3771369.27772126160562 ], [ 352297.355035605316516, 3771369.27772126160562 ], [ 352297.049847405927721, 3771369.582909460645169 ], [ 352296.13428280770313, 3771369.582909460645169 ] ] ] } },
{ "type": "Feature", "properties": { "confidence": 0.93481624126434326, "class": 1 }, "geometry": { "type": "Polygon", "coordinates": [ [ [ 352327.568667344865389, 3771141.607324516866356 ], [ 352327.263479145476595, 3771141.302136317361146 ], [ 352326.347914547310211, 3771141.302136317361146 ], [ 352326.042726347921416, 3771140.996948117855936 ], [ 352325.737538148532622, 3771140.996948117855936 ], [ 352325.432349949143827, 3771140.691759918816388 ], [ 352324.821973550366238, 3771140.691759918816388 ], [ 352324.516785350977443, 3771140.386571719311178 ], [ 352323.906408952199854, 3771140.386571719311178 ], [ 352322.380467955255881, 3771138.860630722250789 ], [ 352322.380467955255881, 3771138.555442522745579 ], [ 352322.075279755867086, 3771138.250254323706031 ], [ 352322.075279755867086, 3771137.945066124200821 ], [ 352321.770091556478292, 3771137.639877924695611 ], [ 352321.770091556478292, 3771136.113936927635223 ], [ 352322.380467955255881, 3771135.503560529090464 ], [ 352322.685656154644676, 3771135.503560529090464 ], [ 352323.296032553422265, 3771134.893184130080044 ], [ 352323.601220752811059, 3771134.893184130080044 ], [ 352324.211597151588649, 3771134.282807731535286 ], [ 352325.432349949143827, 3771134.282807731535286 ], [ 352325.737538148532622, 3771133.977619532030076 ], [ 352328.484231943031773, 3771133.977619532030076 ], [ 352328.789420142420568, 3771134.282807731535286 ], [ 352329.704984740586951, 3771134.282807731535286 ], [ 352330.620549338753335, 3771135.198372329585254 ], [ 352330.620549338753335, 3771135.503560529090464 ], [ 352330.92573753814213, 3771135.808748728595674 ], [ 352330.92573753814213, 3771136.113936927635223 ], [ 352331.230925737530924, 3771136.419125127140433 ], [ 352331.230925737530924, 3771136.724313326645643 ], [ 352331.536113936919719, 3771137.029501526150852 ], [ 352331.536113936919719, 3771140.081383519805968 ], [ 352330.92573753814213, 3771140.691759918816388 ], [ 352330.620549338753335, 3771140.691759918816388 ], [ 352330.315361139364541, 3771140.996948117855936 ], [ 352330.010172939975746, 3771140.996948117855936 ], [ 352329.704984740586951, 3771141.302136317361146 ], [ 352329.399796541198157, 3771141.302136317361146 ], [ 352329.094608341809362, 3771141.607324516866356 ], [ 352327.568667344865389, 3771141.607324516866356 ] ] ] } },
{ "type": "Feature", "properties": { "confidence": 0.92090898752212524, "class": 1 }, "geometry": { "type": "Polygon", "coordinates": [ [ [ 352376.398779247188941, 3771590.233977619558573 ], [ 352376.093591047800146, 3771589.928789420053363 ], [ 352373.652085452689789, 3771589.928789420053363 ], [ 352373.346897253300995, 3771589.623601220548153 ], [ 352371.820956256357022, 3771589.623601220548153 ], [ 352371.515768056968227, 3771589.318413021508604 ], [ 352371.515768056968227, 3771587.792472024448216 ], [ 352371.820956256357022, 3771587.487283824943006 ], [ 352371.820956256357022, 3771585.961342827882618 ], [ 352372.126144455745816, 3771585.656154628843069 ], [ 352372.126144455745816, 3771583.825025432277471 ], [ 352372.431332655134611, 3771583.519837232772261 ], [ 352372.431332655134611, 3771583.214649033732712 ], [ 352372.736520854523405, 3771582.909460834227502 ], [ 352372.736520854523405, 3771582.604272634722292 ], [ 352373.0417090539122, 3771582.604272634722292 ], [ 352374.872838250244968, 3771580.773143438622355 ], [ 352374.872838250244968, 3771580.467955239117146 ], [ 352375.788402848411351, 3771579.552390641067177 ], [ 352376.093591047800146, 3771579.552390641067177 ], [ 352376.398779247188941, 3771579.247202441561967 ], [ 352377.00915564596653, 3771579.247202441561967 ], [ 352377.314343845355324, 3771579.552390641067177 ], [ 352377.619532044744119, 3771579.552390641067177 ], [ 352377.924720244132914, 3771579.857578840106726 ], [ 352378.229908443521708, 3771579.857578840106726 ], [ 352378.535096642910503, 3771580.162767039611936 ], [ 352378.840284842299297, 3771580.162767039611936 ], [ 352378.840284842299297, 3771581.078331637661904 ], [ 352379.450661241076887, 3771581.688708036672324 ], [ 352379.450661241076887, 3771581.993896236177534 ], [ 352379.755849440465681, 3771582.299084435217083 ], [ 352379.755849440465681, 3771583.214649033732712 ], [ 352380.061037639854476, 3771583.519837232772261 ], [ 352380.061037639854476, 3771589.623601220548153 ], [ 352379.450661241076887, 3771590.233977619558573 ], [ 352376.398779247188941, 3771590.233977619558573 ] ] ] } },
{ "type": "Feature", "properties": { "confidence": 0.8947150707244873, "class": 1 }, "geometry": { "type": "Polygon", "coordinates": [ [ [ 352317.192268565588165, 3771569.48118006112054 ], [ 352317.192268565588165, 3771563.377416073344648 ], [ 352317.802644964365754, 3771563.377416073344648 ], [ 352318.107833163812757, 3771563.072227873839438 ], [ 352322.99084435403347, 3771563.072227873839438 ], [ 352322.99084435403347, 3771566.734486266504973 ], [ 352322.685656154644676, 3771567.039674466010183 ], [ 352322.685656154644676, 3771567.650050864554942 ], [ 352322.380467955255881, 3771567.955239064060152 ], [ 352322.075279755867086, 3771567.955239064060152 ], [ 352321.464903357089497, 3771568.565615463070571 ], [ 352320.854526958311908, 3771568.565615463070571 ], [ 352320.549338758923113, 3771568.87080366211012 ], [ 352320.244150559534319, 3771568.87080366211012 ], [ 352319.938962360145524, 3771569.17599186161533 ], [ 352319.328585961367935, 3771569.17599186161533 ], [ 352319.02339776197914, 3771569.48118006112054 ], [ 352317.192268565588165, 3771569.48118006112054 ] ] ] } },
{ "type": "Feature", "properties": { "confidence": 0.8144298791885376, "class": 1 }, "geometry": { "type": "Polygon", "coordinates": [ [ [ 352396.236012207518797, 3771542.014242115896195 ], [ 352396.236012207518797, 3771541.709053916390985 ], [ 352395.930824008130003, 3771541.403865717351437 ], [ 352395.930824008130003, 3771540.793489318341017 ], [ 352395.015259409963619, 3771539.877924720291048 ], [ 352394.710071210574824, 3771539.877924720291048 ], [ 352394.099694811797235, 3771539.267548321280628 ], [ 352394.099694811797235, 3771538.35198372323066 ], [ 352394.710071210574824, 3771537.741607324685901 ], [ 352395.015259409963619, 3771537.741607324685901 ], [ 352395.320447609352414, 3771537.436419125180691 ], [ 352395.930824008130003, 3771537.436419125180691 ], [ 352396.236012207518797, 3771537.131230925675482 ], [ 352396.846388606296387, 3771537.131230925675482 ], [ 352397.151576805685181, 3771537.436419125180691 ], [ 352398.982706002017949, 3771537.436419125180691 ], [ 352399.287894201406743, 3771537.741607324685901 ], [ 352399.287894201406743, 3771538.04679552372545 ], [ 352399.593082400795538, 3771538.35198372323066 ], [ 352399.593082400795538, 3771540.793489318341017 ], [ 352398.982706002017949, 3771541.403865717351437 ], [ 352398.677517802629154, 3771541.403865717351437 ], [ 352398.37232960324036, 3771541.709053916390985 ], [ 352397.76195320446277, 3771541.709053916390985 ], [ 352397.456765005073976, 3771542.014242115896195 ], [ 352396.236012207518797, 3771542.014242115896195 ] ] ] } },
{ "type": "Feature", "properties": { "confidence": 0.79263061285018921, "class": 1 }, "geometry": { "type": "Polygon", "coordinates": [ [ [ 352232.960325534106232, 3771450.457782299257815 ], [ 352232.655137334717438, 3771450.152594099752605 ], [ 352232.349949135328643, 3771450.152594099752605 ], [ 352232.044760935881641, 3771449.847405900247395 ], [ 352232.044760935881641, 3771449.542217700742185 ], [ 352231.739572736492846, 3771449.237029501702636 ], [ 352231.739572736492846, 3771448.321464903187007 ], [ 352231.434384537104052, 3771448.016276704147458 ], [ 352231.434384537104052, 3771446.79552390659228 ], [ 352231.129196337715257, 3771446.49033570708707 ], [ 352231.129196337715257, 3771446.18514750758186 ], [ 352230.824008138326462, 3771445.87995930807665 ], [ 352230.824008138326462, 3771444.048830111976713 ], [ 352241.200406917603686, 3771444.048830111976713 ], [ 352241.200406917603686, 3771445.87995930807665 ], [ 352240.895218718214892, 3771446.18514750758186 ], [ 352240.895218718214892, 3771446.49033570708707 ], [ 352240.590030518826097, 3771446.79552390659228 ], [ 352240.284842319437303, 3771446.79552390659228 ], [ 352239.674465920659713, 3771447.405900305137038 ], [ 352239.369277721270919, 3771447.405900305137038 ], [ 352236.927772126160562, 3771449.847405900247395 ], [ 352236.927772126160562, 3771450.152594099752605 ], [ 352236.622583926771767, 3771450.457782299257815 ], [ 352232.960325534106232, 3771450.457782299257815 ] ] ] } },
{ "type": "Feature", "properties": { "confidence": 0.76809179782867432, "class": 1 }, "geometry": { "type": "Polygon", "coordinates": [ [ [ 352534.486266531050205, 3771085.14750762982294 ], [ 352533.875890132272616, 3771084.53713123081252 ], [ 352533.875890132272616, 3771084.23194303130731 ], [ 352533.570701932883821, 3771083.926754832267761 ], [ 352533.570701932883821, 3771082.095625635702163 ], [ 352533.265513733495027, 3771081.790437436196953 ], [ 352533.265513733495027, 3771078.128179043531418 ], [ 352533.570701932883821, 3771077.822990844491869 ], [ 352534.486266531050205, 3771077.822990844491869 ], [ 352534.791454730439, 3771077.517802644986659 ], [ 352536.012207527994178, 3771077.517802644986659 ], [ 352536.317395727382973, 3771077.822990844491869 ], [ 352536.927772126160562, 3771077.822990844491869 ], [ 352536.927772126160562, 3771079.348931841086596 ], [ 352537.843336724326946, 3771080.264496439602226 ], [ 352537.843336724326946, 3771080.569684638641775 ], [ 352538.14852492371574, 3771080.874872838146985 ], [ 352538.14852492371574, 3771084.23194303130731 ], [ 352537.232960325549357, 3771085.14750762982294 ], [ 352534.486266531050205, 3771085.14750762982294 ] ] ] } },
{ "type": "Feature", "properties": { "confidence": 0.72566771507263184, "class": 1 }, "geometry": { "type": "Polygon", "coordinates": [ [ [ 352308.646998982701916, 3771570.091556459665298 ], [ 352308.341810783313122, 3771569.78636826062575 ], [ 352307.731434384535532, 3771569.78636826062575 ], [ 352307.731434384535532, 3771569.48118006112054 ], [ 352307.426246185146738, 3771569.17599186161533 ], [ 352307.426246185146738, 3771563.987792471889406 ], [ 352308.036622583924327, 3771563.377416073344648 ], [ 352308.341810783313122, 3771563.682604272849858 ], [ 352308.952187182090711, 3771563.682604272849858 ], [ 352309.257375381479505, 3771563.987792471889406 ], [ 352312.614445574756246, 3771563.987792471889406 ], [ 352312.919633774145041, 3771563.682604272849858 ], [ 352314.750762970477808, 3771563.682604272849858 ], [ 352315.055951169866603, 3771563.377416073344648 ], [ 352317.192268565588165, 3771563.377416073344648 ], [ 352317.49745676497696, 3771563.072227873839438 ], [ 352318.718209562590346, 3771563.072227873839438 ], [ 352319.02339776197914, 3771562.767039674334228 ], [ 352322.685656154644676, 3771562.767039674334228 ], [ 352322.99084435403347, 3771563.072227873839438 ], [ 352322.99084435403347, 3771563.682604272849858 ], [ 352322.685656154644676, 3771563.987792471889406 ], [ 352322.685656154644676, 3771567.039674466010183 ], [ 352322.380467955255881, 3771567.344862665515393 ], [ 352322.380467955255881, 3771567.650050864554942 ], [ 352322.075279755867086, 3771567.955239064060152 ], [ 352322.075279755867086, 3771568.260427263565361 ], [ 352321.770091556478292, 3771568.260427263565361 ], [ 352321.464903357089497, 3771568.565615463070571 ], [ 352320.854526958311908, 3771568.565615463070571 ], [ 352320.549338758923113, 3771568.87080366211012 ], [ 352320.244150559534319, 3771568.87080366211012 ], [ 352319.938962360145524, 3771569.17599186161533 ], [ 352319.02339776197914, 3771569.17599186161533 ], [ 352318.718209562590346, 3771569.48118006112054 ], [ 352317.802644964365754, 3771569.48118006112054 ], [ 352317.49745676497696, 3771569.78636826062575 ], [ 352315.361139369255397, 3771569.78636826062575 ], [ 352315.055951169866603, 3771570.091556459665298 ], [ 352308.646998982701916, 3771570.091556459665298 ] ] ] } },
{ "type": "Feature", "properties": { "confidence": 0.71596938371658325, "class": 1 }, "geometry": { "type": "Polygon", "coordinates": [ [ [ 352231.129196337715257, 3771488.301119023468345 ], [ 352230.824008138326462, 3771487.995930823963135 ], [ 352230.213631739548873, 3771487.995930823963135 ], [ 352229.908443540160079, 3771487.690742624457926 ], [ 352229.603255340771284, 3771487.690742624457926 ], [ 352229.298067141382489, 3771487.385554425418377 ], [ 352228.992878941993695, 3771487.385554425418377 ], [ 352228.6876907426049, 3771487.080366225913167 ], [ 352228.382502543216106, 3771487.080366225913167 ], [ 352228.077314343827311, 3771486.775178026407957 ], [ 352227.772126144438516, 3771486.775178026407957 ], [ 352227.466937945049722, 3771486.469989826902747 ], [ 352227.161749745660927, 3771486.469989826902747 ], [ 352226.856561546272133, 3771486.164801627863199 ], [ 352226.856561546272133, 3771483.723296032752842 ], [ 352227.466937945049722, 3771483.112919633742422 ], [ 352227.772126144438516, 3771483.112919633742422 ], [ 352228.382502543216106, 3771482.502543235197663 ], [ 352228.382502543216106, 3771482.197355035692453 ], [ 352228.6876907426049, 3771481.892166836187243 ], [ 352228.6876907426049, 3771481.586978636682034 ], [ 352228.992878941993695, 3771481.281790437642485 ], [ 352228.992878941993695, 3771480.976602238137275 ], [ 352229.298067141382489, 3771480.671414038632065 ], [ 352229.298067141382489, 3771479.450661241076887 ], [ 352229.603255340771284, 3771479.145473041571677 ], [ 352229.603255340771284, 3771478.840284842532128 ], [ 352229.908443540160079, 3771478.535096643026918 ], [ 352236.622583926771767, 3771478.535096643026918 ], [ 352236.927772126160562, 3771478.840284842532128 ], [ 352236.927772126160562, 3771479.145473041571677 ], [ 352237.232960325549357, 3771479.450661241076887 ], [ 352237.232960325549357, 3771480.061037640087306 ], [ 352237.538148524938151, 3771480.366225839126855 ], [ 352237.538148524938151, 3771484.3336724312976 ], [ 352237.232960325549357, 3771484.63886063080281 ], [ 352237.232960325549357, 3771484.94404883030802 ], [ 352236.927772126160562, 3771484.94404883030802 ], [ 352235.707019328605384, 3771486.164801627863199 ], [ 352235.707019328605384, 3771486.469989826902747 ], [ 352234.791454730439, 3771487.385554425418377 ], [ 352234.486266531050205, 3771487.385554425418377 ], [ 352233.875890132272616, 3771487.995930823963135 ], [ 352233.570701932883821, 3771487.995930823963135 ], [ 352233.265513733495027, 3771488.301119023468345 ], [ 352231.129196337715257, 3771488.301119023468345 ] ] ] } },
{ "type": "Feature", "properties": { "confidence": 0.67844188213348389, "class": 1 }, "geometry": { "type": "Polygon", "coordinates": [ [ [ 352414.547304170904681, 3771181.586978636682034 ], [ 352414.242115971515886, 3771181.281790437642485 ], [ 352412.716174974571913, 3771181.281790437642485 ], [ 352412.410986775183119, 3771180.976602238137275 ], [ 352412.410986775183119, 3771177.31434384547174 ], [ 352412.105798575794324, 3771177.00915564596653 ], [ 352412.105798575794324, 3771175.788402848411351 ], [ 352411.80061037640553, 3771175.483214648906142 ], [ 352411.80061037640553, 3771174.872838250361383 ], [ 352412.105798575794324, 3771174.567650050856173 ], [ 352412.105798575794324, 3771174.262461851350963 ], [ 352412.410986775183119, 3771173.957273652311414 ], [ 352413.021363173960708, 3771173.957273652311414 ], [ 352413.326551373349503, 3771174.262461851350963 ], [ 352413.631739572738297, 3771174.262461851350963 ], [ 352413.936927772127092, 3771174.567650050856173 ], [ 352414.242115971515886, 3771174.567650050856173 ], [ 352414.547304170904681, 3771174.872838250361383 ], [ 352415.15768056968227, 3771174.872838250361383 ], [ 352416.073245167848654, 3771175.788402848411351 ], [ 352416.378433367237449, 3771175.788402848411351 ], [ 352418.514750762959011, 3771177.924720244016498 ], [ 352418.819938962347806, 3771177.924720244016498 ], [ 352419.1251271617366, 3771178.229908443521708 ], [ 352419.1251271617366, 3771179.755849440582097 ], [ 352418.819938962347806, 3771180.061037640087306 ], [ 352418.514750762959011, 3771180.061037640087306 ], [ 352418.209562563570216, 3771180.366225839126855 ], [ 352417.599186164792627, 3771180.366225839126855 ], [ 352417.293997965403832, 3771180.671414038632065 ], [ 352416.988809766015038, 3771180.671414038632065 ], [ 352416.683621566626243, 3771180.976602238137275 ], [ 352416.378433367237449, 3771180.976602238137275 ], [ 352416.073245167848654, 3771181.281790437642485 ], [ 352415.462868769071065, 3771181.281790437642485 ], [ 352415.15768056968227, 3771181.586978636682034 ], [ 352414.547304170904681, 3771181.586978636682034 ] ] ] } },
{ "type": "Feature", "properties": { "confidence": 0.66228729486465454, "class": 1 }, "geometry": { "type": "Polygon", "coordinates": [ [ [ 352378.535096642910503, 3771115.05595116969198 ], [ 352378.229908443521708, 3771114.750762970652431 ], [ 352377.924720244132914, 3771114.750762970652431 ], [ 352377.924720244132914, 3771114.445574771147221 ], [ 352377.619532044744119, 3771114.140386571642011 ], [ 352377.619532044744119, 3771112.004069176036865 ], [ 352377.314343845355324, 3771111.698880976531655 ], [ 352377.314343845355324, 3771111.393692777026445 ], [ 352377.00915564596653, 3771111.088504577986896 ], [ 352377.00915564596653, 3771110.478128178976476 ], [ 352376.703967446577735, 3771110.172939979471266 ], [ 352376.703967446577735, 3771109.867751780431718 ], [ 352376.398779247188941, 3771109.562563580926508 ], [ 352376.398779247188941, 3771109.257375381421298 ], [ 352376.093591047800146, 3771108.952187181916088 ], [ 352376.093591047800146, 3771108.646998982876539 ], [ 352375.788402848411351, 3771108.341810783371329 ], [ 352375.788402848411351, 3771107.426246185321361 ], [ 352375.483214649022557, 3771107.121057985816151 ], [ 352375.483214649022557, 3771106.510681586805731 ], [ 352375.178026449633762, 3771106.205493387766182 ], [ 352375.483214649022557, 3771105.900305188260972 ], [ 352375.483214649022557, 3771105.595116988755763 ], [ 352375.788402848411351, 3771105.595116988755763 ], [ 352376.093591047800146, 3771105.289928789250553 ], [ 352377.00915564596653, 3771105.289928789250553 ], [ 352377.314343845355324, 3771104.984740590211004 ], [ 352380.36622583924327, 3771104.984740590211004 ], [ 352380.671414038632065, 3771105.289928789250553 ], [ 352380.97660223802086, 3771105.289928789250553 ], [ 352380.97660223802086, 3771108.341810783371329 ], [ 352381.281790437409654, 3771108.646998982876539 ], [ 352381.281790437409654, 3771112.309257375542074 ], [ 352381.586978636798449, 3771112.614445574581623 ], [ 352381.281790437409654, 3771112.919633774086833 ], [ 352381.281790437409654, 3771114.140386571642011 ], [ 352380.97660223802086, 3771114.445574771147221 ], [ 352380.97660223802086, 3771114.750762970652431 ], [ 352379.145473041688092, 3771114.750762970652431 ], [ 352378.840284842299297, 3771115.05595116969198 ], [ 352378.535096642910503, 3771115.05595116969198 ] ] ] } },
{ "type": "Feature", "properties": { "confidence": 0.56661713123321533, "class": 1 }, "geometry": { "type": "Polygon", "coordinates": [ [ [ 352375.483214649022557, 3771104.374364191200584 ], [ 352375.178026449633762, 3771104.069175991695374 ], [ 352374.872838250244968, 3771104.069175991695374 ], [ 352374.262461851467378, 3771103.458799593150616 ], [ 352374.262461851467378, 3771103.153611393645406 ], [ 352373.957273652078584, 3771102.848423194140196 ], [ 352373.957273652078584, 3771102.238046795595437 ], [ 352373.652085452689789, 3771101.932858596090227 ], [ 352373.652085452689789, 3771100.10172939999029 ], [ 352373.957273652078584, 3771099.79654120048508 ], [ 352373.957273652078584, 3771099.491353000979871 ], [ 352374.262461851467378, 3771099.186164801474661 ], [ 352374.262461851467378, 3771098.880976602435112 ], [ 352374.567650050856173, 3771098.880976602435112 ], [ 352374.872838250244968, 3771099.186164801474661 ], [ 352375.788402848411351, 3771099.186164801474661 ], [ 352376.703967446577735, 3771098.270600203424692 ], [ 352376.703967446577735, 3771097.965412003919482 ], [ 352377.314343845355324, 3771097.355035605374724 ], [ 352377.619532044744119, 3771097.355035605374724 ], [ 352377.924720244132914, 3771097.049847405869514 ], [ 352379.450661241076887, 3771097.049847405869514 ], [ 352379.755849440465681, 3771097.355035605374724 ], [ 352379.755849440465681, 3771097.660223804879934 ], [ 352380.061037639854476, 3771097.965412003919482 ], [ 352380.061037639854476, 3771099.186164801474661 ], [ 352379.755849440465681, 3771099.491353000979871 ], [ 352379.755849440465681, 3771099.79654120048508 ], [ 352378.535096642910503, 3771101.017293998040259 ], [ 352378.535096642910503, 3771101.322482197545469 ], [ 352377.619532044744119, 3771102.238046795595437 ], [ 352377.619532044744119, 3771102.848423194140196 ], [ 352377.314343845355324, 3771103.153611393645406 ], [ 352377.314343845355324, 3771103.458799593150616 ], [ 352377.00915564596653, 3771103.763987792655826 ], [ 352376.703967446577735, 3771103.763987792655826 ], [ 352376.398779247188941, 3771104.069175991695374 ], [ 352375.788402848411351, 3771104.069175991695374 ], [ 352375.483214649022557, 3771104.374364191200584 ] ] ] } },
{ "type": "Feature", "properties": { "confidence": 0.50351631641387939, "class": 1 }, "geometry": { "type": "Polygon", "coordinates": [ [ [ 352394.40488301118603, 3771098.880976602435112 ], [ 352394.099694811797235, 3771098.575788402929902 ], [ 352394.099694811797235, 3771098.270600203424692 ], [ 352393.489318413019646, 3771097.660223804879934 ], [ 352393.489318413019646, 3771097.355035605374724 ], [ 352393.184130213630851, 3771097.049847405869514 ], [ 352393.184130213630851, 3771096.439471007324755 ], [ 352392.878942014242057, 3771096.134282807819545 ], [ 352392.878942014242057, 3771094.913530010264367 ], [ 352393.184130213630851, 3771094.608341810759157 ], [ 352393.489318413019646, 3771094.608341810759157 ], [ 352394.710071210574824, 3771093.387589013203979 ], [ 352395.320447609352414, 3771093.387589013203979 ], [ 352395.625635808741208, 3771093.082400813698769 ], [ 352398.677517802629154, 3771093.082400813698769 ], [ 352398.677517802629154, 3771093.387589013203979 ], [ 352398.37232960324036, 3771093.692777212709188 ], [ 352398.37232960324036, 3771094.608341810759157 ], [ 352398.677517802629154, 3771094.913530010264367 ], [ 352398.677517802629154, 3771096.744659206364304 ], [ 352396.541200406907592, 3771098.880976602435112 ], [ 352394.40488301118603, 3771098.880976602435112 ] ] ] } },
{ "type": "Feature", "properties": { "confidence": 0.45770722627639771, "class": 1 }, "geometry": { "type": "Polygon", "coordinates": [ [ [ 352206.103763987775892, 3771452.594099694862962 ], [ 352205.798575788387097, 3771452.288911495357752 ], [ 352205.188199389609508, 3771452.288911495357752 ], [ 352204.883011190220714, 3771451.983723295852542 ], [ 352204.577822990831919, 3771451.983723295852542 ], [ 352203.662258392665535, 3771451.068158697802573 ], [ 352203.662258392665535, 3771450.762970498297364 ], [ 352203.051881993887946, 3771450.152594099752605 ], [ 352203.051881993887946, 3771449.542217700742185 ], [ 352202.746693794499151, 3771449.237029501702636 ], [ 352202.746693794499151, 3771447.711088504642248 ], [ 352203.96744659205433, 3771446.49033570708707 ], [ 352204.272634791443124, 3771446.49033570708707 ], [ 352204.577822990831919, 3771446.18514750758186 ], [ 352204.883011190220714, 3771446.18514750758186 ], [ 352205.188199389609508, 3771445.87995930807665 ], [ 352206.103763987775892, 3771445.87995930807665 ], [ 352206.408952187164687, 3771445.574771109037101 ], [ 352206.714140386553481, 3771445.87995930807665 ], [ 352207.32451678533107, 3771445.87995930807665 ], [ 352207.629704984719865, 3771446.18514750758186 ], [ 352207.93489318410866, 3771446.18514750758186 ], [ 352208.240081383497454, 3771446.49033570708707 ], [ 352208.545269582886249, 3771446.49033570708707 ], [ 352208.850457782275043, 3771446.79552390659228 ], [ 352208.850457782275043, 3771447.405900305137038 ], [ 352209.460834181052633, 3771448.016276704147458 ], [ 352209.460834181052633, 3771448.321464903187007 ], [ 352210.376398779219016, 3771449.237029501702636 ], [ 352210.681586978607811, 3771449.237029501702636 ], [ 352210.681586978607811, 3771449.542217700742185 ], [ 352210.986775178054813, 3771449.847405900247395 ], [ 352210.986775178054813, 3771450.457782299257815 ], [ 352210.681586978607811, 3771450.762970498297364 ], [ 352210.681586978607811, 3771451.068158697802573 ], [ 352210.376398779219016, 3771451.068158697802573 ], [ 352209.460834181052633, 3771451.983723295852542 ], [ 352209.155645981663838, 3771451.983723295852542 ], [ 352208.850457782275043, 3771452.288911495357752 ], [ 352208.850457782275043, 3771452.594099694862962 ], [ 352206.103763987775892, 3771452.594099694862962 ] ] ] } },
{ "type": "Feature", "properties": { "confidence": 0.43261602520942688, "class": 1 }, "geometry": { "type": "Polygon", "coordinates": [ [ [ 352269.277721261430997, 3771176.398779247421771 ], [ 352268.972533062042203, 3771176.093591047916561 ], [ 352268.667344862653408, 3771176.093591047916561 ], [ 352268.056968463875819, 3771175.483214648906142 ], [ 352267.751780264487024, 3771175.483214648906142 ], [ 352267.751780264487024, 3771175.178026449866593 ], [ 352266.836215666320641, 3771174.262461851350963 ], [ 352266.836215666320641, 3771173.957273652311414 ], [ 352265.920651068154257, 3771173.041709053795785 ], [ 352265.920651068154257, 3771171.515768057201058 ], [ 352266.225839267543051, 3771171.210579857695848 ], [ 352266.531027466931846, 3771171.210579857695848 ], [ 352266.836215666320641, 3771170.905391658190638 ], [ 352267.44659206509823, 3771170.905391658190638 ], [ 352267.751780264487024, 3771170.600203458685428 ], [ 352268.056968463875819, 3771170.600203458685428 ], [ 352268.362156663264614, 3771170.295015259180218 ], [ 352271.41403865715256, 3771170.295015259180218 ], [ 352271.719226856541354, 3771170.600203458685428 ], [ 352272.024415055930149, 3771170.600203458685428 ], [ 352272.329603255318943, 3771170.905391658190638 ], [ 352272.329603255318943, 3771171.210579857695848 ], [ 352274.465920651040506, 3771173.346897253300995 ], [ 352274.465920651040506, 3771174.872838250361383 ], [ 352273.855544252262916, 3771175.483214648906142 ], [ 352273.550356052874122, 3771175.483214648906142 ], [ 352273.245167853485327, 3771175.788402848411351 ], [ 352272.634791454707738, 3771175.788402848411351 ], [ 352272.329603255318943, 3771176.093591047916561 ], [ 352271.108850457763765, 3771176.093591047916561 ], [ 352270.80366225837497, 3771176.398779247421771 ], [ 352269.277721261430997, 3771176.398779247421771 ] ] ] } },
{ "type": "Feature", "properties": { "confidence": 0.38873597979545593, "class": 1 }, "geometry": { "type": "Polygon", "coordinates": [ [ [ 352344.659206510696094, 3771099.79654120048508 ], [ 352344.3540183113073, 3771099.491353000979871 ], [ 352343.743641912529711, 3771099.491353000979871 ], [ 352342.522889114974532, 3771098.270600203424692 ], [ 352342.217700915585738, 3771098.270600203424692 ], [ 352341.302136317419354, 3771097.355035605374724 ], [ 352340.996948118030559, 3771097.355035605374724 ], [ 352340.996948118030559, 3771097.049847405869514 ], [ 352340.691759918641765, 3771096.744659206364304 ], [ 352340.38657171925297, 3771096.744659206364304 ], [ 352339.776195320475381, 3771096.134282807819545 ], [ 352339.776195320475381, 3771095.829094608314335 ], [ 352339.471007121086586, 3771095.523906408809125 ], [ 352339.471007121086586, 3771094.608341810759157 ], [ 352339.165818921639584, 3771094.303153611253947 ], [ 352339.165818921639584, 3771093.997965412214398 ], [ 352338.860630722250789, 3771093.692777212709188 ], [ 352339.165818921639584, 3771093.387589013203979 ], [ 352339.165818921639584, 3771093.082400813698769 ], [ 352339.471007121086586, 3771092.77721261465922 ], [ 352339.471007121086586, 3771092.47202441515401 ], [ 352347.405900305195246, 3771092.47202441515401 ], [ 352347.405900305195246, 3771094.608341810759157 ], [ 352347.100712105806451, 3771094.608341810759157 ], [ 352346.795523906417657, 3771094.913530010264367 ], [ 352346.795523906417657, 3771095.523906408809125 ], [ 352346.490335707028862, 3771095.829094608314335 ], [ 352346.490335707028862, 3771096.439471007324755 ], [ 352346.185147507640067, 3771096.744659206364304 ], [ 352346.185147507640067, 3771098.880976602435112 ], [ 352345.879959308251273, 3771099.186164801474661 ], [ 352345.879959308251273, 3771099.491353000979871 ], [ 352345.574771108862478, 3771099.79654120048508 ], [ 352344.659206510696094, 3771099.79654120048508 ] ] ] } },
{ "type": "Feature", "properties": { "confidence": 0.38033333420753479, "class": 1 }, "geometry": { "type": "Polygon", "coordinates": [ [ [ 352208.850457782275043, 3771336.927772126160562 ], [ 352208.240081383497454, 3771336.317395727150142 ], [ 352207.93489318410866, 3771336.317395727150142 ], [ 352207.629704984719865, 3771336.012207528110594 ], [ 352207.019328585942276, 3771336.012207528110594 ], [ 352207.019328585942276, 3771335.401831129100174 ], [ 352207.32451678533107, 3771335.096642929594964 ], [ 352207.32451678533107, 3771334.486266531050205 ], [ 352207.019328585942276, 3771334.181078331544995 ], [ 352207.019328585942276, 3771331.434384536929429 ], [ 352207.32451678533107, 3771331.12919633788988 ], [ 352207.32451678533107, 3771330.21363173937425 ], [ 352207.629704984719865, 3771329.908443540334702 ], [ 352207.93489318410866, 3771329.908443540334702 ], [ 352208.545269582886249, 3771329.298067141324282 ], [ 352209.766022380441427, 3771329.298067141324282 ], [ 352210.071210579830222, 3771329.603255340829492 ], [ 352210.376398779219016, 3771329.603255340829492 ], [ 352210.681586978607811, 3771329.908443540334702 ], [ 352210.681586978607811, 3771330.21363173937425 ], [ 352211.902339776221197, 3771331.434384536929429 ], [ 352212.512716174998786, 3771331.434384536929429 ], [ 352214.038657171942759, 3771332.960325533989817 ], [ 352214.343845371331554, 3771332.960325533989817 ], [ 352214.343845371331554, 3771333.265513733495027 ], [ 352214.649033570720349, 3771333.570701933000237 ], [ 352214.649033570720349, 3771334.181078331544995 ], [ 352214.343845371331554, 3771334.486266531050205 ], [ 352214.343845371331554, 3771335.096642929594964 ], [ 352214.038657171942759, 3771335.096642929594964 ], [ 352213.42828077316517, 3771335.707019328605384 ], [ 352213.123092573776376, 3771335.707019328605384 ], [ 352212.512716174998786, 3771336.317395727150142 ], [ 352212.207527975609992, 3771336.317395727150142 ], [ 352211.902339776221197, 3771336.622583926655352 ], [ 352210.681586978607811, 3771336.622583926655352 ], [ 352210.376398779219016, 3771336.927772126160562 ], [ 352208.850457782275043, 3771336.927772126160562 ] ] ] } },
{ "type": "Feature", "properties": { "confidence": 0.37081202864646912, "class": 1 }, "geometry": { "type": "Polygon", "coordinates": [ [ [ 352212.207527975609992, 3771448.016276704147458 ], [ 352211.902339776221197, 3771447.711088504642248 ], [ 352211.902339776221197, 3771447.405900305137038 ], [ 352211.597151576832402, 3771447.100712105631828 ], [ 352211.597151576832402, 3771446.79552390659228 ], [ 352211.291963377443608, 3771446.49033570708707 ], [ 352211.291963377443608, 3771446.18514750758186 ], [ 352210.986775178054813, 3771445.87995930807665 ], [ 352210.986775178054813, 3771444.964394710026681 ], [ 352210.681586978607811, 3771444.659206510521472 ], [ 352215.259409969497938, 3771444.659206510521472 ], [ 352215.259409969497938, 3771445.269582909531891 ], [ 352214.954221770109143, 3771445.574771109037101 ], [ 352214.954221770109143, 3771445.87995930807665 ], [ 352213.733468972553965, 3771447.100712105631828 ], [ 352213.733468972553965, 3771447.405900305137038 ], [ 352213.123092573776376, 3771448.016276704147458 ], [ 352212.207527975609992, 3771448.016276704147458 ] ] ] } },
{ "type": "Feature", "properties": { "confidence": 0.3334345817565918, "class": 1 }, "geometry": { "type": "Polygon", "coordinates": [ [ [ 352461.24109867750667, 3771164.496439470909536 ], [ 352460.935910478117876, 3771164.191251271404326 ], [ 352460.630722278729081, 3771164.191251271404326 ], [ 352460.630722278729081, 3771163.886063072364777 ], [ 352460.325534079340287, 3771163.580874872859567 ], [ 352460.325534079340287, 3771163.275686673354357 ], [ 352459.409969481173903, 3771162.360122075304389 ], [ 352459.409969481173903, 3771161.749745676293969 ], [ 352459.104781281785108, 3771161.444557477254421 ], [ 352459.104781281785108, 3771161.139369277749211 ], [ 352458.494404883007519, 3771160.528992878738791 ], [ 352458.494404883007519, 3771160.223804679699242 ], [ 352458.189216683618724, 3771159.918616480194032 ], [ 352458.189216683618724, 3771159.613428280688822 ], [ 352457.88402848422993, 3771159.308240081183612 ], [ 352457.88402848422993, 3771157.171922685578465 ], [ 352460.020345879951492, 3771157.171922685578465 ], [ 352460.325534079340287, 3771156.866734486073256 ], [ 352461.24109867750667, 3771156.866734486073256 ], [ 352462.767039674450643, 3771158.392675483133644 ], [ 352463.072227873839438, 3771158.392675483133644 ], [ 352463.377416073228233, 3771158.697863682638854 ], [ 352463.987792472005822, 3771158.697863682638854 ], [ 352464.292980671394616, 3771159.003051882144064 ], [ 352464.292980671394616, 3771161.444557477254421 ], [ 352464.598168870783411, 3771161.749745676293969 ], [ 352464.598168870783411, 3771163.886063072364777 ], [ 352463.987792472005822, 3771164.496439470909536 ], [ 352461.24109867750667, 3771164.496439470909536 ] ] ] } },
{ "type": "Feature", "properties": { "confidence": 0.31814834475517273, "class": 1 }, "geometry": { "type": "Polygon", "coordinates": [ [ [ 352356.256358087470289, 3771156.256358087528497 ], [ 352356.256358087470289, 3771155.951169888023287 ], [ 352355.6459816886927, 3771155.340793489478528 ], [ 352355.6459816886927, 3771152.899287894368172 ], [ 352355.340793489303906, 3771152.594099694862962 ], [ 352355.340793489303906, 3771151.983723295852542 ], [ 352355.035605289915111, 3771151.678535096812993 ], [ 352355.035605289915111, 3771151.373346897307783 ], [ 352355.340793489303906, 3771151.068158697802573 ], [ 352355.340793489303906, 3771150.762970498297364 ], [ 352355.6459816886927, 3771150.762970498297364 ], [ 352356.256358087470289, 3771150.152594099752605 ], [ 352356.561546286859084, 3771150.152594099752605 ], [ 352356.866734486247879, 3771149.847405900247395 ], [ 352357.171922685636673, 3771149.847405900247395 ], [ 352357.477110885025468, 3771150.152594099752605 ], [ 352358.392675483191852, 3771150.152594099752605 ], [ 352358.392675483191852, 3771152.899287894368172 ], [ 352358.087487283803057, 3771153.20447609340772 ], [ 352358.087487283803057, 3771154.12004069192335 ], [ 352357.782299084414262, 3771154.425228890962899 ], [ 352357.782299084414262, 3771155.340793489478528 ], [ 352357.477110885025468, 3771155.645981688518077 ], [ 352357.171922685636673, 3771155.645981688518077 ], [ 352356.866734486247879, 3771155.951169888023287 ], [ 352356.866734486247879, 3771156.256358087528497 ], [ 352356.256358087470289, 3771156.256358087528497 ] ] ] } },
{ "type": "Feature", "properties": { "confidence": 0.25872871279716492, "class": 1 }, "geometry": { "type": "Polygon", "coordinates": [ [ [ 352345.879959308251273, 3771113.835198372136801 ], [ 352345.574771108862478, 3771113.530010173097253 ], [ 352345.269582909473684, 3771113.530010173097253 ], [ 352344.964394710084889, 3771113.224821973592043 ], [ 352344.048830111918505, 3771113.224821973592043 ], [ 352343.743641912529711, 3771112.919633774086833 ], [ 352342.828077314363327, 3771112.919633774086833 ], [ 352342.522889114974532, 3771112.614445574581623 ], [ 352341.912512716196943, 3771112.614445574581623 ], [ 352341.302136317419354, 3771112.004069176036865 ], [ 352341.302136317419354, 3771111.698880976531655 ], [ 352340.38657171925297, 3771110.783316378481686 ], [ 352340.081383519864175, 3771110.783316378481686 ], [ 352340.081383519864175, 3771109.867751780431718 ], [ 352340.691759918641765, 3771109.257375381421298 ], [ 352340.691759918641765, 3771108.952187181916088 ], [ 352340.996948118030559, 3771108.646998982876539 ], [ 352341.302136317419354, 3771108.646998982876539 ], [ 352341.607324516808148, 3771108.341810783371329 ], [ 352341.912512716196943, 3771108.341810783371329 ], [ 352342.217700915585738, 3771108.036622583866119 ], [ 352342.828077314363327, 3771108.036622583866119 ], [ 352343.133265513752121, 3771107.731434384360909 ], [ 352344.3540183113073, 3771107.731434384360909 ], [ 352344.659206510696094, 3771108.036622583866119 ], [ 352344.964394710084889, 3771108.036622583866119 ], [ 352345.879959308251273, 3771108.952187181916088 ], [ 352345.879959308251273, 3771109.257375381421298 ], [ 352346.490335707028862, 3771109.867751780431718 ], [ 352346.490335707028862, 3771110.172939979471266 ], [ 352346.795523906417657, 3771110.478128178976476 ], [ 352346.795523906417657, 3771110.783316378481686 ], [ 352347.100712105806451, 3771111.088504577986896 ], [ 352347.100712105806451, 3771111.393692777026445 ], [ 352347.405900305195246, 3771111.698880976531655 ], [ 352347.405900305195246, 3771113.530010173097253 ], [ 352346.795523906417657, 3771113.530010173097253 ], [ 352346.490335707028862, 3771113.835198372136801 ], [ 352345.879959308251273, 3771113.835198372136801 ] ] ] } },
{ "type": "Feature", "properties": { "confidence": 0.25270447134971619, "class": 1 }, "geometry": { "type": "Polygon", "coordinates": [ [ [ 352458.494404883007519, 3771214.547304171137512 ], [ 352458.494404883007519, 3771214.242115971632302 ], [ 352458.189216683618724, 3771213.936927772127092 ], [ 352458.189216683618724, 3771212.105798575561494 ], [ 352458.494404883007519, 3771211.800610376521945 ], [ 352458.494404883007519, 3771211.495422177016735 ], [ 352460.630722278729081, 3771211.495422177016735 ], [ 352460.935910478117876, 3771211.800610376521945 ], [ 352460.935910478117876, 3771212.105798575561494 ], [ 352461.546286876895465, 3771212.716174974571913 ], [ 352461.546286876895465, 3771213.021363174077123 ], [ 352461.85147507628426, 3771213.326551373116672 ], [ 352461.85147507628426, 3771214.242115971632302 ], [ 352461.546286876895465, 3771214.547304171137512 ], [ 352458.494404883007519, 3771214.547304171137512 ] ] ] } }
]
}
