{
"type": "FeatureCollection",
"name": "cell_00187_pre",
"crs": { "type": "name", "properties": { "name": "urn:ogc:def:crs:EPSG::32611" } },
"features": [
{ "type": "Feature", "properties": { "confidence": 0.79627400636672974, "class": 1 }, "geometry": { "type": "Polygon", "coordinates": [ [ [ 356518.718209562590346, 3772413.631739572621882 ], [ 356518.718209562590346, 3772412.716174974571913 ], [ 356518.107833163812757, 3772412.105798575561494 ], [ 356517.802644964365754, 3772412.105798575561494 ], [ 356517.802644964365754, 3772411.495422177016735 ], [ 356517.49745676497696, 3772411.190233977511525 ], [ 356517.192268565588165, 3772411.190233977511525 ], [ 356517.192268565588165, 3772409.664292980451137 ], [ 356523.296032553422265, 3772409.664292980451137 ], [ 356523.296032553422265, 3772409.969481179956347 ], [ 356522.99084435403347, 3772410.274669379461557 ], [ 356522.99084435403347, 3772411.495422177016735 ], [ 356522.380467955255881, 3772412.105798575561494 ], [ 356522.380467955255881, 3772412.410986775066704 ], [ 356521.159715157700703, 3772413.631739572621882 ], [ 356518.718209562590346, 3772413.631739572621882 ] ] ] } },
{ "type": "Feature", "properties": { "confidence": 0.40244603157043457, "class": 1 }, "geometry": { "type": "Polygon", "coordinates": [ [ [ 356986.876907426223624, 3772647.100712105631828 ], [ 356985.656154628668446, 3772645.87995930807665 ], [ 356985.656154628668446, 3772644.964394710026681 ], [ 356985.350966429279651, 3772644.659206510521472 ], [ 356985.350966429279651, 3772644.048830111976713 ], [ 356991.149542217724957, 3772644.048830111976713 ], [ 356991.149542217724957, 3772644.354018311481923 ], [ 356991.454730417113751, 3772644.659206510521472 ], [ 356991.454730417113751, 3772645.574771109037101 ], [ 356991.149542217724957, 3772645.87995930807665 ], [ 356991.149542217724957, 3772646.18514750758186 ], [ 356990.844354018336162, 3772646.49033570708707 ], [ 356990.233977619558573, 3772646.49033570708707 ], [ 356989.928789420169778, 3772646.79552390659228 ], [ 356989.623601220780984, 3772646.79552390659228 ], [ 356989.318413021392189, 3772647.100712105631828 ], [ 356986.876907426223624, 3772647.100712105631828 ] ] ] } },
{ "type": "Feature", "properties": { "confidence": 0.38856503367424011, "class": 1 }, "geometry": { "type": "Polygon", "coordinates": [ [ [ 356510.172939979645889, 3772411.800610376521945 ], [ 356509.257375381479505, 3772410.885045778006315 ], [ 356509.257375381479505, 3772410.579857578966767 ], [ 356508.952187182090711, 3772410.274669379461557 ], [ 356508.646998982701916, 3772410.274669379461557 ], [ 356508.646998982701916, 3772409.969481179956347 ], [ 356508.341810783313122, 3772409.664292980451137 ], [ 356508.341810783313122, 3772408.748728382401168 ], [ 356508.036622583924327, 3772408.443540182895958 ], [ 356508.036622583924327, 3772407.52797558484599 ], [ 356507.731434384535532, 3772407.22278738534078 ], [ 356507.731434384535532, 3772406.917599186301231 ], [ 356507.121057985757943, 3772406.307222787290812 ], [ 356507.121057985757943, 3772404.781281790230423 ], [ 356507.731434384535532, 3772404.781281790230423 ], [ 356508.036622583924327, 3772404.476093591190875 ], [ 356508.646998982701916, 3772404.476093591190875 ], [ 356508.952187182090711, 3772404.170905391685665 ], [ 356509.257375381479505, 3772404.476093591190875 ], [ 356510.172939979645889, 3772404.476093591190875 ], [ 356510.783316378423478, 3772405.086469989735633 ], [ 356511.088504577812273, 3772405.086469989735633 ], [ 356511.088504577812273, 3772405.391658189240843 ], [ 356511.698880976589862, 3772406.002034587785602 ], [ 356511.698880976589862, 3772406.917599186301231 ], [ 356512.004069175978657, 3772407.22278738534078 ], [ 356512.004069175978657, 3772408.443540182895958 ], [ 356512.309257375367451, 3772408.748728382401168 ], [ 356512.309257375367451, 3772410.579857578966767 ], [ 356512.004069175978657, 3772410.579857578966767 ], [ 356510.783316378423478, 3772411.800610376521945 ], [ 356510.172939979645889, 3772411.800610376521945 ] ] ] } },
{ "type": "Feature", "properties": { "confidence": 0.35123559832572937, "class": 1 }, "geometry": { "type": "Polygon", "coordinates": [ [ [ 356961.85147507628426, 3772632.756866734474897 ], [ 356961.546286876895465, 3772632.451678534969687 ], [ 356961.24109867750667, 3772632.451678534969687 ], [ 356960.935910478117876, 3772632.146490335930139 ], [ 356960.325534079340287, 3772632.146490335930139 ], [ 356959.715157680562697, 3772631.536113936919719 ], [ 356959.715157680562697, 3772630.010172939859331 ], [ 356960.020345879951492, 3772629.704984740819782 ], [ 356960.020345879951492, 3772628.789420142304152 ], [ 356960.325534079340287, 3772628.484231942798942 ], [ 356960.325534079340287, 3772628.179043743759394 ], [ 356960.630722278729081, 3772628.179043743759394 ], [ 356961.24109867750667, 3772627.568667344748974 ], [ 356961.85147507628426, 3772627.568667344748974 ], [ 356962.156663275673054, 3772627.263479145243764 ], [ 356962.461851475061849, 3772627.263479145243764 ], [ 356962.767039674450643, 3772626.958290946204215 ], [ 356963.682604272617027, 3772626.958290946204215 ], [ 356963.987792472005822, 3772626.653102746699005 ], [ 356964.292980671394616, 3772626.653102746699005 ], [ 356964.598168870783411, 3772626.347914547193795 ], [ 356965.818921668338589, 3772626.347914547193795 ], [ 356966.124109867727384, 3772626.042726347688586 ], [ 356966.429298067116179, 3772626.042726347688586 ], [ 356966.734486266504973, 3772625.737538148649037 ], [ 356969.175991861673538, 3772625.737538148649037 ], [ 356969.175991861673538, 3772626.042726347688586 ], [ 356969.481180061062332, 3772626.347914547193795 ], [ 356969.481180061062332, 3772626.958290946204215 ], [ 356969.175991861673538, 3772627.263479145243764 ], [ 356969.175991861673538, 3772628.179043743759394 ], [ 356968.870803662284743, 3772628.484231942798942 ], [ 356968.870803662284743, 3772628.789420142304152 ], [ 356968.260427263507154, 3772629.399796541314572 ], [ 356968.260427263507154, 3772629.704984740819782 ], [ 356967.650050864671357, 3772630.315361139364541 ], [ 356967.344862665282562, 3772630.315361139364541 ], [ 356966.734486266504973, 3772630.92573753837496 ], [ 356966.429298067116179, 3772630.92573753837496 ], [ 356965.818921668338589, 3772631.536113936919719 ], [ 356965.513733468949795, 3772631.536113936919719 ], [ 356965.208545269561, 3772631.841302136424929 ], [ 356964.903357070172206, 3772631.841302136424929 ], [ 356964.598168870783411, 3772632.146490335930139 ], [ 356964.292980671394616, 3772632.146490335930139 ], [ 356963.987792472005822, 3772632.451678534969687 ], [ 356963.682604272617027, 3772632.451678534969687 ], [ 356963.377416073228233, 3772632.756866734474897 ], [ 356961.85147507628426, 3772632.756866734474897 ] ] ] } },
{ "type": "Feature", "properties": { "confidence": 0.31345707178115845, "class": 1 }, "geometry": { "type": "Polygon", "coordinates": [ [ [ 356613.021363173960708, 3772542.115971515886486 ], [ 356612.716174974571913, 3772541.810783316381276 ], [ 356612.105798575794324, 3772541.810783316381276 ], [ 356611.495422177016735, 3772541.200406917370856 ], [ 356611.495422177016735, 3772534.791454730555415 ], [ 356611.19023397762794, 3772534.486266531050205 ], [ 356611.19023397762794, 3772533.570701933000237 ], [ 356611.495422177016735, 3772533.265513733495027 ], [ 356611.495422177016735, 3772532.960325533989817 ], [ 356613.631739572738297, 3772532.960325533989817 ], [ 356613.936927772127092, 3772533.265513733495027 ], [ 356614.547304170904681, 3772533.265513733495027 ], [ 356614.852492370293476, 3772532.960325533989817 ], [ 356615.15768056968227, 3772533.265513733495027 ], [ 356615.15768056968227, 3772537.232960325665772 ], [ 356615.462868769071065, 3772537.538148524705321 ], [ 356615.462868769071065, 3772539.064089521765709 ], [ 356615.768056968459859, 3772539.369277721270919 ], [ 356615.768056968459859, 3772541.810783316381276 ], [ 356615.462868769071065, 3772542.115971515886486 ], [ 356613.021363173960708, 3772542.115971515886486 ] ] ] } },
{ "type": "Feature", "properties": { "confidence": 0.28785523772239685, "class": 1 }, "geometry": { "type": "Polygon", "coordinates": [ [ [ 356657.88402848422993, 3772295.829094608314335 ], [ 356657.578840284841135, 3772295.523906408809125 ], [ 356656.663275686674751, 3772295.523906408809125 ], [ 356656.358087487285957, 3772295.218718209769577 ], [ 356654.221770091564395, 3772295.218718209769577 ], [ 356653.9165818921756, 3772294.913530010264367 ], [ 356652.695829094620422, 3772294.913530010264367 ], [ 356652.085452695842832, 3772294.303153611253947 ], [ 356652.085452695842832, 3772293.082400813698769 ], [ 356651.780264496454038, 3772292.77721261465922 ], [ 356651.780264496454038, 3772292.47202441515401 ], [ 356661.24109867750667, 3772292.47202441515401 ], [ 356661.24109867750667, 3772292.77721261465922 ], [ 356660.935910478117876, 3772293.082400813698769 ], [ 356660.935910478117876, 3772293.997965412214398 ], [ 356660.630722278729081, 3772294.303153611253947 ], [ 356660.630722278729081, 3772294.608341810759157 ], [ 356660.325534079340287, 3772294.913530010264367 ], [ 356660.325534079340287, 3772295.218718209769577 ], [ 356659.409969481173903, 3772295.218718209769577 ], [ 356659.104781281785108, 3772295.523906408809125 ], [ 356658.494404883007519, 3772295.523906408809125 ], [ 356658.189216683618724, 3772295.829094608314335 ], [ 356657.88402848422993, 3772295.829094608314335 ] ] ] } },
{ "type": "Feature", "properties": { "confidence": 0.27628839015960693, "class": 1 }, "geometry": { "type": "Polygon", "coordinates": [ [ [ 356786.978636826039292, 3772682.807731434237212 ], [ 356786.978636826039292, 3772681.892166836187243 ], [ 356786.063072227872908, 3772680.976602238137275 ], [ 356786.063072227872908, 3772679.755849440582097 ], [ 356786.673448626650497, 3772679.145473041571677 ], [ 356787.283825025428087, 3772679.145473041571677 ], [ 356787.589013224816881, 3772679.450661241076887 ], [ 356788.19938962359447, 3772679.450661241076887 ], [ 356788.504577822983265, 3772679.755849440582097 ], [ 356788.80976602237206, 3772679.755849440582097 ], [ 356789.420142421149649, 3772680.366225839126855 ], [ 356789.725330620538443, 3772680.366225839126855 ], [ 356789.725330620538443, 3772682.807731434237212 ], [ 356786.978636826039292, 3772682.807731434237212 ] ] ] } }
]
}
