{
"type": "FeatureCollection",
"name": "cell_00046_pre",
"crs": { "type": "name", "properties": { "name": "urn:ogc:def:crs:EPSG::32611" } },
"features": [
{ "type": "Feature", "properties": { "confidence": 0.99978595972061157, "class": 1, "regularized": "rectangle" }, "geometry": { "type": "Polygon", "coordinates": [ [ [ 348424.34375, 3770523.0 ], [ 348426.34375, 3770500.5 ], [ 348435.84375, 3770501.5 ], [ 348433.84375, 3770524.0 ], [ 348424.34375, 3770523.0 ] ] ] } },
{ "type": "Feature", "properties": { "confidence": 0.99806243181228638, "class": 1, "regularized": null }, "geometry": { "type": "Polygon", "coordinates": [ [ [ 348387.283825025428087, 3770801.627670396585017 ], [ 348386.978636826039292, 3770801.322482197545469 ], [ 348386.673448626650497, 3770801.322482197545469 ], [ 348386.673448626650497, 3770800.10172939999029 ], [ 348386.368260427261703, 3770799.79654120048508 ], [ 348386.368260427261703, 3770798.575788402929902 ], [ 348386.063072227872908, 3770798.270600203424692 ], [ 348386.063072227872908, 3770797.965412003919482 ], [ 348385.757884028484114, 3770797.660223804879934 ], [ 348385.757884028484114, 3770797.355035605374724 ], [ 348385.452695829095319, 3770797.049847405869514 ], [ 348385.452695829095319, 3770796.744659206364304 ], [ 348385.147507629706524, 3770796.439471007324755 ], [ 348385.147507629706524, 3770796.134282807819545 ], [ 348384.84231943031773, 3770795.829094608314335 ], [ 348384.84231943031773, 3770795.218718209769577 ], [ 348385.452695829095319, 3770794.608341810759157 ], [ 348388.504577822983265, 3770794.608341810759157 ], [ 348388.80976602237206, 3770794.303153611253947 ], [ 348390.030518819927238, 3770794.303153611253947 ], [ 348390.335707019316033, 3770793.997965412214398 ], [ 348390.335707019316033, 3770801.017293998040259 ], [ 348389.114954221760854, 3770801.017293998040259 ], [ 348388.80976602237206, 3770801.322482197545469 ], [ 348388.19938962359447, 3770801.322482197545469 ], [ 348387.894201424205676, 3770801.627670396585017 ], [ 348387.283825025428087, 3770801.627670396585017 ] ] ] } },
{ "type": "Feature", "properties": { "confidence": 0.99696367979049683, "class": 1, "regularized": null }, "geometry": { "type": "Polygon", "coordinates": [ [ [ 348252.695829094620422, 3770648.423194303177297 ], [ 348252.695829094620422, 3770648.118006103672087 ], [ 348252.390640895231627, 3770647.812817904166877 ], [ 348252.390640895231627, 3770646.897253306116909 ], [ 348252.085452695842832, 3770646.592065106611699 ], [ 348252.085452695842832, 3770646.28687690757215 ], [ 348251.780264496454038, 3770645.98168870806694 ], [ 348251.780264496454038, 3770645.67650050856173 ], [ 348251.475076297065243, 3770645.37131230905652 ], [ 348251.475076297065243, 3770644.455747711006552 ], [ 348251.169888097676449, 3770644.150559511501342 ], [ 348251.169888097676449, 3770643.845371312461793 ], [ 348250.864699898287654, 3770643.540183112956583 ], [ 348250.864699898287654, 3770642.014242115896195 ], [ 348251.475076297065243, 3770642.014242115896195 ], [ 348252.085452695842832, 3770641.403865717351437 ], [ 348252.390640895231627, 3770641.403865717351437 ], [ 348252.695829094620422, 3770641.098677517846227 ], [ 348254.526958290953189, 3770641.098677517846227 ], [ 348255.137334689730778, 3770641.709053916390985 ], [ 348255.137334689730778, 3770642.014242115896195 ], [ 348255.442522889119573, 3770642.319430315401405 ], [ 348255.442522889119573, 3770642.624618514906615 ], [ 348255.747711088508368, 3770642.929806713946164 ], [ 348255.747711088508368, 3770643.540183112956583 ], [ 348256.052899287897162, 3770643.845371312461793 ], [ 348256.052899287897162, 3770644.150559511501342 ], [ 348256.358087487285957, 3770644.455747711006552 ], [ 348256.358087487285957, 3770644.760935910511762 ], [ 348256.968463886063546, 3770645.37131230905652 ], [ 348256.968463886063546, 3770645.67650050856173 ], [ 348257.273652085452341, 3770645.98168870806694 ], [ 348257.273652085452341, 3770648.423194303177297 ], [ 348252.695829094620422, 3770648.423194303177297 ] ] ] } },
{ "type": "Feature", "properties": { "confidence": 0.99426239728927612, "class": 1, "regularized": null }, "geometry": { "type": "Polygon", "coordinates": [ [ [ 348473.346897253300995, 3770531.230925737414509 ], [ 348473.346897253300995, 3770528.484231942798942 ], [ 348473.652085452689789, 3770528.179043743759394 ], [ 348473.652085452689789, 3770527.873855544254184 ], [ 348473.957273652078584, 3770527.873855544254184 ], [ 348474.262461851467378, 3770527.568667344748974 ], [ 348475.178026449633762, 3770527.568667344748974 ], [ 348475.483214649022557, 3770527.263479145243764 ], [ 348476.093591047800146, 3770527.263479145243764 ], [ 348476.398779247188941, 3770526.958290946204215 ], [ 348477.619532044744119, 3770526.958290946204215 ], [ 348477.924720244132914, 3770527.263479145243764 ], [ 348478.535096642910503, 3770527.263479145243764 ], [ 348478.840284842299297, 3770526.958290946204215 ], [ 348479.145473041688092, 3770526.958290946204215 ], [ 348479.755849440465681, 3770526.347914547193795 ], [ 348480.061037639854476, 3770526.653102746699005 ], [ 348480.671414038632065, 3770526.653102746699005 ], [ 348480.97660223802086, 3770526.958290946204215 ], [ 348481.892166836187243, 3770526.958290946204215 ], [ 348482.197355035634246, 3770527.263479145243764 ], [ 348482.197355035634246, 3770528.789420142304152 ], [ 348481.892166836187243, 3770529.094608341809362 ], [ 348481.892166836187243, 3770529.704984740819782 ], [ 348481.586978636798449, 3770530.010172939859331 ], [ 348481.586978636798449, 3770530.315361139364541 ], [ 348481.281790437409654, 3770530.62054933886975 ], [ 348481.281790437409654, 3770531.230925737414509 ], [ 348473.346897253300995, 3770531.230925737414509 ] ] ] } },
{ "type": "Feature", "properties": { "confidence": 0.99292492866516113, "class": 1, "regularized": null }, "geometry": { "type": "Polygon", "coordinates": [ [ [ 348371.108850457763765, 3770826.347914547193795 ], [ 348370.80366225837497, 3770826.042726347688586 ], [ 348370.498474058986176, 3770826.042726347688586 ], [ 348369.582909460819792, 3770825.127161749638617 ], [ 348369.277721261430997, 3770825.127161749638617 ], [ 348369.277721261430997, 3770824.821973550133407 ], [ 348368.667344862653408, 3770824.211597151588649 ], [ 348368.362156663264614, 3770824.211597151588649 ], [ 348368.362156663264614, 3770823.906408952083439 ], [ 348367.751780264487024, 3770823.29603255353868 ], [ 348367.751780264487024, 3770822.38046795502305 ], [ 348368.056968463875819, 3770822.075279755983502 ], [ 348368.056968463875819, 3770821.159715157467872 ], [ 348368.667344862653408, 3770821.159715157467872 ], [ 348368.972533062042203, 3770820.854526958428323 ], [ 348369.277721261430997, 3770820.854526958428323 ], [ 348369.582909460819792, 3770820.549338758923113 ], [ 348369.888097660208587, 3770820.854526958428323 ], [ 348370.498474058986176, 3770820.854526958428323 ], [ 348370.80366225837497, 3770821.159715157467872 ], [ 348372.024415055930149, 3770821.159715157467872 ], [ 348372.634791454707738, 3770820.549338758923113 ], [ 348372.939979654096533, 3770820.549338758923113 ], [ 348374.160732451651711, 3770819.328585961367935 ], [ 348375.686673448653892, 3770819.328585961367935 ], [ 348376.602238046820275, 3770820.244150559417903 ], [ 348376.90742624620907, 3770820.244150559417903 ], [ 348377.212614445597865, 3770820.549338758923113 ], [ 348377.517802644986659, 3770820.549338758923113 ], [ 348377.517802644986659, 3770820.854526958428323 ], [ 348377.212614445597865, 3770821.159715157467872 ], [ 348377.212614445597865, 3770821.464903356973082 ], [ 348372.939979654096533, 3770825.737538148649037 ], [ 348372.939979654096533, 3770826.042726347688586 ], [ 348372.634791454707738, 3770826.042726347688586 ], [ 348372.329603255318943, 3770826.347914547193795 ], [ 348371.108850457763765, 3770826.347914547193795 ] ] ] } },
{ "type": "Feature", "properties": { "confidence": 0.99234217405319214, "class": 1, "regularized": null }, "geometry": { "type": "Polygon", "coordinates": [ [ [ 348389.114954221760854, 3770741.200406917370856 ], [ 348388.80976602237206, 3770740.895218718331307 ], [ 348388.504577822983265, 3770740.895218718331307 ], [ 348388.19938962359447, 3770740.590030518826097 ], [ 348387.894201424205676, 3770740.590030518826097 ], [ 348387.589013224816881, 3770740.284842319320887 ], [ 348387.283825025428087, 3770740.284842319320887 ], [ 348386.673448626650497, 3770739.674465920776129 ], [ 348386.368260427261703, 3770739.674465920776129 ], [ 348386.063072227872908, 3770739.369277721270919 ], [ 348385.757884028484114, 3770739.369277721270919 ], [ 348385.147507629706524, 3770738.758901322260499 ], [ 348384.84231943031773, 3770738.758901322260499 ], [ 348384.537131230928935, 3770738.45371312322095 ], [ 348383.316378433373757, 3770738.45371312322095 ], [ 348383.011190233984962, 3770738.14852492371574 ], [ 348383.011190233984962, 3770737.843336724210531 ], [ 348382.706002034596168, 3770737.538148524705321 ], [ 348383.316378433373757, 3770736.927772126160562 ], [ 348383.316378433373757, 3770736.012207528110594 ], [ 348383.621566632762551, 3770735.707019328605384 ], [ 348383.926754832151346, 3770735.707019328605384 ], [ 348384.231943031540141, 3770735.401831129100174 ], [ 348384.537131230928935, 3770735.401831129100174 ], [ 348385.147507629706524, 3770734.791454730555415 ], [ 348385.452695829095319, 3770734.791454730555415 ], [ 348386.368260427261703, 3770733.875890132039785 ], [ 348388.504577822983265, 3770733.875890132039785 ], [ 348389.725330620538443, 3770735.096642929594964 ], [ 348390.335707019316033, 3770735.096642929594964 ], [ 348390.335707019316033, 3770741.200406917370856 ], [ 348389.114954221760854, 3770741.200406917370856 ] ] ] } },
{ "type": "Feature", "properties": { "confidence": 0.99154692888259888, "class": 1, "regularized": null }, "geometry": { "type": "Polygon", "coordinates": [ [ [ 348342.11597151577007, 3770564.801627670414746 ], [ 348341.810783316381276, 3770564.496439470909536 ], [ 348341.505595116992481, 3770564.496439470909536 ], [ 348340.895218718214892, 3770563.886063072364777 ], [ 348340.895218718214892, 3770563.580874872859567 ], [ 348340.590030518826097, 3770563.275686673354357 ], [ 348340.590030518826097, 3770562.970498473849148 ], [ 348340.284842319437303, 3770562.665310274809599 ], [ 348340.284842319437303, 3770562.360122075304389 ], [ 348339.369277721270919, 3770561.444557477254421 ], [ 348339.369277721270919, 3770561.139369277749211 ], [ 348338.75890132249333, 3770560.528992878738791 ], [ 348338.75890132249333, 3770559.918616480194032 ], [ 348338.453713123104535, 3770559.613428280688822 ], [ 348338.453713123104535, 3770558.697863682638854 ], [ 348338.75890132249333, 3770558.392675483133644 ], [ 348338.75890132249333, 3770558.087487283628434 ], [ 348339.369277721270919, 3770557.477110885083675 ], [ 348339.674465920659713, 3770557.477110885083675 ], [ 348339.979654120048508, 3770557.171922685578465 ], [ 348341.505595116992481, 3770557.171922685578465 ], [ 348342.726347914547659, 3770558.392675483133644 ], [ 348342.726347914547659, 3770558.697863682638854 ], [ 348343.641912512714043, 3770559.613428280688822 ], [ 348343.947100712102838, 3770559.613428280688822 ], [ 348343.947100712102838, 3770559.918616480194032 ], [ 348344.252288911491632, 3770560.223804679699242 ], [ 348344.557477110880427, 3770560.223804679699242 ], [ 348344.557477110880427, 3770560.528992878738791 ], [ 348345.167853509658016, 3770561.139369277749211 ], [ 348345.167853509658016, 3770561.444557477254421 ], [ 348345.473041709046811, 3770561.749745676293969 ], [ 348345.473041709046811, 3770562.970498473849148 ], [ 348345.167853509658016, 3770563.275686673354357 ], [ 348345.167853509658016, 3770563.580874872859567 ], [ 348344.862665310269222, 3770563.886063072364777 ], [ 348344.862665310269222, 3770564.191251271404326 ], [ 348344.557477110880427, 3770564.191251271404326 ], [ 348343.947100712102838, 3770564.801627670414746 ], [ 348342.11597151577007, 3770564.801627670414746 ] ] ] } },
{ "type": "Feature", "properties": { "confidence": 0.97829550504684448, "class": 1, "regularized": null }, "geometry": { "type": "Polygon", "coordinates": [ [ [ 348430.315361139364541, 3770643.234994913451374 ], [ 348430.010172939975746, 3770642.929806713946164 ], [ 348429.399796541198157, 3770642.929806713946164 ], [ 348429.094608341809362, 3770642.624618514906615 ], [ 348428.484231943031773, 3770642.624618514906615 ], [ 348428.179043743642978, 3770642.319430315401405 ], [ 348427.568667344865389, 3770642.319430315401405 ], [ 348427.263479145476595, 3770642.014242115896195 ], [ 348426.653102746699005, 3770642.014242115896195 ], [ 348426.347914547310211, 3770641.709053916390985 ], [ 348426.042726347921416, 3770641.709053916390985 ], [ 348425.737538148532622, 3770641.403865717351437 ], [ 348425.737538148532622, 3770640.183112919796258 ], [ 348426.042726347921416, 3770639.877924720291048 ], [ 348426.042726347921416, 3770639.572736520785838 ], [ 348426.347914547310211, 3770639.267548321280628 ], [ 348426.653102746699005, 3770639.267548321280628 ], [ 348426.9582909460878, 3770638.96236012224108 ], [ 348427.263479145476595, 3770638.96236012224108 ], [ 348427.568667344865389, 3770638.65717192273587 ], [ 348429.094608341809362, 3770638.65717192273587 ], [ 348429.399796541198157, 3770638.96236012224108 ], [ 348429.704984740586951, 3770638.96236012224108 ], [ 348430.010172939975746, 3770639.267548321280628 ], [ 348430.315361139364541, 3770639.267548321280628 ], [ 348430.620549338753335, 3770639.572736520785838 ], [ 348431.230925737530924, 3770639.572736520785838 ], [ 348431.536113936919719, 3770639.877924720291048 ], [ 348432.146490335697308, 3770639.877924720291048 ], [ 348432.146490335697308, 3770641.709053916390985 ], [ 348431.841302136308514, 3770642.014242115896195 ], [ 348431.841302136308514, 3770642.624618514906615 ], [ 348431.230925737530924, 3770643.234994913451374 ], [ 348430.315361139364541, 3770643.234994913451374 ] ] ] } },
{ "type": "Feature", "properties": { "confidence": 0.96018928289413452, "class": 1, "regularized": null }, "geometry": { "type": "Polygon", "coordinates": [ [ [ 348385.452695829095319, 3770819.328585961367935 ], [ 348385.147507629706524, 3770819.023397761862725 ], [ 348384.84231943031773, 3770819.023397761862725 ], [ 348384.537131230928935, 3770818.718209562357515 ], [ 348384.231943031540141, 3770818.718209562357515 ], [ 348384.231943031540141, 3770818.413021363317966 ], [ 348383.926754832151346, 3770818.107833163812757 ], [ 348383.926754832151346, 3770814.140386571642011 ], [ 348384.231943031540141, 3770813.835198372136801 ], [ 348384.231943031540141, 3770813.530010173097253 ], [ 348384.537131230928935, 3770813.224821973592043 ], [ 348384.84231943031773, 3770813.224821973592043 ], [ 348385.452695829095319, 3770812.614445574581623 ], [ 348385.757884028484114, 3770812.614445574581623 ], [ 348386.063072227872908, 3770812.309257375542074 ], [ 348386.368260427261703, 3770812.309257375542074 ], [ 348386.673448626650497, 3770812.004069176036865 ], [ 348388.19938962359447, 3770812.004069176036865 ], [ 348389.420142421149649, 3770813.224821973592043 ], [ 348389.725330620538443, 3770813.224821973592043 ], [ 348390.030518819927238, 3770813.530010173097253 ], [ 348390.335707019316033, 3770813.530010173097253 ], [ 348390.335707019316033, 3770818.718209562357515 ], [ 348389.420142421149649, 3770818.718209562357515 ], [ 348388.80976602237206, 3770818.107833163812757 ], [ 348388.80976602237206, 3770817.802644964307547 ], [ 348388.19938962359447, 3770817.192268565762788 ], [ 348387.589013224816881, 3770817.192268565762788 ], [ 348386.673448626650497, 3770818.107833163812757 ], [ 348386.673448626650497, 3770818.413021363317966 ], [ 348386.063072227872908, 3770819.023397761862725 ], [ 348386.063072227872908, 3770819.328585961367935 ], [ 348385.452695829095319, 3770819.328585961367935 ] ] ] } },
{ "type": "Feature", "properties": { "confidence": 0.95283305644989014, "class": 1, "regularized": null }, "geometry": { "type": "Polygon", "coordinates": [ [ [ 348473.652085452689789, 3770714.038657172117382 ], [ 348473.346897253300995, 3770713.733468972612172 ], [ 348473.346897253300995, 3770713.428280773106962 ], [ 348473.0417090539122, 3770713.123092573601753 ], [ 348473.346897253300995, 3770712.817904374562204 ], [ 348473.346897253300995, 3770711.902339776046574 ], [ 348473.0417090539122, 3770711.597151577007025 ], [ 348473.0417090539122, 3770710.376398779451847 ], [ 348473.346897253300995, 3770710.071210579946637 ], [ 348473.346897253300995, 3770709.460834180936217 ], [ 348473.652085452689789, 3770709.460834180936217 ], [ 348473.957273652078584, 3770709.155645981896669 ], [ 348473.957273652078584, 3770708.850457782391459 ], [ 348474.567650050856173, 3770708.850457782391459 ], [ 348474.872838250244968, 3770708.545269582886249 ], [ 348475.178026449633762, 3770708.545269582886249 ], [ 348475.483214649022557, 3770708.240081383381039 ], [ 348475.788402848411351, 3770708.240081383381039 ], [ 348476.093591047800146, 3770707.93489318434149 ], [ 348476.398779247188941, 3770707.93489318434149 ], [ 348477.00915564596653, 3770707.32451678533107 ], [ 348477.314343845355324, 3770707.32451678533107 ], [ 348478.229908443521708, 3770706.408952187281102 ], [ 348479.145473041688092, 3770706.408952187281102 ], [ 348479.450661241076887, 3770706.103763987775892 ], [ 348480.36622583924327, 3770706.103763987775892 ], [ 348480.671414038632065, 3770706.408952187281102 ], [ 348480.97660223802086, 3770706.408952187281102 ], [ 348480.97660223802086, 3770706.714140386786312 ], [ 348481.281790437409654, 3770707.019328585825861 ], [ 348481.281790437409654, 3770709.460834180936217 ], [ 348480.97660223802086, 3770709.766022380441427 ], [ 348480.97660223802086, 3770710.376398779451847 ], [ 348480.671414038632065, 3770710.681586978491396 ], [ 348480.671414038632065, 3770710.986775177996606 ], [ 348480.36622583924327, 3770710.986775177996606 ], [ 348479.145473041688092, 3770712.207527975551784 ], [ 348478.840284842299297, 3770712.207527975551784 ], [ 348478.229908443521708, 3770712.817904374562204 ], [ 348477.924720244132914, 3770712.817904374562204 ], [ 348477.619532044744119, 3770713.123092573601753 ], [ 348477.314343845355324, 3770713.123092573601753 ], [ 348476.703967446577735, 3770713.733468972612172 ], [ 348476.398779247188941, 3770713.733468972612172 ], [ 348476.093591047800146, 3770714.038657172117382 ], [ 348473.652085452689789, 3770714.038657172117382 ] ] ] } },
{ "type": "Feature", "properties": { "confidence": 0.94391411542892456, "class": 1, "regularized": null }, "geometry": { "type": "Polygon", "coordinates": [ [ [ 348387.894201424205676, 3770606.612410986796021 ], [ 348387.283825025428087, 3770606.002034587785602 ], [ 348387.283825025428087, 3770605.696846388746053 ], [ 348386.978636826039292, 3770605.391658189240843 ], [ 348386.978636826039292, 3770605.086469989735633 ], [ 348386.673448626650497, 3770604.781281790230423 ], [ 348386.673448626650497, 3770604.476093591190875 ], [ 348386.368260427261703, 3770604.170905391685665 ], [ 348386.368260427261703, 3770603.865717192180455 ], [ 348386.063072227872908, 3770603.560528992675245 ], [ 348386.063072227872908, 3770603.255340793635696 ], [ 348385.757884028484114, 3770602.950152594130486 ], [ 348385.757884028484114, 3770602.644964394625276 ], [ 348385.452695829095319, 3770602.339776195120066 ], [ 348385.452695829095319, 3770602.034587996080518 ], [ 348385.147507629706524, 3770601.729399796575308 ], [ 348385.147507629706524, 3770601.424211597070098 ], [ 348384.84231943031773, 3770601.119023397564888 ], [ 348384.84231943031773, 3770600.813835198525339 ], [ 348384.231943031540141, 3770600.20345879951492 ], [ 348384.231943031540141, 3770599.89827060000971 ], [ 348383.621566632762551, 3770599.287894201464951 ], [ 348383.621566632762551, 3770595.625635808799416 ], [ 348383.316378433373757, 3770595.320447609294206 ], [ 348383.316378433373757, 3770595.015259409788996 ], [ 348385.452695829095319, 3770595.015259409788996 ], [ 348385.757884028484114, 3770594.710071210749447 ], [ 348387.589013224816881, 3770594.710071210749447 ], [ 348388.19938962359447, 3770594.099694811739028 ], [ 348388.80976602237206, 3770594.099694811739028 ], [ 348389.114954221760854, 3770593.794506612233818 ], [ 348389.420142421149649, 3770594.099694811739028 ], [ 348389.420142421149649, 3770595.320447609294206 ], [ 348389.725330620538443, 3770595.625635808799416 ], [ 348390.335707019316033, 3770595.625635808799416 ], [ 348390.335707019316033, 3770606.307222787290812 ], [ 348389.725330620538443, 3770606.307222787290812 ], [ 348389.420142421149649, 3770606.612410986796021 ], [ 348387.894201424205676, 3770606.612410986796021 ] ] ] } },
{ "type": "Feature", "properties": { "confidence": 0.94231945276260376, "class": 1, "regularized": null }, "geometry": { "type": "Polygon", "coordinates": [ [ [ 348437.334689725306816, 3770618.209562563803047 ], [ 348437.029501525918022, 3770617.904374364297837 ], [ 348436.724313326529227, 3770617.904374364297837 ], [ 348436.724313326529227, 3770617.599186164792627 ], [ 348436.419125127140433, 3770617.293997965287417 ], [ 348436.419125127140433, 3770616.378433367237449 ], [ 348436.724313326529227, 3770616.073245167732239 ], [ 348436.724313326529227, 3770615.46286876918748 ], [ 348437.029501525918022, 3770615.15768056968227 ], [ 348437.029501525918022, 3770614.85249237017706 ], [ 348437.639877924695611, 3770614.242115971632302 ], [ 348437.639877924695611, 3770613.936927772127092 ], [ 348437.945066124084406, 3770613.936927772127092 ], [ 348438.2502543234732, 3770613.631739572621882 ], [ 348438.2502543234732, 3770613.326551373116672 ], [ 348440.081383519864175, 3770611.495422177016735 ], [ 348440.081383519864175, 3770611.190233977511525 ], [ 348440.38657171925297, 3770610.885045778006315 ], [ 348440.38657171925297, 3770610.579857578966767 ], [ 348440.691759918641765, 3770610.274669379461557 ], [ 348440.691759918641765, 3770609.664292980451137 ], [ 348444.659206510696094, 3770609.664292980451137 ], [ 348444.659206510696094, 3770610.274669379461557 ], [ 348444.048830111918505, 3770610.885045778006315 ], [ 348444.048830111918505, 3770611.190233977511525 ], [ 348443.743641912529711, 3770611.495422177016735 ], [ 348443.743641912529711, 3770611.800610376521945 ], [ 348443.438453713140916, 3770612.105798575561494 ], [ 348443.438453713140916, 3770612.410986775066704 ], [ 348443.133265513752121, 3770612.716174974571913 ], [ 348443.133265513752121, 3770613.021363174077123 ], [ 348442.522889114974532, 3770613.631739572621882 ], [ 348442.522889114974532, 3770613.936927772127092 ], [ 348441.912512716196943, 3770614.547304171137512 ], [ 348441.912512716196943, 3770614.85249237017706 ], [ 348441.302136317419354, 3770615.46286876918748 ], [ 348441.302136317419354, 3770615.76805696869269 ], [ 348440.691759918641765, 3770616.378433367237449 ], [ 348440.691759918641765, 3770616.683621566742659 ], [ 348439.471007121086586, 3770617.904374364297837 ], [ 348438.860630722250789, 3770617.904374364297837 ], [ 348438.555442522861995, 3770618.209562563803047 ], [ 348437.334689725306816, 3770618.209562563803047 ] ] ] } },
{ "type": "Feature", "properties": { "confidence": 0.93482226133346558, "class": 1, "regularized": null }, "geometry": { "type": "Polygon", "coordinates": [ [ [ 348447.100712105806451, 3770553.50966429291293 ], [ 348446.185147507640067, 3770552.594099694862962 ], [ 348446.185147507640067, 3770551.678535096812993 ], [ 348445.879959308251273, 3770551.373346897307783 ], [ 348445.879959308251273, 3770549.542217700742185 ], [ 348445.574771108862478, 3770549.237029501702636 ], [ 348445.574771108862478, 3770548.321464903187007 ], [ 348445.879959308251273, 3770548.016276704147458 ], [ 348446.185147507640067, 3770548.016276704147458 ], [ 348446.490335707028862, 3770547.711088504642248 ], [ 348448.32146490336163, 3770547.711088504642248 ], [ 348448.626653102750424, 3770548.016276704147458 ], [ 348449.237029501528013, 3770548.016276704147458 ], [ 348449.542217700916808, 3770548.321464903187007 ], [ 348449.847405900305603, 3770548.321464903187007 ], [ 348450.152594099694397, 3770548.626653102692217 ], [ 348450.457782299083192, 3770548.626653102692217 ], [ 348450.762970498471987, 3770548.931841302197427 ], [ 348451.983723296027165, 3770548.931841302197427 ], [ 348452.28891149541596, 3770549.237029501702636 ], [ 348452.594099694804754, 3770549.237029501702636 ], [ 348452.899287894193549, 3770549.542217700742185 ], [ 348453.204476093582343, 3770549.542217700742185 ], [ 348453.204476093582343, 3770550.457782299257815 ], [ 348452.899287894193549, 3770550.457782299257815 ], [ 348452.594099694804754, 3770550.762970498297364 ], [ 348452.28891149541596, 3770550.762970498297364 ], [ 348451.373346897249576, 3770551.678535096812993 ], [ 348451.068158697860781, 3770551.678535096812993 ], [ 348450.762970498471987, 3770551.983723295852542 ], [ 348450.457782299083192, 3770551.983723295852542 ], [ 348450.152594099694397, 3770552.288911495357752 ], [ 348449.542217700916808, 3770552.288911495357752 ], [ 348448.931841302139219, 3770552.899287894368172 ], [ 348448.626653102750424, 3770552.899287894368172 ], [ 348448.32146490336163, 3770553.20447609340772 ], [ 348448.016276703972835, 3770553.20447609340772 ], [ 348447.71108850458404, 3770553.50966429291293 ], [ 348447.100712105806451, 3770553.50966429291293 ] ] ] } },
{ "type": "Feature", "properties": { "confidence": 0.90117555856704712, "class": 1, "regularized": null }, "geometry": { "type": "Polygon", "coordinates": [ [ [ 348398.880976602260489, 3770729.298067141324282 ], [ 348398.2706002034829, 3770728.687690742779523 ], [ 348397.965412004094105, 3770728.687690742779523 ], [ 348397.660223804705311, 3770728.382502543274313 ], [ 348397.049847405927721, 3770728.382502543274313 ], [ 348395.523906408925541, 3770726.856561546213925 ], [ 348395.218718209536746, 3770726.856561546213925 ], [ 348393.692777212592773, 3770725.330620549153537 ], [ 348393.387589013203979, 3770725.330620549153537 ], [ 348393.387589013203979, 3770723.19430315354839 ], [ 348394.303153611370362, 3770722.278738555498421 ], [ 348394.303153611370362, 3770721.973550355993211 ], [ 348394.608341810759157, 3770721.668362156488001 ], [ 348394.608341810759157, 3770721.363173957448453 ], [ 348395.218718209536746, 3770720.752797558438033 ], [ 348395.218718209536746, 3770720.447609358932823 ], [ 348396.439471007150132, 3770719.226856561377645 ], [ 348396.744659206538927, 3770719.226856561377645 ], [ 348397.049847405927721, 3770718.921668362338096 ], [ 348398.575788402871694, 3770718.921668362338096 ], [ 348398.880976602260489, 3770719.226856561377645 ], [ 348399.491353001038078, 3770719.226856561377645 ], [ 348399.796541200426873, 3770719.532044760882854 ], [ 348400.101729399815667, 3770719.532044760882854 ], [ 348401.017293997982051, 3770720.447609358932823 ], [ 348401.017293997982051, 3770720.752797558438033 ], [ 348401.322482197370846, 3770721.057985757943243 ], [ 348401.62767039675964, 3770721.057985757943243 ], [ 348403.763987792481203, 3770723.19430315354839 ], [ 348403.763987792481203, 3770726.856561546213925 ], [ 348403.458799593092408, 3770727.161749745719135 ], [ 348403.458799593092408, 3770727.466937945224345 ], [ 348403.153611393703613, 3770727.466937945224345 ], [ 348402.848423194314819, 3770727.772126144263893 ], [ 348402.543234994926024, 3770727.772126144263893 ], [ 348402.23804679553723, 3770728.077314343769103 ], [ 348401.62767039675964, 3770728.077314343769103 ], [ 348401.017293997982051, 3770728.687690742779523 ], [ 348400.712105798593257, 3770728.687690742779523 ], [ 348400.406917599204462, 3770728.992878941819072 ], [ 348400.101729399815667, 3770728.992878941819072 ], [ 348399.796541200426873, 3770729.298067141324282 ], [ 348398.880976602260489, 3770729.298067141324282 ] ] ] } },
{ "type": "Feature", "properties": { "confidence": 0.88891637325286865, "class": 1, "regularized": null }, "geometry": { "type": "Polygon", "coordinates": [ [ [ 348497.76195320446277, 3770756.154628687538207 ], [ 348497.456765005073976, 3770755.849440488498658 ], [ 348496.846388606296387, 3770755.849440488498658 ], [ 348496.846388606296387, 3770753.71312309242785 ], [ 348496.541200406907592, 3770753.407934893388301 ], [ 348496.541200406907592, 3770752.797558494377881 ], [ 348496.236012207518797, 3770752.492370294872671 ], [ 348496.236012207518797, 3770751.576805696822703 ], [ 348495.930824008130003, 3770751.271617497317493 ], [ 348495.930824008130003, 3770750.966429298277944 ], [ 348495.015259409963619, 3770750.050864699762315 ], [ 348495.015259409963619, 3770748.219735503662378 ], [ 348495.320447609352414, 3770747.914547304157168 ], [ 348496.236012207518797, 3770747.914547304157168 ], [ 348496.541200406907592, 3770747.609359104651958 ], [ 348497.456765005073976, 3770747.609359104651958 ], [ 348497.76195320446277, 3770747.304170905612409 ], [ 348498.067141403851565, 3770747.304170905612409 ], [ 348498.37232960324036, 3770746.998982706107199 ], [ 348502.339776195294689, 3770746.998982706107199 ], [ 348502.950152594072279, 3770747.609359104651958 ], [ 348502.950152594072279, 3770749.135300101712346 ], [ 348503.255340793461073, 3770749.440488301217556 ], [ 348503.255340793461073, 3770751.271617497317493 ], [ 348502.950152594072279, 3770751.576805696822703 ], [ 348502.950152594072279, 3770752.492370294872671 ], [ 348503.255340793461073, 3770752.797558494377881 ], [ 348503.255340793461073, 3770753.71312309242785 ], [ 348502.950152594072279, 3770754.01831129193306 ], [ 348502.950152594072279, 3770755.544252288993448 ], [ 348502.644964394683484, 3770755.544252288993448 ], [ 348502.339776195294689, 3770755.849440488498658 ], [ 348501.424211597128306, 3770755.849440488498658 ], [ 348501.119023397739511, 3770756.154628687538207 ], [ 348497.76195320446277, 3770756.154628687538207 ] ] ] } },
{ "type": "Feature", "properties": { "confidence": 0.86653393507003784, "class": 1, "regularized": null }, "geometry": { "type": "Polygon", "coordinates": [ [ [ 348384.537131230928935, 3770615.46286876918748 ], [ 348383.926754832151346, 3770614.85249237017706 ], [ 348383.926754832151346, 3770613.936927772127092 ], [ 348383.621566632762551, 3770613.631739572621882 ], [ 348383.926754832151346, 3770613.326551373116672 ], [ 348383.926754832151346, 3770612.716174974571913 ], [ 348382.706002034596168, 3770611.495422177016735 ], [ 348382.706002034596168, 3770611.190233977511525 ], [ 348382.400813835207373, 3770610.885045778006315 ], [ 348382.095625635818578, 3770610.885045778006315 ], [ 348382.095625635818578, 3770610.579857578966767 ], [ 348381.790437436429784, 3770610.274669379461557 ], [ 348381.485249237040989, 3770610.274669379461557 ], [ 348381.485249237040989, 3770609.664292980451137 ], [ 348389.725330620538443, 3770609.664292980451137 ], [ 348389.725330620538443, 3770611.800610376521945 ], [ 348389.420142421149649, 3770612.105798575561494 ], [ 348389.420142421149649, 3770612.410986775066704 ], [ 348388.80976602237206, 3770612.410986775066704 ], [ 348388.504577822983265, 3770612.716174974571913 ], [ 348388.504577822983265, 3770613.021363174077123 ], [ 348387.283825025428087, 3770614.242115971632302 ], [ 348387.283825025428087, 3770614.85249237017706 ], [ 348386.673448626650497, 3770615.46286876918748 ], [ 348384.537131230928935, 3770615.46286876918748 ] ] ] } },
{ "type": "Feature", "properties": { "confidence": 0.85191875696182251, "class": 1, "regularized": null }, "geometry": { "type": "Polygon", "coordinates": [ [ [ 348394.303153611370362, 3770520.244150559417903 ], [ 348393.997965411981568, 3770519.938962359912694 ], [ 348393.692777212592773, 3770519.938962359912694 ], [ 348393.387589013203979, 3770519.633774160873145 ], [ 348393.082400813815184, 3770519.633774160873145 ], [ 348392.777212614426389, 3770519.328585961367935 ], [ 348392.472024415037595, 3770519.328585961367935 ], [ 348392.1668362156488, 3770519.023397761862725 ], [ 348391.861648016260006, 3770519.023397761862725 ], [ 348391.556459816871211, 3770518.718209562357515 ], [ 348390.946083418093622, 3770518.718209562357515 ], [ 348390.640895218704827, 3770518.413021363317966 ], [ 348390.335707019316033, 3770518.413021363317966 ], [ 348390.030518819927238, 3770518.107833163812757 ], [ 348389.725330620538443, 3770518.107833163812757 ], [ 348389.420142421149649, 3770517.802644964307547 ], [ 348389.114954221760854, 3770517.802644964307547 ], [ 348388.19938962359447, 3770516.887080366257578 ], [ 348388.19938962359447, 3770515.97151576820761 ], [ 348388.504577822983265, 3770515.6663275687024 ], [ 348388.504577822983265, 3770515.36113936919719 ], [ 348388.80976602237206, 3770515.05595116969198 ], [ 348389.725330620538443, 3770515.05595116969198 ], [ 348390.030518819927238, 3770515.36113936919719 ], [ 348390.640895218704827, 3770515.36113936919719 ], [ 348390.946083418093622, 3770515.6663275687024 ], [ 348391.556459816871211, 3770515.6663275687024 ], [ 348392.1668362156488, 3770516.276703967247158 ], [ 348392.777212614426389, 3770516.276703967247158 ], [ 348393.082400813815184, 3770516.581892166752368 ], [ 348393.387589013203979, 3770516.581892166752368 ], [ 348393.692777212592773, 3770516.887080366257578 ], [ 348393.997965411981568, 3770516.887080366257578 ], [ 348394.303153611370362, 3770517.192268565762788 ], [ 348394.608341810759157, 3770517.192268565762788 ], [ 348394.913530010147952, 3770517.497456764802337 ], [ 348395.218718209536746, 3770517.497456764802337 ], [ 348395.523906408925541, 3770517.802644964307547 ], [ 348395.829094608314335, 3770517.802644964307547 ], [ 348395.829094608314335, 3770518.413021363317966 ], [ 348395.218718209536746, 3770519.023397761862725 ], [ 348395.218718209536746, 3770519.328585961367935 ], [ 348394.913530010147952, 3770519.633774160873145 ], [ 348394.913530010147952, 3770520.244150559417903 ], [ 348394.303153611370362, 3770520.244150559417903 ] ] ] } },
{ "type": "Feature", "properties": { "confidence": 0.81046891212463379, "class": 1, "regularized": null }, "geometry": { "type": "Polygon", "coordinates": [ [ [ 348377.212614445597865, 3770638.35198372323066 ], [ 348376.602238046820275, 3770637.741607324685901 ], [ 348376.602238046820275, 3770637.436419125180691 ], [ 348376.297049847431481, 3770637.131230925675482 ], [ 348376.297049847431481, 3770636.826042726170272 ], [ 348375.991861648042686, 3770636.520854527130723 ], [ 348375.991861648042686, 3770636.215666327625513 ], [ 348375.686673448653892, 3770635.910478128120303 ], [ 348375.686673448653892, 3770635.605289928615093 ], [ 348375.076297049876302, 3770634.994913530070335 ], [ 348375.076297049876302, 3770634.689725330565125 ], [ 348374.7711088504293, 3770634.384537131059915 ], [ 348374.7711088504293, 3770634.079348932020366 ], [ 348374.465920651040506, 3770633.774160732515156 ], [ 348374.465920651040506, 3770633.468972533009946 ], [ 348374.160732451651711, 3770633.163784333504736 ], [ 348374.160732451651711, 3770631.943031535949558 ], [ 348376.602238046820275, 3770629.501525940839201 ], [ 348376.90742624620907, 3770629.501525940839201 ], [ 348377.212614445597865, 3770629.196337741799653 ], [ 348378.738555442541838, 3770629.196337741799653 ], [ 348379.959308240097016, 3770630.417090539354831 ], [ 348380.264496439485811, 3770630.417090539354831 ], [ 348381.180061037652194, 3770631.332655137404799 ], [ 348381.180061037652194, 3770631.637843336910009 ], [ 348381.485249237040989, 3770631.943031535949558 ], [ 348381.485249237040989, 3770636.826042726170272 ], [ 348380.8748728382634, 3770637.436419125180691 ], [ 348380.264496439485811, 3770637.436419125180691 ], [ 348379.959308240097016, 3770637.741607324685901 ], [ 348379.654120040708221, 3770637.741607324685901 ], [ 348379.348931841319427, 3770638.04679552372545 ], [ 348378.738555442541838, 3770638.04679552372545 ], [ 348378.433367243153043, 3770638.35198372323066 ], [ 348377.212614445597865, 3770638.35198372323066 ] ] ] } },
{ "type": "Feature", "properties": { "confidence": 0.74537491798400879, "class": 1, "regularized": null }, "geometry": { "type": "Polygon", "coordinates": [ [ [ 348393.997965411981568, 3770734.791454730555415 ], [ 348393.692777212592773, 3770734.486266531050205 ], [ 348393.387589013203979, 3770734.486266531050205 ], [ 348393.082400813815184, 3770734.181078331544995 ], [ 348392.777212614426389, 3770734.181078331544995 ], [ 348392.1668362156488, 3770733.570701933000237 ], [ 348391.861648016260006, 3770733.570701933000237 ], [ 348391.251271617482416, 3770732.960325533989817 ], [ 348390.946083418093622, 3770732.960325533989817 ], [ 348390.335707019316033, 3770732.349949135445058 ], [ 348390.030518819927238, 3770732.349949135445058 ], [ 348389.420142421149649, 3770731.739572736434639 ], [ 348389.420142421149649, 3770730.82400813838467 ], [ 348389.725330620538443, 3770730.51881993887946 ], [ 348389.725330620538443, 3770729.908443540334702 ], [ 348390.030518819927238, 3770729.603255340829492 ], [ 348390.030518819927238, 3770729.298067141324282 ], [ 348390.335707019316033, 3770728.992878941819072 ], [ 348390.335707019316033, 3770728.687690742779523 ], [ 348390.946083418093622, 3770728.077314343769103 ], [ 348390.946083418093622, 3770727.772126144263893 ], [ 348391.861648016260006, 3770726.856561546213925 ], [ 348392.472024415037595, 3770726.856561546213925 ], [ 348392.777212614426389, 3770726.551373346708715 ], [ 348393.387589013203979, 3770726.551373346708715 ], [ 348393.997965411981568, 3770727.161749745719135 ], [ 348394.303153611370362, 3770727.161749745719135 ], [ 348394.608341810759157, 3770727.466937945224345 ], [ 348394.913530010147952, 3770727.466937945224345 ], [ 348395.218718209536746, 3770727.772126144263893 ], [ 348395.523906408925541, 3770727.772126144263893 ], [ 348396.439471007150132, 3770728.687690742779523 ], [ 348396.744659206538927, 3770728.687690742779523 ], [ 348397.660223804705311, 3770729.603255340829492 ], [ 348397.355035605316516, 3770729.908443540334702 ], [ 348397.355035605316516, 3770730.51881993887946 ], [ 348397.049847405927721, 3770730.82400813838467 ], [ 348397.049847405927721, 3770731.434384536929429 ], [ 348396.744659206538927, 3770731.739572736434639 ], [ 348396.744659206538927, 3770732.044760935939848 ], [ 348396.439471007150132, 3770732.349949135445058 ], [ 348396.439471007150132, 3770732.655137334484607 ], [ 348395.829094608314335, 3770733.265513733495027 ], [ 348395.829094608314335, 3770733.570701933000237 ], [ 348394.913530010147952, 3770734.486266531050205 ], [ 348394.608341810759157, 3770734.486266531050205 ], [ 348394.303153611370362, 3770734.791454730555415 ], [ 348393.997965411981568, 3770734.791454730555415 ] ] ] } },
{ "type": "Feature", "properties": { "confidence": 0.73915278911590576, "class": 1, "regularized": null }, "geometry": { "type": "Polygon", "coordinates": [ [ [ 348400.101729399815667, 3770764.699898270424455 ], [ 348399.796541200426873, 3770764.394710071384907 ], [ 348398.880976602260489, 3770764.394710071384907 ], [ 348398.880976602260489, 3770764.089521871879697 ], [ 348398.575788402871694, 3770763.784333672374487 ], [ 348398.2706002034829, 3770763.784333672374487 ], [ 348397.965412004094105, 3770763.479145472869277 ], [ 348397.355035605316516, 3770763.479145472869277 ], [ 348397.049847405927721, 3770763.173957273829728 ], [ 348396.13428280770313, 3770763.173957273829728 ], [ 348395.829094608314335, 3770762.868769074324518 ], [ 348395.523906408925541, 3770762.868769074324518 ], [ 348395.523906408925541, 3770761.95320447627455 ], [ 348395.829094608314335, 3770761.64801627676934 ], [ 348395.829094608314335, 3770761.34282807726413 ], [ 348396.13428280770313, 3770761.03763987775892 ], [ 348396.13428280770313, 3770760.732451678719372 ], [ 348396.439471007150132, 3770760.427263479214162 ], [ 348396.439471007150132, 3770760.122075279708952 ], [ 348396.744659206538927, 3770759.816887080203742 ], [ 348396.744659206538927, 3770759.511698881164193 ], [ 348397.965412004094105, 3770758.290946083609015 ], [ 348398.880976602260489, 3770758.290946083609015 ], [ 348399.491353001038078, 3770757.680569684598595 ], [ 348399.796541200426873, 3770757.680569684598595 ], [ 348400.101729399815667, 3770757.375381485093385 ], [ 348400.101729399815667, 3770757.070193286053836 ], [ 348401.322482197370846, 3770757.070193286053836 ], [ 348401.62767039675964, 3770757.375381485093385 ], [ 348401.932858596148435, 3770757.375381485093385 ], [ 348402.23804679553723, 3770757.680569684598595 ], [ 348402.23804679553723, 3770759.206510681658983 ], [ 348401.932858596148435, 3770759.511698881164193 ], [ 348401.932858596148435, 3770760.122075279708952 ], [ 348401.62767039675964, 3770760.427263479214162 ], [ 348401.62767039675964, 3770761.03763987775892 ], [ 348401.322482197370846, 3770761.34282807726413 ], [ 348401.322482197370846, 3770762.258392675314099 ], [ 348401.017293997982051, 3770762.563580874819309 ], [ 348401.017293997982051, 3770764.089521871879697 ], [ 348400.712105798593257, 3770764.394710071384907 ], [ 348400.712105798593257, 3770764.699898270424455 ], [ 348400.101729399815667, 3770764.699898270424455 ] ] ] } },
{ "type": "Feature", "properties": { "confidence": 0.72656846046447754, "class": 1, "regularized": null }, "geometry": { "type": "Polygon", "coordinates": [ [ [ 348398.575788402871694, 3770513.530010173097253 ], [ 348398.2706002034829, 3770513.224821973592043 ], [ 348397.355035605316516, 3770513.224821973592043 ], [ 348397.049847405927721, 3770512.919633774086833 ], [ 348396.744659206538927, 3770512.919633774086833 ], [ 348396.13428280770313, 3770512.309257375542074 ], [ 348395.829094608314335, 3770512.309257375542074 ], [ 348395.218718209536746, 3770511.698880976531655 ], [ 348394.913530010147952, 3770511.698880976531655 ], [ 348394.303153611370362, 3770511.088504577986896 ], [ 348393.997965411981568, 3770511.088504577986896 ], [ 348393.692777212592773, 3770510.783316378481686 ], [ 348393.387589013203979, 3770510.783316378481686 ], [ 348393.082400813815184, 3770510.478128178976476 ], [ 348392.777212614426389, 3770510.478128178976476 ], [ 348392.472024415037595, 3770510.172939979471266 ], [ 348392.1668362156488, 3770510.172939979471266 ], [ 348391.861648016260006, 3770509.867751780431718 ], [ 348391.861648016260006, 3770508.952187181916088 ], [ 348392.777212614426389, 3770508.036622583866119 ], [ 348393.387589013203979, 3770508.036622583866119 ], [ 348393.692777212592773, 3770507.731434384360909 ], [ 348394.303153611370362, 3770507.731434384360909 ], [ 348394.608341810759157, 3770507.426246185321361 ], [ 348394.913530010147952, 3770507.426246185321361 ], [ 348395.218718209536746, 3770507.731434384360909 ], [ 348396.439471007150132, 3770507.731434384360909 ], [ 348396.744659206538927, 3770508.036622583866119 ], [ 348397.049847405927721, 3770508.036622583866119 ], [ 348397.355035605316516, 3770508.341810783371329 ], [ 348397.660223804705311, 3770508.341810783371329 ], [ 348397.660223804705311, 3770508.646998982876539 ], [ 348397.965412004094105, 3770508.952187181916088 ], [ 348397.965412004094105, 3770509.257375381421298 ], [ 348398.880976602260489, 3770510.172939979471266 ], [ 348399.796541200426873, 3770510.172939979471266 ], [ 348400.101729399815667, 3770510.478128178976476 ], [ 348400.101729399815667, 3770512.309257375542074 ], [ 348399.796541200426873, 3770512.614445574581623 ], [ 348399.796541200426873, 3770513.530010173097253 ], [ 348398.575788402871694, 3770513.530010173097253 ] ] ] } },
{ "type": "Feature", "properties": { "confidence": 0.70076566934585571, "class": 1, "regularized": null }, "geometry": { "type": "Polygon", "coordinates": [ [ [ 348245.066124109842349, 3770612.410986775066704 ], [ 348244.760935910453554, 3770612.105798575561494 ], [ 348244.45574771106476, 3770612.105798575561494 ], [ 348244.150559511675965, 3770611.800610376521945 ], [ 348243.84537131228717, 3770611.800610376521945 ], [ 348242.319430315343197, 3770610.274669379461557 ], [ 348242.319430315343197, 3770609.664292980451137 ], [ 348247.812817904399708, 3770609.664292980451137 ], [ 348247.812817904399708, 3770611.800610376521945 ], [ 348247.202441505622119, 3770612.410986775066704 ], [ 348245.066124109842349, 3770612.410986775066704 ] ] ] } },
{ "type": "Feature", "properties": { "confidence": 0.67615514993667603, "class": 1, "regularized": null }, "geometry": { "type": "Polygon", "coordinates": [ [ [ 348469.379450661246665, 3770740.590030518826097 ], [ 348469.07426246185787, 3770740.284842319320887 ], [ 348468.769074262469076, 3770740.284842319320887 ], [ 348468.769074262469076, 3770736.927772126160562 ], [ 348469.379450661246665, 3770736.927772126160562 ], [ 348469.684638860635459, 3770737.232960325665772 ], [ 348470.905391658190638, 3770737.232960325665772 ], [ 348471.210579857579432, 3770737.538148524705321 ], [ 348471.515768056968227, 3770737.538148524705321 ], [ 348471.820956256357022, 3770737.843336724210531 ], [ 348471.820956256357022, 3770738.14852492371574 ], [ 348472.126144455745816, 3770738.45371312322095 ], [ 348472.126144455745816, 3770738.758901322260499 ], [ 348472.431332655134611, 3770739.064089521765709 ], [ 348472.431332655134611, 3770739.369277721270919 ], [ 348472.126144455745816, 3770739.674465920776129 ], [ 348471.820956256357022, 3770739.674465920776129 ], [ 348471.515768056968227, 3770739.979654119815677 ], [ 348471.210579857579432, 3770739.979654119815677 ], [ 348470.905391658190638, 3770740.284842319320887 ], [ 348469.684638860635459, 3770740.284842319320887 ], [ 348469.379450661246665, 3770740.590030518826097 ] ] ] } },
{ "type": "Feature", "properties": { "confidence": 0.67590826749801636, "class": 1, "regularized": null }, "geometry": { "type": "Polygon", "coordinates": [ [ [ 348532.858596134290565, 3770636.215666327625513 ], [ 348532.248219735512976, 3770635.605289928615093 ], [ 348532.248219735512976, 3770635.300101729575545 ], [ 348531.637843336735386, 3770634.689725330565125 ], [ 348531.637843336735386, 3770634.079348932020366 ], [ 348531.332655137346592, 3770633.774160732515156 ], [ 348531.332655137346592, 3770632.858596134465188 ], [ 348531.027466937957797, 3770632.553407934959978 ], [ 348531.027466937957797, 3770630.72227873839438 ], [ 348530.722278738569003, 3770630.417090539354831 ], [ 348530.722278738569003, 3770629.806714140344411 ], [ 348530.417090539180208, 3770629.501525940839201 ], [ 348530.417090539180208, 3770627.670396744739264 ], [ 348530.722278738569003, 3770627.365208545234054 ], [ 348530.722278738569003, 3770627.060020345728844 ], [ 348531.332655137346592, 3770626.449643947184086 ], [ 348531.332655137346592, 3770626.144455747678876 ], [ 348531.943031536124181, 3770625.534079349134117 ], [ 348531.943031536124181, 3770625.228891149628907 ], [ 348532.55340793490177, 3770624.618514750618488 ], [ 348534.079348931845743, 3770624.618514750618488 ], [ 348534.689725330623332, 3770625.228891149628907 ], [ 348534.994913530012127, 3770625.228891149628907 ], [ 348534.994913530012127, 3770626.144455747678876 ], [ 348535.300101729400922, 3770626.449643947184086 ], [ 348535.300101729400922, 3770627.975584944244474 ], [ 348535.605289928789716, 3770628.280773143284023 ], [ 348535.605289928789716, 3770628.585961342789233 ], [ 348535.910478128178511, 3770628.891149542294443 ], [ 348535.910478128178511, 3770629.501525940839201 ], [ 348536.215666327567305, 3770629.806714140344411 ], [ 348536.215666327567305, 3770630.72227873839438 ], [ 348536.5208545269561, 3770631.02746693789959 ], [ 348536.5208545269561, 3770631.637843336910009 ], [ 348536.826042726344895, 3770631.943031535949558 ], [ 348536.826042726344895, 3770634.994913530070335 ], [ 348536.5208545269561, 3770635.300101729575545 ], [ 348535.910478128178511, 3770635.300101729575545 ], [ 348535.605289928789716, 3770635.605289928615093 ], [ 348534.689725330623332, 3770635.605289928615093 ], [ 348534.079348931845743, 3770636.215666327625513 ], [ 348532.858596134290565, 3770636.215666327625513 ] ] ] } },
{ "type": "Feature", "properties": { "confidence": 0.65748381614685059, "class": 1, "regularized": null }, "geometry": { "type": "Polygon", "coordinates": [ [ [ 348434.89318413019646, 3770640.793489318341017 ], [ 348434.587995930807665, 3770640.488301118835807 ], [ 348433.977619532030076, 3770640.488301118835807 ], [ 348433.672431332641281, 3770640.183112919796258 ], [ 348433.367243133252487, 3770640.183112919796258 ], [ 348432.756866734474897, 3770639.572736520785838 ], [ 348432.756866734474897, 3770639.267548321280628 ], [ 348432.451678535086103, 3770638.96236012224108 ], [ 348432.146490335697308, 3770638.96236012224108 ], [ 348431.841302136308514, 3770638.65717192273587 ], [ 348431.841302136308514, 3770638.04679552372545 ], [ 348431.536113936919719, 3770637.741607324685901 ], [ 348431.841302136308514, 3770637.741607324685901 ], [ 348432.146490335697308, 3770637.436419125180691 ], [ 348432.146490335697308, 3770637.131230925675482 ], [ 348432.451678535086103, 3770636.826042726170272 ], [ 348432.451678535086103, 3770636.215666327625513 ], [ 348432.756866734474897, 3770635.910478128120303 ], [ 348432.756866734474897, 3770634.994913530070335 ], [ 348433.062054933863692, 3770634.689725330565125 ], [ 348433.062054933863692, 3770634.079348932020366 ], [ 348433.367243133252487, 3770634.079348932020366 ], [ 348433.672431332641281, 3770634.384537131059915 ], [ 348433.977619532030076, 3770634.384537131059915 ], [ 348434.28280773141887, 3770634.689725330565125 ], [ 348435.808748728362843, 3770634.689725330565125 ], [ 348436.113936927751638, 3770634.994913530070335 ], [ 348436.724313326529227, 3770634.994913530070335 ], [ 348437.029501525918022, 3770635.300101729575545 ], [ 348437.334689725306816, 3770635.300101729575545 ], [ 348437.639877924695611, 3770635.605289928615093 ], [ 348437.945066124084406, 3770635.605289928615093 ], [ 348438.2502543234732, 3770635.910478128120303 ], [ 348438.555442522861995, 3770635.910478128120303 ], [ 348438.555442522861995, 3770636.826042726170272 ], [ 348437.945066124084406, 3770637.436419125180691 ], [ 348437.945066124084406, 3770637.741607324685901 ], [ 348437.639877924695611, 3770638.04679552372545 ], [ 348437.639877924695611, 3770638.35198372323066 ], [ 348437.334689725306816, 3770638.65717192273587 ], [ 348437.334689725306816, 3770639.267548321280628 ], [ 348437.029501525918022, 3770639.572736520785838 ], [ 348437.029501525918022, 3770640.488301118835807 ], [ 348436.724313326529227, 3770640.793489318341017 ], [ 348434.89318413019646, 3770640.793489318341017 ] ] ] } },
{ "type": "Feature", "properties": { "confidence": 0.64177334308624268, "class": 1, "regularized": null }, "geometry": { "type": "Polygon", "coordinates": [ [ [ 348384.231943031540141, 3770611.800610376521945 ], [ 348383.926754832151346, 3770611.495422177016735 ], [ 348383.621566632762551, 3770611.495422177016735 ], [ 348382.706002034596168, 3770610.579857578966767 ], [ 348382.400813835207373, 3770610.579857578966767 ], [ 348382.095625635818578, 3770610.274669379461557 ], [ 348382.095625635818578, 3770609.664292980451137 ], [ 348388.80976602237206, 3770609.664292980451137 ], [ 348388.80976602237206, 3770611.190233977511525 ], [ 348388.504577822983265, 3770611.190233977511525 ], [ 348388.19938962359447, 3770611.495422177016735 ], [ 348387.283825025428087, 3770611.495422177016735 ], [ 348386.978636826039292, 3770611.800610376521945 ], [ 348384.231943031540141, 3770611.800610376521945 ] ] ] } },
{ "type": "Feature", "properties": { "confidence": 0.63549870252609253, "class": 1, "regularized": null }, "geometry": { "type": "Polygon", "coordinates": [ [ [ 348482.807731434411835, 3770725.940996948163956 ], [ 348482.50254323502304, 3770725.635808748658746 ], [ 348481.586978636798449, 3770725.635808748658746 ], [ 348481.281790437409654, 3770725.330620549153537 ], [ 348479.755849440465681, 3770725.330620549153537 ], [ 348479.450661241076887, 3770725.025432350113988 ], [ 348478.840284842299297, 3770725.025432350113988 ], [ 348478.840284842299297, 3770724.720244150608778 ], [ 348478.535096642910503, 3770724.415055951103568 ], [ 348478.535096642910503, 3770723.19430315354839 ], [ 348479.145473041688092, 3770722.583926755003631 ], [ 348479.145473041688092, 3770722.278738555498421 ], [ 348479.450661241076887, 3770722.278738555498421 ], [ 348480.061037639854476, 3770721.668362156488001 ], [ 348480.97660223802086, 3770721.668362156488001 ], [ 348481.281790437409654, 3770721.363173957448453 ], [ 348481.586978636798449, 3770721.668362156488001 ], [ 348484.028484231967013, 3770721.668362156488001 ], [ 348484.333672431355808, 3770721.973550355993211 ], [ 348484.333672431355808, 3770722.278738555498421 ], [ 348484.638860630744603, 3770722.583926755003631 ], [ 348484.638860630744603, 3770722.88911495404318 ], [ 348484.944048830133397, 3770723.19430315354839 ], [ 348484.944048830133397, 3770724.109867751598358 ], [ 348485.249237029522192, 3770724.415055951103568 ], [ 348485.249237029522192, 3770725.635808748658746 ], [ 348484.638860630744603, 3770725.635808748658746 ], [ 348484.333672431355808, 3770725.940996948163956 ], [ 348482.807731434411835, 3770725.940996948163956 ] ] ] } },
{ "type": "Feature", "properties": { "confidence": 0.60559111833572388, "class": 1, "regularized": null }, "geometry": { "type": "Polygon", "coordinates": [ [ [ 348478.229908443521708, 3770534.282807731535286 ], [ 348477.924720244132914, 3770533.977619532030076 ], [ 348477.619532044744119, 3770533.977619532030076 ], [ 348477.314343845355324, 3770533.672431332524866 ], [ 348477.00915564596653, 3770533.672431332524866 ], [ 348476.703967446577735, 3770533.367243133485317 ], [ 348476.398779247188941, 3770533.367243133485317 ], [ 348475.788402848411351, 3770532.756866734474897 ], [ 348475.178026449633762, 3770532.756866734474897 ], [ 348474.567650050856173, 3770532.146490335930139 ], [ 348473.957273652078584, 3770532.146490335930139 ], [ 348473.957273652078584, 3770531.841302136424929 ], [ 348473.346897253300995, 3770531.230925737414509 ], [ 348473.346897253300995, 3770530.010172939859331 ], [ 348473.957273652078584, 3770529.399796541314572 ], [ 348474.567650050856173, 3770529.399796541314572 ], [ 348474.872838250244968, 3770529.094608341809362 ], [ 348475.483214649022557, 3770529.094608341809362 ], [ 348475.788402848411351, 3770528.789420142304152 ], [ 348477.00915564596653, 3770528.789420142304152 ], [ 348477.314343845355324, 3770528.484231942798942 ], [ 348477.619532044744119, 3770528.484231942798942 ], [ 348477.924720244132914, 3770528.179043743759394 ], [ 348478.229908443521708, 3770528.179043743759394 ], [ 348478.535096642910503, 3770527.873855544254184 ], [ 348478.535096642910503, 3770527.263479145243764 ], [ 348478.840284842299297, 3770526.958290946204215 ], [ 348479.145473041688092, 3770526.958290946204215 ], [ 348479.450661241076887, 3770526.653102746699005 ], [ 348480.061037639854476, 3770526.653102746699005 ], [ 348480.36622583924327, 3770526.958290946204215 ], [ 348481.281790437409654, 3770526.958290946204215 ], [ 348481.586978636798449, 3770527.263479145243764 ], [ 348481.586978636798449, 3770529.399796541314572 ], [ 348481.281790437409654, 3770529.704984740819782 ], [ 348481.281790437409654, 3770531.230925737414509 ], [ 348480.97660223802086, 3770531.536113936919719 ], [ 348480.97660223802086, 3770532.146490335930139 ], [ 348480.671414038632065, 3770532.451678534969687 ], [ 348480.671414038632065, 3770533.977619532030076 ], [ 348480.36622583924327, 3770534.282807731535286 ], [ 348478.229908443521708, 3770534.282807731535286 ] ] ] } },
{ "type": "Feature", "properties": { "confidence": 0.60170590877532959, "class": 1, "regularized": null }, "geometry": { "type": "Polygon", "coordinates": [ [ [ 348534.079348931845743, 3770730.82400813838467 ], [ 348533.774160732456949, 3770730.51881993887946 ], [ 348533.468972533068154, 3770730.51881993887946 ], [ 348532.858596134290565, 3770729.908443540334702 ], [ 348532.858596134290565, 3770728.992878941819072 ], [ 348532.55340793490177, 3770728.687690742779523 ], [ 348532.55340793490177, 3770728.382502543274313 ], [ 348532.858596134290565, 3770728.077314343769103 ], [ 348532.858596134290565, 3770727.466937945224345 ], [ 348537.436419125122484, 3770727.466937945224345 ], [ 348538.046795523900073, 3770728.077314343769103 ], [ 348538.657171922677662, 3770728.077314343769103 ], [ 348538.657171922677662, 3770728.382502543274313 ], [ 348538.351983723288868, 3770728.687690742779523 ], [ 348538.351983723288868, 3770728.992878941819072 ], [ 348537.131230925733689, 3770730.21363173937425 ], [ 348537.131230925733689, 3770730.51881993887946 ], [ 348536.826042726344895, 3770730.51881993887946 ], [ 348536.5208545269561, 3770730.82400813838467 ], [ 348534.079348931845743, 3770730.82400813838467 ] ] ] } },
{ "type": "Feature", "properties": { "confidence": 0.59088069200515747, "class": 1, "regularized": null }, "geometry": { "type": "Polygon", "coordinates": [ [ [ 348397.660223804705311, 3770747.609359104651958 ], [ 348397.355035605316516, 3770747.304170905612409 ], [ 348396.13428280770313, 3770747.304170905612409 ], [ 348395.829094608314335, 3770746.998982706107199 ], [ 348395.218718209536746, 3770746.998982706107199 ], [ 348394.913530010147952, 3770746.693794506601989 ], [ 348394.608341810759157, 3770746.693794506601989 ], [ 348394.303153611370362, 3770746.388606307096779 ], [ 348393.997965411981568, 3770746.388606307096779 ], [ 348393.082400813815184, 3770745.473041709046811 ], [ 348392.777212614426389, 3770745.473041709046811 ], [ 348391.556459816871211, 3770744.252288911491632 ], [ 348391.251271617482416, 3770744.252288911491632 ], [ 348390.946083418093622, 3770743.947100711986423 ], [ 348390.946083418093622, 3770743.336724313441664 ], [ 348391.251271617482416, 3770743.031536113936454 ], [ 348391.251271617482416, 3770742.726347914431244 ], [ 348391.556459816871211, 3770742.421159714926034 ], [ 348391.556459816871211, 3770742.115971515886486 ], [ 348392.1668362156488, 3770741.505595116876066 ], [ 348395.218718209536746, 3770741.505595116876066 ], [ 348395.829094608314335, 3770740.895218718331307 ], [ 348396.13428280770313, 3770740.895218718331307 ], [ 348396.439471007150132, 3770740.590030518826097 ], [ 348397.355035605316516, 3770740.590030518826097 ], [ 348397.660223804705311, 3770740.895218718331307 ], [ 348397.965412004094105, 3770740.895218718331307 ], [ 348398.880976602260489, 3770741.810783316381276 ], [ 348399.186164801649284, 3770741.810783316381276 ], [ 348399.796541200426873, 3770742.421159714926034 ], [ 348400.101729399815667, 3770742.421159714926034 ], [ 348401.017293997982051, 3770743.336724313441664 ], [ 348401.017293997982051, 3770743.641912512946874 ], [ 348401.322482197370846, 3770743.947100711986423 ], [ 348401.322482197370846, 3770745.473041709046811 ], [ 348401.017293997982051, 3770745.778229908552021 ], [ 348401.017293997982051, 3770746.998982706107199 ], [ 348400.406917599204462, 3770747.609359104651958 ], [ 348397.660223804705311, 3770747.609359104651958 ] ] ] } },
{ "type": "Feature", "properties": { "confidence": 0.57552528381347656, "class": 1, "regularized": null }, "geometry": { "type": "Polygon", "coordinates": [ [ [ 348428.484231943031773, 3770498.575788402929902 ], [ 348427.873855544254184, 3770497.965412003919482 ], [ 348427.873855544254184, 3770495.829094608314335 ], [ 348427.568667344865389, 3770495.523906408809125 ], [ 348427.568667344865389, 3770493.997965412214398 ], [ 348427.263479145476595, 3770493.692777212709188 ], [ 348427.263479145476595, 3770492.47202441515401 ], [ 348431.230925737530924, 3770492.47202441515401 ], [ 348431.230925737530924, 3770496.134282807819545 ], [ 348430.92573753814213, 3770496.439471007324755 ], [ 348430.92573753814213, 3770497.660223804879934 ], [ 348430.620549338753335, 3770497.965412003919482 ], [ 348430.620549338753335, 3770498.270600203424692 ], [ 348430.315361139364541, 3770498.575788402929902 ], [ 348428.484231943031773, 3770498.575788402929902 ] ] ] } },
{ "type": "Feature", "properties": { "confidence": 0.54270356893539429, "class": 1, "regularized": null }, "geometry": { "type": "Polygon", "coordinates": [ [ [ 348479.145473041688092, 3770683.825025432277471 ], [ 348474.872838250244968, 3770679.552390641067177 ], [ 348474.872838250244968, 3770679.247202441561967 ], [ 348474.567650050856173, 3770678.942014242056757 ], [ 348474.567650050856173, 3770678.636826042551547 ], [ 348474.262461851467378, 3770678.331637843511999 ], [ 348474.262461851467378, 3770677.721261444501579 ], [ 348474.567650050856173, 3770677.416073244996369 ], [ 348474.567650050856173, 3770677.11088504595682 ], [ 348474.872838250244968, 3770677.11088504595682 ], [ 348475.178026449633762, 3770676.80569684645161 ], [ 348476.703967446577735, 3770676.80569684645161 ], [ 348477.00915564596653, 3770677.11088504595682 ], [ 348478.840284842299297, 3770677.11088504595682 ], [ 348479.145473041688092, 3770677.416073244996369 ], [ 348479.450661241076887, 3770677.416073244996369 ], [ 348479.450661241076887, 3770677.721261444501579 ], [ 348480.36622583924327, 3770678.636826042551547 ], [ 348480.36622583924327, 3770679.247202441561967 ], [ 348480.671414038632065, 3770679.552390641067177 ], [ 348480.671414038632065, 3770679.857578840106726 ], [ 348480.97660223802086, 3770680.162767039611936 ], [ 348480.97660223802086, 3770680.467955239117146 ], [ 348481.281790437409654, 3770680.773143438622355 ], [ 348481.281790437409654, 3770681.078331637661904 ], [ 348481.586978636798449, 3770681.383519837167114 ], [ 348481.586978636798449, 3770683.214649033732712 ], [ 348480.97660223802086, 3770683.825025432277471 ], [ 348479.145473041688092, 3770683.825025432277471 ] ] ] } },
{ "type": "Feature", "properties": { "confidence": 0.5282588005065918, "class": 1, "regularized": null }, "geometry": { "type": "Polygon", "coordinates": [ [ [ 348484.028484231967013, 3770961.241098677739501 ], [ 348483.723296032578219, 3770960.935910478234291 ], [ 348483.418107833189424, 3770960.935910478234291 ], [ 348483.11291963380063, 3770960.630722278729081 ], [ 348483.11291963380063, 3770959.715157680679113 ], [ 348483.418107833189424, 3770959.409969481173903 ], [ 348483.418107833189424, 3770959.104781281668693 ], [ 348484.944048830133397, 3770957.578840285073966 ], [ 348486.164801627688576, 3770957.578840285073966 ], [ 348486.46998982707737, 3770957.884028484113514 ], [ 348486.775178026466165, 3770957.884028484113514 ], [ 348486.775178026466165, 3770958.494404883123934 ], [ 348487.080366225854959, 3770958.799593082629144 ], [ 348487.080366225854959, 3770959.409969481173903 ], [ 348486.775178026466165, 3770959.715157680679113 ], [ 348486.775178026466165, 3770960.325534079223871 ], [ 348486.164801627688576, 3770960.935910478234291 ], [ 348485.554425228910986, 3770960.935910478234291 ], [ 348485.249237029522192, 3770961.241098677739501 ], [ 348484.028484231967013, 3770961.241098677739501 ] ] ] } },
{ "type": "Feature", "properties": { "confidence": 0.50979781150817871, "class": 1, "regularized": null }, "geometry": { "type": "Polygon", "coordinates": [ [ [ 348476.703967446577735, 3770497.660223804879934 ], [ 348476.703967446577735, 3770495.523906408809125 ], [ 348477.00915564596653, 3770495.218718209769577 ], [ 348477.00915564596653, 3770493.997965412214398 ], [ 348476.703967446577735, 3770493.692777212709188 ], [ 348477.00915564596653, 3770493.387589013203979 ], [ 348477.00915564596653, 3770492.47202441515401 ], [ 348482.197355035634246, 3770492.47202441515401 ], [ 348482.197355035634246, 3770493.082400813698769 ], [ 348482.50254323502304, 3770493.387589013203979 ], [ 348481.892166836187243, 3770493.997965412214398 ], [ 348481.892166836187243, 3770494.303153611253947 ], [ 348480.36622583924327, 3770495.829094608314335 ], [ 348480.061037639854476, 3770495.829094608314335 ], [ 348479.755849440465681, 3770496.134282807819545 ], [ 348479.450661241076887, 3770496.134282807819545 ], [ 348479.145473041688092, 3770496.439471007324755 ], [ 348479.145473041688092, 3770496.744659206364304 ], [ 348478.840284842299297, 3770497.049847405869514 ], [ 348478.535096642910503, 3770497.049847405869514 ], [ 348478.229908443521708, 3770497.355035605374724 ], [ 348477.619532044744119, 3770497.355035605374724 ], [ 348477.314343845355324, 3770497.660223804879934 ], [ 348476.703967446577735, 3770497.660223804879934 ] ] ] } },
{ "type": "Feature", "properties": { "confidence": 0.50819605588912964, "class": 1, "regularized": null }, "geometry": { "type": "Polygon", "coordinates": [ [ [ 348496.846388606296387, 3770756.459816887043417 ], [ 348496.541200406907592, 3770756.154628687538207 ], [ 348496.236012207518797, 3770756.154628687538207 ], [ 348495.930824008130003, 3770755.849440488498658 ], [ 348496.236012207518797, 3770755.544252288993448 ], [ 348496.236012207518797, 3770754.62868769094348 ], [ 348495.930824008130003, 3770754.32349949143827 ], [ 348496.236012207518797, 3770754.01831129193306 ], [ 348496.236012207518797, 3770753.71312309242785 ], [ 348497.151576805685181, 3770752.797558494377881 ], [ 348497.151576805685181, 3770752.492370294872671 ], [ 348497.76195320446277, 3770751.881993896327913 ], [ 348497.76195320446277, 3770751.576805696822703 ], [ 348498.37232960324036, 3770750.966429298277944 ], [ 348498.677517802629154, 3770750.966429298277944 ], [ 348498.982706002017949, 3770750.661241098772734 ], [ 348502.644964394683484, 3770750.661241098772734 ], [ 348502.644964394683484, 3770750.966429298277944 ], [ 348502.950152594072279, 3770751.271617497317493 ], [ 348502.950152594072279, 3770755.544252288993448 ], [ 348502.644964394683484, 3770755.849440488498658 ], [ 348502.644964394683484, 3770756.154628687538207 ], [ 348500.203458799573127, 3770756.154628687538207 ], [ 348499.898270600184333, 3770756.459816887043417 ], [ 348496.846388606296387, 3770756.459816887043417 ] ] ] } },
{ "type": "Feature", "properties": { "confidence": 0.50478905439376831, "class": 1, "regularized": null }, "geometry": { "type": "Polygon", "coordinates": [ [ [ 348362.563580874877516, 3770791.86164801614359 ], [ 348362.258392675488722, 3770791.556459817104042 ], [ 348361.342828077322338, 3770791.556459817104042 ], [ 348360.427263479155954, 3770790.640895218588412 ], [ 348360.427263479155954, 3770790.335707019548863 ], [ 348360.732451678544749, 3770790.030518820043653 ], [ 348360.732451678544749, 3770789.420142421033233 ], [ 348361.037639877933543, 3770789.114954221993685 ], [ 348361.037639877933543, 3770788.199389623478055 ], [ 348361.342828077322338, 3770787.894201424438506 ], [ 348361.342828077322338, 3770787.589013224933296 ], [ 348361.648016276711132, 3770787.283825025428087 ], [ 348361.648016276711132, 3770785.14750762982294 ], [ 348361.953204476099927, 3770784.84231943031773 ], [ 348363.4791454730439, 3770784.84231943031773 ], [ 348364.089521871821489, 3770784.23194303130731 ], [ 348364.394710071210284, 3770784.23194303130731 ], [ 348364.699898270599078, 3770783.926754832267761 ], [ 348365.615462868765462, 3770783.926754832267761 ], [ 348365.920651068154257, 3770784.23194303130731 ], [ 348366.225839267543051, 3770784.23194303130731 ], [ 348366.225839267543051, 3770784.53713123081252 ], [ 348366.836215666320641, 3770785.14750762982294 ], [ 348366.836215666320641, 3770786.673448626883328 ], [ 348367.141403865709435, 3770786.978636825922877 ], [ 348367.141403865709435, 3770787.283825025428087 ], [ 348366.836215666320641, 3770787.589013224933296 ], [ 348366.836215666320641, 3770787.894201424438506 ], [ 348365.920651068154257, 3770788.809766022488475 ], [ 348365.920651068154257, 3770789.114954221993685 ], [ 348365.310274669376668, 3770789.725330620538443 ], [ 348365.310274669376668, 3770790.030518820043653 ], [ 348363.784333672432695, 3770791.556459817104042 ], [ 348363.173957273655105, 3770791.556459817104042 ], [ 348362.868769074266311, 3770791.86164801614359 ], [ 348362.563580874877516, 3770791.86164801614359 ] ] ] } },
{ "type": "Feature", "properties": { "confidence": 0.48632273077964783, "class": 1, "regularized": null }, "geometry": { "type": "Polygon", "coordinates": [ [ [ 348469.379450661246665, 3770620.040691759902984 ], [ 348469.07426246185787, 3770619.735503560397774 ], [ 348468.769074262469076, 3770619.735503560397774 ], [ 348467.548321464913897, 3770618.514750762842596 ], [ 348467.243133265525103, 3770618.514750762842596 ], [ 348466.937945066136308, 3770618.209562563803047 ], [ 348466.632756866747513, 3770618.209562563803047 ], [ 348466.022380467969924, 3770617.599186164792627 ], [ 348466.022380467969924, 3770617.293997965287417 ], [ 348465.71719226858113, 3770616.988809766247869 ], [ 348465.71719226858113, 3770616.683621566742659 ], [ 348465.412004069192335, 3770616.378433367237449 ], [ 348465.412004069192335, 3770615.76805696869269 ], [ 348465.10681586980354, 3770615.46286876918748 ], [ 348465.10681586980354, 3770613.326551373116672 ], [ 348465.412004069192335, 3770613.021363174077123 ], [ 348465.412004069192335, 3770612.410986775066704 ], [ 348465.71719226858113, 3770612.105798575561494 ], [ 348465.71719226858113, 3770611.800610376521945 ], [ 348466.327568667358719, 3770611.190233977511525 ], [ 348466.632756866747513, 3770611.190233977511525 ], [ 348466.937945066136308, 3770610.885045778006315 ], [ 348469.684638860635459, 3770610.885045778006315 ], [ 348469.989827060024254, 3770611.190233977511525 ], [ 348470.295015259413049, 3770611.190233977511525 ], [ 348470.600203458801843, 3770611.495422177016735 ], [ 348470.600203458801843, 3770612.105798575561494 ], [ 348471.210579857579432, 3770612.716174974571913 ], [ 348471.210579857579432, 3770613.021363174077123 ], [ 348471.515768056968227, 3770613.326551373116672 ], [ 348471.515768056968227, 3770613.631739572621882 ], [ 348472.126144455745816, 3770614.242115971632302 ], [ 348472.126144455745816, 3770614.547304171137512 ], [ 348472.431332655134611, 3770614.85249237017706 ], [ 348472.431332655134611, 3770615.46286876918748 ], [ 348472.736520854523405, 3770615.76805696869269 ], [ 348472.736520854523405, 3770616.988809766247869 ], [ 348473.0417090539122, 3770617.293997965287417 ], [ 348473.0417090539122, 3770618.209562563803047 ], [ 348472.736520854523405, 3770618.514750762842596 ], [ 348472.736520854523405, 3770618.819938962347806 ], [ 348471.820956256357022, 3770619.735503560397774 ], [ 348471.515768056968227, 3770619.735503560397774 ], [ 348471.210579857579432, 3770620.040691759902984 ], [ 348469.379450661246665, 3770620.040691759902984 ] ] ] } },
{ "type": "Feature", "properties": { "confidence": 0.44191792607307434, "class": 1, "regularized": null }, "geometry": { "type": "Polygon", "coordinates": [ [ [ 348468.769074262469076, 3770578.229908443521708 ], [ 348468.769074262469076, 3770569.07426246162504 ], [ 348469.684638860635459, 3770569.07426246162504 ], [ 348469.989827060024254, 3770569.37945066113025 ], [ 348470.295015259413049, 3770569.37945066113025 ], [ 348472.736520854523405, 3770571.820956256240606 ], [ 348472.736520854523405, 3770572.126144455745816 ], [ 348473.652085452689789, 3770573.041709053795785 ], [ 348473.652085452689789, 3770573.652085452806205 ], [ 348473.346897253300995, 3770573.957273652311414 ], [ 348473.346897253300995, 3770574.262461851350963 ], [ 348473.0417090539122, 3770574.567650050856173 ], [ 348473.0417090539122, 3770574.872838250361383 ], [ 348472.736520854523405, 3770575.178026449866593 ], [ 348472.736520854523405, 3770575.788402848411351 ], [ 348472.431332655134611, 3770576.093591047916561 ], [ 348472.431332655134611, 3770576.398779247421771 ], [ 348471.515768056968227, 3770577.31434384547174 ], [ 348471.210579857579432, 3770577.31434384547174 ], [ 348470.600203458801843, 3770577.924720244016498 ], [ 348470.295015259413049, 3770577.924720244016498 ], [ 348469.989827060024254, 3770578.229908443521708 ], [ 348468.769074262469076, 3770578.229908443521708 ] ] ] } },
{ "type": "Feature", "properties": { "confidence": 0.40298506617546082, "class": 1, "regularized": null }, "geometry": { "type": "Polygon", "coordinates": [ [ [ 348508.443540183128789, 3770737.232960325665772 ], [ 348508.138351983739994, 3770736.927772126160562 ], [ 348507.527975584962405, 3770736.927772126160562 ], [ 348506.612410986796021, 3770736.012207528110594 ], [ 348506.307222787407227, 3770736.012207528110594 ], [ 348506.307222787407227, 3770735.707019328605384 ], [ 348506.002034588018432, 3770735.401831129100174 ], [ 348505.696846388629638, 3770735.401831129100174 ], [ 348505.696846388629638, 3770735.096642929594964 ], [ 348505.391658189240843, 3770734.791454730555415 ], [ 348505.391658189240843, 3770734.181078331544995 ], [ 348504.781281790463254, 3770733.570701933000237 ], [ 348504.781281790463254, 3770733.265513733495027 ], [ 348504.476093591074459, 3770732.960325533989817 ], [ 348504.476093591074459, 3770732.655137334484607 ], [ 348504.170905391685665, 3770732.349949135445058 ], [ 348504.170905391685665, 3770729.908443540334702 ], [ 348506.002034588018432, 3770729.908443540334702 ], [ 348506.307222787407227, 3770729.603255340829492 ], [ 348506.307222787407227, 3770729.298067141324282 ], [ 348507.8331637843512, 3770729.298067141324282 ], [ 348508.138351983739994, 3770728.992878941819072 ], [ 348508.748728382517584, 3770728.992878941819072 ], [ 348509.053916581906378, 3770728.687690742779523 ], [ 348509.053916581906378, 3770728.382502543274313 ], [ 348509.664292980683967, 3770728.382502543274313 ], [ 348509.969481180072762, 3770728.077314343769103 ], [ 348510.579857578850351, 3770728.077314343769103 ], [ 348510.885045778239146, 3770727.772126144263893 ], [ 348513.021363173960708, 3770727.772126144263893 ], [ 348513.021363173960708, 3770728.687690742779523 ], [ 348513.631739572738297, 3770729.298067141324282 ], [ 348513.631739572738297, 3770730.51881993887946 ], [ 348514.242115971515886, 3770731.12919633788988 ], [ 348514.242115971515886, 3770731.434384536929429 ], [ 348514.547304170904681, 3770731.739572736434639 ], [ 348514.547304170904681, 3770732.044760935939848 ], [ 348514.852492370293476, 3770732.349949135445058 ], [ 348514.852492370293476, 3770733.265513733495027 ], [ 348514.547304170904681, 3770733.570701933000237 ], [ 348514.547304170904681, 3770734.181078331544995 ], [ 348514.242115971515886, 3770734.486266531050205 ], [ 348514.242115971515886, 3770735.707019328605384 ], [ 348513.936927772127092, 3770736.012207528110594 ], [ 348513.936927772127092, 3770736.317395727150142 ], [ 348513.326551373349503, 3770736.927772126160562 ], [ 348513.021363173960708, 3770736.927772126160562 ], [ 348512.716174974571913, 3770737.232960325665772 ], [ 348508.443540183128789, 3770737.232960325665772 ] ] ] } },
{ "type": "Feature", "properties": { "confidence": 0.38971710205078125, "class": 1, "regularized": null }, "geometry": { "type": "Polygon", "coordinates": [ [ [ 348383.011190233984962, 3770594.099694811739028 ], [ 348382.706002034596168, 3770593.794506612233818 ], [ 348382.706002034596168, 3770593.489318413194269 ], [ 348382.400813835207373, 3770593.184130213689059 ], [ 348382.400813835207373, 3770592.878942014183849 ], [ 348382.095625635818578, 3770592.573753814678639 ], [ 348382.095625635818578, 3770591.963377416133881 ], [ 348381.790437436429784, 3770591.658189216628671 ], [ 348382.095625635818578, 3770591.353001017123461 ], [ 348382.095625635818578, 3770591.047812818083912 ], [ 348383.316378433373757, 3770589.827060020528734 ], [ 348383.621566632762551, 3770589.827060020528734 ], [ 348384.231943031540141, 3770589.216683621518314 ], [ 348384.537131230928935, 3770589.216683621518314 ], [ 348384.84231943031773, 3770588.911495422013104 ], [ 348385.147507629706524, 3770588.911495422013104 ], [ 348385.452695829095319, 3770588.606307222973555 ], [ 348385.757884028484114, 3770588.606307222973555 ], [ 348386.063072227872908, 3770588.301119023468345 ], [ 348386.368260427261703, 3770588.301119023468345 ], [ 348386.978636826039292, 3770587.690742624457926 ], [ 348387.283825025428087, 3770587.690742624457926 ], [ 348387.589013224816881, 3770587.385554425418377 ], [ 348387.894201424205676, 3770587.385554425418377 ], [ 348388.19938962359447, 3770587.080366225913167 ], [ 348388.504577822983265, 3770587.080366225913167 ], [ 348388.80976602237206, 3770586.775178026407957 ], [ 348390.946083418093622, 3770586.775178026407957 ], [ 348390.946083418093622, 3770587.690742624457926 ], [ 348391.251271617482416, 3770587.995930823963135 ], [ 348391.251271617482416, 3770588.911495422013104 ], [ 348391.556459816871211, 3770589.216683621518314 ], [ 348391.556459816871211, 3770590.132248219568282 ], [ 348391.251271617482416, 3770590.437436419073492 ], [ 348391.251271617482416, 3770591.047812818083912 ], [ 348390.946083418093622, 3770591.047812818083912 ], [ 348390.335707019316033, 3770591.658189216628671 ], [ 348390.030518819927238, 3770591.658189216628671 ], [ 348389.725330620538443, 3770591.963377416133881 ], [ 348389.420142421149649, 3770591.963377416133881 ], [ 348388.504577822983265, 3770592.878942014183849 ], [ 348387.894201424205676, 3770592.878942014183849 ], [ 348387.589013224816881, 3770593.184130213689059 ], [ 348386.673448626650497, 3770593.184130213689059 ], [ 348386.063072227872908, 3770593.794506612233818 ], [ 348385.757884028484114, 3770593.794506612233818 ], [ 348385.452695829095319, 3770594.099694811739028 ], [ 348383.011190233984962, 3770594.099694811739028 ] ] ] } },
{ "type": "Feature", "properties": { "confidence": 0.33796817064285278, "class": 1, "regularized": null }, "geometry": { "type": "Polygon", "coordinates": [ [ [ 348232.858596134290565, 3770919.125127161853015 ], [ 348232.248219735512976, 3770918.514750762842596 ], [ 348232.248219735512976, 3770918.209562563803047 ], [ 348231.943031536124181, 3770917.904374364297837 ], [ 348231.943031536124181, 3770916.988809766247869 ], [ 348232.248219735512976, 3770916.683621566742659 ], [ 348232.858596134290565, 3770916.683621566742659 ], [ 348233.163784333679359, 3770916.378433367237449 ], [ 348233.468972533068154, 3770916.378433367237449 ], [ 348233.774160732456949, 3770916.073245167732239 ], [ 348234.079348931845743, 3770916.073245167732239 ], [ 348234.384537131234538, 3770915.76805696869269 ], [ 348235.300101729400922, 3770915.76805696869269 ], [ 348235.910478128178511, 3770916.378433367237449 ], [ 348235.910478128178511, 3770918.819938962347806 ], [ 348234.994913530012127, 3770918.819938962347806 ], [ 348234.689725330623332, 3770919.125127161853015 ], [ 348232.858596134290565, 3770919.125127161853015 ] ] ] } },
{ "type": "Feature", "properties": { "confidence": 0.33482098579406738, "class": 1, "regularized": null }, "geometry": { "type": "Polygon", "coordinates": [ [ [ 348410.172939979645889, 3770504.374364191200584 ], [ 348409.867751780257095, 3770504.069175991695374 ], [ 348408.952187182090711, 3770504.069175991695374 ], [ 348408.646998982701916, 3770503.763987792655826 ], [ 348408.341810783313122, 3770503.763987792655826 ], [ 348408.036622583924327, 3770503.458799593150616 ], [ 348407.426246185146738, 3770503.458799593150616 ], [ 348407.121057985757943, 3770503.153611393645406 ], [ 348406.815869786369149, 3770503.153611393645406 ], [ 348406.510681586980354, 3770502.848423194140196 ], [ 348406.205493387591559, 3770502.848423194140196 ], [ 348405.900305188202765, 3770502.543234995100647 ], [ 348405.59511698881397, 3770502.543234995100647 ], [ 348405.289928789425176, 3770502.238046795595437 ], [ 348404.679552390647586, 3770502.238046795595437 ], [ 348404.374364191258792, 3770501.932858596090227 ], [ 348403.763987792481203, 3770501.932858596090227 ], [ 348403.458799593092408, 3770501.627670396585017 ], [ 348403.153611393703613, 3770501.627670396585017 ], [ 348402.848423194314819, 3770501.322482197545469 ], [ 348402.543234994926024, 3770501.322482197545469 ], [ 348402.543234994926024, 3770501.017293998040259 ], [ 348402.23804679553723, 3770500.712105798535049 ], [ 348402.23804679553723, 3770498.880976602435112 ], [ 348401.932858596148435, 3770498.575788402929902 ], [ 348401.932858596148435, 3770497.965412003919482 ], [ 348404.984740590036381, 3770497.965412003919482 ], [ 348405.289928789425176, 3770498.270600203424692 ], [ 348405.59511698881397, 3770498.270600203424692 ], [ 348406.205493387591559, 3770498.880976602435112 ], [ 348406.815869786369149, 3770498.880976602435112 ], [ 348407.121057985757943, 3770499.186164801474661 ], [ 348408.341810783313122, 3770499.186164801474661 ], [ 348408.646998982701916, 3770499.491353000979871 ], [ 348408.952187182090711, 3770499.491353000979871 ], [ 348409.257375381479505, 3770499.79654120048508 ], [ 348409.867751780257095, 3770499.79654120048508 ], [ 348410.172939979645889, 3770500.10172939999029 ], [ 348410.478128179034684, 3770500.10172939999029 ], [ 348411.698880976589862, 3770501.322482197545469 ], [ 348412.004069175978657, 3770501.322482197545469 ], [ 348412.309257375367451, 3770501.627670396585017 ], [ 348412.614445574756246, 3770501.627670396585017 ], [ 348412.919633774145041, 3770501.932858596090227 ], [ 348413.224821973533835, 3770501.932858596090227 ], [ 348413.224821973533835, 3770502.848423194140196 ], [ 348412.919633774145041, 3770503.153611393645406 ], [ 348412.919633774145041, 3770503.763987792655826 ], [ 348412.614445574756246, 3770503.763987792655826 ], [ 348412.004069175978657, 3770504.374364191200584 ], [ 348410.172939979645889, 3770504.374364191200584 ] ] ] } },
{ "type": "Feature", "properties": { "confidence": 0.28438961505889893, "class": 1, "regularized": null }, "geometry": { "type": "Polygon", "coordinates": [ [ [ 348370.193285859597381, 3770738.45371312322095 ], [ 348369.888097660208587, 3770738.14852492371574 ], [ 348369.888097660208587, 3770732.349949135445058 ], [ 348370.498474058986176, 3770731.739572736434639 ], [ 348370.80366225837497, 3770731.739572736434639 ], [ 348371.108850457763765, 3770731.434384536929429 ], [ 348371.108850457763765, 3770731.12919633788988 ], [ 348372.024415055930149, 3770730.21363173937425 ], [ 348372.024415055930149, 3770729.908443540334702 ], [ 348372.329603255318943, 3770729.603255340829492 ], [ 348372.329603255318943, 3770728.992878941819072 ], [ 348373.855544252262916, 3770728.992878941819072 ], [ 348373.855544252262916, 3770729.298067141324282 ], [ 348375.381485249265097, 3770730.82400813838467 ], [ 348375.686673448653892, 3770730.82400813838467 ], [ 348375.686673448653892, 3770731.12919633788988 ], [ 348375.991861648042686, 3770731.434384536929429 ], [ 348375.991861648042686, 3770732.349949135445058 ], [ 348375.686673448653892, 3770732.655137334484607 ], [ 348375.686673448653892, 3770734.181078331544995 ], [ 348375.381485249265097, 3770734.486266531050205 ], [ 348375.381485249265097, 3770735.096642929594964 ], [ 348375.076297049876302, 3770735.401831129100174 ], [ 348375.076297049876302, 3770736.012207528110594 ], [ 348374.7711088504293, 3770736.317395727150142 ], [ 348374.7711088504293, 3770736.927772126160562 ], [ 348374.465920651040506, 3770737.232960325665772 ], [ 348374.465920651040506, 3770737.843336724210531 ], [ 348374.160732451651711, 3770738.14852492371574 ], [ 348373.855544252262916, 3770738.14852492371574 ], [ 348373.550356052874122, 3770738.45371312322095 ], [ 348370.193285859597381, 3770738.45371312322095 ] ] ] } },
{ "type": "Feature", "properties": { "confidence": 0.25911539793014526, "class": 1, "regularized": null }, "geometry": { "type": "Polygon", "coordinates": [ [ [ 348403.153611393703613, 3770520.244150559417903 ], [ 348402.848423194314819, 3770519.938962359912694 ], [ 348401.932858596148435, 3770519.938962359912694 ], [ 348401.62767039675964, 3770519.633774160873145 ], [ 348401.017293997982051, 3770519.633774160873145 ], [ 348400.406917599204462, 3770519.023397761862725 ], [ 348400.406917599204462, 3770518.718209562357515 ], [ 348399.796541200426873, 3770518.107833163812757 ], [ 348399.491353001038078, 3770518.107833163812757 ], [ 348399.491353001038078, 3770515.36113936919719 ], [ 348399.796541200426873, 3770515.05595116969198 ], [ 348399.796541200426873, 3770514.750762970652431 ], [ 348400.101729399815667, 3770514.445574771147221 ], [ 348400.101729399815667, 3770513.835198372136801 ], [ 348400.406917599204462, 3770513.530010173097253 ], [ 348400.406917599204462, 3770512.309257375542074 ], [ 348400.712105798593257, 3770512.309257375542074 ], [ 348401.017293997982051, 3770512.004069176036865 ], [ 348401.017293997982051, 3770511.393692777026445 ], [ 348401.62767039675964, 3770511.393692777026445 ], [ 348401.932858596148435, 3770511.698880976531655 ], [ 348402.543234994926024, 3770511.698880976531655 ], [ 348403.153611393703613, 3770512.309257375542074 ], [ 348403.763987792481203, 3770512.309257375542074 ], [ 348403.763987792481203, 3770512.614445574581623 ], [ 348404.069175991869997, 3770512.919633774086833 ], [ 348404.374364191258792, 3770512.919633774086833 ], [ 348404.374364191258792, 3770513.224821973592043 ], [ 348404.679552390647586, 3770513.530010173097253 ], [ 348404.679552390647586, 3770515.05595116969198 ], [ 348404.984740590036381, 3770515.36113936919719 ], [ 348404.984740590036381, 3770520.244150559417903 ], [ 348403.153611393703613, 3770520.244150559417903 ] ] ] } },
{ "type": "Feature", "properties": { "confidence": 0.25332185626029968, "class": 1, "regularized": null }, "geometry": { "type": "Polygon", "coordinates": [ [ [ 348247.507629705010913, 3770655.747711088508368 ], [ 348247.202441505622119, 3770655.442522889003158 ], [ 348247.202441505622119, 3770655.137334689497948 ], [ 348246.897253306233324, 3770654.832146490458399 ], [ 348246.897253306233324, 3770653.306205493398011 ], [ 348246.59206510684453, 3770653.001017293892801 ], [ 348246.59206510684453, 3770652.085452695842832 ], [ 348246.286876907397527, 3770651.780264496337622 ], [ 348246.286876907397527, 3770651.169888097792864 ], [ 348245.981688708008733, 3770650.864699898287654 ], [ 348245.981688708008733, 3770649.643947100732476 ], [ 348245.676500508619938, 3770649.338758901227266 ], [ 348245.676500508619938, 3770648.118006103672087 ], [ 348245.981688708008733, 3770647.812817904166877 ], [ 348245.981688708008733, 3770647.202441505622119 ], [ 348246.59206510684453, 3770646.592065106611699 ], [ 348248.423194303177297, 3770646.592065106611699 ], [ 348248.728382502566092, 3770646.897253306116909 ], [ 348248.728382502566092, 3770647.202441505622119 ], [ 348249.94913530012127, 3770648.423194303177297 ], [ 348251.169888097676449, 3770648.423194303177297 ], [ 348251.475076297065243, 3770648.118006103672087 ], [ 348251.475076297065243, 3770647.812817904166877 ], [ 348251.780264496454038, 3770648.118006103672087 ], [ 348252.085452695842832, 3770648.118006103672087 ], [ 348252.390640895231627, 3770648.423194303177297 ], [ 348252.390640895231627, 3770649.033570701722056 ], [ 348252.695829094620422, 3770649.338758901227266 ], [ 348252.695829094620422, 3770650.254323499277234 ], [ 348253.001017294009216, 3770650.559511698782444 ], [ 348253.001017294009216, 3770651.169888097792864 ], [ 348253.306205493398011, 3770651.475076296832412 ], [ 348253.306205493398011, 3770654.221770091447979 ], [ 348252.390640895231627, 3770655.137334689497948 ], [ 348250.864699898287654, 3770655.137334689497948 ], [ 348250.559511698898859, 3770655.442522889003158 ], [ 348249.94913530012127, 3770655.442522889003158 ], [ 348249.643947100732476, 3770655.747711088508368 ], [ 348247.507629705010913, 3770655.747711088508368 ] ] ] } }
]
}
