{
"type": "FeatureCollection",
"name": "cell_00486_pre",
"crs": { "type": "name", "properties": { "name": "urn:ogc:def:crs:EPSG::32611" } },
"features": [
{ "type": "Feature", "properties": { "confidence": 0.92238515615463257, "class": 1 }, "geometry": { "type": "Polygon", "coordinates": [ [ [ 401748.524923702934757, 3783130.315361139364541 ], [ 401748.219735503545962, 3783130.010172939859331 ], [ 401748.219735503545962, 3783129.704984740819782 ], [ 401748.524923702934757, 3783129.399796541314572 ], [ 401748.524923702934757, 3783128.484231942798942 ], [ 401749.135300101712346, 3783127.873855544254184 ], [ 401749.135300101712346, 3783127.568667344748974 ], [ 401751.271617497433908, 3783125.432349949143827 ], [ 401752.492370294989087, 3783125.432349949143827 ], [ 401752.797558494377881, 3783125.127161749638617 ], [ 401753.102746693766676, 3783125.127161749638617 ], [ 401753.102746693766676, 3783125.432349949143827 ], [ 401753.40793489315547, 3783125.737538148649037 ], [ 401753.40793489315547, 3783126.347914547193795 ], [ 401753.102746693766676, 3783126.653102746699005 ], [ 401753.102746693766676, 3783126.958290946204215 ], [ 401752.492370294989087, 3783127.568667344748974 ], [ 401752.492370294989087, 3783128.179043743759394 ], [ 401751.271617497433908, 3783129.399796541314572 ], [ 401751.271617497433908, 3783129.704984740819782 ], [ 401750.966429298045114, 3783130.010172939859331 ], [ 401750.661241098656319, 3783130.010172939859331 ], [ 401750.356052899267524, 3783130.315361139364541 ], [ 401748.524923702934757, 3783130.315361139364541 ] ] ] } },
{ "type": "Feature", "properties": { "confidence": 0.85879188776016235, "class": 1 }, "geometry": { "type": "Polygon", "coordinates": [ [ [ 401793.082400813815184, 3783329.298067141324282 ], [ 401792.472024415037595, 3783328.687690742779523 ], [ 401792.1668362156488, 3783328.687690742779523 ], [ 401791.861648016260006, 3783328.382502543274313 ], [ 401791.556459816871211, 3783328.382502543274313 ], [ 401791.251271617482416, 3783328.077314343769103 ], [ 401790.946083418093622, 3783328.077314343769103 ], [ 401790.640895218704827, 3783327.772126144263893 ], [ 401790.640895218704827, 3783326.856561546213925 ], [ 401796.439471007150132, 3783326.856561546213925 ], [ 401796.439471007150132, 3783327.466937945224345 ], [ 401796.13428280770313, 3783327.772126144263893 ], [ 401795.829094608314335, 3783327.772126144263893 ], [ 401794.913530010147952, 3783328.687690742779523 ], [ 401794.913530010147952, 3783328.992878941819072 ], [ 401794.608341810759157, 3783328.992878941819072 ], [ 401794.303153611370362, 3783329.298067141324282 ], [ 401793.082400813815184, 3783329.298067141324282 ] ] ] } },
{ "type": "Feature", "properties": { "confidence": 0.85773849487304688, "class": 1 }, "geometry": { "type": "Polygon", "coordinates": [ [ [ 401681.078331637836527, 3783072.024415055755526 ], [ 401680.773143438447732, 3783071.719226856715977 ], [ 401680.467955239058938, 3783071.719226856715977 ], [ 401680.162767039670143, 3783071.414038657210767 ], [ 401680.162767039670143, 3783070.498474059160799 ], [ 401679.857578840281349, 3783070.193285859655589 ], [ 401680.162767039670143, 3783069.888097660150379 ], [ 401680.162767039670143, 3783069.27772126160562 ], [ 401680.467955239058938, 3783068.97253306210041 ], [ 401680.467955239058938, 3783068.667344862595201 ], [ 401680.773143438447732, 3783068.362156663089991 ], [ 401680.773143438447732, 3783068.056968464050442 ], [ 401681.993896236002911, 3783066.836215666495264 ], [ 401682.299084435391705, 3783066.836215666495264 ], [ 401682.6042726347805, 3783066.531027466990054 ], [ 401685.045778229890857, 3783066.531027466990054 ], [ 401685.350966429279651, 3783066.836215666495264 ], [ 401685.350966429279651, 3783070.498474059160799 ], [ 401684.740590030502062, 3783071.108850457705557 ], [ 401684.435401831113268, 3783071.108850457705557 ], [ 401684.130213631724473, 3783071.414038657210767 ], [ 401682.909460834169295, 3783071.414038657210767 ], [ 401682.6042726347805, 3783071.719226856715977 ], [ 401681.688708036614116, 3783071.719226856715977 ], [ 401681.383519837225322, 3783072.024415055755526 ], [ 401681.078331637836527, 3783072.024415055755526 ] ] ] } },
{ "type": "Feature", "properties": { "confidence": 0.78032040596008301, "class": 1 }, "geometry": { "type": "Polygon", "coordinates": [ [ [ 401671.007121058006305, 3783095.523906408809125 ], [ 401670.396744659228716, 3783094.913530010264367 ], [ 401670.091556459839921, 3783094.913530010264367 ], [ 401669.175991861673538, 3783093.997965412214398 ], [ 401669.175991861673538, 3783093.692777212709188 ], [ 401668.870803662284743, 3783093.387589013203979 ], [ 401668.870803662284743, 3783092.47202441515401 ], [ 401673.143438453727867, 3783092.47202441515401 ], [ 401673.143438453727867, 3783095.523906408809125 ], [ 401671.007121058006305, 3783095.523906408809125 ] ] ] } },
{ "type": "Feature", "properties": { "confidence": 0.7078014612197876, "class": 1 }, "geometry": { "type": "Polygon", "coordinates": [ [ [ 401697.558494404889643, 3783114.140386571642011 ], [ 401697.253306205500849, 3783113.835198372136801 ], [ 401696.948118006112054, 3783113.835198372136801 ], [ 401696.642929806723259, 3783113.530010173097253 ], [ 401696.642929806723259, 3783112.919633774086833 ], [ 401696.948118006112054, 3783112.614445574581623 ], [ 401696.948118006112054, 3783108.952187181916088 ], [ 401697.253306205500849, 3783108.646998982876539 ], [ 401697.253306205500849, 3783107.731434384360909 ], [ 401697.558494404889643, 3783107.426246185321361 ], [ 401697.558494404889643, 3783107.121057985816151 ], [ 401698.474059003056027, 3783106.205493387766182 ], [ 401698.779247202444822, 3783106.205493387766182 ], [ 401699.389623601222411, 3783105.595116988755763 ], [ 401699.694811800611205, 3783105.595116988755763 ], [ 401700.0, 3783105.289928789250553 ], [ 401702.441505595110357, 3783105.289928789250553 ], [ 401702.746693794499151, 3783105.595116988755763 ], [ 401704.272634791443124, 3783105.595116988755763 ], [ 401704.577822990831919, 3783105.900305188260972 ], [ 401704.577822990831919, 3783109.562563580926508 ], [ 401703.96744659205433, 3783110.172939979471266 ], [ 401703.96744659205433, 3783110.478128178976476 ], [ 401703.662258392665535, 3783110.478128178976476 ], [ 401703.357070193276741, 3783110.783316378481686 ], [ 401703.357070193276741, 3783111.088504577986896 ], [ 401702.136317395721562, 3783112.309257375542074 ], [ 401701.220752797555178, 3783112.309257375542074 ], [ 401700.915564598166384, 3783112.614445574581623 ], [ 401700.610376398777589, 3783112.614445574581623 ], [ 401700.305188199388795, 3783112.919633774086833 ], [ 401700.0, 3783112.919633774086833 ], [ 401699.389623601222411, 3783113.530010173097253 ], [ 401699.084435401833616, 3783113.530010173097253 ], [ 401698.779247202444822, 3783113.835198372136801 ], [ 401698.474059003056027, 3783113.835198372136801 ], [ 401698.168870803667232, 3783114.140386571642011 ], [ 401697.558494404889643, 3783114.140386571642011 ] ] ] } },
{ "type": "Feature", "properties": { "confidence": 0.6760019063949585, "class": 1 }, "geometry": { "type": "Polygon", "coordinates": [ [ [ 401880.97660223802086, 3783325.025432350113988 ], [ 401880.671414038632065, 3783324.720244150608778 ], [ 401880.36622583924327, 3783324.720244150608778 ], [ 401880.36622583924327, 3783324.415055951103568 ], [ 401880.061037639854476, 3783324.109867751598358 ], [ 401880.061037639854476, 3783322.88911495404318 ], [ 401880.36622583924327, 3783322.583926755003631 ], [ 401880.36622583924327, 3783322.278738555498421 ], [ 401880.97660223802086, 3783321.668362156488001 ], [ 401881.281790437409654, 3783321.668362156488001 ], [ 401882.197355035634246, 3783320.752797558438033 ], [ 401883.11291963380063, 3783320.752797558438033 ], [ 401883.418107833189424, 3783320.447609358932823 ], [ 401884.638860630744603, 3783320.447609358932823 ], [ 401884.638860630744603, 3783320.752797558438033 ], [ 401884.944048830133397, 3783321.057985757943243 ], [ 401884.944048830133397, 3783321.363173957448453 ], [ 401885.249237029522192, 3783321.668362156488001 ], [ 401885.249237029522192, 3783322.583926755003631 ], [ 401884.944048830133397, 3783322.88911495404318 ], [ 401884.944048830133397, 3783324.109867751598358 ], [ 401884.638860630744603, 3783324.415055951103568 ], [ 401884.638860630744603, 3783324.720244150608778 ], [ 401884.028484231967013, 3783324.720244150608778 ], [ 401883.723296032578219, 3783325.025432350113988 ], [ 401880.97660223802086, 3783325.025432350113988 ] ] ] } },
{ "type": "Feature", "properties": { "confidence": 0.63335877656936646, "class": 1 }, "geometry": { "type": "Polygon", "coordinates": [ [ [ 401967.955239064118359, 3783314.343845371156931 ], [ 401967.650050864671357, 3783314.038657172117382 ], [ 401967.344862665282562, 3783314.038657172117382 ], [ 401967.344862665282562, 3783313.733468972612172 ], [ 401966.734486266504973, 3783313.123092573601753 ], [ 401966.734486266504973, 3783312.817904374562204 ], [ 401966.429298067116179, 3783312.512716175056994 ], [ 401966.429298067116179, 3783312.207527975551784 ], [ 401966.124109867727384, 3783311.902339776046574 ], [ 401966.124109867727384, 3783311.291963377501816 ], [ 401965.818921668338589, 3783310.986775177996606 ], [ 401965.818921668338589, 3783310.681586978491396 ], [ 401965.513733468949795, 3783310.376398779451847 ], [ 401965.513733468949795, 3783308.545269582886249 ], [ 401966.124109867727384, 3783307.93489318434149 ], [ 401966.734486266504973, 3783307.93489318434149 ], [ 401967.039674465893768, 3783307.62970498483628 ], [ 401967.344862665282562, 3783307.62970498483628 ], [ 401967.650050864671357, 3783307.93489318434149 ], [ 401968.260427263507154, 3783307.93489318434149 ], [ 401968.565615462895948, 3783308.240081383381039 ], [ 401969.786368260451127, 3783308.240081383381039 ], [ 401970.091556459839921, 3783308.545269582886249 ], [ 401970.396744659228716, 3783308.545269582886249 ], [ 401970.701932858617511, 3783308.850457782391459 ], [ 401972.227873855561484, 3783308.850457782391459 ], [ 401972.533062054950278, 3783309.155645981896669 ], [ 401972.533062054950278, 3783309.460834180936217 ], [ 401972.838250254339073, 3783309.766022380441427 ], [ 401972.838250254339073, 3783313.123092573601753 ], [ 401972.533062054950278, 3783313.123092573601753 ], [ 401971.922685656172689, 3783313.733468972612172 ], [ 401971.617497456783894, 3783313.733468972612172 ], [ 401971.3123092573951, 3783314.038657172117382 ], [ 401970.701932858617511, 3783314.038657172117382 ], [ 401970.396744659228716, 3783314.343845371156931 ], [ 401967.955239064118359, 3783314.343845371156931 ] ] ] } },
{ "type": "Feature", "properties": { "confidence": 0.6300361156463623, "class": 1 }, "geometry": { "type": "Polygon", "coordinates": [ [ [ 401670.091556459839921, 3783105.289928789250553 ], [ 401669.786368260451127, 3783104.984740590211004 ], [ 401669.786368260451127, 3783104.069175991695374 ], [ 401669.481180061062332, 3783103.763987792655826 ], [ 401669.481180061062332, 3783103.458799593150616 ], [ 401669.175991861673538, 3783103.153611393645406 ], [ 401669.175991861673538, 3783102.238046795595437 ], [ 401668.870803662284743, 3783101.932858596090227 ], [ 401668.870803662284743, 3783099.186164801474661 ], [ 401669.481180061062332, 3783098.575788402929902 ], [ 401669.786368260451127, 3783098.575788402929902 ], [ 401670.091556459839921, 3783098.270600203424692 ], [ 401671.3123092573951, 3783098.270600203424692 ], [ 401671.617497456783894, 3783098.575788402929902 ], [ 401672.227873855561484, 3783098.575788402929902 ], [ 401672.533062054950278, 3783098.880976602435112 ], [ 401672.533062054950278, 3783104.679552390705794 ], [ 401672.227873855561484, 3783104.984740590211004 ], [ 401671.617497456783894, 3783104.984740590211004 ], [ 401671.3123092573951, 3783105.289928789250553 ], [ 401670.091556459839921, 3783105.289928789250553 ] ] ] } },
{ "type": "Feature", "properties": { "confidence": 0.62413561344146729, "class": 1 }, "geometry": { "type": "Polygon", "coordinates": [ [ [ 401430.824008138326462, 3783113.224821973592043 ], [ 401430.518819938937668, 3783112.919633774086833 ], [ 401429.603255340771284, 3783112.919633774086833 ], [ 401429.298067141382489, 3783112.614445574581623 ], [ 401428.6876907426049, 3783112.614445574581623 ], [ 401428.382502543216106, 3783112.309257375542074 ], [ 401427.161749745660927, 3783112.309257375542074 ], [ 401426.551373346883338, 3783111.698880976531655 ], [ 401426.246185147494543, 3783111.698880976531655 ], [ 401426.246185147494543, 3783111.393692777026445 ], [ 401425.635808748716954, 3783110.783316378481686 ], [ 401425.635808748716954, 3783110.172939979471266 ], [ 401425.33062054932816, 3783109.867751780431718 ], [ 401425.33062054932816, 3783108.036622583866119 ], [ 401425.635808748716954, 3783107.731434384360909 ], [ 401425.635808748716954, 3783107.121057985816151 ], [ 401425.940996948105749, 3783106.815869786310941 ], [ 401425.940996948105749, 3783106.510681586805731 ], [ 401426.246185147494543, 3783106.205493387766182 ], [ 401426.246185147494543, 3783105.900305188260972 ], [ 401426.856561546272133, 3783105.289928789250553 ], [ 401428.992878941993695, 3783105.289928789250553 ], [ 401429.603255340771284, 3783104.679552390705794 ], [ 401429.908443540160079, 3783104.679552390705794 ], [ 401430.213631739548873, 3783104.374364191200584 ], [ 401430.518819938937668, 3783104.679552390705794 ], [ 401430.824008138326462, 3783104.679552390705794 ], [ 401431.129196337715257, 3783104.984740590211004 ], [ 401431.434384537104052, 3783104.984740590211004 ], [ 401431.434384537104052, 3783105.289928789250553 ], [ 401431.739572736492846, 3783105.595116988755763 ], [ 401431.739572736492846, 3783106.205493387766182 ], [ 401432.044760935881641, 3783106.510681586805731 ], [ 401432.044760935881641, 3783106.815869786310941 ], [ 401432.349949135328643, 3783107.121057985816151 ], [ 401432.349949135328643, 3783108.036622583866119 ], [ 401433.265513733495027, 3783108.952187181916088 ], [ 401433.875890132272616, 3783108.952187181916088 ], [ 401434.181078331661411, 3783109.257375381421298 ], [ 401434.181078331661411, 3783109.867751780431718 ], [ 401434.486266531050205, 3783110.172939979471266 ], [ 401434.486266531050205, 3783110.478128178976476 ], [ 401434.181078331661411, 3783110.783316378481686 ], [ 401434.181078331661411, 3783112.309257375542074 ], [ 401433.265513733495027, 3783113.224821973592043 ], [ 401430.824008138326462, 3783113.224821973592043 ] ] ] } },
{ "type": "Feature", "properties": { "confidence": 0.60489147901535034, "class": 1 }, "geometry": { "type": "Polygon", "coordinates": [ [ [ 401913.021363173960708, 3783451.373346897307783 ], [ 401912.716174974571913, 3783451.068158697802573 ], [ 401912.410986775183119, 3783451.068158697802573 ], [ 401912.105798575794324, 3783450.762970498297364 ], [ 401912.105798575794324, 3783450.457782299257815 ], [ 401911.80061037640553, 3783450.152594099752605 ], [ 401911.80061037640553, 3783449.847405900247395 ], [ 401911.495422177016735, 3783449.542217700742185 ], [ 401911.495422177016735, 3783449.237029501702636 ], [ 401911.19023397762794, 3783448.931841302197427 ], [ 401911.19023397762794, 3783448.626653102692217 ], [ 401910.885045778239146, 3783448.321464903187007 ], [ 401910.885045778239146, 3783447.405900305137038 ], [ 401911.495422177016735, 3783447.405900305137038 ], [ 401911.80061037640553, 3783447.100712105631828 ], [ 401912.105798575794324, 3783447.100712105631828 ], [ 401912.410986775183119, 3783446.79552390659228 ], [ 401913.021363173960708, 3783446.79552390659228 ], [ 401913.326551373349503, 3783446.49033570708707 ], [ 401914.852492370293476, 3783446.49033570708707 ], [ 401915.15768056968227, 3783446.18514750758186 ], [ 401915.768056968459859, 3783446.18514750758186 ], [ 401915.768056968459859, 3783446.49033570708707 ], [ 401916.073245167848654, 3783446.79552390659228 ], [ 401916.073245167848654, 3783447.100712105631828 ], [ 401916.683621566626243, 3783447.711088504642248 ], [ 401916.683621566626243, 3783449.237029501702636 ], [ 401916.378433367237449, 3783449.542217700742185 ], [ 401916.378433367237449, 3783449.847405900247395 ], [ 401915.462868769071065, 3783450.762970498297364 ], [ 401915.15768056968227, 3783450.762970498297364 ], [ 401914.547304170904681, 3783451.373346897307783 ], [ 401913.021363173960708, 3783451.373346897307783 ] ] ] } },
{ "type": "Feature", "properties": { "confidence": 0.55869978666305542, "class": 1 }, "geometry": { "type": "Polygon", "coordinates": [ [ [ 401627.060020345903467, 3783091.251271617598832 ], [ 401626.754832146514673, 3783090.946083418093622 ], [ 401626.449643947125878, 3783090.946083418093622 ], [ 401626.144455747737084, 3783090.640895218588412 ], [ 401626.144455747737084, 3783089.725330620538443 ], [ 401626.449643947125878, 3783089.420142421033233 ], [ 401626.449643947125878, 3783088.504577822983265 ], [ 401626.754832146514673, 3783088.199389623478055 ], [ 401626.754832146514673, 3783087.894201424438506 ], [ 401627.060020345903467, 3783087.894201424438506 ], [ 401627.365208545292262, 3783087.589013224933296 ], [ 401627.365208545292262, 3783087.283825025428087 ], [ 401627.670396744681057, 3783086.978636825922877 ], [ 401627.670396744681057, 3783084.84231943031773 ], [ 401627.975584944069851, 3783084.53713123081252 ], [ 401627.975584944069851, 3783084.23194303130731 ], [ 401628.280773143458646, 3783084.23194303130731 ], [ 401628.891149542236235, 3783083.621566632762551 ], [ 401629.19633774162503, 3783083.621566632762551 ], [ 401629.501525941013824, 3783083.316378433257341 ], [ 401632.248219735512976, 3783083.316378433257341 ], [ 401632.55340793490177, 3783083.621566632762551 ], [ 401633.774160732456949, 3783083.621566632762551 ], [ 401634.079348931845743, 3783083.926754832267761 ], [ 401634.384537131234538, 3783083.926754832267761 ], [ 401634.384537131234538, 3783085.452695828862488 ], [ 401634.079348931845743, 3783085.757884028367698 ], [ 401634.079348931845743, 3783086.063072227872908 ], [ 401633.774160732456949, 3783086.368260427378118 ], [ 401633.774160732456949, 3783086.978636825922877 ], [ 401632.248219735512976, 3783088.504577822983265 ], [ 401631.943031536124181, 3783088.504577822983265 ], [ 401631.332655137346592, 3783089.114954221993685 ], [ 401631.027466937957797, 3783089.114954221993685 ], [ 401630.417090539180208, 3783089.725330620538443 ], [ 401630.111902339791413, 3783089.725330620538443 ], [ 401629.501525941013824, 3783090.335707019548863 ], [ 401629.19633774162503, 3783090.335707019548863 ], [ 401628.891149542236235, 3783090.640895218588412 ], [ 401628.280773143458646, 3783090.640895218588412 ], [ 401627.975584944069851, 3783090.946083418093622 ], [ 401627.365208545292262, 3783090.946083418093622 ], [ 401627.060020345903467, 3783091.251271617598832 ] ] ] } },
{ "type": "Feature", "properties": { "confidence": 0.55769270658493042, "class": 1 }, "geometry": { "type": "Polygon", "coordinates": [ [ [ 401670.396744659228716, 3783056.154628687538207 ], [ 401670.091556459839921, 3783055.849440488498658 ], [ 401670.091556459839921, 3783052.187182095833123 ], [ 401669.786368260451127, 3783051.881993896327913 ], [ 401669.786368260451127, 3783051.576805696822703 ], [ 401669.175991861673538, 3783050.966429298277944 ], [ 401669.175991861673538, 3783048.524923703167588 ], [ 401670.091556459839921, 3783048.524923703167588 ], [ 401670.396744659228716, 3783048.219735503662378 ], [ 401671.3123092573951, 3783048.219735503662378 ], [ 401671.617497456783894, 3783048.524923703167588 ], [ 401672.533062054950278, 3783048.524923703167588 ], [ 401672.838250254339073, 3783048.830111902207136 ], [ 401673.143438453727867, 3783048.830111902207136 ], [ 401673.143438453727867, 3783056.154628687538207 ], [ 401670.396744659228716, 3783056.154628687538207 ] ] ] } },
{ "type": "Feature", "properties": { "confidence": 0.53634154796600342, "class": 1 }, "geometry": { "type": "Polygon", "coordinates": [ [ [ 401844.3540183113073, 3783310.376398779451847 ], [ 401844.048830111918505, 3783310.071210579946637 ], [ 401844.048830111918505, 3783308.850457782391459 ], [ 401844.3540183113073, 3783308.545269582886249 ], [ 401844.3540183113073, 3783308.240081383381039 ], [ 401844.659206510696094, 3783308.240081383381039 ], [ 401844.964394710084889, 3783307.93489318434149 ], [ 401845.269582909473684, 3783307.93489318434149 ], [ 401845.879959308251273, 3783307.32451678533107 ], [ 401848.931841302139219, 3783307.32451678533107 ], [ 401849.237029501528013, 3783307.62970498483628 ], [ 401849.542217700916808, 3783307.62970498483628 ], [ 401849.847405900305603, 3783307.93489318434149 ], [ 401849.847405900305603, 3783308.240081383381039 ], [ 401849.542217700916808, 3783308.545269582886249 ], [ 401849.542217700916808, 3783308.850457782391459 ], [ 401849.237029501528013, 3783308.850457782391459 ], [ 401848.931841302139219, 3783309.155645981896669 ], [ 401848.626653102750424, 3783309.155645981896669 ], [ 401848.016276703972835, 3783309.766022380441427 ], [ 401847.100712105806451, 3783309.766022380441427 ], [ 401846.795523906417657, 3783310.071210579946637 ], [ 401844.964394710084889, 3783310.071210579946637 ], [ 401844.659206510696094, 3783310.376398779451847 ], [ 401844.3540183113073, 3783310.376398779451847 ] ] ] } },
{ "type": "Feature", "properties": { "confidence": 0.52873140573501587, "class": 1 }, "geometry": { "type": "Polygon", "coordinates": [ [ [ 401878.229908443521708, 3783446.18514750758186 ], [ 401877.924720244132914, 3783445.87995930807665 ], [ 401877.00915564596653, 3783445.87995930807665 ], [ 401877.00915564596653, 3783445.574771109037101 ], [ 401876.703967446577735, 3783445.269582909531891 ], [ 401876.703967446577735, 3783444.964394710026681 ], [ 401877.314343845355324, 3783444.354018311481923 ], [ 401877.314343845355324, 3783444.048830111976713 ], [ 401882.197355035634246, 3783444.048830111976713 ], [ 401882.197355035634246, 3783444.964394710026681 ], [ 401881.892166836187243, 3783445.269582909531891 ], [ 401881.892166836187243, 3783445.574771109037101 ], [ 401881.586978636798449, 3783445.574771109037101 ], [ 401881.281790437409654, 3783445.87995930807665 ], [ 401880.061037639854476, 3783445.87995930807665 ], [ 401879.755849440465681, 3783446.18514750758186 ], [ 401878.229908443521708, 3783446.18514750758186 ] ] ] } },
{ "type": "Feature", "properties": { "confidence": 0.4764750599861145, "class": 1 }, "geometry": { "type": "Polygon", "coordinates": [ [ [ 401864.496439471025951, 3783296.337741607334465 ], [ 401864.191251271637157, 3783296.032553407829255 ], [ 401863.886063072248362, 3783296.032553407829255 ], [ 401863.275686673470773, 3783295.422177009284496 ], [ 401862.970498474081978, 3783295.422177009284496 ], [ 401862.665310274693184, 3783295.116988809779286 ], [ 401862.360122075304389, 3783295.116988809779286 ], [ 401862.054933875915594, 3783294.811800610274076 ], [ 401861.7497456765268, 3783294.811800610274076 ], [ 401861.444557477138005, 3783294.506612410768867 ], [ 401861.444557477138005, 3783294.201424211729318 ], [ 401861.139369277749211, 3783293.896236012224108 ], [ 401861.139369277749211, 3783293.591047812718898 ], [ 401860.834181078360416, 3783293.285859613213688 ], [ 401860.834181078360416, 3783292.980671414174139 ], [ 401860.528992878913414, 3783292.67548321466893 ], [ 401860.528992878913414, 3783292.06510681565851 ], [ 401860.223804679524619, 3783291.759918616618961 ], [ 401860.223804679524619, 3783289.013224822003394 ], [ 401860.834181078360416, 3783288.402848422992975 ], [ 401860.834181078360416, 3783288.097660223953426 ], [ 401861.444557477138005, 3783287.487283824943006 ], [ 401861.7497456765268, 3783287.487283824943006 ], [ 401862.360122075304389, 3783286.876907426398247 ], [ 401864.801627670414746, 3783286.876907426398247 ], [ 401865.10681586980354, 3783287.182095625437796 ], [ 401865.10681586980354, 3783287.487283824943006 ], [ 401865.412004069192335, 3783287.792472024448216 ], [ 401866.327568667358719, 3783287.792472024448216 ], [ 401866.327568667358719, 3783288.402848422992975 ], [ 401866.632756866747513, 3783288.708036622498184 ], [ 401866.937945066136308, 3783288.708036622498184 ], [ 401867.548321464913897, 3783289.318413021508604 ], [ 401867.853509664302692, 3783289.318413021508604 ], [ 401868.158697863691486, 3783289.623601220548153 ], [ 401868.158697863691486, 3783292.06510681565851 ], [ 401867.853509664302692, 3783292.37029501516372 ], [ 401867.853509664302692, 3783293.896236012224108 ], [ 401866.937945066136308, 3783294.811800610274076 ], [ 401866.937945066136308, 3783295.116988809779286 ], [ 401866.327568667358719, 3783295.727365208324045 ], [ 401866.327568667358719, 3783296.032553407829255 ], [ 401866.022380467969924, 3783296.337741607334465 ], [ 401864.496439471025951, 3783296.337741607334465 ] ] ] } },
{ "type": "Feature", "properties": { "confidence": 0.46911317110061646, "class": 1 }, "geometry": { "type": "Polygon", "coordinates": [ [ [ 401885.554425228910986, 3783456.256358087528497 ], [ 401885.249237029522192, 3783455.951169888023287 ], [ 401884.944048830133397, 3783455.951169888023287 ], [ 401884.638860630744603, 3783455.645981688518077 ], [ 401884.333672431355808, 3783455.645981688518077 ], [ 401883.723296032578219, 3783455.035605289973319 ], [ 401883.418107833189424, 3783455.035605289973319 ], [ 401882.197355035634246, 3783453.81485249241814 ], [ 401882.197355035634246, 3783453.50966429291293 ], [ 401881.892166836187243, 3783453.20447609340772 ], [ 401881.586978636798449, 3783453.20447609340772 ], [ 401881.586978636798449, 3783451.373346897307783 ], [ 401881.892166836187243, 3783451.068158697802573 ], [ 401882.197355035634246, 3783451.068158697802573 ], [ 401882.50254323502304, 3783450.762970498297364 ], [ 401882.807731434411835, 3783450.762970498297364 ], [ 401883.11291963380063, 3783450.457782299257815 ], [ 401883.418107833189424, 3783450.457782299257815 ], [ 401883.723296032578219, 3783450.152594099752605 ], [ 401884.028484231967013, 3783450.152594099752605 ], [ 401884.333672431355808, 3783449.847405900247395 ], [ 401886.164801627688576, 3783449.847405900247395 ], [ 401886.46998982707737, 3783450.152594099752605 ], [ 401886.775178026466165, 3783450.152594099752605 ], [ 401887.080366225854959, 3783450.457782299257815 ], [ 401887.385554425243754, 3783450.457782299257815 ], [ 401887.995930824021343, 3783451.068158697802573 ], [ 401887.995930824021343, 3783452.899287894368172 ], [ 401888.301119023410138, 3783453.20447609340772 ], [ 401888.301119023410138, 3783455.645981688518077 ], [ 401887.995930824021343, 3783455.645981688518077 ], [ 401887.690742624632549, 3783455.951169888023287 ], [ 401886.775178026466165, 3783455.951169888023287 ], [ 401886.46998982707737, 3783456.256358087528497 ], [ 401885.554425228910986, 3783456.256358087528497 ] ] ] } },
{ "type": "Feature", "properties": { "confidence": 0.46633321046829224, "class": 1 }, "geometry": { "type": "Polygon", "coordinates": [ [ [ 401650.559511698898859, 3783104.984740590211004 ], [ 401650.254323499510065, 3783104.679552390705794 ], [ 401649.643947100732476, 3783104.679552390705794 ], [ 401649.033570701954886, 3783104.069175991695374 ], [ 401649.033570701954886, 3783103.458799593150616 ], [ 401648.728382502566092, 3783103.153611393645406 ], [ 401648.728382502566092, 3783101.017293998040259 ], [ 401649.033570701954886, 3783100.712105798535049 ], [ 401649.033570701954886, 3783100.406917599029839 ], [ 401649.643947100732476, 3783099.79654120048508 ], [ 401650.254323499510065, 3783099.79654120048508 ], [ 401650.559511698898859, 3783100.10172939999029 ], [ 401653.001017294009216, 3783100.10172939999029 ], [ 401653.306205493398011, 3783099.79654120048508 ], [ 401653.9165818921756, 3783099.79654120048508 ], [ 401654.221770091564395, 3783100.10172939999029 ], [ 401654.221770091564395, 3783100.712105798535049 ], [ 401653.9165818921756, 3783101.017293998040259 ], [ 401653.9165818921756, 3783101.627670396585017 ], [ 401653.611393692786805, 3783101.932858596090227 ], [ 401653.611393692786805, 3783102.543234995100647 ], [ 401653.306205493398011, 3783102.848423194140196 ], [ 401653.306205493398011, 3783103.458799593150616 ], [ 401652.085452695842832, 3783104.679552390705794 ], [ 401651.475076297065243, 3783104.679552390705794 ], [ 401651.169888097676449, 3783104.984740590211004 ], [ 401650.559511698898859, 3783104.984740590211004 ] ] ] } },
{ "type": "Feature", "properties": { "confidence": 0.42659738659858704, "class": 1 }, "geometry": { "type": "Polygon", "coordinates": [ [ [ 401873.957273652078584, 3783348.219735503662378 ], [ 401873.652085452689789, 3783347.914547304157168 ], [ 401873.346897253300995, 3783347.914547304157168 ], [ 401873.0417090539122, 3783347.609359104651958 ], [ 401873.0417090539122, 3783347.304170905612409 ], [ 401872.126144455745816, 3783346.388606307096779 ], [ 401872.126144455745816, 3783346.083418108057231 ], [ 401871.210579857579432, 3783345.167853509541601 ], [ 401871.210579857579432, 3783344.252288911491632 ], [ 401870.905391658190638, 3783343.947100711986423 ], [ 401870.905391658190638, 3783342.421159714926034 ], [ 401870.600203458801843, 3783342.115971515886486 ], [ 401870.600203458801843, 3783340.895218718331307 ], [ 401870.905391658190638, 3783340.590030518826097 ], [ 401871.515768056968227, 3783340.590030518826097 ], [ 401871.820956256357022, 3783340.284842319320887 ], [ 401873.652085452689789, 3783340.284842319320887 ], [ 401873.652085452689789, 3783340.590030518826097 ], [ 401873.957273652078584, 3783340.895218718331307 ], [ 401873.957273652078584, 3783341.200406917370856 ], [ 401874.262461851467378, 3783341.505595116876066 ], [ 401874.262461851467378, 3783342.421159714926034 ], [ 401874.567650050856173, 3783342.726347914431244 ], [ 401874.567650050856173, 3783343.336724313441664 ], [ 401875.178026449633762, 3783343.947100711986423 ], [ 401875.178026449633762, 3783344.252288911491632 ], [ 401875.483214649022557, 3783344.557477110996842 ], [ 401875.483214649022557, 3783345.167853509541601 ], [ 401875.788402848411351, 3783345.473041709046811 ], [ 401875.788402848411351, 3783347.609359104651958 ], [ 401875.483214649022557, 3783347.914547304157168 ], [ 401875.178026449633762, 3783347.914547304157168 ], [ 401874.872838250244968, 3783348.219735503662378 ], [ 401873.957273652078584, 3783348.219735503662378 ] ] ] } },
{ "type": "Feature", "properties": { "confidence": 0.41052129864692688, "class": 1 }, "geometry": { "type": "Polygon", "coordinates": [ [ [ 401681.993896236002911, 3783130.315361139364541 ], [ 401681.688708036614116, 3783130.010172939859331 ], [ 401681.383519837225322, 3783130.010172939859331 ], [ 401681.078331637836527, 3783129.704984740819782 ], [ 401680.467955239058938, 3783129.704984740819782 ], [ 401680.162767039670143, 3783129.399796541314572 ], [ 401679.857578840281349, 3783129.399796541314572 ], [ 401679.552390640892554, 3783129.094608341809362 ], [ 401679.247202441503759, 3783129.094608341809362 ], [ 401678.331637843337376, 3783128.179043743759394 ], [ 401678.331637843337376, 3783126.653102746699005 ], [ 401678.942014242114965, 3783126.042726347688586 ], [ 401679.247202441503759, 3783126.042726347688586 ], [ 401679.552390640892554, 3783125.737538148649037 ], [ 401679.857578840281349, 3783125.737538148649037 ], [ 401680.162767039670143, 3783126.042726347688586 ], [ 401680.467955239058938, 3783126.042726347688586 ], [ 401680.773143438447732, 3783126.347914547193795 ], [ 401681.078331637836527, 3783126.347914547193795 ], [ 401681.688708036614116, 3783126.958290946204215 ], [ 401681.993896236002911, 3783126.958290946204215 ], [ 401683.214649033558089, 3783128.179043743759394 ], [ 401683.214649033558089, 3783128.484231942798942 ], [ 401683.519837232946884, 3783128.789420142304152 ], [ 401683.825025432335678, 3783128.789420142304152 ], [ 401683.825025432335678, 3783129.094608341809362 ], [ 401684.130213631724473, 3783129.399796541314572 ], [ 401684.130213631724473, 3783129.704984740819782 ], [ 401683.519837232946884, 3783130.315361139364541 ], [ 401681.993896236002911, 3783130.315361139364541 ] ] ] } },
{ "type": "Feature", "properties": { "confidence": 0.3838844895362854, "class": 1 }, "geometry": { "type": "Polygon", "coordinates": [ [ [ 401411.291963377443608, 3783101.627670396585017 ], [ 401410.986775178054813, 3783101.322482197545469 ], [ 401410.681586978607811, 3783101.322482197545469 ], [ 401410.681586978607811, 3783101.017293998040259 ], [ 401410.376398779219016, 3783100.712105798535049 ], [ 401410.376398779219016, 3783100.10172939999029 ], [ 401410.071210579830222, 3783099.79654120048508 ], [ 401410.071210579830222, 3783099.491353000979871 ], [ 401409.766022380441427, 3783099.186164801474661 ], [ 401409.766022380441427, 3783097.355035605374724 ], [ 401410.071210579830222, 3783097.355035605374724 ], [ 401410.376398779219016, 3783097.049847405869514 ], [ 401410.376398779219016, 3783096.744659206364304 ], [ 401410.986775178054813, 3783096.744659206364304 ], [ 401411.291963377443608, 3783097.049847405869514 ], [ 401412.512716174998786, 3783097.049847405869514 ], [ 401413.123092573776376, 3783097.660223804879934 ], [ 401413.42828077316517, 3783097.660223804879934 ], [ 401413.733468972553965, 3783097.965412003919482 ], [ 401413.733468972553965, 3783098.270600203424692 ], [ 401414.038657171942759, 3783098.575788402929902 ], [ 401414.038657171942759, 3783100.10172939999029 ], [ 401412.817904374387581, 3783101.322482197545469 ], [ 401412.512716174998786, 3783101.322482197545469 ], [ 401412.207527975609992, 3783101.627670396585017 ], [ 401411.291963377443608, 3783101.627670396585017 ] ] ] } },
{ "type": "Feature", "properties": { "confidence": 0.33078789710998535, "class": 1 }, "geometry": { "type": "Polygon", "coordinates": [ [ [ 401722.583926754829008, 3783088.809766022488475 ], [ 401722.278738555440214, 3783088.504577822983265 ], [ 401721.973550356051419, 3783088.504577822983265 ], [ 401721.057985757885035, 3783087.589013224933296 ], [ 401721.057985757885035, 3783086.673448626883328 ], [ 401721.36317395727383, 3783086.368260427378118 ], [ 401721.36317395727383, 3783085.757884028367698 ], [ 401722.278738555440214, 3783084.84231943031773 ], [ 401722.583926754829008, 3783084.84231943031773 ], [ 401722.889114954217803, 3783084.53713123081252 ], [ 401723.194303153606597, 3783084.53713123081252 ], [ 401723.499491352995392, 3783084.23194303130731 ], [ 401724.415055951161776, 3783084.23194303130731 ], [ 401724.72024415055057, 3783083.926754832267761 ], [ 401725.33062054932816, 3783083.926754832267761 ], [ 401725.940996948105749, 3783083.316378433257341 ], [ 401726.246185147494543, 3783083.316378433257341 ], [ 401727.466937945049722, 3783082.095625635702163 ], [ 401727.466937945049722, 3783081.790437436196953 ], [ 401727.772126144438516, 3783081.485249237157404 ], [ 401728.077314343827311, 3783081.485249237157404 ], [ 401728.382502543216106, 3783081.180061037652194 ], [ 401728.992878941993695, 3783081.180061037652194 ], [ 401729.298067141382489, 3783080.874872838146985 ], [ 401729.603255340771284, 3783080.874872838146985 ], [ 401729.908443540160079, 3783081.180061037652194 ], [ 401730.518819938937668, 3783081.180061037652194 ], [ 401730.824008138326462, 3783081.485249237157404 ], [ 401731.434384537104052, 3783081.485249237157404 ], [ 401731.434384537104052, 3783081.790437436196953 ], [ 401731.739572736492846, 3783082.095625635702163 ], [ 401731.739572736492846, 3783083.926754832267761 ], [ 401731.434384537104052, 3783084.23194303130731 ], [ 401731.434384537104052, 3783084.84231943031773 ], [ 401731.129196337715257, 3783085.14750762982294 ], [ 401731.129196337715257, 3783086.673448626883328 ], [ 401730.824008138326462, 3783086.978636825922877 ], [ 401730.824008138326462, 3783087.283825025428087 ], [ 401730.518819938937668, 3783087.589013224933296 ], [ 401730.518819938937668, 3783087.894201424438506 ], [ 401730.213631739548873, 3783087.894201424438506 ], [ 401729.908443540160079, 3783088.199389623478055 ], [ 401728.077314343827311, 3783088.199389623478055 ], [ 401727.772126144438516, 3783088.504577822983265 ], [ 401726.856561546272133, 3783088.504577822983265 ], [ 401726.551373346883338, 3783088.199389623478055 ], [ 401725.025432349939365, 3783088.199389623478055 ], [ 401724.72024415055057, 3783088.504577822983265 ], [ 401724.415055951161776, 3783088.504577822983265 ], [ 401724.109867751772981, 3783088.809766022488475 ], [ 401722.583926754829008, 3783088.809766022488475 ] ] ] } },
{ "type": "Feature", "properties": { "confidence": 0.3274645209312439, "class": 1 }, "geometry": { "type": "Polygon", "coordinates": [ [ [ 401976.500508647004608, 3783183.723296032752842 ], [ 401976.195320447615813, 3783183.418107833247632 ], [ 401975.890132248227019, 3783183.418107833247632 ], [ 401975.27975584944943, 3783182.807731434237212 ], [ 401975.27975584944943, 3783182.502543235197663 ], [ 401974.974567650060635, 3783182.197355035692453 ], [ 401974.974567650060635, 3783178.840284842532128 ], [ 401974.364191251283046, 3783178.229908443521708 ], [ 401974.364191251283046, 3783177.924720244016498 ], [ 401973.143438453727867, 3783176.70396744646132 ], [ 401973.143438453727867, 3783176.398779247421771 ], [ 401972.838250254339073, 3783176.093591047916561 ], [ 401972.838250254339073, 3783175.178026449866593 ], [ 401976.500508647004608, 3783175.178026449866593 ], [ 401976.805696846393403, 3783175.483214648906142 ], [ 401977.110885045782197, 3783175.483214648906142 ], [ 401977.416073245170992, 3783175.788402848411351 ], [ 401977.721261444559786, 3783175.788402848411351 ], [ 401978.331637843337376, 3783176.398779247421771 ], [ 401978.63682604272617, 3783176.398779247421771 ], [ 401979.247202441503759, 3783177.00915564596653 ], [ 401979.247202441503759, 3783177.31434384547174 ], [ 401979.552390640892554, 3783177.61953204497695 ], [ 401979.857578840281349, 3783177.61953204497695 ], [ 401979.857578840281349, 3783178.229908443521708 ], [ 401980.162767039670143, 3783178.535096643026918 ], [ 401980.162767039670143, 3783179.145473041571677 ], [ 401979.857578840281349, 3783179.450661241076887 ], [ 401979.857578840281349, 3783179.755849440582097 ], [ 401979.247202441503759, 3783180.366225839126855 ], [ 401979.247202441503759, 3783180.671414038632065 ], [ 401978.942014242114965, 3783180.976602238137275 ], [ 401978.942014242114965, 3783181.281790437642485 ], [ 401978.63682604272617, 3783181.586978636682034 ], [ 401978.63682604272617, 3783181.892166836187243 ], [ 401978.331637843337376, 3783182.197355035692453 ], [ 401978.331637843337376, 3783182.807731434237212 ], [ 401978.026449643948581, 3783182.807731434237212 ], [ 401977.721261444559786, 3783183.112919633742422 ], [ 401977.721261444559786, 3783183.418107833247632 ], [ 401977.416073245170992, 3783183.723296032752842 ], [ 401976.500508647004608, 3783183.723296032752842 ] ] ] } },
{ "type": "Feature", "properties": { "confidence": 0.32740232348442078, "class": 1 }, "geometry": { "type": "Polygon", "coordinates": [ [ [ 401519.938962360145524, 3783329.908443540334702 ], [ 401519.63377416075673, 3783329.603255340829492 ], [ 401519.328585961367935, 3783329.603255340829492 ], [ 401519.328585961367935, 3783329.298067141324282 ], [ 401519.02339776197914, 3783328.992878941819072 ], [ 401519.02339776197914, 3783328.077314343769103 ], [ 401518.718209562590346, 3783327.772126144263893 ], [ 401518.718209562590346, 3783326.856561546213925 ], [ 401522.99084435403347, 3783326.856561546213925 ], [ 401522.99084435403347, 3783328.077314343769103 ], [ 401522.685656154644676, 3783328.382502543274313 ], [ 401522.685656154644676, 3783328.687690742779523 ], [ 401522.075279755867086, 3783329.298067141324282 ], [ 401521.770091556478292, 3783329.298067141324282 ], [ 401521.464903357089497, 3783329.603255340829492 ], [ 401521.159715157700703, 3783329.603255340829492 ], [ 401520.854526958311908, 3783329.908443540334702 ], [ 401519.938962360145524, 3783329.908443540334702 ] ] ] } },
{ "type": "Feature", "properties": { "confidence": 0.310433030128479, "class": 1 }, "geometry": { "type": "Polygon", "coordinates": [ [ [ 401988.402848423167598, 3783413.224821973592043 ], [ 401988.402848423167598, 3783412.919633774086833 ], [ 401988.097660223778803, 3783412.614445574581623 ], [ 401988.402848423167598, 3783412.309257375542074 ], [ 401988.402848423167598, 3783412.004069176036865 ], [ 401988.708036622556392, 3783411.698880976531655 ], [ 401989.013224821945187, 3783411.698880976531655 ], [ 401989.318413021392189, 3783411.393692777026445 ], [ 401989.623601220780984, 3783411.393692777026445 ], [ 401989.928789420169778, 3783411.088504577986896 ], [ 401990.539165818947367, 3783411.088504577986896 ], [ 401990.844354018336162, 3783410.783316378481686 ], [ 401991.149542217724957, 3783410.783316378481686 ], [ 401991.454730417113751, 3783410.478128178976476 ], [ 401992.06510681589134, 3783410.478128178976476 ], [ 401992.370295015280135, 3783410.783316378481686 ], [ 401993.591047812835313, 3783410.783316378481686 ], [ 401993.896236012224108, 3783411.088504577986896 ], [ 401993.896236012224108, 3783411.393692777026445 ], [ 401993.591047812835313, 3783411.698880976531655 ], [ 401993.591047812835313, 3783412.004069176036865 ], [ 401993.285859613446519, 3783412.004069176036865 ], [ 401992.980671414057724, 3783412.309257375542074 ], [ 401992.67548321466893, 3783412.309257375542074 ], [ 401992.370295015280135, 3783412.614445574581623 ], [ 401992.06510681589134, 3783412.614445574581623 ], [ 401991.454730417113751, 3783413.224821973592043 ], [ 401988.402848423167598, 3783413.224821973592043 ] ] ] } },
{ "type": "Feature", "properties": { "confidence": 0.28926187753677368, "class": 1 }, "geometry": { "type": "Polygon", "coordinates": [ [ [ 401662.156663275673054, 3783095.829094608314335 ], [ 401661.85147507628426, 3783095.523906408809125 ], [ 401661.546286876895465, 3783095.523906408809125 ], [ 401661.24109867750667, 3783095.218718209769577 ], [ 401661.24109867750667, 3783094.608341810759157 ], [ 401660.935910478117876, 3783094.303153611253947 ], [ 401660.935910478117876, 3783093.997965412214398 ], [ 401660.630722278729081, 3783093.692777212709188 ], [ 401660.630722278729081, 3783093.387589013203979 ], [ 401660.325534079340287, 3783093.082400813698769 ], [ 401660.630722278729081, 3783092.77721261465922 ], [ 401660.630722278729081, 3783092.47202441515401 ], [ 401663.682604272617027, 3783092.47202441515401 ], [ 401663.682604272617027, 3783092.77721261465922 ], [ 401663.987792472005822, 3783093.082400813698769 ], [ 401663.987792472005822, 3783094.913530010264367 ], [ 401663.072227873839438, 3783095.829094608314335 ], [ 401662.156663275673054, 3783095.829094608314335 ] ] ] } },
{ "type": "Feature", "properties": { "confidence": 0.27947485446929932, "class": 1 }, "geometry": { "type": "Polygon", "coordinates": [ [ [ 401902.644964394683484, 3783448.626653102692217 ], [ 401902.034587995905895, 3783448.016276704147458 ], [ 401902.034587995905895, 3783447.711088504642248 ], [ 401901.424211597128306, 3783447.100712105631828 ], [ 401901.424211597128306, 3783445.269582909531891 ], [ 401902.034587995905895, 3783444.659206510521472 ], [ 401902.034587995905895, 3783444.048830111976713 ], [ 401905.696846388629638, 3783444.048830111976713 ], [ 401905.696846388629638, 3783445.574771109037101 ], [ 401905.391658189240843, 3783445.87995930807665 ], [ 401905.391658189240843, 3783446.18514750758186 ], [ 401904.170905391685665, 3783447.405900305137038 ], [ 401904.170905391685665, 3783448.321464903187007 ], [ 401903.86571719229687, 3783448.626653102692217 ], [ 401902.644964394683484, 3783448.626653102692217 ] ] ] } },
{ "type": "Feature", "properties": { "confidence": 0.26276570558547974, "class": 1 }, "geometry": { "type": "Polygon", "coordinates": [ [ [ 401880.061037639854476, 3783380.569684638641775 ], [ 401879.755849440465681, 3783380.264496439602226 ], [ 401879.145473041688092, 3783380.264496439602226 ], [ 401878.229908443521708, 3783379.348931841086596 ], [ 401878.229908443521708, 3783379.043743642047048 ], [ 401877.924720244132914, 3783378.738555442541838 ], [ 401877.924720244132914, 3783374.160732451826334 ], [ 401878.229908443521708, 3783373.855544252321124 ], [ 401878.229908443521708, 3783373.245167853310704 ], [ 401878.535096642910503, 3783373.245167853310704 ], [ 401879.145473041688092, 3783372.634791454765946 ], [ 401879.450661241076887, 3783372.634791454765946 ], [ 401880.061037639854476, 3783372.024415055755526 ], [ 401880.671414038632065, 3783372.024415055755526 ], [ 401880.97660223802086, 3783371.719226856715977 ], [ 401881.281790437409654, 3783371.719226856715977 ], [ 401881.586978636798449, 3783372.024415055755526 ], [ 401881.892166836187243, 3783372.024415055755526 ], [ 401882.197355035634246, 3783372.329603255260736 ], [ 401882.807731434411835, 3783372.329603255260736 ], [ 401882.807731434411835, 3783372.939979654271156 ], [ 401883.11291963380063, 3783373.245167853310704 ], [ 401883.11291963380063, 3783377.212614445481449 ], [ 401882.807731434411835, 3783377.517802644986659 ], [ 401882.807731434411835, 3783379.348931841086596 ], [ 401882.197355035634246, 3783379.959308240097016 ], [ 401881.586978636798449, 3783379.959308240097016 ], [ 401881.281790437409654, 3783380.264496439602226 ], [ 401880.36622583924327, 3783380.264496439602226 ], [ 401880.061037639854476, 3783380.569684638641775 ] ] ] } }
]
}
