{
"type": "FeatureCollection",
"name": "cell_00408_pre",
"crs": { "type": "name", "properties": { "name": "urn:ogc:def:crs:EPSG::32611" } },
"features": [
{ "type": "Feature", "properties": { "confidence": 0.96763879060745239, "class": 1 }, "geometry": { "type": "Polygon", "coordinates": [ [ [ 398273.346897253300995, 3785505.900305188260972 ], [ 398272.736520854523405, 3785505.289928789250553 ], [ 398272.736520854523405, 3785504.679552390705794 ], [ 398272.431332655134611, 3785504.374364191200584 ], [ 398272.431332655134611, 3785499.186164801474661 ], [ 398272.736520854523405, 3785498.880976602435112 ], [ 398272.736520854523405, 3785497.660223804879934 ], [ 398273.0417090539122, 3785497.355035605374724 ], [ 398273.0417090539122, 3785496.744659206364304 ], [ 398273.346897253300995, 3785496.439471007324755 ], [ 398273.346897253300995, 3785496.134282807819545 ], [ 398275.483214649022557, 3785496.134282807819545 ], [ 398276.093591047800146, 3785496.744659206364304 ], [ 398276.398779247188941, 3785496.744659206364304 ], [ 398276.703967446577735, 3785497.049847405869514 ], [ 398277.00915564596653, 3785497.049847405869514 ], [ 398277.314343845355324, 3785497.355035605374724 ], [ 398277.619532044744119, 3785497.355035605374724 ], [ 398277.924720244132914, 3785497.660223804879934 ], [ 398278.229908443521708, 3785497.660223804879934 ], [ 398278.840284842299297, 3785498.270600203424692 ], [ 398278.840284842299297, 3785498.575788402929902 ], [ 398279.450661241076887, 3785499.186164801474661 ], [ 398279.450661241076887, 3785499.79654120048508 ], [ 398279.755849440465681, 3785500.10172939999029 ], [ 398279.755849440465681, 3785502.848423194140196 ], [ 398279.450661241076887, 3785503.153611393645406 ], [ 398279.450661241076887, 3785503.458799593150616 ], [ 398279.145473041688092, 3785503.763987792655826 ], [ 398279.145473041688092, 3785504.374364191200584 ], [ 398278.535096642910503, 3785504.984740590211004 ], [ 398275.788402848411351, 3785504.984740590211004 ], [ 398275.483214649022557, 3785505.289928789250553 ], [ 398275.178026449633762, 3785505.289928789250553 ], [ 398274.872838250244968, 3785505.595116988755763 ], [ 398274.262461851467378, 3785505.595116988755763 ], [ 398273.957273652078584, 3785505.900305188260972 ], [ 398273.346897253300995, 3785505.900305188260972 ] ] ] } },
{ "type": "Feature", "properties": { "confidence": 0.9022713303565979, "class": 1 }, "geometry": { "type": "Polygon", "coordinates": [ [ [ 398031.027466937957797, 3785902.950152594130486 ], [ 398030.417090539180208, 3785902.339776195120066 ], [ 398030.417090539180208, 3785902.034587996080518 ], [ 398030.111902339791413, 3785901.729399796575308 ], [ 398030.111902339791413, 3785900.813835198525339 ], [ 398029.806714140402619, 3785900.508646999020129 ], [ 398029.806714140402619, 3785899.89827060000971 ], [ 398028.891149542236235, 3785898.982706001959741 ], [ 398028.891149542236235, 3785897.151576805859804 ], [ 398029.501525941013824, 3785896.541200406849384 ], [ 398029.501525941013824, 3785896.236012207344174 ], [ 398030.111902339791413, 3785895.625635808799416 ], [ 398030.111902339791413, 3785895.320447609294206 ], [ 398031.332655137346592, 3785894.099694811739028 ], [ 398031.637843336735386, 3785894.099694811739028 ], [ 398031.943031536124181, 3785893.794506612233818 ], [ 398032.248219735512976, 3785893.794506612233818 ], [ 398032.55340793490177, 3785893.489318413194269 ], [ 398034.079348931845743, 3785893.489318413194269 ], [ 398034.079348931845743, 3785893.794506612233818 ], [ 398034.689725330623332, 3785894.404883011244237 ], [ 398034.689725330623332, 3785895.625635808799416 ], [ 398035.300101729400922, 3785896.236012207344174 ], [ 398035.605289928789716, 3785896.236012207344174 ], [ 398036.215666327567305, 3785896.846388606354594 ], [ 398037.131230925733689, 3785896.846388606354594 ], [ 398037.131230925733689, 3785897.151576805859804 ], [ 398037.741607324511278, 3785897.761953204404563 ], [ 398037.741607324511278, 3785901.424211597070098 ], [ 398036.826042726344895, 3785902.339776195120066 ], [ 398036.215666327567305, 3785902.339776195120066 ], [ 398035.910478128178511, 3785902.644964394625276 ], [ 398034.994913530012127, 3785902.644964394625276 ], [ 398034.689725330623332, 3785902.339776195120066 ], [ 398032.248219735512976, 3785902.339776195120066 ], [ 398031.637843336735386, 3785902.950152594130486 ], [ 398031.027466937957797, 3785902.950152594130486 ] ] ] } },
{ "type": "Feature", "properties": { "confidence": 0.70051693916320801, "class": 1 }, "geometry": { "type": "Polygon", "coordinates": [ [ [ 397955.6459816886927, 3785920.345879959408194 ], [ 397955.340793489303906, 3785920.040691759902984 ], [ 397954.120040691748727, 3785920.040691759902984 ], [ 397954.120040691748727, 3785919.735503560397774 ], [ 397953.814852492359933, 3785919.430315361358225 ], [ 397953.814852492359933, 3785915.76805696869269 ], [ 397954.730417090526316, 3785914.85249237017706 ], [ 397954.730417090526316, 3785914.547304171137512 ], [ 397955.6459816886927, 3785913.631739572621882 ], [ 397955.951169888081495, 3785913.631739572621882 ], [ 397955.951169888081495, 3785920.345879959408194 ], [ 397955.6459816886927, 3785920.345879959408194 ] ] ] } },
{ "type": "Feature", "properties": { "confidence": 0.64051848649978638, "class": 1 }, "geometry": { "type": "Polygon", "coordinates": [ [ [ 397850.356052899267524, 3785842.522889114916325 ], [ 397850.05086469987873, 3785842.217700915411115 ], [ 397849.745676500489935, 3785842.217700915411115 ], [ 397849.440488301101141, 3785841.912512716371566 ], [ 397848.830111902323551, 3785841.912512716371566 ], [ 397848.524923702934757, 3785841.607324516866356 ], [ 397848.219735503545962, 3785841.607324516866356 ], [ 397847.609359104768373, 3785840.996948117855936 ], [ 397847.609359104768373, 3785840.691759918816388 ], [ 397847.304170905379578, 3785840.386571719311178 ], [ 397847.304170905379578, 3785839.776195320300758 ], [ 397846.998982705990784, 3785839.471007121261209 ], [ 397846.998982705990784, 3785839.165818921755999 ], [ 397846.693794506601989, 3785838.860630722250789 ], [ 397846.693794506601989, 3785837.639877924695611 ], [ 397846.388606307213195, 3785837.334689725190401 ], [ 397846.388606307213195, 3785835.198372329585254 ], [ 397846.0834181078244, 3785834.893184130080044 ], [ 397846.388606307213195, 3785834.587995931040496 ], [ 397846.388606307213195, 3785834.282807731535286 ], [ 397847.304170905379578, 3785833.367243133485317 ], [ 397848.219735503545962, 3785833.367243133485317 ], [ 397848.524923702934757, 3785833.672431332524866 ], [ 397848.830111902323551, 3785833.672431332524866 ], [ 397849.135300101712346, 3785833.977619532030076 ], [ 397850.05086469987873, 3785833.977619532030076 ], [ 397850.661241098656319, 3785834.587995931040496 ], [ 397850.966429298045114, 3785834.587995931040496 ], [ 397851.271617497433908, 3785834.893184130080044 ], [ 397851.576805696822703, 3785834.893184130080044 ], [ 397853.713123092602473, 3785837.029501526150852 ], [ 397853.713123092602473, 3785837.334689725190401 ], [ 397854.018311291991267, 3785837.639877924695611 ], [ 397854.018311291991267, 3785839.776195320300758 ], [ 397853.713123092602473, 3785840.081383519805968 ], [ 397853.713123092602473, 3785840.386571719311178 ], [ 397853.40793489315547, 3785840.691759918816388 ], [ 397853.40793489315547, 3785840.996948117855936 ], [ 397852.797558494377881, 3785841.607324516866356 ], [ 397852.797558494377881, 3785841.912512716371566 ], [ 397852.492370294989087, 3785842.217700915411115 ], [ 397852.187182095600292, 3785842.217700915411115 ], [ 397851.881993896211497, 3785842.522889114916325 ], [ 397850.356052899267524, 3785842.522889114916325 ] ] ] } },
{ "type": "Feature", "properties": { "confidence": 0.51944023370742798, "class": 1 }, "geometry": { "type": "Polygon", "coordinates": [ [ [ 398046.286876907397527, 3785942.624618514906615 ], [ 398045.981688708008733, 3785942.319430315401405 ], [ 398045.676500508619938, 3785942.319430315401405 ], [ 398045.676500508619938, 3785942.014242115896195 ], [ 398044.760935910453554, 3785941.098677517846227 ], [ 398044.45574771106476, 3785941.098677517846227 ], [ 398044.45574771106476, 3785940.793489318341017 ], [ 398044.150559511675965, 3785940.488301118835807 ], [ 398043.84537131228717, 3785940.488301118835807 ], [ 398043.84537131228717, 3785940.183112919796258 ], [ 398042.929806714120787, 3785939.267548321280628 ], [ 398042.929806714120787, 3785938.96236012224108 ], [ 398042.624618514731992, 3785938.65717192273587 ], [ 398042.624618514731992, 3785938.04679552372545 ], [ 398042.319430315343197, 3785937.741607324685901 ], [ 398042.319430315343197, 3785937.436419125180691 ], [ 398042.014242115954403, 3785937.131230925675482 ], [ 398042.014242115954403, 3785936.826042726170272 ], [ 398041.709053916565608, 3785936.520854527130723 ], [ 398041.709053916565608, 3785936.215666327625513 ], [ 398041.403865717176814, 3785935.910478128120303 ], [ 398041.403865717176814, 3785935.300101729575545 ], [ 398041.098677517788019, 3785934.994913530070335 ], [ 398041.403865717176814, 3785934.689725330565125 ], [ 398041.403865717176814, 3785934.079348932020366 ], [ 398041.709053916565608, 3785934.079348932020366 ], [ 398042.014242115954403, 3785933.774160732515156 ], [ 398044.150559511675965, 3785933.774160732515156 ], [ 398044.45574771106476, 3785934.079348932020366 ], [ 398044.760935910453554, 3785934.079348932020366 ], [ 398045.066124109842349, 3785934.384537131059915 ], [ 398044.760935910453554, 3785934.689725330565125 ], [ 398044.760935910453554, 3785935.300101729575545 ], [ 398046.286876907397527, 3785936.826042726170272 ], [ 398046.59206510684453, 3785936.826042726170272 ], [ 398046.897253306233324, 3785937.131230925675482 ], [ 398047.202441505622119, 3785937.131230925675482 ], [ 398047.812817904399708, 3785937.741607324685901 ], [ 398047.812817904399708, 3785938.04679552372545 ], [ 398048.118006103788503, 3785938.35198372323066 ], [ 398048.423194303177297, 3785938.35198372323066 ], [ 398048.728382502566092, 3785938.65717192273587 ], [ 398048.728382502566092, 3785938.96236012224108 ], [ 398049.338758901343681, 3785939.572736520785838 ], [ 398049.338758901343681, 3785940.488301118835807 ], [ 398049.033570701954886, 3785940.793489318341017 ], [ 398049.033570701954886, 3785941.098677517846227 ], [ 398048.423194303177297, 3785941.709053916390985 ], [ 398048.423194303177297, 3785942.014242115896195 ], [ 398047.812817904399708, 3785942.624618514906615 ], [ 398046.286876907397527, 3785942.624618514906615 ] ] ] } },
{ "type": "Feature", "properties": { "confidence": 0.4759189784526825, "class": 1 }, "geometry": { "type": "Polygon", "coordinates": [ [ [ 397934.28280773141887, 3785850.152594099752605 ], [ 397933.672431332641281, 3785849.542217700742185 ], [ 397933.367243133252487, 3785849.542217700742185 ], [ 397933.367243133252487, 3785849.237029501702636 ], [ 397932.756866734474897, 3785848.626653102692217 ], [ 397932.756866734474897, 3785848.321464903187007 ], [ 397932.451678535086103, 3785848.016276704147458 ], [ 397932.451678535086103, 3785847.100712105631828 ], [ 397932.146490335697308, 3785846.79552390659228 ], [ 397932.146490335697308, 3785845.574771109037101 ], [ 397931.841302136308514, 3785845.269582909531891 ], [ 397931.841302136308514, 3785844.048830111976713 ], [ 397937.334689725306816, 3785844.048830111976713 ], [ 397937.334689725306816, 3785845.269582909531891 ], [ 397937.029501525918022, 3785845.574771109037101 ], [ 397937.029501525918022, 3785846.49033570708707 ], [ 397936.724313326529227, 3785846.79552390659228 ], [ 397936.724313326529227, 3785847.100712105631828 ], [ 397936.419125127140433, 3785847.405900305137038 ], [ 397936.419125127140433, 3785848.626653102692217 ], [ 397935.808748728362843, 3785849.237029501702636 ], [ 397935.808748728362843, 3785849.542217700742185 ], [ 397935.503560528974049, 3785849.847405900247395 ], [ 397935.198372329585254, 3785849.847405900247395 ], [ 397934.89318413019646, 3785850.152594099752605 ], [ 397934.28280773141887, 3785850.152594099752605 ] ] ] } },
{ "type": "Feature", "properties": { "confidence": 0.40898624062538147, "class": 1 }, "geometry": { "type": "Polygon", "coordinates": [ [ [ 398043.84537131228717, 3785894.404883011244237 ], [ 398043.540183112898376, 3785894.099694811739028 ], [ 398042.929806714120787, 3785894.099694811739028 ], [ 398042.624618514731992, 3785893.794506612233818 ], [ 398039.877924720232841, 3785893.794506612233818 ], [ 398039.572736520844046, 3785893.489318413194269 ], [ 398039.267548321455251, 3785893.489318413194269 ], [ 398038.962360122066457, 3785893.184130213689059 ], [ 398038.962360122066457, 3785892.878942014183849 ], [ 398038.657171922677662, 3785892.573753814678639 ], [ 398038.657171922677662, 3785891.658189216628671 ], [ 398038.351983723288868, 3785891.353001017123461 ], [ 398038.351983723288868, 3785890.437436419073492 ], [ 398038.046795523900073, 3785890.132248219568282 ], [ 398038.046795523900073, 3785888.911495422013104 ], [ 398038.657171922677662, 3785888.301119023468345 ], [ 398038.657171922677662, 3785887.995930823963135 ], [ 398038.962360122066457, 3785887.690742624457926 ], [ 398038.962360122066457, 3785887.080366225913167 ], [ 398039.572736520844046, 3785886.469989826902747 ], [ 398039.572736520844046, 3785886.164801627863199 ], [ 398039.877924720232841, 3785885.859613428357989 ], [ 398042.014242115954403, 3785885.859613428357989 ], [ 398042.319430315343197, 3785886.164801627863199 ], [ 398043.84537131228717, 3785886.164801627863199 ], [ 398044.150559511675965, 3785885.859613428357989 ], [ 398044.45574771106476, 3785885.859613428357989 ], [ 398044.760935910453554, 3785885.554425228852779 ], [ 398046.59206510684453, 3785885.554425228852779 ], [ 398046.59206510684453, 3785887.080366225913167 ], [ 398046.286876907397527, 3785887.385554425418377 ], [ 398046.286876907397527, 3785887.995930823963135 ], [ 398045.981688708008733, 3785888.301119023468345 ], [ 398045.981688708008733, 3785888.606307222973555 ], [ 398045.676500508619938, 3785888.911495422013104 ], [ 398045.676500508619938, 3785889.521871821023524 ], [ 398045.981688708008733, 3785889.827060020528734 ], [ 398045.981688708008733, 3785890.132248219568282 ], [ 398046.59206510684453, 3785890.742624618578702 ], [ 398046.59206510684453, 3785891.047812818083912 ], [ 398046.897253306233324, 3785891.353001017123461 ], [ 398046.897253306233324, 3785892.878942014183849 ], [ 398046.59206510684453, 3785893.184130213689059 ], [ 398046.59206510684453, 3785893.794506612233818 ], [ 398046.286876907397527, 3785894.099694811739028 ], [ 398045.981688708008733, 3785894.099694811739028 ], [ 398045.676500508619938, 3785894.404883011244237 ], [ 398043.84537131228717, 3785894.404883011244237 ] ] ] } },
{ "type": "Feature", "properties": { "confidence": 0.39527925848960876, "class": 1 }, "geometry": { "type": "Polygon", "coordinates": [ [ [ 398157.070193285879213, 3785537.029501526150852 ], [ 398156.765005086490419, 3785536.724313326645643 ], [ 398155.849440488324035, 3785536.724313326645643 ], [ 398155.54425228893524, 3785536.419125127140433 ], [ 398154.933875890157651, 3785536.419125127140433 ], [ 398154.628687690768857, 3785536.113936927635223 ], [ 398154.323499491380062, 3785536.113936927635223 ], [ 398153.102746693766676, 3785534.893184130080044 ], [ 398153.102746693766676, 3785534.282807731535286 ], [ 398152.797558494377881, 3785533.977619532030076 ], [ 398152.797558494377881, 3785533.672431332524866 ], [ 398153.102746693766676, 3785533.367243133485317 ], [ 398153.102746693766676, 3785533.062054933980107 ], [ 398153.40793489315547, 3785532.756866734474897 ], [ 398156.15462868771283, 3785532.756866734474897 ], [ 398156.459816887101624, 3785533.062054933980107 ], [ 398156.765005086490419, 3785533.062054933980107 ], [ 398156.765005086490419, 3785533.367243133485317 ], [ 398157.680569684656803, 3785534.282807731535286 ], [ 398157.680569684656803, 3785534.587995931040496 ], [ 398158.290946083434392, 3785535.198372329585254 ], [ 398158.290946083434392, 3785536.419125127140433 ], [ 398157.985757884045597, 3785536.724313326645643 ], [ 398157.680569684656803, 3785536.724313326645643 ], [ 398157.375381485268008, 3785537.029501526150852 ], [ 398157.070193285879213, 3785537.029501526150852 ] ] ] } },
{ "type": "Feature", "properties": { "confidence": 0.36597853899002075, "class": 1 }, "geometry": { "type": "Polygon", "coordinates": [ [ [ 397958.392675483191852, 3785937.436419125180691 ], [ 397958.087487283803057, 3785937.131230925675482 ], [ 397958.087487283803057, 3785936.826042726170272 ], [ 397957.782299084414262, 3785936.520854527130723 ], [ 397957.782299084414262, 3785934.384537131059915 ], [ 397958.087487283803057, 3785934.079348932020366 ], [ 397958.087487283803057, 3785931.637843336910009 ], [ 397958.697863682580646, 3785931.02746693789959 ], [ 397959.003051881969441, 3785931.02746693789959 ], [ 397960.528992878913414, 3785929.501525940839201 ], [ 397960.528992878913414, 3785929.196337741799653 ], [ 397961.139369277749211, 3785929.196337741799653 ], [ 397961.444557477138005, 3785928.891149542294443 ], [ 397961.444557477138005, 3785928.585961342789233 ], [ 397962.665310274693184, 3785928.585961342789233 ], [ 397962.665310274693184, 3785928.891149542294443 ], [ 397962.970498474081978, 3785929.196337741799653 ], [ 397963.580874872859567, 3785929.196337741799653 ], [ 397963.580874872859567, 3785929.806714140344411 ], [ 397963.886063072248362, 3785930.111902339849621 ], [ 397963.886063072248362, 3785931.332655137404799 ], [ 397963.580874872859567, 3785931.637843336910009 ], [ 397963.580874872859567, 3785932.248219735454768 ], [ 397962.665310274693184, 3785933.163784333504736 ], [ 397962.665310274693184, 3785933.468972533009946 ], [ 397962.360122075304389, 3785933.774160732515156 ], [ 397962.360122075304389, 3785934.079348932020366 ], [ 397961.444557477138005, 3785934.994913530070335 ], [ 397961.444557477138005, 3785935.300101729575545 ], [ 397961.139369277749211, 3785935.605289928615093 ], [ 397961.139369277749211, 3785935.910478128120303 ], [ 397960.528992878913414, 3785936.520854527130723 ], [ 397960.528992878913414, 3785936.826042726170272 ], [ 397960.223804679524619, 3785937.131230925675482 ], [ 397959.61342828074703, 3785937.131230925675482 ], [ 397959.308240081358235, 3785937.436419125180691 ], [ 397958.392675483191852, 3785937.436419125180691 ] ] ] } },
{ "type": "Feature", "properties": { "confidence": 0.30635067820549011, "class": 1 }, "geometry": { "type": "Polygon", "coordinates": [ [ [ 397861.037639877933543, 3785910.579857578966767 ], [ 397860.732451678544749, 3785910.274669379461557 ], [ 397860.427263479155954, 3785910.274669379461557 ], [ 397859.816887080378365, 3785909.664292980451137 ], [ 397859.816887080378365, 3785908.748728382401168 ], [ 397859.51169888098957, 3785908.443540182895958 ], [ 397859.51169888098957, 3785907.8331637843512 ], [ 397859.206510681600776, 3785907.52797558484599 ], [ 397859.206510681600776, 3785905.696846388746053 ], [ 397859.51169888098957, 3785905.391658189240843 ], [ 397859.51169888098957, 3785904.781281790230423 ], [ 397860.122075279767159, 3785904.170905391685665 ], [ 397860.122075279767159, 3785903.865717192180455 ], [ 397860.732451678544749, 3785903.255340793635696 ], [ 397860.732451678544749, 3785902.950152594130486 ], [ 397861.037639877933543, 3785902.644964394625276 ], [ 397861.037639877933543, 3785902.339776195120066 ], [ 397861.342828077322338, 3785902.034587996080518 ], [ 397861.342828077322338, 3785900.508646999020129 ], [ 397861.648016276711132, 3785900.20345879951492 ], [ 397861.648016276711132, 3785899.89827060000971 ], [ 397861.953204476099927, 3785899.89827060000971 ], [ 397863.173957273655105, 3785898.677517802454531 ], [ 397865.005086469987873, 3785898.677517802454531 ], [ 397865.005086469987873, 3785904.170905391685665 ], [ 397864.699898270599078, 3785904.476093591190875 ], [ 397864.699898270599078, 3785905.391658189240843 ], [ 397864.394710071210284, 3785905.696846388746053 ], [ 397864.394710071210284, 3785906.002034587785602 ], [ 397863.784333672432695, 3785906.612410986796021 ], [ 397863.784333672432695, 3785909.359104781411588 ], [ 397863.4791454730439, 3785909.664292980451137 ], [ 397863.173957273655105, 3785909.664292980451137 ], [ 397862.868769074266311, 3785909.969481179956347 ], [ 397862.563580874877516, 3785909.969481179956347 ], [ 397862.258392675488722, 3785910.274669379461557 ], [ 397861.342828077322338, 3785910.274669379461557 ], [ 397861.037639877933543, 3785910.579857578966767 ] ] ] } },
{ "type": "Feature", "properties": { "confidence": 0.29237604141235352, "class": 1 }, "geometry": { "type": "Polygon", "coordinates": [ [ [ 398021.566632756846957, 3785985.961342827882618 ], [ 398020.956256358069368, 3785985.350966429337859 ], [ 398020.956256358069368, 3785984.740590030327439 ], [ 398020.651068158680573, 3785984.435401831287891 ], [ 398020.651068158680573, 3785983.214649033732712 ], [ 398020.956256358069368, 3785982.909460834227502 ], [ 398020.956256358069368, 3785982.604272634722292 ], [ 398021.566632756846957, 3785981.993896236177534 ], [ 398023.702950152568519, 3785981.993896236177534 ], [ 398024.008138351957314, 3785982.299084435217083 ], [ 398024.008138351957314, 3785982.604272634722292 ], [ 398023.702950152568519, 3785982.909460834227502 ], [ 398023.702950152568519, 3785983.519837232772261 ], [ 398023.397761953179725, 3785983.825025432277471 ], [ 398023.397761953179725, 3785985.350966429337859 ], [ 398022.787385554402135, 3785985.961342827882618 ], [ 398021.566632756846957, 3785985.961342827882618 ] ] ] } },
{ "type": "Feature", "properties": { "confidence": 0.26919493079185486, "class": 1 }, "geometry": { "type": "Polygon", "coordinates": [ [ [ 398122.889114954217803, 3785739.369277721270919 ], [ 398122.583926754829008, 3785739.064089521765709 ], [ 398121.973550356051419, 3785739.064089521765709 ], [ 398120.752797558496241, 3785737.843336724210531 ], [ 398120.752797558496241, 3785737.232960325665772 ], [ 398120.447609359107446, 3785736.927772126160562 ], [ 398120.447609359107446, 3785736.317395727150142 ], [ 398120.142421159718651, 3785736.012207528110594 ], [ 398120.142421159718651, 3785735.401831129100174 ], [ 398119.837232960329857, 3785735.096642929594964 ], [ 398119.837232960329857, 3785732.655137334484607 ], [ 398120.447609359107446, 3785732.044760935939848 ], [ 398121.057985757885035, 3785732.044760935939848 ], [ 398121.36317395727383, 3785731.739572736434639 ], [ 398124.109867751772981, 3785731.739572736434639 ], [ 398124.415055951161776, 3785732.044760935939848 ], [ 398124.72024415055057, 3785732.044760935939848 ], [ 398125.025432349939365, 3785732.349949135445058 ], [ 398125.33062054932816, 3785732.349949135445058 ], [ 398125.940996948105749, 3785732.960325533989817 ], [ 398126.246185147494543, 3785732.960325533989817 ], [ 398126.856561546272133, 3785733.570701933000237 ], [ 398127.161749745660927, 3785733.570701933000237 ], [ 398127.772126144438516, 3785734.181078331544995 ], [ 398128.077314343827311, 3785734.181078331544995 ], [ 398128.077314343827311, 3785735.401831129100174 ], [ 398127.772126144438516, 3785735.707019328605384 ], [ 398127.772126144438516, 3785736.622583926655352 ], [ 398127.466937945049722, 3785736.927772126160562 ], [ 398127.466937945049722, 3785737.232960325665772 ], [ 398127.161749745660927, 3785737.538148524705321 ], [ 398127.161749745660927, 3785738.14852492371574 ], [ 398126.551373346883338, 3785738.758901322260499 ], [ 398125.940996948105749, 3785738.758901322260499 ], [ 398125.635808748716954, 3785739.064089521765709 ], [ 398123.804679552384187, 3785739.064089521765709 ], [ 398123.499491352995392, 3785739.369277721270919 ], [ 398122.889114954217803, 3785739.369277721270919 ] ] ] } },
{ "type": "Feature", "properties": { "confidence": 0.26692855358123779, "class": 1 }, "geometry": { "type": "Polygon", "coordinates": [ [ [ 397983.11291963380063, 3785502.848423194140196 ], [ 397982.50254323502304, 3785502.238046795595437 ], [ 397982.50254323502304, 3785501.627670396585017 ], [ 397982.197355035634246, 3785501.322482197545469 ], [ 397982.197355035634246, 3785497.965412003919482 ], [ 397981.892166836187243, 3785497.660223804879934 ], [ 397981.892166836187243, 3785496.134282807819545 ], [ 397982.50254323502304, 3785496.134282807819545 ], [ 397983.418107833189424, 3785495.218718209769577 ], [ 397983.418107833189424, 3785495.523906408809125 ], [ 397983.723296032578219, 3785495.829094608314335 ], [ 397983.723296032578219, 3785496.134282807819545 ], [ 397984.333672431355808, 3785496.744659206364304 ], [ 397985.554425228910986, 3785496.744659206364304 ], [ 397986.164801627688576, 3785496.134282807819545 ], [ 397986.46998982707737, 3785496.134282807819545 ], [ 397987.385554425243754, 3785497.049847405869514 ], [ 397987.385554425243754, 3785497.355035605374724 ], [ 397987.995930824021343, 3785497.965412003919482 ], [ 397987.995930824021343, 3785498.575788402929902 ], [ 397988.301119023410138, 3785498.880976602435112 ], [ 397988.301119023410138, 3785499.79654120048508 ], [ 397988.606307222798932, 3785500.10172939999029 ], [ 397988.606307222798932, 3785500.712105798535049 ], [ 397988.301119023410138, 3785501.017293998040259 ], [ 397988.301119023410138, 3785501.627670396585017 ], [ 397987.690742624632549, 3785502.238046795595437 ], [ 397987.385554425243754, 3785502.238046795595437 ], [ 397987.080366225854959, 3785502.543234995100647 ], [ 397986.775178026466165, 3785502.543234995100647 ], [ 397986.46998982707737, 3785502.848423194140196 ], [ 397983.11291963380063, 3785502.848423194140196 ] ] ] } }
]
}
