{
"type": "FeatureCollection",
"name": "cell_00114_pre",
"crs": { "type": "name", "properties": { "name": "urn:ogc:def:crs:EPSG::32611" } },
"features": [
{ "type": "Feature", "properties": { "confidence": 0.93858331441879272, "class": 1, "regularized": null }, "geometry": { "type": "Polygon", "coordinates": [ [ [ 353208.646998982701916, 3770847.405900305137038 ], [ 353208.341810783313122, 3770847.100712105631828 ], [ 353208.341810783313122, 3770846.79552390659228 ], [ 353207.731434384535532, 3770846.18514750758186 ], [ 353207.731434384535532, 3770845.574771109037101 ], [ 353207.426246185146738, 3770845.269582909531891 ], [ 353207.426246185146738, 3770844.659206510521472 ], [ 353207.121057985757943, 3770844.354018311481923 ], [ 353207.121057985757943, 3770844.048830111976713 ], [ 353214.750762970477808, 3770844.048830111976713 ], [ 353214.750762970477808, 3770847.100712105631828 ], [ 353214.445574771089014, 3770847.405900305137038 ], [ 353210.783316378423478, 3770847.405900305137038 ], [ 353210.478128179034684, 3770847.100712105631828 ], [ 353209.5625635808683, 3770847.100712105631828 ], [ 353209.257375381479505, 3770847.405900305137038 ], [ 353208.646998982701916, 3770847.405900305137038 ] ] ] } },
{ "type": "Feature", "properties": { "confidence": 0.63562494516372681, "class": 1, "regularized": null }, "geometry": { "type": "Polygon", "coordinates": [ [ [ 353295.320447609352414, 3770940.488301118835807 ], [ 353295.015259409963619, 3770940.183112919796258 ], [ 353294.710071210574824, 3770940.183112919796258 ], [ 353294.40488301118603, 3770939.877924720291048 ], [ 353294.40488301118603, 3770939.572736520785838 ], [ 353294.099694811797235, 3770939.267548321280628 ], [ 353294.099694811797235, 3770938.96236012224108 ], [ 353293.794506612408441, 3770938.65717192273587 ], [ 353293.794506612408441, 3770938.35198372323066 ], [ 353293.489318413019646, 3770938.04679552372545 ], [ 353293.489318413019646, 3770937.741607324685901 ], [ 353293.184130213630851, 3770937.436419125180691 ], [ 353293.184130213630851, 3770936.826042726170272 ], [ 353292.878942014242057, 3770936.520854527130723 ], [ 353292.878942014242057, 3770936.215666327625513 ], [ 353292.573753814853262, 3770935.910478128120303 ], [ 353292.573753814853262, 3770935.605289928615093 ], [ 353292.268565615464468, 3770935.300101729575545 ], [ 353292.268565615464468, 3770933.774160732515156 ], [ 353293.184130213630851, 3770932.858596134465188 ], [ 353295.320447609352414, 3770932.858596134465188 ], [ 353295.625635808741208, 3770932.553407934959978 ], [ 353296.846388606296387, 3770932.553407934959978 ], [ 353297.151576805685181, 3770932.858596134465188 ], [ 353297.76195320446277, 3770932.858596134465188 ], [ 353298.067141403851565, 3770933.163784333504736 ], [ 353298.067141403851565, 3770933.468972533009946 ], [ 353298.982706002017949, 3770934.384537131059915 ], [ 353298.982706002017949, 3770934.689725330565125 ], [ 353299.287894201406743, 3770934.994913530070335 ], [ 353299.593082400795538, 3770934.994913530070335 ], [ 353299.593082400795538, 3770935.300101729575545 ], [ 353300.203458799573127, 3770935.910478128120303 ], [ 353300.203458799573127, 3770936.215666327625513 ], [ 353301.119023397739511, 3770937.131230925675482 ], [ 353301.119023397739511, 3770938.65717192273587 ], [ 353300.813835198350716, 3770938.96236012224108 ], [ 353300.813835198350716, 3770939.572736520785838 ], [ 353300.508646998961922, 3770939.572736520785838 ], [ 353300.203458799573127, 3770939.877924720291048 ], [ 353299.898270600184333, 3770939.877924720291048 ], [ 353299.593082400795538, 3770940.183112919796258 ], [ 353299.287894201406743, 3770940.183112919796258 ], [ 353298.982706002017949, 3770940.488301118835807 ], [ 353295.320447609352414, 3770940.488301118835807 ] ] ] } },
{ "type": "Feature", "properties": { "confidence": 0.58167332410812378, "class": 1, "regularized": null }, "geometry": { "type": "Polygon", "coordinates": [ [ [ 353205.900305188202765, 3770612.105798575561494 ], [ 353205.59511698881397, 3770611.800610376521945 ], [ 353205.289928789425176, 3770611.800610376521945 ], [ 353205.289928789425176, 3770609.664292980451137 ], [ 353210.783316378423478, 3770609.664292980451137 ], [ 353210.783316378423478, 3770611.190233977511525 ], [ 353210.172939979645889, 3770611.800610376521945 ], [ 353209.257375381479505, 3770611.800610376521945 ], [ 353208.952187182090711, 3770612.105798575561494 ], [ 353205.900305188202765, 3770612.105798575561494 ] ] ] } },
{ "type": "Feature", "properties": { "confidence": 0.259275883436203, "class": 1, "regularized": "rectangle" }, "geometry": { "type": "Polygon", "coordinates": [ [ [ 353022.46875, 3770754.25 ], [ 353038.03125, 3770754.25 ], [ 353038.03125, 3770762.75 ], [ 353022.46875, 3770762.75 ], [ 353022.46875, 3770754.25 ] ] ] } }
]
}
