{
"type": "FeatureCollection",
"name": "cell_00048_pre",
"crs": { "type": "name", "properties": { "name": "urn:ogc:def:crs:EPSG::32611" } },
"features": [
{ "type": "Feature", "properties": { "confidence": 0.99869811534881592, "class": 1 }, "geometry": { "type": "Polygon", "coordinates": [ [ [ 348378.433367243153043, 3772157.578840285073966 ], [ 348376.602238046820275, 3772155.747711088508368 ], [ 348376.602238046820275, 3772155.442522889003158 ], [ 348376.297049847431481, 3772155.137334689497948 ], [ 348376.297049847431481, 3772150.559511698782444 ], [ 348376.602238046820275, 3772150.254323499277234 ], [ 348376.602238046820275, 3772148.728382502682507 ], [ 348377.517802644986659, 3772147.812817904166877 ], [ 348377.822990844375454, 3772147.812817904166877 ], [ 348378.738555442541838, 3772146.897253306116909 ], [ 348379.043743641930632, 3772146.897253306116909 ], [ 348379.348931841319427, 3772146.592065106611699 ], [ 348380.8748728382634, 3772146.592065106611699 ], [ 348381.180061037652194, 3772146.897253306116909 ], [ 348381.485249237040989, 3772146.897253306116909 ], [ 348384.84231943031773, 3772150.254323499277234 ], [ 348384.84231943031773, 3772150.559511698782444 ], [ 348385.452695829095319, 3772151.169888097792864 ], [ 348385.452695829095319, 3772152.695829094387591 ], [ 348385.147507629706524, 3772153.001017293892801 ], [ 348385.147507629706524, 3772153.306205493398011 ], [ 348384.231943031540141, 3772154.221770091447979 ], [ 348383.926754832151346, 3772154.221770091447979 ], [ 348383.011190233984962, 3772155.137334689497948 ], [ 348382.706002034596168, 3772155.137334689497948 ], [ 348382.400813835207373, 3772155.442522889003158 ], [ 348381.790437436429784, 3772155.442522889003158 ], [ 348381.180061037652194, 3772156.052899288013577 ], [ 348380.8748728382634, 3772156.052899288013577 ], [ 348379.348931841319427, 3772157.578840285073966 ], [ 348378.433367243153043, 3772157.578840285073966 ] ] ] } },
{ "type": "Feature", "properties": { "confidence": 0.99475997686386108, "class": 1 }, "geometry": { "type": "Polygon", "coordinates": [ [ [ 348278.63682604272617, 3771860.630722278729081 ], [ 348278.331637843337376, 3771860.325534079223871 ], [ 348278.331637843337376, 3771860.020345880184323 ], [ 348278.026449643948581, 3771859.715157680679113 ], [ 348278.026449643948581, 3771859.104781281668693 ], [ 348277.721261444559786, 3771858.799593082629144 ], [ 348277.721261444559786, 3771857.884028484113514 ], [ 348277.416073245170992, 3771857.578840285073966 ], [ 348277.416073245170992, 3771856.663275686558336 ], [ 348277.110885045782197, 3771856.358087487053126 ], [ 348277.110885045782197, 3771855.442522889003158 ], [ 348276.805696846393403, 3771855.137334689497948 ], [ 348276.805696846393403, 3771853.306205493398011 ], [ 348277.110885045782197, 3771853.001017293892801 ], [ 348279.552390640892554, 3771853.001017293892801 ], [ 348279.857578840281349, 3771853.306205493398011 ], [ 348280.162767039670143, 3771853.306205493398011 ], [ 348280.162767039670143, 3771854.221770091447979 ], [ 348280.467955239058938, 3771854.526958290953189 ], [ 348280.467955239058938, 3771855.137334689497948 ], [ 348280.773143438447732, 3771855.442522889003158 ], [ 348280.773143438447732, 3771855.747711088508368 ], [ 348281.383519837225322, 3771856.358087487053126 ], [ 348281.383519837225322, 3771857.578840285073966 ], [ 348281.688708036614116, 3771857.884028484113514 ], [ 348281.688708036614116, 3771859.409969481173903 ], [ 348281.993896236002911, 3771859.715157680679113 ], [ 348281.993896236002911, 3771860.020345880184323 ], [ 348281.688708036614116, 3771860.325534079223871 ], [ 348281.078331637836527, 3771860.325534079223871 ], [ 348280.773143438447732, 3771860.630722278729081 ], [ 348278.63682604272617, 3771860.630722278729081 ] ] ] } },
{ "type": "Feature", "properties": { "confidence": 0.99326634407043457, "class": 1 }, "geometry": { "type": "Polygon", "coordinates": [ [ [ 348437.945066124084406, 3772033.977619532030076 ], [ 348437.639877924695611, 3772033.672431332524866 ], [ 348435.198372329585254, 3772033.672431332524866 ], [ 348434.89318413019646, 3772033.367243133485317 ], [ 348434.587995930807665, 3772033.367243133485317 ], [ 348434.28280773141887, 3772033.062054933980107 ], [ 348433.977619532030076, 3772033.062054933980107 ], [ 348433.977619532030076, 3772032.756866734474897 ], [ 348433.672431332641281, 3772032.451678534969687 ], [ 348433.672431332641281, 3772031.230925737414509 ], [ 348433.977619532030076, 3772030.92573753837496 ], [ 348433.977619532030076, 3772029.704984740819782 ], [ 348434.28280773141887, 3772029.399796541314572 ], [ 348434.89318413019646, 3772029.399796541314572 ], [ 348435.198372329585254, 3772029.094608341809362 ], [ 348442.217700915585738, 3772029.094608341809362 ], [ 348442.522889114974532, 3772029.399796541314572 ], [ 348443.133265513752121, 3772029.399796541314572 ], [ 348443.133265513752121, 3772029.704984740819782 ], [ 348443.438453713140916, 3772030.010172939859331 ], [ 348443.438453713140916, 3772030.92573753837496 ], [ 348443.133265513752121, 3772031.230925737414509 ], [ 348443.133265513752121, 3772033.367243133485317 ], [ 348442.828077314363327, 3772033.367243133485317 ], [ 348442.522889114974532, 3772033.672431332524866 ], [ 348440.691759918641765, 3772033.672431332524866 ], [ 348440.38657171925297, 3772033.977619532030076 ], [ 348437.945066124084406, 3772033.977619532030076 ] ] ] } },
{ "type": "Feature", "properties": { "confidence": 0.99136275053024292, "class": 1 }, "geometry": { "type": "Polygon", "coordinates": [ [ [ 348235.605289928789716, 3771835.605289928615093 ], [ 348235.300101729400922, 3771835.300101729575545 ], [ 348235.300101729400922, 3771833.163784333504736 ], [ 348235.605289928789716, 3771832.858596134465188 ], [ 348235.605289928789716, 3771831.943031535949558 ], [ 348235.910478128178511, 3771831.637843336910009 ], [ 348236.826042726344895, 3771831.637843336910009 ], [ 348237.131230925733689, 3771831.943031535949558 ], [ 348238.046795523900073, 3771831.943031535949558 ], [ 348238.351983723288868, 3771832.248219735454768 ], [ 348238.351983723288868, 3771832.858596134465188 ], [ 348238.046795523900073, 3771833.163784333504736 ], [ 348238.046795523900073, 3771833.774160732515156 ], [ 348237.741607324511278, 3771834.079348932020366 ], [ 348237.741607324511278, 3771835.300101729575545 ], [ 348237.436419125122484, 3771835.605289928615093 ], [ 348235.605289928789716, 3771835.605289928615093 ] ] ] } },
{ "type": "Feature", "properties": { "confidence": 0.98922640085220337, "class": 1 }, "geometry": { "type": "Polygon", "coordinates": [ [ [ 348447.100712105806451, 3772083.723296032752842 ], [ 348446.795523906417657, 3772083.418107833247632 ], [ 348446.185147507640067, 3772083.418107833247632 ], [ 348445.879959308251273, 3772083.112919633742422 ], [ 348445.574771108862478, 3772083.112919633742422 ], [ 348445.269582909473684, 3772082.807731434237212 ], [ 348444.964394710084889, 3772082.807731434237212 ], [ 348444.659206510696094, 3772082.502543235197663 ], [ 348444.659206510696094, 3772082.197355035692453 ], [ 348444.3540183113073, 3772081.892166836187243 ], [ 348444.3540183113073, 3772071.820956256240606 ], [ 348444.659206510696094, 3772071.515768057201058 ], [ 348444.659206510696094, 3772070.905391658190638 ], [ 348449.237029501528013, 3772070.905391658190638 ], [ 348449.542217700916808, 3772071.210579857695848 ], [ 348449.542217700916808, 3772076.398779247421771 ], [ 348449.847405900305603, 3772076.70396744646132 ], [ 348449.847405900305603, 3772082.197355035692453 ], [ 348449.237029501528013, 3772082.807731434237212 ], [ 348449.237029501528013, 3772083.112919633742422 ], [ 348448.626653102750424, 3772083.723296032752842 ], [ 348447.100712105806451, 3772083.723296032752842 ] ] ] } },
{ "type": "Feature", "properties": { "confidence": 0.98848813772201538, "class": 1 }, "geometry": { "type": "Polygon", "coordinates": [ [ [ 348282.909460834169295, 3771883.214649033732712 ], [ 348282.6042726347805, 3771882.909460834227502 ], [ 348282.6042726347805, 3771882.604272634722292 ], [ 348282.299084435391705, 3771882.299084435217083 ], [ 348282.299084435391705, 3771880.773143438622355 ], [ 348281.993896236002911, 3771880.467955239117146 ], [ 348281.993896236002911, 3771879.247202441561967 ], [ 348281.688708036614116, 3771878.942014242056757 ], [ 348281.688708036614116, 3771877.721261444501579 ], [ 348281.383519837225322, 3771877.416073244996369 ], [ 348281.383519837225322, 3771874.059003051836044 ], [ 348281.688708036614116, 3771873.753814852330834 ], [ 348281.688708036614116, 3771872.838250254280865 ], [ 348281.993896236002911, 3771872.533062054775655 ], [ 348281.993896236002911, 3771872.227873855736107 ], [ 348282.299084435391705, 3771871.922685656230897 ], [ 348283.519837232946884, 3771871.922685656230897 ], [ 348284.130213631724473, 3771872.533062054775655 ], [ 348284.130213631724473, 3771873.448626653291285 ], [ 348284.435401831113268, 3771873.753814852330834 ], [ 348284.435401831113268, 3771874.364191251341254 ], [ 348284.740590030502062, 3771874.669379450846463 ], [ 348284.740590030502062, 3771874.974567649886012 ], [ 348285.045778229890857, 3771875.279755849391222 ], [ 348285.045778229890857, 3771875.890132248401642 ], [ 348285.350966429279651, 3771876.19532044744119 ], [ 348285.350966429279651, 3771877.11088504595682 ], [ 348285.656154628668446, 3771877.416073244996369 ], [ 348285.656154628668446, 3771878.636826042551547 ], [ 348285.961342828057241, 3771878.942014242056757 ], [ 348285.961342828057241, 3771880.162767039611936 ], [ 348286.57171922683483, 3771880.773143438622355 ], [ 348286.57171922683483, 3771881.688708036672324 ], [ 348286.266531027446035, 3771881.993896236177534 ], [ 348286.266531027446035, 3771882.299084435217083 ], [ 348285.961342828057241, 3771882.299084435217083 ], [ 348285.656154628668446, 3771882.604272634722292 ], [ 348285.045778229890857, 3771882.604272634722292 ], [ 348284.740590030502062, 3771882.909460834227502 ], [ 348284.435401831113268, 3771882.909460834227502 ], [ 348284.130213631724473, 3771883.214649033732712 ], [ 348282.909460834169295, 3771883.214649033732712 ] ] ] } },
{ "type": "Feature", "properties": { "confidence": 0.98524218797683716, "class": 1 }, "geometry": { "type": "Polygon", "coordinates": [ [ [ 348387.894201424205676, 3772170.396744659170508 ], [ 348386.978636826039292, 3772169.48118006112054 ], [ 348386.978636826039292, 3772169.17599186161533 ], [ 348385.452695829095319, 3772167.650050864554942 ], [ 348385.452695829095319, 3772167.344862665515393 ], [ 348385.147507629706524, 3772167.039674466010183 ], [ 348385.757884028484114, 3772166.429298066999763 ], [ 348386.673448626650497, 3772166.429298066999763 ], [ 348386.978636826039292, 3772166.124109867960215 ], [ 348388.19938962359447, 3772166.124109867960215 ], [ 348388.504577822983265, 3772165.818921668455005 ], [ 348388.80976602237206, 3772165.818921668455005 ], [ 348389.114954221760854, 3772165.513733468949795 ], [ 348389.420142421149649, 3772165.513733468949795 ], [ 348389.725330620538443, 3772165.208545269444585 ], [ 348390.030518819927238, 3772165.208545269444585 ], [ 348390.335707019316033, 3772164.903357070405036 ], [ 348390.335707019316033, 3772169.78636826062575 ], [ 348390.030518819927238, 3772169.78636826062575 ], [ 348389.725330620538443, 3772170.091556459665298 ], [ 348389.114954221760854, 3772170.091556459665298 ], [ 348388.80976602237206, 3772170.396744659170508 ], [ 348387.894201424205676, 3772170.396744659170508 ] ] ] } },
{ "type": "Feature", "properties": { "confidence": 0.97411036491394043, "class": 1 }, "geometry": { "type": "Polygon", "coordinates": [ [ [ 348351.576805696822703, 3771925.940996948163956 ], [ 348351.576805696822703, 3771917.090539165772498 ], [ 348352.187182095600292, 3771917.090539165772498 ], [ 348352.492370294989087, 3771916.785350966267288 ], [ 348354.628687690768857, 3771916.785350966267288 ], [ 348354.933875890157651, 3771917.090539165772498 ], [ 348355.849440488324035, 3771917.090539165772498 ], [ 348356.15462868771283, 3771917.395727365277708 ], [ 348357.375381485268008, 3771917.395727365277708 ], [ 348357.680569684656803, 3771917.090539165772498 ], [ 348357.985757884045597, 3771917.090539165772498 ], [ 348358.290946083434392, 3771916.785350966267288 ], [ 348359.816887080378365, 3771916.785350966267288 ], [ 348359.816887080378365, 3771917.700915564782917 ], [ 348359.51169888098957, 3771918.006103763822466 ], [ 348359.51169888098957, 3771918.311291963327676 ], [ 348359.206510681600776, 3771918.616480162832886 ], [ 348359.206510681600776, 3771918.921668362338096 ], [ 348358.596134282823186, 3771919.532044760882854 ], [ 348358.596134282823186, 3771919.837232960388064 ], [ 348357.070193285879213, 3771921.363173957448453 ], [ 348357.070193285879213, 3771921.668362156488001 ], [ 348355.54425228893524, 3771923.19430315354839 ], [ 348355.54425228893524, 3771923.4994913530536 ], [ 348354.933875890157651, 3771924.109867751598358 ], [ 348354.933875890157651, 3771924.415055951103568 ], [ 348354.628687690768857, 3771924.720244150608778 ], [ 348354.323499491380062, 3771924.720244150608778 ], [ 348354.018311291991267, 3771925.025432350113988 ], [ 348354.018311291991267, 3771925.330620549153537 ], [ 348353.713123092602473, 3771925.330620549153537 ], [ 348353.40793489315547, 3771925.635808748658746 ], [ 348353.102746693766676, 3771925.635808748658746 ], [ 348352.797558494377881, 3771925.940996948163956 ], [ 348351.576805696822703, 3771925.940996948163956 ] ] ] } },
{ "type": "Feature", "properties": { "confidence": 0.97073596715927124, "class": 1 }, "geometry": { "type": "Polygon", "coordinates": [ [ [ 348486.164801627688576, 3771982.706002034712583 ], [ 348485.859613428299781, 3771982.400813835207373 ], [ 348485.554425228910986, 3771982.400813835207373 ], [ 348485.554425228910986, 3771982.095625635702163 ], [ 348485.249237029522192, 3771981.790437436196953 ], [ 348485.249237029522192, 3771981.180061037652194 ], [ 348484.944048830133397, 3771980.874872838146985 ], [ 348484.944048830133397, 3771980.569684638641775 ], [ 348484.638860630744603, 3771980.264496439602226 ], [ 348484.638860630744603, 3771979.348931841086596 ], [ 348484.333672431355808, 3771979.043743642047048 ], [ 348484.333672431355808, 3771978.433367243036628 ], [ 348484.638860630744603, 3771978.128179043531418 ], [ 348484.638860630744603, 3771977.822990844491869 ], [ 348485.554425228910986, 3771977.822990844491869 ], [ 348486.164801627688576, 3771977.212614445481449 ], [ 348486.775178026466165, 3771977.212614445481449 ], [ 348487.080366225854959, 3771976.907426245976239 ], [ 348487.385554425243754, 3771976.907426245976239 ], [ 348487.690742624632549, 3771976.602238046936691 ], [ 348488.606307222798932, 3771976.602238046936691 ], [ 348488.911495422187727, 3771976.297049847431481 ], [ 348489.216683621576522, 3771976.297049847431481 ], [ 348489.521871820965316, 3771975.991861647926271 ], [ 348489.827060020354111, 3771975.991861647926271 ], [ 348490.4374364191317, 3771975.381485249381512 ], [ 348490.4374364191317, 3771975.076297049876302 ], [ 348491.353001017298084, 3771975.076297049876302 ], [ 348491.658189216686878, 3771975.381485249381512 ], [ 348491.658189216686878, 3771975.686673448421061 ], [ 348491.963377416075673, 3771975.991861647926271 ], [ 348491.963377416075673, 3771976.602238046936691 ], [ 348492.573753814853262, 3771977.212614445481449 ], [ 348492.573753814853262, 3771977.517802644986659 ], [ 348492.878942014242057, 3771977.822990844491869 ], [ 348492.878942014242057, 3771979.654120040591806 ], [ 348492.573753814853262, 3771979.959308240097016 ], [ 348492.573753814853262, 3771980.264496439602226 ], [ 348492.268565615464468, 3771980.264496439602226 ], [ 348491.963377416075673, 3771980.569684638641775 ], [ 348491.658189216686878, 3771980.569684638641775 ], [ 348491.047812817909289, 3771981.180061037652194 ], [ 348491.047812817909289, 3771981.485249237157404 ], [ 348490.4374364191317, 3771982.095625635702163 ], [ 348490.4374364191317, 3771982.400813835207373 ], [ 348490.132248219742905, 3771982.400813835207373 ], [ 348489.827060020354111, 3771982.706002034712583 ], [ 348486.164801627688576, 3771982.706002034712583 ] ] ] } },
{ "type": "Feature", "properties": { "confidence": 0.95168763399124146, "class": 1 }, "geometry": { "type": "Polygon", "coordinates": [ [ [ 348424.516785350977443, 3772049.237029501702636 ], [ 348424.211597151588649, 3772048.931841302197427 ], [ 348424.211597151588649, 3772048.626653102692217 ], [ 348423.906408952199854, 3772048.321464903187007 ], [ 348423.906408952199854, 3772047.711088504642248 ], [ 348424.211597151588649, 3772047.405900305137038 ], [ 348424.211597151588649, 3772045.574771109037101 ], [ 348424.516785350977443, 3772045.269582909531891 ], [ 348424.516785350977443, 3772044.659206510521472 ], [ 348424.821973550366238, 3772044.354018311481923 ], [ 348424.821973550366238, 3772044.048830111976713 ], [ 348433.367243133252487, 3772044.048830111976713 ], [ 348433.367243133252487, 3772045.269582909531891 ], [ 348433.062054933863692, 3772045.574771109037101 ], [ 348433.062054933863692, 3772045.87995930807665 ], [ 348432.756866734474897, 3772046.18514750758186 ], [ 348432.756866734474897, 3772046.79552390659228 ], [ 348432.451678535086103, 3772046.79552390659228 ], [ 348431.841302136308514, 3772047.405900305137038 ], [ 348431.536113936919719, 3772047.405900305137038 ], [ 348431.230925737530924, 3772047.711088504642248 ], [ 348430.92573753814213, 3772047.711088504642248 ], [ 348430.620549338753335, 3772048.016276704147458 ], [ 348429.399796541198157, 3772048.016276704147458 ], [ 348429.094608341809362, 3772048.321464903187007 ], [ 348428.789420142420568, 3772048.321464903187007 ], [ 348428.484231943031773, 3772048.626653102692217 ], [ 348427.873855544254184, 3772048.626653102692217 ], [ 348427.568667344865389, 3772048.931841302197427 ], [ 348426.9582909460878, 3772048.931841302197427 ], [ 348426.653102746699005, 3772049.237029501702636 ], [ 348424.516785350977443, 3772049.237029501702636 ] ] ] } },
{ "type": "Feature", "properties": { "confidence": 0.94234943389892578, "class": 1 }, "geometry": { "type": "Polygon", "coordinates": [ [ [ 348498.37232960324036, 3771752.899287894368172 ], [ 348498.067141403851565, 3771752.594099694862962 ], [ 348498.067141403851565, 3771751.678535096812993 ], [ 348498.37232960324036, 3771751.373346897307783 ], [ 348498.37232960324036, 3771750.457782299257815 ], [ 348499.593082400795538, 3771749.237029501702636 ], [ 348499.898270600184333, 3771749.237029501702636 ], [ 348500.203458799573127, 3771748.931841302197427 ], [ 348500.508646998961922, 3771748.931841302197427 ], [ 348500.813835198350716, 3771748.626653102692217 ], [ 348501.424211597128306, 3771748.626653102692217 ], [ 348501.7293997965171, 3771748.321464903187007 ], [ 348502.339776195294689, 3771748.321464903187007 ], [ 348502.644964394683484, 3771748.016276704147458 ], [ 348503.255340793461073, 3771748.016276704147458 ], [ 348503.560528992908075, 3771747.711088504642248 ], [ 348504.170905391685665, 3771747.711088504642248 ], [ 348504.476093591074459, 3771747.405900305137038 ], [ 348505.086469989852048, 3771747.405900305137038 ], [ 348505.391658189240843, 3771747.100712105631828 ], [ 348506.002034588018432, 3771747.100712105631828 ], [ 348506.307222787407227, 3771746.79552390659228 ], [ 348507.222787385573611, 3771746.79552390659228 ], [ 348508.138351983739994, 3771747.711088504642248 ], [ 348508.138351983739994, 3771748.016276704147458 ], [ 348509.053916581906378, 3771748.931841302197427 ], [ 348509.053916581906378, 3771749.237029501702636 ], [ 348508.443540183128789, 3771749.237029501702636 ], [ 348508.138351983739994, 3771749.542217700742185 ], [ 348507.8331637843512, 3771749.542217700742185 ], [ 348507.527975584962405, 3771749.847405900247395 ], [ 348506.917599186184816, 3771749.847405900247395 ], [ 348506.612410986796021, 3771750.152594099752605 ], [ 348506.002034588018432, 3771750.152594099752605 ], [ 348505.696846388629638, 3771750.457782299257815 ], [ 348505.086469989852048, 3771750.457782299257815 ], [ 348504.781281790463254, 3771750.762970498297364 ], [ 348504.170905391685665, 3771750.762970498297364 ], [ 348503.86571719229687, 3771751.068158697802573 ], [ 348503.560528992908075, 3771751.068158697802573 ], [ 348503.255340793461073, 3771751.373346897307783 ], [ 348502.950152594072279, 3771751.373346897307783 ], [ 348502.339776195294689, 3771751.983723295852542 ], [ 348501.7293997965171, 3771751.983723295852542 ], [ 348501.424211597128306, 3771752.288911495357752 ], [ 348501.119023397739511, 3771752.288911495357752 ], [ 348500.813835198350716, 3771752.594099694862962 ], [ 348499.898270600184333, 3771752.594099694862962 ], [ 348499.593082400795538, 3771752.899287894368172 ], [ 348498.37232960324036, 3771752.899287894368172 ] ] ] } },
{ "type": "Feature", "properties": { "confidence": 0.94085526466369629, "class": 1 }, "geometry": { "type": "Polygon", "coordinates": [ [ [ 348459.918616480135825, 3772050.457782299257815 ], [ 348459.003051881969441, 3772049.542217700742185 ], [ 348459.003051881969441, 3772049.237029501702636 ], [ 348458.392675483191852, 3772048.626653102692217 ], [ 348458.392675483191852, 3772048.321464903187007 ], [ 348458.087487283803057, 3772048.016276704147458 ], [ 348458.087487283803057, 3772047.711088504642248 ], [ 348456.866734486247879, 3772046.49033570708707 ], [ 348456.561546286859084, 3772046.49033570708707 ], [ 348455.951169888081495, 3772045.87995930807665 ], [ 348455.951169888081495, 3772044.048830111976713 ], [ 348468.158697863691486, 3772044.048830111976713 ], [ 348468.158697863691486, 3772044.964394710026681 ], [ 348467.853509664302692, 3772045.269582909531891 ], [ 348467.853509664302692, 3772045.574771109037101 ], [ 348466.937945066136308, 3772046.49033570708707 ], [ 348466.632756866747513, 3772046.49033570708707 ], [ 348466.022380467969924, 3772047.100712105631828 ], [ 348465.71719226858113, 3772047.100712105631828 ], [ 348465.412004069192335, 3772047.405900305137038 ], [ 348465.10681586980354, 3772047.405900305137038 ], [ 348464.496439471025951, 3772048.016276704147458 ], [ 348464.191251271637157, 3772048.016276704147458 ], [ 348462.665310274693184, 3772049.542217700742185 ], [ 348462.360122075304389, 3772049.542217700742185 ], [ 348461.444557477138005, 3772050.457782299257815 ], [ 348459.918616480135825, 3772050.457782299257815 ] ] ] } },
{ "type": "Feature", "properties": { "confidence": 0.94005835056304932, "class": 1 }, "geometry": { "type": "Polygon", "coordinates": [ [ [ 348389.114954221760854, 3772157.578840285073966 ], [ 348387.894201424205676, 3772156.358087487053126 ], [ 348387.894201424205676, 3772156.052899288013577 ], [ 348387.589013224816881, 3772155.747711088508368 ], [ 348387.894201424205676, 3772155.442522889003158 ], [ 348387.894201424205676, 3772155.137334689497948 ], [ 348388.19938962359447, 3772154.832146490458399 ], [ 348388.19938962359447, 3772154.526958290953189 ], [ 348388.80976602237206, 3772153.916581891942769 ], [ 348388.80976602237206, 3772153.611393692903221 ], [ 348389.725330620538443, 3772152.695829094387591 ], [ 348389.725330620538443, 3772152.390640895348042 ], [ 348390.030518819927238, 3772152.085452695842832 ], [ 348390.335707019316033, 3772152.085452695842832 ], [ 348390.640895218704827, 3772151.780264496337622 ], [ 348390.946083418093622, 3772151.780264496337622 ], [ 348391.251271617482416, 3772152.085452695842832 ], [ 348391.861648016260006, 3772152.085452695842832 ], [ 348392.1668362156488, 3772152.390640895348042 ], [ 348392.472024415037595, 3772152.390640895348042 ], [ 348393.082400813815184, 3772153.001017293892801 ], [ 348393.082400813815184, 3772154.832146490458399 ], [ 348392.777212614426389, 3772155.137334689497948 ], [ 348392.777212614426389, 3772155.442522889003158 ], [ 348392.472024415037595, 3772155.747711088508368 ], [ 348392.472024415037595, 3772156.358087487053126 ], [ 348391.861648016260006, 3772156.968463886063546 ], [ 348391.556459816871211, 3772156.968463886063546 ], [ 348391.251271617482416, 3772157.273652085568756 ], [ 348390.946083418093622, 3772157.273652085568756 ], [ 348390.640895218704827, 3772157.578840285073966 ], [ 348389.114954221760854, 3772157.578840285073966 ] ] ] } },
{ "type": "Feature", "properties": { "confidence": 0.89253538846969604, "class": 1 }, "geometry": { "type": "Polygon", "coordinates": [ [ [ 348469.379450661246665, 3771861.54628687677905 ], [ 348469.379450661246665, 3771858.189216683618724 ], [ 348469.989827060024254, 3771858.189216683618724 ], [ 348470.295015259413049, 3771857.884028484113514 ], [ 348470.600203458801843, 3771857.884028484113514 ], [ 348470.905391658190638, 3771858.189216683618724 ], [ 348471.515768056968227, 3771858.189216683618724 ], [ 348472.126144455745816, 3771858.799593082629144 ], [ 348472.431332655134611, 3771858.799593082629144 ], [ 348473.0417090539122, 3771859.409969481173903 ], [ 348473.0417090539122, 3771859.715157680679113 ], [ 348473.346897253300995, 3771860.020345880184323 ], [ 348473.346897253300995, 3771861.241098677739501 ], [ 348473.0417090539122, 3771861.54628687677905 ], [ 348469.379450661246665, 3771861.54628687677905 ] ] ] } },
{ "type": "Feature", "properties": { "confidence": 0.87304079532623291, "class": 1 }, "geometry": { "type": "Polygon", "coordinates": [ [ [ 348387.283825025428087, 3772164.903357070405036 ], [ 348386.978636826039292, 3772164.598168870899826 ], [ 348386.673448626650497, 3772164.598168870899826 ], [ 348386.673448626650497, 3772164.292980671394616 ], [ 348386.368260427261703, 3772163.987792471889406 ], [ 348386.368260427261703, 3772163.377416073344648 ], [ 348386.063072227872908, 3772163.072227873839438 ], [ 348386.063072227872908, 3772162.156663275789469 ], [ 348386.368260427261703, 3772162.156663275789469 ], [ 348386.978636826039292, 3772161.54628687677905 ], [ 348387.283825025428087, 3772161.54628687677905 ], [ 348387.589013224816881, 3772161.241098677739501 ], [ 348387.894201424205676, 3772161.241098677739501 ], [ 348388.19938962359447, 3772160.935910478234291 ], [ 348388.19938962359447, 3772160.630722278729081 ], [ 348388.504577822983265, 3772160.630722278729081 ], [ 348389.725330620538443, 3772159.409969481173903 ], [ 348390.030518819927238, 3772159.409969481173903 ], [ 348390.640895218704827, 3772158.799593082629144 ], [ 348390.946083418093622, 3772158.799593082629144 ], [ 348391.861648016260006, 3772157.884028484113514 ], [ 348392.1668362156488, 3772157.884028484113514 ], [ 348392.472024415037595, 3772157.578840285073966 ], [ 348393.692777212592773, 3772157.578840285073966 ], [ 348395.218718209536746, 3772159.104781281668693 ], [ 348395.523906408925541, 3772159.104781281668693 ], [ 348395.829094608314335, 3772159.409969481173903 ], [ 348396.439471007150132, 3772159.409969481173903 ], [ 348396.744659206538927, 3772159.715157680679113 ], [ 348397.660223804705311, 3772159.715157680679113 ], [ 348397.965412004094105, 3772160.020345880184323 ], [ 348398.880976602260489, 3772160.020345880184323 ], [ 348399.186164801649284, 3772160.325534079223871 ], [ 348399.796541200426873, 3772160.325534079223871 ], [ 348400.101729399815667, 3772160.630722278729081 ], [ 348400.101729399815667, 3772161.241098677739501 ], [ 348399.796541200426873, 3772161.54628687677905 ], [ 348399.491353001038078, 3772161.54628687677905 ], [ 348398.2706002034829, 3772162.767039674334228 ], [ 348397.965412004094105, 3772162.767039674334228 ], [ 348397.660223804705311, 3772163.072227873839438 ], [ 348397.355035605316516, 3772163.072227873839438 ], [ 348396.744659206538927, 3772163.682604272849858 ], [ 348396.439471007150132, 3772163.682604272849858 ], [ 348396.13428280770313, 3772163.987792471889406 ], [ 348390.335707019316033, 3772163.987792471889406 ], [ 348390.030518819927238, 3772164.292980671394616 ], [ 348390.030518819927238, 3772164.598168870899826 ], [ 348389.420142421149649, 3772164.598168870899826 ], [ 348389.114954221760854, 3772164.903357070405036 ], [ 348387.283825025428087, 3772164.903357070405036 ] ] ] } },
{ "type": "Feature", "properties": { "confidence": 0.84192728996276855, "class": 1 }, "geometry": { "type": "Polygon", "coordinates": [ [ [ 348273.143438453727867, 3772049.237029501702636 ], [ 348272.838250254339073, 3772048.931841302197427 ], [ 348272.227873855561484, 3772048.931841302197427 ], [ 348271.922685656172689, 3772048.626653102692217 ], [ 348271.617497456783894, 3772048.626653102692217 ], [ 348271.3123092573951, 3772048.321464903187007 ], [ 348271.007121058006305, 3772048.321464903187007 ], [ 348270.091556459839921, 3772047.405900305137038 ], [ 348269.481180061062332, 3772047.405900305137038 ], [ 348269.175991861673538, 3772047.100712105631828 ], [ 348269.175991861673538, 3772046.79552390659228 ], [ 348268.260427263507154, 3772045.87995930807665 ], [ 348268.260427263507154, 3772045.574771109037101 ], [ 348267.955239064118359, 3772045.269582909531891 ], [ 348267.955239064118359, 3772044.964394710026681 ], [ 348267.650050864671357, 3772044.659206510521472 ], [ 348267.650050864671357, 3772044.048830111976713 ], [ 348273.143438453727867, 3772044.048830111976713 ], [ 348273.143438453727867, 3772049.237029501702636 ] ] ] } },
{ "type": "Feature", "properties": { "confidence": 0.81894505023956299, "class": 1 }, "geometry": { "type": "Polygon", "coordinates": [ [ [ 348349.745676500489935, 3771931.434384536929429 ], [ 348349.440488301101141, 3771931.12919633788988 ], [ 348349.135300101712346, 3771931.12919633788988 ], [ 348348.830111902323551, 3771930.82400813838467 ], [ 348348.830111902323551, 3771930.21363173937425 ], [ 348348.524923702934757, 3771929.908443540334702 ], [ 348348.524923702934757, 3771929.603255340829492 ], [ 348348.219735503545962, 3771929.298067141324282 ], [ 348347.914547304157168, 3771929.298067141324282 ], [ 348347.304170905379578, 3771928.687690742779523 ], [ 348346.998982705990784, 3771928.687690742779523 ], [ 348346.998982705990784, 3771928.382502543274313 ], [ 348346.388606307213195, 3771927.772126144263893 ], [ 348346.388606307213195, 3771926.856561546213925 ], [ 348354.933875890157651, 3771926.856561546213925 ], [ 348354.933875890157651, 3771927.772126144263893 ], [ 348354.628687690768857, 3771927.772126144263893 ], [ 348354.323499491380062, 3771928.077314343769103 ], [ 348354.018311291991267, 3771928.077314343769103 ], [ 348353.40793489315547, 3771928.687690742779523 ], [ 348353.102746693766676, 3771928.687690742779523 ], [ 348352.797558494377881, 3771928.992878941819072 ], [ 348352.492370294989087, 3771928.992878941819072 ], [ 348352.187182095600292, 3771929.298067141324282 ], [ 348351.881993896211497, 3771929.298067141324282 ], [ 348351.576805696822703, 3771929.603255340829492 ], [ 348351.576805696822703, 3771929.908443540334702 ], [ 348351.271617497433908, 3771930.21363173937425 ], [ 348351.271617497433908, 3771930.51881993887946 ], [ 348350.356052899267524, 3771931.434384536929429 ], [ 348349.745676500489935, 3771931.434384536929429 ] ] ] } },
{ "type": "Feature", "properties": { "confidence": 0.79039132595062256, "class": 1 }, "geometry": { "type": "Polygon", "coordinates": [ [ [ 348466.022380467969924, 3771848.423194303177297 ], [ 348466.022380467969924, 3771847.507629705127329 ], [ 348465.71719226858113, 3771847.202441505622119 ], [ 348465.71719226858113, 3771846.897253306116909 ], [ 348465.10681586980354, 3771846.28687690757215 ], [ 348465.10681586980354, 3771844.150559511501342 ], [ 348465.412004069192335, 3771843.845371312461793 ], [ 348465.412004069192335, 3771843.234994913451374 ], [ 348466.022380467969924, 3771842.624618514906615 ], [ 348466.022380467969924, 3771842.319430315401405 ], [ 348466.327568667358719, 3771842.319430315401405 ], [ 348467.243133265525103, 3771841.403865717351437 ], [ 348467.853509664302692, 3771841.403865717351437 ], [ 348468.158697863691486, 3771841.098677517846227 ], [ 348468.769074262469076, 3771841.098677517846227 ], [ 348469.07426246185787, 3771840.793489318341017 ], [ 348469.379450661246665, 3771840.793489318341017 ], [ 348470.295015259413049, 3771839.877924720291048 ], [ 348472.431332655134611, 3771839.877924720291048 ], [ 348472.736520854523405, 3771840.183112919796258 ], [ 348473.346897253300995, 3771840.183112919796258 ], [ 348473.652085452689789, 3771840.488301118835807 ], [ 348473.957273652078584, 3771840.488301118835807 ], [ 348474.262461851467378, 3771840.793489318341017 ], [ 348474.567650050856173, 3771840.793489318341017 ], [ 348475.178026449633762, 3771841.403865717351437 ], [ 348475.483214649022557, 3771841.403865717351437 ], [ 348475.788402848411351, 3771841.709053916390985 ], [ 348476.093591047800146, 3771841.709053916390985 ], [ 348477.314343845355324, 3771842.929806713946164 ], [ 348477.314343845355324, 3771845.066124110016972 ], [ 348477.00915564596653, 3771845.37131230905652 ], [ 348476.703967446577735, 3771845.37131230905652 ], [ 348476.398779247188941, 3771845.67650050856173 ], [ 348474.872838250244968, 3771845.67650050856173 ], [ 348474.567650050856173, 3771845.98168870806694 ], [ 348474.262461851467378, 3771845.98168870806694 ], [ 348473.957273652078584, 3771846.28687690757215 ], [ 348473.652085452689789, 3771846.28687690757215 ], [ 348473.346897253300995, 3771846.592065106611699 ], [ 348473.0417090539122, 3771846.592065106611699 ], [ 348472.736520854523405, 3771846.897253306116909 ], [ 348472.126144455745816, 3771846.897253306116909 ], [ 348471.820956256357022, 3771847.202441505622119 ], [ 348471.210579857579432, 3771847.202441505622119 ], [ 348470.905391658190638, 3771847.507629705127329 ], [ 348470.905391658190638, 3771848.423194303177297 ], [ 348466.022380467969924, 3771848.423194303177297 ] ] ] } },
{ "type": "Feature", "properties": { "confidence": 0.77969992160797119, "class": 1 }, "geometry": { "type": "Polygon", "coordinates": [ [ [ 348266.429298067116179, 3771731.230925737414509 ], [ 348266.429298067116179, 3771730.92573753837496 ], [ 348266.124109867727384, 3771730.62054933886975 ], [ 348266.124109867727384, 3771729.704984740819782 ], [ 348265.818921668338589, 3771729.399796541314572 ], [ 348265.818921668338589, 3771726.653102746699005 ], [ 348266.429298067116179, 3771726.653102746699005 ], [ 348266.734486266504973, 3771726.347914547193795 ], [ 348267.039674465893768, 3771726.347914547193795 ], [ 348267.344862665282562, 3771726.653102746699005 ], [ 348267.955239064118359, 3771726.653102746699005 ], [ 348268.260427263507154, 3771726.958290946204215 ], [ 348268.565615462895948, 3771726.958290946204215 ], [ 348268.870803662284743, 3771727.263479145243764 ], [ 348271.007121058006305, 3771727.263479145243764 ], [ 348271.007121058006305, 3771729.704984740819782 ], [ 348270.701932858617511, 3771730.010172939859331 ], [ 348270.701932858617511, 3771731.230925737414509 ], [ 348266.429298067116179, 3771731.230925737414509 ] ] ] } },
{ "type": "Feature", "properties": { "confidence": 0.7794073224067688, "class": 1 }, "geometry": { "type": "Polygon", "coordinates": [ [ [ 348365.310274669376668, 3771974.160732451826334 ], [ 348365.005086469987873, 3771973.855544252321124 ], [ 348365.005086469987873, 3771973.550356052815914 ], [ 348364.394710071210284, 3771972.939979654271156 ], [ 348364.394710071210284, 3771972.329603255260736 ], [ 348364.089521871821489, 3771972.024415055755526 ], [ 348364.089521871821489, 3771971.719226856715977 ], [ 348364.394710071210284, 3771971.414038657210767 ], [ 348364.394710071210284, 3771971.108850457705557 ], [ 348364.699898270599078, 3771970.803662258200347 ], [ 348365.005086469987873, 3771970.803662258200347 ], [ 348365.615462868765462, 3771970.193285859655589 ], [ 348365.920651068154257, 3771970.193285859655589 ], [ 348366.225839267543051, 3771969.888097660150379 ], [ 348368.362156663264614, 3771969.888097660150379 ], [ 348368.362156663264614, 3771970.498474059160799 ], [ 348368.972533062042203, 3771971.108850457705557 ], [ 348368.972533062042203, 3771971.414038657210767 ], [ 348369.277721261430997, 3771971.719226856715977 ], [ 348369.277721261430997, 3771972.634791454765946 ], [ 348368.667344862653408, 3771973.245167853310704 ], [ 348366.836215666320641, 3771973.245167853310704 ], [ 348365.920651068154257, 3771974.160732451826334 ], [ 348365.310274669376668, 3771974.160732451826334 ] ] ] } },
{ "type": "Feature", "properties": { "confidence": 0.75571352243423462, "class": 1 }, "geometry": { "type": "Polygon", "coordinates": [ [ [ 348232.248219735512976, 3771842.929806713946164 ], [ 348232.248219735512976, 3771842.014242115896195 ], [ 348232.55340793490177, 3771841.709053916390985 ], [ 348232.55340793490177, 3771840.793489318341017 ], [ 348232.858596134290565, 3771840.488301118835807 ], [ 348232.858596134290565, 3771840.183112919796258 ], [ 348233.163784333679359, 3771839.877924720291048 ], [ 348233.163784333679359, 3771839.572736520785838 ], [ 348233.468972533068154, 3771839.267548321280628 ], [ 348233.468972533068154, 3771838.96236012224108 ], [ 348233.774160732456949, 3771838.65717192273587 ], [ 348234.689725330623332, 3771838.65717192273587 ], [ 348235.300101729400922, 3771839.267548321280628 ], [ 348235.605289928789716, 3771839.267548321280628 ], [ 348235.910478128178511, 3771839.572736520785838 ], [ 348235.910478128178511, 3771840.183112919796258 ], [ 348235.605289928789716, 3771840.488301118835807 ], [ 348235.605289928789716, 3771840.793489318341017 ], [ 348235.300101729400922, 3771841.098677517846227 ], [ 348235.300101729400922, 3771841.709053916390985 ], [ 348234.994913530012127, 3771842.014242115896195 ], [ 348234.994913530012127, 3771842.319430315401405 ], [ 348234.689725330623332, 3771842.624618514906615 ], [ 348234.384537131234538, 3771842.624618514906615 ], [ 348234.079348931845743, 3771842.929806713946164 ], [ 348232.248219735512976, 3771842.929806713946164 ] ] ] } },
{ "type": "Feature", "properties": { "confidence": 0.72825318574905396, "class": 1 }, "geometry": { "type": "Polygon", "coordinates": [ [ [ 348506.307222787407227, 3771950.966429298277944 ], [ 348503.560528992908075, 3771948.219735503662378 ], [ 348503.255340793461073, 3771948.219735503662378 ], [ 348503.255340793461073, 3771947.914547304157168 ], [ 348502.950152594072279, 3771947.609359104651958 ], [ 348502.950152594072279, 3771947.304170905612409 ], [ 348502.644964394683484, 3771946.998982706107199 ], [ 348502.644964394683484, 3771946.693794506601989 ], [ 348502.339776195294689, 3771946.388606307096779 ], [ 348502.339776195294689, 3771945.778229908552021 ], [ 348502.034587995905895, 3771945.473041709046811 ], [ 348502.034587995905895, 3771945.167853509541601 ], [ 348501.7293997965171, 3771944.862665310502052 ], [ 348501.7293997965171, 3771944.252288911491632 ], [ 348502.034587995905895, 3771944.252288911491632 ], [ 348502.339776195294689, 3771943.947100711986423 ], [ 348506.307222787407227, 3771943.947100711986423 ], [ 348506.612410986796021, 3771944.252288911491632 ], [ 348507.527975584962405, 3771944.252288911491632 ], [ 348507.527975584962405, 3771950.966429298277944 ], [ 348506.307222787407227, 3771950.966429298277944 ] ] ] } },
{ "type": "Feature", "properties": { "confidence": 0.72638082504272461, "class": 1 }, "geometry": { "type": "Polygon", "coordinates": [ [ [ 348335.401831129216589, 3771848.423194303177297 ], [ 348335.401831129216589, 3771845.066124110016972 ], [ 348336.012207527994178, 3771845.066124110016972 ], [ 348336.317395727382973, 3771844.760935910511762 ], [ 348338.75890132249333, 3771844.760935910511762 ], [ 348339.064089521882124, 3771844.455747711006552 ], [ 348339.979654120048508, 3771844.455747711006552 ], [ 348340.284842319437303, 3771844.150559511501342 ], [ 348341.810783316381276, 3771844.150559511501342 ], [ 348341.810783316381276, 3771845.98168870806694 ], [ 348341.505595116992481, 3771846.28687690757215 ], [ 348341.505595116992481, 3771847.202441505622119 ], [ 348341.200406917603686, 3771847.507629705127329 ], [ 348341.200406917603686, 3771848.423194303177297 ], [ 348335.401831129216589, 3771848.423194303177297 ] ] ] } },
{ "type": "Feature", "properties": { "confidence": 0.67515319585800171, "class": 1 }, "geometry": { "type": "Polygon", "coordinates": [ [ [ 348223.09257375379093, 3771653.71312309242785 ], [ 348222.482197355013341, 3771653.102746693883091 ], [ 348222.482197355013341, 3771652.492370294872671 ], [ 348223.702950152568519, 3771651.271617497317493 ], [ 348224.008138351957314, 3771651.271617497317493 ], [ 348224.618514750734903, 3771650.661241098772734 ], [ 348224.923702950123698, 3771650.661241098772734 ], [ 348225.2288911495707, 3771650.356052899267524 ], [ 348225.534079348959494, 3771650.356052899267524 ], [ 348225.839267548348289, 3771650.050864699762315 ], [ 348226.449643947125878, 3771650.050864699762315 ], [ 348226.754832146514673, 3771649.745676500722766 ], [ 348227.365208545292262, 3771649.745676500722766 ], [ 348227.670396744681057, 3771649.440488301217556 ], [ 348229.19633774162503, 3771649.440488301217556 ], [ 348229.501525941013824, 3771649.745676500722766 ], [ 348229.501525941013824, 3771651.271617497317493 ], [ 348229.19633774162503, 3771651.271617497317493 ], [ 348228.891149542236235, 3771651.576805696822703 ], [ 348228.58596134284744, 3771651.576805696822703 ], [ 348228.280773143458646, 3771651.881993896327913 ], [ 348227.670396744681057, 3771651.881993896327913 ], [ 348227.365208545292262, 3771652.187182095833123 ], [ 348227.060020345903467, 3771652.187182095833123 ], [ 348226.449643947125878, 3771652.797558494377881 ], [ 348226.144455747737084, 3771652.797558494377881 ], [ 348225.839267548348289, 3771653.102746693883091 ], [ 348225.534079348959494, 3771653.102746693883091 ], [ 348225.2288911495707, 3771653.407934893388301 ], [ 348224.923702950123698, 3771653.407934893388301 ], [ 348224.618514750734903, 3771653.71312309242785 ], [ 348223.09257375379093, 3771653.71312309242785 ] ] ] } },
{ "type": "Feature", "properties": { "confidence": 0.58714932203292847, "class": 1 }, "geometry": { "type": "Polygon", "coordinates": [ [ [ 348419.938962360145524, 3772074.567650050856173 ], [ 348419.63377416075673, 3772074.262461851350963 ], [ 348419.63377416075673, 3772071.820956256240606 ], [ 348419.938962360145524, 3772071.515768057201058 ], [ 348419.938962360145524, 3772070.600203458685428 ], [ 348420.549338758923113, 3772069.989827060140669 ], [ 348420.549338758923113, 3772069.684638860635459 ], [ 348421.159715157700703, 3772069.07426246162504 ], [ 348421.159715157700703, 3772067.853509664069861 ], [ 348421.464903357089497, 3772067.548321465030313 ], [ 348421.464903357089497, 3772066.937945066019893 ], [ 348422.075279755867086, 3772066.327568667475134 ], [ 348422.075279755867086, 3772066.022380467969924 ], [ 348422.380467955255881, 3772065.717192268464714 ], [ 348422.380467955255881, 3772065.412004068959504 ], [ 348422.685656154644676, 3772065.106815869919956 ], [ 348422.685656154644676, 3772064.801627670414746 ], [ 348422.99084435403347, 3772064.801627670414746 ], [ 348423.601220752811059, 3772065.412004068959504 ], [ 348423.601220752811059, 3772066.022380467969924 ], [ 348424.211597151588649, 3772066.632756866514683 ], [ 348424.211597151588649, 3772066.937945066019893 ], [ 348424.516785350977443, 3772067.243133265525103 ], [ 348424.516785350977443, 3772067.853509664069861 ], [ 348424.821973550366238, 3772068.158697863575071 ], [ 348425.127161749755032, 3772068.158697863575071 ], [ 348425.127161749755032, 3772068.463886063080281 ], [ 348425.432349949143827, 3772068.769074262585491 ], [ 348425.737538148532622, 3772068.769074262585491 ], [ 348425.737538148532622, 3772069.07426246162504 ], [ 348426.347914547310211, 3772069.684638860635459 ], [ 348426.347914547310211, 3772069.989827060140669 ], [ 348426.9582909460878, 3772070.600203458685428 ], [ 348426.9582909460878, 3772070.905391658190638 ], [ 348427.263479145476595, 3772071.210579857695848 ], [ 348427.263479145476595, 3772072.126144455745816 ], [ 348426.042726347921416, 3772073.346897253300995 ], [ 348425.737538148532622, 3772073.346897253300995 ], [ 348425.127161749755032, 3772073.957273652311414 ], [ 348424.821973550366238, 3772073.957273652311414 ], [ 348424.516785350977443, 3772074.262461851350963 ], [ 348423.296032553422265, 3772074.262461851350963 ], [ 348422.99084435403347, 3772074.567650050856173 ], [ 348419.938962360145524, 3772074.567650050856173 ] ] ] } },
{ "type": "Feature", "properties": { "confidence": 0.46210035681724548, "class": 1 }, "geometry": { "type": "Polygon", "coordinates": [ [ [ 348234.384537131234538, 3771932.655137334484607 ], [ 348234.384537131234538, 3771926.856561546213925 ], [ 348236.826042726344895, 3771926.856561546213925 ], [ 348236.826042726344895, 3771928.382502543274313 ], [ 348237.131230925733689, 3771928.687690742779523 ], [ 348237.131230925733689, 3771930.82400813838467 ], [ 348235.605289928789716, 3771932.349949135445058 ], [ 348235.300101729400922, 3771932.349949135445058 ], [ 348234.994913530012127, 3771932.655137334484607 ], [ 348234.384537131234538, 3771932.655137334484607 ] ] ] } },
{ "type": "Feature", "properties": { "confidence": 0.4585745632648468, "class": 1 }, "geometry": { "type": "Polygon", "coordinates": [ [ [ 348228.58596134284744, 3771849.949135300237685 ], [ 348228.58596134284744, 3771849.033570701722056 ], [ 348228.891149542236235, 3771848.728382502682507 ], [ 348228.891149542236235, 3771848.423194303177297 ], [ 348229.501525941013824, 3771847.812817904166877 ], [ 348229.501525941013824, 3771847.507629705127329 ], [ 348229.806714140402619, 3771847.202441505622119 ], [ 348229.806714140402619, 3771846.897253306116909 ], [ 348230.722278738569003, 3771845.98168870806694 ], [ 348231.637843336735386, 3771845.98168870806694 ], [ 348231.943031536124181, 3771846.28687690757215 ], [ 348232.55340793490177, 3771846.28687690757215 ], [ 348232.858596134290565, 3771846.592065106611699 ], [ 348232.858596134290565, 3771846.897253306116909 ], [ 348232.55340793490177, 3771847.202441505622119 ], [ 348232.55340793490177, 3771847.507629705127329 ], [ 348231.943031536124181, 3771848.118006103672087 ], [ 348231.943031536124181, 3771849.338758901227266 ], [ 348231.637843336735386, 3771849.643947100732476 ], [ 348231.332655137346592, 3771849.643947100732476 ], [ 348231.027466937957797, 3771849.949135300237685 ], [ 348228.58596134284744, 3771849.949135300237685 ] ] ] } },
{ "type": "Feature", "properties": { "confidence": 0.44055086374282837, "class": 1 }, "geometry": { "type": "Polygon", "coordinates": [ [ [ 348328.077314343827311, 3771819.735503560397774 ], [ 348327.772126144438516, 3771819.430315361358225 ], [ 348326.551373346883338, 3771819.430315361358225 ], [ 348325.940996948105749, 3771818.819938962347806 ], [ 348325.635808748716954, 3771818.819938962347806 ], [ 348324.415055951161776, 3771817.599186164792627 ], [ 348324.415055951161776, 3771815.76805696869269 ], [ 348324.72024415055057, 3771815.46286876918748 ], [ 348324.72024415055057, 3771814.85249237017706 ], [ 348325.635808748716954, 3771813.936927772127092 ], [ 348326.856561546272133, 3771813.936927772127092 ], [ 348327.161749745660927, 3771814.242115971632302 ], [ 348327.772126144438516, 3771814.242115971632302 ], [ 348328.077314343827311, 3771814.547304171137512 ], [ 348328.382502543216106, 3771814.547304171137512 ], [ 348328.6876907426049, 3771814.85249237017706 ], [ 348328.992878941993695, 3771814.85249237017706 ], [ 348329.298067141382489, 3771815.15768056968227 ], [ 348329.298067141382489, 3771815.46286876918748 ], [ 348330.824008138326462, 3771816.988809766247869 ], [ 348330.824008138326462, 3771818.209562563803047 ], [ 348330.518819938937668, 3771818.514750762842596 ], [ 348330.518819938937668, 3771818.819938962347806 ], [ 348330.213631739548873, 3771818.819938962347806 ], [ 348329.603255340771284, 3771819.430315361358225 ], [ 348329.298067141382489, 3771819.430315361358225 ], [ 348328.992878941993695, 3771819.735503560397774 ], [ 348328.077314343827311, 3771819.735503560397774 ] ] ] } },
{ "type": "Feature", "properties": { "confidence": 0.43120351433753967, "class": 1 }, "geometry": { "type": "Polygon", "coordinates": [ [ [ 348444.3540183113073, 3772098.982706001959741 ], [ 348444.3540183113073, 3772092.878942014183849 ], [ 348444.659206510696094, 3772092.573753814678639 ], [ 348445.269582909473684, 3772092.573753814678639 ], [ 348445.574771108862478, 3772092.268565615639091 ], [ 348447.100712105806451, 3772092.268565615639091 ], [ 348447.405900305195246, 3772091.963377416133881 ], [ 348447.71108850458404, 3772091.963377416133881 ], [ 348448.32146490336163, 3772092.573753814678639 ], [ 348448.32146490336163, 3772093.794506612233818 ], [ 348449.237029501528013, 3772094.710071210749447 ], [ 348449.237029501528013, 3772095.930824008304626 ], [ 348448.931841302139219, 3772096.236012207344174 ], [ 348448.931841302139219, 3772096.541200406849384 ], [ 348448.32146490336163, 3772097.151576805859804 ], [ 348448.32146490336163, 3772097.761953204404563 ], [ 348448.016276703972835, 3772098.067141403909773 ], [ 348448.016276703972835, 3772098.677517802454531 ], [ 348447.71108850458404, 3772098.982706001959741 ], [ 348444.3540183113073, 3772098.982706001959741 ] ] ] } },
{ "type": "Feature", "properties": { "confidence": 0.41318762302398682, "class": 1 }, "geometry": { "type": "Polygon", "coordinates": [ [ [ 348316.480162767053116, 3772104.781281790230423 ], [ 348316.174974567664322, 3772104.476093591190875 ], [ 348314.954221770109143, 3772104.476093591190875 ], [ 348314.649033570720349, 3772104.170905391685665 ], [ 348314.343845371331554, 3772104.170905391685665 ], [ 348312.512716174998786, 3772102.339776195120066 ], [ 348312.207527975609992, 3772102.339776195120066 ], [ 348311.291963377443608, 3772101.424211597070098 ], [ 348311.291963377443608, 3772100.813835198525339 ], [ 348310.986775178054813, 3772100.508646999020129 ], [ 348310.986775178054813, 3772098.982706001959741 ], [ 348311.597151576832402, 3772098.372329603414983 ], [ 348314.954221770109143, 3772098.372329603414983 ], [ 348315.259409969497938, 3772098.677517802454531 ], [ 348315.564598168886732, 3772098.677517802454531 ], [ 348316.174974567664322, 3772099.287894201464951 ], [ 348316.785350966441911, 3772099.287894201464951 ], [ 348317.090539165830705, 3772099.593082400970161 ], [ 348317.700915564608295, 3772099.593082400970161 ], [ 348318.006103763997089, 3772099.89827060000971 ], [ 348318.921668362163473, 3772099.89827060000971 ], [ 348319.226856561552268, 3772100.20345879951492 ], [ 348319.837232960329857, 3772100.20345879951492 ], [ 348320.447609359107446, 3772100.813835198525339 ], [ 348320.447609359107446, 3772103.255340793635696 ], [ 348319.532044760941062, 3772104.170905391685665 ], [ 348318.921668362163473, 3772104.170905391685665 ], [ 348318.616480162774678, 3772104.476093591190875 ], [ 348316.785350966441911, 3772104.476093591190875 ], [ 348316.480162767053116, 3772104.781281790230423 ] ] ] } },
{ "type": "Feature", "properties": { "confidence": 0.3685615062713623, "class": 1 }, "geometry": { "type": "Polygon", "coordinates": [ [ [ 348353.40793489315547, 3771867.039674466010183 ], [ 348353.102746693766676, 3771866.734486266504973 ], [ 348353.102746693766676, 3771866.429298066999763 ], [ 348352.797558494377881, 3771866.124109867960215 ], [ 348352.797558494377881, 3771865.513733468949795 ], [ 348352.492370294989087, 3771865.208545269444585 ], [ 348352.492370294989087, 3771864.903357070405036 ], [ 348352.797558494377881, 3771864.598168870899826 ], [ 348352.797558494377881, 3771863.682604272849858 ], [ 348353.102746693766676, 3771863.377416073344648 ], [ 348353.102746693766676, 3771860.325534079223871 ], [ 348353.40793489315547, 3771860.020345880184323 ], [ 348353.40793489315547, 3771858.189216683618724 ], [ 348353.713123092602473, 3771857.884028484113514 ], [ 348353.713123092602473, 3771856.968463886063546 ], [ 348354.018311291991267, 3771856.663275686558336 ], [ 348354.018311291991267, 3771855.137334689497948 ], [ 348354.628687690768857, 3771854.526958290953189 ], [ 348354.628687690768857, 3771854.221770091447979 ], [ 348356.15462868771283, 3771854.221770091447979 ], [ 348356.765005086490419, 3771854.832146490458399 ], [ 348357.070193285879213, 3771854.832146490458399 ], [ 348357.375381485268008, 3771855.137334689497948 ], [ 348357.680569684656803, 3771855.137334689497948 ], [ 348358.290946083434392, 3771855.747711088508368 ], [ 348358.290946083434392, 3771856.358087487053126 ], [ 348358.596134282823186, 3771856.663275686558336 ], [ 348358.596134282823186, 3771861.241098677739501 ], [ 348358.901322482211981, 3771861.54628687677905 ], [ 348358.901322482211981, 3771863.377416073344648 ], [ 348358.596134282823186, 3771863.682604272849858 ], [ 348358.596134282823186, 3771864.292980671394616 ], [ 348357.985757884045597, 3771864.903357070405036 ], [ 348357.985757884045597, 3771865.818921668455005 ], [ 348357.680569684656803, 3771866.124109867960215 ], [ 348357.680569684656803, 3771866.429298066999763 ], [ 348357.375381485268008, 3771866.734486266504973 ], [ 348357.070193285879213, 3771866.734486266504973 ], [ 348356.765005086490419, 3771867.039674466010183 ], [ 348353.40793489315547, 3771867.039674466010183 ] ] ] } },
{ "type": "Feature", "properties": { "confidence": 0.27197036147117615, "class": 1 }, "geometry": { "type": "Polygon", "coordinates": [ [ [ 348349.440488301101141, 3771931.12919633788988 ], [ 348349.440488301101141, 3771930.82400813838467 ], [ 348348.830111902323551, 3771930.21363173937425 ], [ 348348.830111902323551, 3771929.603255340829492 ], [ 348348.219735503545962, 3771928.992878941819072 ], [ 348347.914547304157168, 3771928.992878941819072 ], [ 348347.304170905379578, 3771928.382502543274313 ], [ 348347.304170905379578, 3771927.466937945224345 ], [ 348352.187182095600292, 3771927.466937945224345 ], [ 348352.187182095600292, 3771928.077314343769103 ], [ 348350.966429298045114, 3771929.298067141324282 ], [ 348350.966429298045114, 3771929.908443540334702 ], [ 348350.661241098656319, 3771930.21363173937425 ], [ 348350.661241098656319, 3771931.12919633788988 ], [ 348349.440488301101141, 3771931.12919633788988 ] ] ] } },
{ "type": "Feature", "properties": { "confidence": 0.26259851455688477, "class": 1 }, "geometry": { "type": "Polygon", "coordinates": [ [ [ 348282.299084435391705, 3771756.256358087528497 ], [ 348282.299084435391705, 3771755.951169888023287 ], [ 348281.993896236002911, 3771755.645981688518077 ], [ 348281.688708036614116, 3771755.645981688518077 ], [ 348281.688708036614116, 3771754.730417090468109 ], [ 348281.383519837225322, 3771754.425228890962899 ], [ 348281.383519837225322, 3771754.12004069192335 ], [ 348280.773143438447732, 3771753.50966429291293 ], [ 348280.467955239058938, 3771753.50966429291293 ], [ 348279.857578840281349, 3771752.899287894368172 ], [ 348279.857578840281349, 3771752.288911495357752 ], [ 348280.162767039670143, 3771751.983723295852542 ], [ 348280.162767039670143, 3771751.678535096812993 ], [ 348280.467955239058938, 3771751.373346897307783 ], [ 348280.467955239058938, 3771750.762970498297364 ], [ 348280.773143438447732, 3771750.457782299257815 ], [ 348281.078331637836527, 3771750.457782299257815 ], [ 348283.825025432335678, 3771747.711088504642248 ], [ 348284.130213631724473, 3771747.711088504642248 ], [ 348284.435401831113268, 3771747.405900305137038 ], [ 348285.350966429279651, 3771747.405900305137038 ], [ 348285.656154628668446, 3771747.711088504642248 ], [ 348285.961342828057241, 3771747.711088504642248 ], [ 348286.266531027446035, 3771748.016276704147458 ], [ 348287.792472024390008, 3771748.016276704147458 ], [ 348288.402848423167598, 3771748.626653102692217 ], [ 348288.708036622556392, 3771748.626653102692217 ], [ 348288.708036622556392, 3771748.931841302197427 ], [ 348289.013224821945187, 3771749.237029501702636 ], [ 348289.013224821945187, 3771749.542217700742185 ], [ 348289.318413021392189, 3771749.847405900247395 ], [ 348289.623601220780984, 3771749.847405900247395 ], [ 348289.623601220780984, 3771750.457782299257815 ], [ 348289.928789420169778, 3771750.762970498297364 ], [ 348289.928789420169778, 3771751.068158697802573 ], [ 348290.233977619558573, 3771751.373346897307783 ], [ 348290.233977619558573, 3771755.645981688518077 ], [ 348289.928789420169778, 3771755.645981688518077 ], [ 348289.623601220780984, 3771755.951169888023287 ], [ 348289.623601220780984, 3771756.256358087528497 ], [ 348282.299084435391705, 3771756.256358087528497 ] ] ] } },
{ "type": "Feature", "properties": { "confidence": 0.25947222113609314, "class": 1 }, "geometry": { "type": "Polygon", "coordinates": [ [ [ 348512.716174974571913, 3772003.153611393645406 ], [ 348512.410986775183119, 3772002.848423194140196 ], [ 348512.105798575794324, 3772002.848423194140196 ], [ 348511.495422177016735, 3772002.238046795595437 ], [ 348511.19023397762794, 3772002.238046795595437 ], [ 348510.274669379461557, 3772001.322482197545469 ], [ 348510.274669379461557, 3772001.017293998040259 ], [ 348509.664292980683967, 3772000.406917599029839 ], [ 348509.664292980683967, 3772000.10172939999029 ], [ 348508.443540183128789, 3771998.880976602435112 ], [ 348508.443540183128789, 3771998.575788402929902 ], [ 348507.8331637843512, 3771997.965412003919482 ], [ 348507.8331637843512, 3771997.660223804879934 ], [ 348507.527975584962405, 3771997.355035605374724 ], [ 348507.527975584962405, 3771996.134282807819545 ], [ 348508.443540183128789, 3771995.218718209769577 ], [ 348508.748728382517584, 3771995.218718209769577 ], [ 348509.359104781295173, 3771994.608341810759157 ], [ 348510.274669379461557, 3771994.608341810759157 ], [ 348510.579857578850351, 3771994.913530010264367 ], [ 348510.885045778239146, 3771994.913530010264367 ], [ 348511.19023397762794, 3771995.218718209769577 ], [ 348511.80061037640553, 3771995.218718209769577 ], [ 348512.410986775183119, 3771995.829094608314335 ], [ 348512.716174974571913, 3771995.829094608314335 ], [ 348513.021363173960708, 3771996.134282807819545 ], [ 348513.326551373349503, 3771996.134282807819545 ], [ 348513.326551373349503, 3771996.439471007324755 ], [ 348514.547304170904681, 3771997.660223804879934 ], [ 348514.852492370293476, 3771997.660223804879934 ], [ 348515.462868769071065, 3771998.270600203424692 ], [ 348515.462868769071065, 3771998.575788402929902 ], [ 348515.768056968459859, 3771998.880976602435112 ], [ 348515.462868769071065, 3771999.186164801474661 ], [ 348515.462868769071065, 3772000.712105798535049 ], [ 348513.021363173960708, 3772003.153611393645406 ], [ 348512.716174974571913, 3772003.153611393645406 ] ] ] } }
]
}
