{
"type": "FeatureCollection",
"name": "cell_00371_pre",
"crs": { "type": "name", "properties": { "name": "urn:ogc:def:crs:EPSG::32611" } },
"features": [
{ "type": "Feature", "properties": { "confidence": 0.93943732976913452, "class": 1 }, "geometry": { "type": "Polygon", "coordinates": [ [ [ 395463.784333672432695, 3787117.904374364297837 ], [ 395463.173957273655105, 3787117.293997965287417 ], [ 395463.173957273655105, 3787116.988809766247869 ], [ 395462.868769074266311, 3787116.683621566742659 ], [ 395462.868769074266311, 3787112.105798575561494 ], [ 395463.173957273655105, 3787111.800610376521945 ], [ 395463.173957273655105, 3787110.885045778006315 ], [ 395463.784333672432695, 3787110.274669379461557 ], [ 395463.784333672432695, 3787109.969481179956347 ], [ 395464.394710071210284, 3787109.359104781411588 ], [ 395464.699898270599078, 3787109.359104781411588 ], [ 395465.005086469987873, 3787109.053916581906378 ], [ 395465.310274669376668, 3787109.053916581906378 ], [ 395465.615462868765462, 3787108.748728382401168 ], [ 395468.667344862653408, 3787108.748728382401168 ], [ 395468.972533062042203, 3787109.053916581906378 ], [ 395468.972533062042203, 3787109.969481179956347 ], [ 395470.498474058986176, 3787111.495422177016735 ], [ 395470.498474058986176, 3787112.105798575561494 ], [ 395470.80366225837497, 3787112.410986775066704 ], [ 395471.108850457763765, 3787112.410986775066704 ], [ 395471.108850457763765, 3787113.326551373116672 ], [ 395470.80366225837497, 3787113.631739572621882 ], [ 395470.80366225837497, 3787113.936927772127092 ], [ 395470.498474058986176, 3787114.242115971632302 ], [ 395470.498474058986176, 3787114.547304171137512 ], [ 395467.44659206509823, 3787117.599186164792627 ], [ 395466.836215666320641, 3787117.599186164792627 ], [ 395466.531027466931846, 3787117.904374364297837 ], [ 395463.784333672432695, 3787117.904374364297837 ] ] ] } },
{ "type": "Feature", "properties": { "confidence": 0.85899388790130615, "class": 1 }, "geometry": { "type": "Polygon", "coordinates": [ [ [ 395868.769074262469076, 3786817.904374364297837 ], [ 395868.769074262469076, 3786809.664292980451137 ], [ 395871.210579857579432, 3786809.664292980451137 ], [ 395871.210579857579432, 3786811.190233977511525 ], [ 395870.905391658190638, 3786811.495422177016735 ], [ 395870.905391658190638, 3786812.105798575561494 ], [ 395870.600203458801843, 3786812.410986775066704 ], [ 395870.600203458801843, 3786813.631739572621882 ], [ 395870.295015259413049, 3786813.936927772127092 ], [ 395870.295015259413049, 3786814.547304171137512 ], [ 395869.989827060024254, 3786814.85249237017706 ], [ 395869.989827060024254, 3786815.46286876918748 ], [ 395869.684638860635459, 3786815.76805696869269 ], [ 395869.684638860635459, 3786816.378433367237449 ], [ 395869.379450661246665, 3786816.683621566742659 ], [ 395869.379450661246665, 3786816.988809766247869 ], [ 395869.07426246185787, 3786817.293997965287417 ], [ 395869.07426246185787, 3786817.599186164792627 ], [ 395868.769074262469076, 3786817.904374364297837 ] ] ] } },
{ "type": "Feature", "properties": { "confidence": 0.69524669647216797, "class": 1 }, "geometry": { "type": "Polygon", "coordinates": [ [ [ 395668.565615462895948, 3786731.230925737414509 ], [ 395668.565615462895948, 3786729.094608341809362 ], [ 395668.260427263507154, 3786728.789420142304152 ], [ 395668.260427263507154, 3786724.211597151588649 ], [ 395668.565615462895948, 3786723.906408952083439 ], [ 395668.565615462895948, 3786723.29603255353868 ], [ 395668.870803662284743, 3786722.99084435403347 ], [ 395668.870803662284743, 3786722.075279755983502 ], [ 395669.175991861673538, 3786721.770091556478292 ], [ 395670.396744659228716, 3786721.770091556478292 ], [ 395670.701932858617511, 3786721.464903356973082 ], [ 395671.3123092573951, 3786721.464903356973082 ], [ 395671.617497456783894, 3786721.770091556478292 ], [ 395671.922685656172689, 3786721.770091556478292 ], [ 395671.922685656172689, 3786722.38046795502305 ], [ 395672.227873855561484, 3786722.68565615452826 ], [ 395672.227873855561484, 3786724.211597151588649 ], [ 395672.533062054950278, 3786724.516785351093858 ], [ 395673.143438453727867, 3786724.516785351093858 ], [ 395673.143438453727867, 3786731.230925737414509 ], [ 395668.565615462895948, 3786731.230925737414509 ] ] ] } },
{ "type": "Feature", "properties": { "confidence": 0.58707821369171143, "class": 1 }, "geometry": { "type": "Polygon", "coordinates": [ [ [ 395649.338758901343681, 3786819.735503560397774 ], [ 395649.033570701954886, 3786819.430315361358225 ], [ 395648.423194303177297, 3786819.430315361358225 ], [ 395648.118006103788503, 3786819.125127161853015 ], [ 395647.812817904399708, 3786819.125127161853015 ], [ 395647.202441505622119, 3786818.514750762842596 ], [ 395647.202441505622119, 3786815.15768056968227 ], [ 395647.507629705010913, 3786814.85249237017706 ], [ 395647.812817904399708, 3786814.85249237017706 ], [ 395648.118006103788503, 3786814.547304171137512 ], [ 395648.423194303177297, 3786814.85249237017706 ], [ 395648.728382502566092, 3786814.85249237017706 ], [ 395649.033570701954886, 3786815.15768056968227 ], [ 395649.643947100732476, 3786815.15768056968227 ], [ 395649.643947100732476, 3786815.46286876918748 ], [ 395650.254323499510065, 3786816.073245167732239 ], [ 395650.559511698898859, 3786816.073245167732239 ], [ 395650.559511698898859, 3786816.378433367237449 ], [ 395652.085452695842832, 3786817.904374364297837 ], [ 395652.085452695842832, 3786818.209562563803047 ], [ 395652.390640895231627, 3786818.514750762842596 ], [ 395652.390640895231627, 3786819.125127161853015 ], [ 395652.085452695842832, 3786819.430315361358225 ], [ 395651.169888097676449, 3786819.430315361358225 ], [ 395650.864699898287654, 3786819.735503560397774 ], [ 395649.338758901343681, 3786819.735503560397774 ] ] ] } },
{ "type": "Feature", "properties": { "confidence": 0.53082233667373657, "class": 1 }, "geometry": { "type": "Polygon", "coordinates": [ [ [ 395849.237029501528013, 3786888.708036622498184 ], [ 395848.931841302139219, 3786888.402848422992975 ], [ 395848.931841302139219, 3786885.961342827882618 ], [ 395849.237029501528013, 3786885.656154628843069 ], [ 395849.237029501528013, 3786885.045778229832649 ], [ 395850.152594099694397, 3786884.130213631782681 ], [ 395850.457782299083192, 3786884.130213631782681 ], [ 395850.762970498471987, 3786883.825025432277471 ], [ 395851.068158697860781, 3786883.825025432277471 ], [ 395851.373346897249576, 3786883.519837232772261 ], [ 395851.67853509663837, 3786883.519837232772261 ], [ 395851.983723296027165, 3786883.214649033732712 ], [ 395852.594099694804754, 3786883.214649033732712 ], [ 395852.899287894193549, 3786882.909460834227502 ], [ 395853.204476093582343, 3786882.909460834227502 ], [ 395853.509664292971138, 3786882.604272634722292 ], [ 395854.425228891137522, 3786882.604272634722292 ], [ 395854.730417090526316, 3786882.299084435217083 ], [ 395855.340793489303906, 3786882.299084435217083 ], [ 395855.6459816886927, 3786882.604272634722292 ], [ 395855.6459816886927, 3786883.214649033732712 ], [ 395854.120040691748727, 3786884.740590030327439 ], [ 395854.120040691748727, 3786885.045778229832649 ], [ 395853.509664292971138, 3786885.656154628843069 ], [ 395853.509664292971138, 3786885.961342827882618 ], [ 395853.204476093582343, 3786885.961342827882618 ], [ 395852.899287894193549, 3786886.266531027387828 ], [ 395852.899287894193549, 3786886.571719226893038 ], [ 395851.983723296027165, 3786887.487283824943006 ], [ 395851.983723296027165, 3786887.792472024448216 ], [ 395851.373346897249576, 3786888.402848422992975 ], [ 395851.068158697860781, 3786888.402848422992975 ], [ 395850.762970498471987, 3786888.708036622498184 ], [ 395849.237029501528013, 3786888.708036622498184 ] ] ] } },
{ "type": "Feature", "properties": { "confidence": 0.46575558185577393, "class": 1 }, "geometry": { "type": "Polygon", "coordinates": [ [ [ 395661.24109867750667, 3786721.770091556478292 ], [ 395660.935910478117876, 3786721.464903356973082 ], [ 395660.630722278729081, 3786721.464903356973082 ], [ 395660.325534079340287, 3786721.159715157467872 ], [ 395660.020345879951492, 3786721.159715157467872 ], [ 395660.020345879951492, 3786720.854526958428323 ], [ 395659.715157680562697, 3786720.549338758923113 ], [ 395659.715157680562697, 3786718.107833163812757 ], [ 395660.630722278729081, 3786717.192268565762788 ], [ 395660.935910478117876, 3786717.192268565762788 ], [ 395661.24109867750667, 3786716.887080366257578 ], [ 395663.987792472005822, 3786716.887080366257578 ], [ 395663.987792472005822, 3786717.497456764802337 ], [ 395664.292980671394616, 3786717.802644964307547 ], [ 395664.292980671394616, 3786721.159715157467872 ], [ 395663.987792472005822, 3786721.464903356973082 ], [ 395663.682604272617027, 3786721.464903356973082 ], [ 395663.377416073228233, 3786721.770091556478292 ], [ 395661.24109867750667, 3786721.770091556478292 ] ] ] } },
{ "type": "Feature", "properties": { "confidence": 0.45514804124832153, "class": 1 }, "geometry": { "type": "Polygon", "coordinates": [ [ [ 395680.467955239058938, 3786939.979654119815677 ], [ 395680.162767039670143, 3786939.674465920776129 ], [ 395679.857578840281349, 3786939.674465920776129 ], [ 395679.552390640892554, 3786939.369277721270919 ], [ 395679.552390640892554, 3786938.758901322260499 ], [ 395679.247202441503759, 3786938.45371312322095 ], [ 395679.247202441503759, 3786934.486266531050205 ], [ 395679.552390640892554, 3786934.181078331544995 ], [ 395679.552390640892554, 3786933.875890132039785 ], [ 395682.299084435391705, 3786931.12919633788988 ], [ 395683.519837232946884, 3786931.12919633788988 ], [ 395683.825025432335678, 3786931.434384536929429 ], [ 395684.130213631724473, 3786931.434384536929429 ], [ 395684.740590030502062, 3786932.044760935939848 ], [ 395684.740590030502062, 3786934.791454730555415 ], [ 395684.435401831113268, 3786935.096642929594964 ], [ 395684.435401831113268, 3786937.843336724210531 ], [ 395684.130213631724473, 3786938.14852492371574 ], [ 395684.130213631724473, 3786938.45371312322095 ], [ 395683.519837232946884, 3786939.064089521765709 ], [ 395683.214649033558089, 3786939.064089521765709 ], [ 395682.909460834169295, 3786939.369277721270919 ], [ 395681.688708036614116, 3786939.369277721270919 ], [ 395681.383519837225322, 3786939.674465920776129 ], [ 395681.078331637836527, 3786939.674465920776129 ], [ 395680.773143438447732, 3786939.979654119815677 ], [ 395680.467955239058938, 3786939.979654119815677 ] ] ] } },
{ "type": "Feature", "properties": { "confidence": 0.38366574048995972, "class": 1 }, "geometry": { "type": "Polygon", "coordinates": [ [ [ 395553.814852492359933, 3786694.913530010264367 ], [ 395553.509664292971138, 3786694.608341810759157 ], [ 395552.594099694804754, 3786694.608341810759157 ], [ 395552.28891149541596, 3786694.303153611253947 ], [ 395551.983723296027165, 3786694.303153611253947 ], [ 395551.373346897249576, 3786693.692777212709188 ], [ 395551.373346897249576, 3786693.387589013203979 ], [ 395551.068158697860781, 3786693.082400813698769 ], [ 395551.068158697860781, 3786692.47202441515401 ], [ 395555.951169888081495, 3786692.47202441515401 ], [ 395555.951169888081495, 3786694.913530010264367 ], [ 395553.814852492359933, 3786694.913530010264367 ] ] ] } },
{ "type": "Feature", "properties": { "confidence": 0.31375408172607422, "class": 1 }, "geometry": { "type": "Polygon", "coordinates": [ [ [ 395728.992878941993695, 3786855.137334689497948 ], [ 395728.6876907426049, 3786854.832146490458399 ], [ 395728.6876907426049, 3786854.221770091447979 ], [ 395728.382502543216106, 3786853.916581891942769 ], [ 395728.382502543216106, 3786853.611393692903221 ], [ 395728.077314343827311, 3786853.306205493398011 ], [ 395728.077314343827311, 3786852.695829094387591 ], [ 395727.772126144438516, 3786852.390640895348042 ], [ 395727.772126144438516, 3786852.085452695842832 ], [ 395727.466937945049722, 3786851.780264496337622 ], [ 395727.466937945049722, 3786849.338758901227266 ], [ 395727.161749745660927, 3786849.033570701722056 ], [ 395727.466937945049722, 3786848.728382502682507 ], [ 395727.466937945049722, 3786848.118006103672087 ], [ 395727.772126144438516, 3786847.812817904166877 ], [ 395731.129196337715257, 3786847.812817904166877 ], [ 395731.129196337715257, 3786848.728382502682507 ], [ 395731.434384537104052, 3786849.033570701722056 ], [ 395731.739572736492846, 3786849.033570701722056 ], [ 395732.349949135328643, 3786849.643947100732476 ], [ 395732.655137334717438, 3786849.643947100732476 ], [ 395732.655137334717438, 3786849.949135300237685 ], [ 395732.960325534106232, 3786850.254323499277234 ], [ 395732.960325534106232, 3786851.780264496337622 ], [ 395732.349949135328643, 3786852.390640895348042 ], [ 395732.349949135328643, 3786852.695829094387591 ], [ 395729.908443540160079, 3786855.137334689497948 ], [ 395728.992878941993695, 3786855.137334689497948 ] ] ] } },
{ "type": "Feature", "properties": { "confidence": 0.29749104380607605, "class": 1 }, "geometry": { "type": "Polygon", "coordinates": [ [ [ 395672.227873855561484, 3786876.80569684645161 ], [ 395671.922685656172689, 3786876.5005086469464 ], [ 395671.922685656172689, 3786876.19532044744119 ], [ 395671.617497456783894, 3786875.890132248401642 ], [ 395671.617497456783894, 3786871.007121058180928 ], [ 395671.922685656172689, 3786870.701932858675718 ], [ 395671.922685656172689, 3786870.396744659170508 ], [ 395673.143438453727867, 3786870.396744659170508 ], [ 395673.143438453727867, 3786876.80569684645161 ], [ 395672.227873855561484, 3786876.80569684645161 ] ] ] } },
{ "type": "Feature", "properties": { "confidence": 0.28073516488075256, "class": 1 }, "geometry": { "type": "Polygon", "coordinates": [ [ [ 395856.866734486247879, 3786876.19532044744119 ], [ 395856.561546286859084, 3786875.890132248401642 ], [ 395856.256358087470289, 3786875.890132248401642 ], [ 395855.951169888081495, 3786875.584944048896432 ], [ 395855.6459816886927, 3786875.584944048896432 ], [ 395855.035605289915111, 3786874.974567649886012 ], [ 395854.730417090526316, 3786874.974567649886012 ], [ 395854.425228891137522, 3786874.669379450846463 ], [ 395854.120040691748727, 3786874.669379450846463 ], [ 395853.814852492359933, 3786874.364191251341254 ], [ 395853.814852492359933, 3786873.753814852330834 ], [ 395853.509664292971138, 3786873.448626653291285 ], [ 395853.509664292971138, 3786872.533062054775655 ], [ 395853.814852492359933, 3786872.227873855736107 ], [ 395853.814852492359933, 3786870.701932858675718 ], [ 395854.120040691748727, 3786870.396744659170508 ], [ 395855.035605289915111, 3786870.396744659170508 ], [ 395855.340793489303906, 3786870.701932858675718 ], [ 395855.6459816886927, 3786870.701932858675718 ], [ 395856.561546286859084, 3786871.617497456725687 ], [ 395857.171922685636673, 3786871.617497456725687 ], [ 395857.477110885025468, 3786871.922685656230897 ], [ 395858.087487283803057, 3786871.922685656230897 ], [ 395858.392675483191852, 3786872.227873855736107 ], [ 395858.697863682580646, 3786872.227873855736107 ], [ 395859.003051881969441, 3786872.533062054775655 ], [ 395859.308240081358235, 3786872.533062054775655 ], [ 395859.61342828074703, 3786872.838250254280865 ], [ 395859.61342828074703, 3786874.669379450846463 ], [ 395858.087487283803057, 3786876.19532044744119 ], [ 395856.866734486247879, 3786876.19532044744119 ] ] ] } }
]
}
