{
"type": "FeatureCollection",
"name": "cell_00097_pre",
"crs": { "type": "name", "properties": { "name": "urn:ogc:def:crs:EPSG::32611" } },
"features": [
{ "type": "Feature", "properties": { "confidence": 0.99647277593612671, "class": 1 }, "geometry": { "type": "Polygon", "coordinates": [ [ [ 351629.908443540160079, 3770552.899287894368172 ], [ 351628.6876907426049, 3770551.678535096812993 ], [ 351628.6876907426049, 3770551.373346897307783 ], [ 351626.856561546272133, 3770549.542217700742185 ], [ 351626.856561546272133, 3770549.237029501702636 ], [ 351626.551373346883338, 3770548.931841302197427 ], [ 351626.551373346883338, 3770548.626653102692217 ], [ 351626.246185147494543, 3770548.321464903187007 ], [ 351626.246185147494543, 3770546.79552390659228 ], [ 351625.940996948105749, 3770546.49033570708707 ], [ 351625.940996948105749, 3770545.269582909531891 ], [ 351626.246185147494543, 3770544.964394710026681 ], [ 351626.246185147494543, 3770544.354018311481923 ], [ 351626.856561546272133, 3770543.743641912471503 ], [ 351627.161749745660927, 3770543.743641912471503 ], [ 351628.382502543216106, 3770542.522889114916325 ], [ 351628.6876907426049, 3770542.522889114916325 ], [ 351628.992878941993695, 3770542.217700915411115 ], [ 351629.298067141382489, 3770542.217700915411115 ], [ 351629.603255340771284, 3770541.912512716371566 ], [ 351629.908443540160079, 3770541.912512716371566 ], [ 351630.213631739548873, 3770541.607324516866356 ], [ 351630.518819938937668, 3770541.607324516866356 ], [ 351630.824008138326462, 3770541.302136317361146 ], [ 351632.349949135328643, 3770541.302136317361146 ], [ 351632.655137334717438, 3770541.607324516866356 ], [ 351632.655137334717438, 3770544.048830111976713 ], [ 351632.960325534106232, 3770544.354018311481923 ], [ 351632.960325534106232, 3770544.659206510521472 ], [ 351633.265513733495027, 3770544.964394710026681 ], [ 351633.265513733495027, 3770545.269582909531891 ], [ 351633.570701932883821, 3770545.574771109037101 ], [ 351633.570701932883821, 3770548.016276704147458 ], [ 351633.875890132272616, 3770548.321464903187007 ], [ 351633.875890132272616, 3770549.542217700742185 ], [ 351633.570701932883821, 3770549.847405900247395 ], [ 351633.570701932883821, 3770550.457782299257815 ], [ 351631.129196337715257, 3770552.899287894368172 ], [ 351629.908443540160079, 3770552.899287894368172 ] ] ] } },
{ "type": "Feature", "properties": { "confidence": 0.9931870698928833, "class": 1 }, "geometry": { "type": "Polygon", "coordinates": [ [ [ 352131.637843336735386, 3770797.660223804879934 ], [ 352131.332655137346592, 3770797.355035605374724 ], [ 352131.027466937957797, 3770797.355035605374724 ], [ 352130.722278738569003, 3770797.049847405869514 ], [ 352130.722278738569003, 3770795.523906408809125 ], [ 352130.417090539180208, 3770795.218718209769577 ], [ 352130.417090539180208, 3770793.997965412214398 ], [ 352130.111902339791413, 3770793.692777212709188 ], [ 352130.111902339791413, 3770792.47202441515401 ], [ 352130.722278738569003, 3770791.86164801614359 ], [ 352131.332655137346592, 3770791.86164801614359 ], [ 352131.637843336735386, 3770791.556459817104042 ], [ 352134.689725330623332, 3770791.556459817104042 ], [ 352134.994913530012127, 3770791.251271617598832 ], [ 352138.351983723288868, 3770791.251271617598832 ], [ 352138.657171922677662, 3770791.556459817104042 ], [ 352138.657171922677662, 3770792.47202441515401 ], [ 352138.962360122066457, 3770792.77721261465922 ], [ 352138.962360122066457, 3770793.692777212709188 ], [ 352138.657171922677662, 3770793.997965412214398 ], [ 352138.657171922677662, 3770795.829094608314335 ], [ 352138.351983723288868, 3770796.134282807819545 ], [ 352138.351983723288868, 3770796.439471007324755 ], [ 352137.741607324511278, 3770797.049847405869514 ], [ 352137.131230925733689, 3770797.049847405869514 ], [ 352136.826042726344895, 3770797.355035605374724 ], [ 352134.994913530012127, 3770797.355035605374724 ], [ 352134.689725330623332, 3770797.660223804879934 ], [ 352131.637843336735386, 3770797.660223804879934 ] ] ] } },
{ "type": "Feature", "properties": { "confidence": 0.99045723676681519, "class": 1 }, "geometry": { "type": "Polygon", "coordinates": [ [ [ 351993.692777212592773, 3770848.626653102692217 ], [ 351993.387589013203979, 3770848.321464903187007 ], [ 351987.589013224816881, 3770848.321464903187007 ], [ 351987.283825025428087, 3770848.016276704147458 ], [ 351986.673448626650497, 3770848.016276704147458 ], [ 351986.673448626650497, 3770844.659206510521472 ], [ 351986.368260427261703, 3770844.354018311481923 ], [ 351986.368260427261703, 3770844.048830111976713 ], [ 351997.355035605316516, 3770844.048830111976713 ], [ 351997.355035605316516, 3770844.659206510521472 ], [ 351997.049847405927721, 3770844.964394710026681 ], [ 351997.049847405927721, 3770845.574771109037101 ], [ 351996.744659206538927, 3770845.87995930807665 ], [ 351996.744659206538927, 3770846.79552390659228 ], [ 351996.439471007150132, 3770847.100712105631828 ], [ 351996.439471007150132, 3770847.405900305137038 ], [ 351995.523906408925541, 3770848.321464903187007 ], [ 351994.303153611370362, 3770848.321464903187007 ], [ 351993.997965411981568, 3770848.626653102692217 ], [ 351993.692777212592773, 3770848.626653102692217 ] ] ] } },
{ "type": "Feature", "properties": { "confidence": 0.98869365453720093, "class": 1 }, "geometry": { "type": "Polygon", "coordinates": [ [ [ 351871.617497456783894, 3770913.936927772127092 ], [ 351871.3123092573951, 3770913.631739572621882 ], [ 351871.007121058006305, 3770913.631739572621882 ], [ 351869.175991861673538, 3770911.800610376521945 ], [ 351868.870803662284743, 3770911.800610376521945 ], [ 351868.565615462895948, 3770911.495422177016735 ], [ 351868.565615462895948, 3770911.190233977511525 ], [ 351868.260427263507154, 3770910.885045778006315 ], [ 351868.260427263507154, 3770909.969481179956347 ], [ 351868.565615462895948, 3770909.664292980451137 ], [ 351868.565615462895948, 3770909.053916581906378 ], [ 351869.481180061062332, 3770908.13835198385641 ], [ 351869.786368260451127, 3770908.13835198385641 ], [ 351870.091556459839921, 3770907.8331637843512 ], [ 351870.701932858617511, 3770907.8331637843512 ], [ 351871.007121058006305, 3770907.52797558484599 ], [ 351871.617497456783894, 3770907.52797558484599 ], [ 351871.922685656172689, 3770907.8331637843512 ], [ 351873.143438453727867, 3770907.8331637843512 ], [ 351873.143438453727867, 3770913.021363174077123 ], [ 351872.838250254339073, 3770913.021363174077123 ], [ 351871.922685656172689, 3770913.936927772127092 ], [ 351871.617497456783894, 3770913.936927772127092 ] ] ] } },
{ "type": "Feature", "properties": { "confidence": 0.98866885900497437, "class": 1 }, "geometry": { "type": "Polygon", "coordinates": [ [ [ 351747.405900305195246, 3770531.230925737414509 ], [ 351747.405900305195246, 3770530.62054933886975 ], [ 351747.100712105806451, 3770530.315361139364541 ], [ 351747.100712105806451, 3770530.010172939859331 ], [ 351747.405900305195246, 3770529.704984740819782 ], [ 351747.405900305195246, 3770529.094608341809362 ], [ 351747.100712105806451, 3770528.789420142304152 ], [ 351747.100712105806451, 3770527.263479145243764 ], [ 351746.795523906417657, 3770526.958290946204215 ], [ 351746.795523906417657, 3770524.821973550133407 ], [ 351747.100712105806451, 3770524.516785351093858 ], [ 351747.100712105806451, 3770524.211597151588649 ], [ 351747.71108850458404, 3770523.601220752578229 ], [ 351748.016276703972835, 3770523.601220752578229 ], [ 351748.32146490336163, 3770523.29603255353868 ], [ 351748.931841302139219, 3770523.29603255353868 ], [ 351749.237029501528013, 3770522.99084435403347 ], [ 351750.152594099694397, 3770522.99084435403347 ], [ 351750.457782299083192, 3770522.68565615452826 ], [ 351751.373346897249576, 3770522.68565615452826 ], [ 351751.67853509663837, 3770522.99084435403347 ], [ 351751.983723296027165, 3770522.99084435403347 ], [ 351753.204476093582343, 3770524.211597151588649 ], [ 351753.204476093582343, 3770525.737538148649037 ], [ 351752.899287894193549, 3770526.042726347688586 ], [ 351752.899287894193549, 3770527.873855544254184 ], [ 351752.594099694804754, 3770528.179043743759394 ], [ 351752.594099694804754, 3770529.094608341809362 ], [ 351752.28891149541596, 3770529.399796541314572 ], [ 351752.28891149541596, 3770529.704984740819782 ], [ 351751.983723296027165, 3770530.010172939859331 ], [ 351751.983723296027165, 3770530.62054933886975 ], [ 351751.67853509663837, 3770530.92573753837496 ], [ 351751.67853509663837, 3770531.230925737414509 ], [ 351747.405900305195246, 3770531.230925737414509 ] ] ] } },
{ "type": "Feature", "properties": { "confidence": 0.98784524202346802, "class": 1 }, "geometry": { "type": "Polygon", "coordinates": [ [ [ 352110.579857578850351, 3770904.170905391685665 ], [ 352110.274669379461557, 3770903.865717192180455 ], [ 352108.443540183128789, 3770903.865717192180455 ], [ 352107.8331637843512, 3770903.255340793635696 ], [ 352107.527975584962405, 3770903.255340793635696 ], [ 352107.222787385573611, 3770902.950152594130486 ], [ 352106.612410986796021, 3770902.950152594130486 ], [ 352106.307222787407227, 3770902.644964394625276 ], [ 352105.391658189240843, 3770902.644964394625276 ], [ 352104.476093591074459, 3770901.729399796575308 ], [ 352104.476093591074459, 3770900.813835198525339 ], [ 352104.781281790463254, 3770900.508646999020129 ], [ 352104.781281790463254, 3770899.593082400970161 ], [ 352105.086469989852048, 3770899.287894201464951 ], [ 352105.086469989852048, 3770898.372329603414983 ], [ 352105.391658189240843, 3770898.067141403909773 ], [ 352105.391658189240843, 3770897.761953204404563 ], [ 352105.696846388629638, 3770897.456765004899353 ], [ 352105.696846388629638, 3770896.236012207344174 ], [ 352106.307222787407227, 3770895.625635808799416 ], [ 352107.527975584962405, 3770895.625635808799416 ], [ 352107.8331637843512, 3770895.930824008304626 ], [ 352108.443540183128789, 3770895.930824008304626 ], [ 352108.748728382517584, 3770896.236012207344174 ], [ 352109.359104781295173, 3770896.236012207344174 ], [ 352109.664292980683967, 3770896.541200406849384 ], [ 352110.274669379461557, 3770896.541200406849384 ], [ 352110.579857578850351, 3770896.846388606354594 ], [ 352110.885045778239146, 3770896.846388606354594 ], [ 352111.19023397762794, 3770897.151576805859804 ], [ 352112.105798575794324, 3770897.151576805859804 ], [ 352112.410986775183119, 3770897.456765004899353 ], [ 352115.15768056968227, 3770897.456765004899353 ], [ 352115.462868769071065, 3770897.151576805859804 ], [ 352116.073245167848654, 3770897.151576805859804 ], [ 352116.378433367237449, 3770896.846388606354594 ], [ 352117.599186164792627, 3770896.846388606354594 ], [ 352117.599186164792627, 3770900.508646999020129 ], [ 352116.988809766015038, 3770900.508646999020129 ], [ 352116.683621566626243, 3770900.813835198525339 ], [ 352115.462868769071065, 3770900.813835198525339 ], [ 352114.852492370293476, 3770901.424211597070098 ], [ 352114.852492370293476, 3770902.034587996080518 ], [ 352114.547304170904681, 3770902.339776195120066 ], [ 352114.547304170904681, 3770903.560528992675245 ], [ 352113.936927772127092, 3770904.170905391685665 ], [ 352110.579857578850351, 3770904.170905391685665 ] ] ] } },
{ "type": "Feature", "properties": { "confidence": 0.96906214952468872, "class": 1 }, "geometry": { "type": "Polygon", "coordinates": [ [ [ 351953.102746693766676, 3770845.87995930807665 ], [ 351952.797558494377881, 3770845.574771109037101 ], [ 351952.797558494377881, 3770844.048830111976713 ], [ 351954.018311291991267, 3770842.828077314421535 ], [ 351954.323499491380062, 3770842.828077314421535 ], [ 351954.628687690768857, 3770842.522889114916325 ], [ 351954.628687690768857, 3770842.217700915411115 ], [ 351954.933875890157651, 3770842.217700915411115 ], [ 351955.239064089546446, 3770841.912512716371566 ], [ 351955.54425228893524, 3770841.912512716371566 ], [ 351956.15462868771283, 3770841.302136317361146 ], [ 351956.459816887101624, 3770841.302136317361146 ], [ 351956.765005086490419, 3770840.996948117855936 ], [ 351957.375381485268008, 3770840.996948117855936 ], [ 351957.985757884045597, 3770840.386571719311178 ], [ 351958.290946083434392, 3770840.691759918816388 ], [ 351958.901322482211981, 3770840.691759918816388 ], [ 351958.901322482211981, 3770840.996948117855936 ], [ 351959.206510681600776, 3770841.302136317361146 ], [ 351959.206510681600776, 3770841.607324516866356 ], [ 351957.375381485268008, 3770843.438453712966293 ], [ 351957.070193285879213, 3770843.438453712966293 ], [ 351956.459816887101624, 3770844.048830111976713 ], [ 351956.15462868771283, 3770844.048830111976713 ], [ 351954.628687690768857, 3770845.574771109037101 ], [ 351954.323499491380062, 3770845.574771109037101 ], [ 351954.018311291991267, 3770845.87995930807665 ], [ 351953.102746693766676, 3770845.87995930807665 ] ] ] } },
{ "type": "Feature", "properties": { "confidence": 0.96690857410430908, "class": 1 }, "geometry": { "type": "Polygon", "coordinates": [ [ [ 351791.658189216686878, 3770825.737538148649037 ], [ 351791.353001017298084, 3770825.432349949143827 ], [ 351790.742624618520495, 3770825.432349949143827 ], [ 351790.4374364191317, 3770825.127161749638617 ], [ 351790.132248219742905, 3770825.127161749638617 ], [ 351789.827060020354111, 3770824.821973550133407 ], [ 351789.521871820965316, 3770824.821973550133407 ], [ 351788.301119023410138, 3770823.601220752578229 ], [ 351787.995930824021343, 3770823.601220752578229 ], [ 351787.080366225854959, 3770822.68565615452826 ], [ 351786.775178026466165, 3770822.68565615452826 ], [ 351786.46998982707737, 3770822.38046795502305 ], [ 351786.164801627688576, 3770822.38046795502305 ], [ 351785.554425228910986, 3770821.770091556478292 ], [ 351785.249237029522192, 3770821.770091556478292 ], [ 351782.807731434411835, 3770819.328585961367935 ], [ 351782.50254323502304, 3770819.328585961367935 ], [ 351780.671414038632065, 3770817.497456764802337 ], [ 351780.671414038632065, 3770813.835198372136801 ], [ 351781.892166836187243, 3770813.835198372136801 ], [ 351782.807731434411835, 3770814.750762970652431 ], [ 351783.11291963380063, 3770814.750762970652431 ], [ 351783.723296032578219, 3770815.36113936919719 ], [ 351784.028484231967013, 3770815.36113936919719 ], [ 351784.333672431355808, 3770815.6663275687024 ], [ 351784.638860630744603, 3770815.6663275687024 ], [ 351785.249237029522192, 3770816.276703967247158 ], [ 351785.554425228910986, 3770816.276703967247158 ], [ 351785.859613428299781, 3770816.581892166752368 ], [ 351786.775178026466165, 3770816.581892166752368 ], [ 351787.080366225854959, 3770816.887080366257578 ], [ 351787.690742624632549, 3770816.887080366257578 ], [ 351787.995930824021343, 3770816.581892166752368 ], [ 351788.301119023410138, 3770816.581892166752368 ], [ 351788.606307222798932, 3770816.887080366257578 ], [ 351790.4374364191317, 3770816.887080366257578 ], [ 351792.268565615464468, 3770818.718209562357515 ], [ 351792.268565615464468, 3770820.549338758923113 ], [ 351792.573753814853262, 3770820.854526958428323 ], [ 351792.573753814853262, 3770821.464903356973082 ], [ 351792.878942014242057, 3770821.770091556478292 ], [ 351793.184130213630851, 3770821.770091556478292 ], [ 351793.489318413019646, 3770822.075279755983502 ], [ 351793.489318413019646, 3770822.38046795502305 ], [ 351793.794506612408441, 3770822.68565615452826 ], [ 351793.794506612408441, 3770823.601220752578229 ], [ 351792.573753814853262, 3770824.821973550133407 ], [ 351792.573753814853262, 3770825.127161749638617 ], [ 351792.268565615464468, 3770825.432349949143827 ], [ 351792.268565615464468, 3770825.737538148649037 ], [ 351791.658189216686878, 3770825.737538148649037 ] ] ] } },
{ "type": "Feature", "properties": { "confidence": 0.95791226625442505, "class": 1 }, "geometry": { "type": "Polygon", "coordinates": [ [ [ 351620.142421159718651, 3770577.924720244016498 ], [ 351619.837232960329857, 3770577.61953204497695 ], [ 351618.006103763997089, 3770577.61953204497695 ], [ 351617.700915564608295, 3770577.31434384547174 ], [ 351617.090539165830705, 3770577.31434384547174 ], [ 351616.480162767053116, 3770576.70396744646132 ], [ 351616.174974567664322, 3770576.70396744646132 ], [ 351615.259409969497938, 3770575.788402848411351 ], [ 351614.649033570720349, 3770575.788402848411351 ], [ 351614.038657171942759, 3770575.178026449866593 ], [ 351613.733468972553965, 3770575.178026449866593 ], [ 351613.42828077316517, 3770574.872838250361383 ], [ 351613.42828077316517, 3770573.957273652311414 ], [ 351613.733468972553965, 3770573.652085452806205 ], [ 351616.174974567664322, 3770573.652085452806205 ], [ 351616.785350966441911, 3770573.041709053795785 ], [ 351617.3957273652195, 3770573.041709053795785 ], [ 351617.700915564608295, 3770572.736520854756236 ], [ 351618.006103763997089, 3770572.736520854756236 ], [ 351618.311291963385884, 3770573.041709053795785 ], [ 351618.311291963385884, 3770573.346897253300995 ], [ 351618.616480162774678, 3770573.652085452806205 ], [ 351618.921668362163473, 3770573.652085452806205 ], [ 351619.532044760941062, 3770574.262461851350963 ], [ 351620.447609359107446, 3770574.262461851350963 ], [ 351620.752797558496241, 3770574.567650050856173 ], [ 351623.499491352995392, 3770574.567650050856173 ], [ 351623.804679552384187, 3770574.262461851350963 ], [ 351624.109867751772981, 3770574.567650050856173 ], [ 351624.415055951161776, 3770574.567650050856173 ], [ 351624.72024415055057, 3770574.872838250361383 ], [ 351624.415055951161776, 3770575.178026449866593 ], [ 351624.415055951161776, 3770577.61953204497695 ], [ 351624.109867751772981, 3770577.924720244016498 ], [ 351620.142421159718651, 3770577.924720244016498 ] ] ] } },
{ "type": "Feature", "properties": { "confidence": 0.94858396053314209, "class": 1 }, "geometry": { "type": "Polygon", "coordinates": [ [ [ 352135.910478128178511, 3770916.988809766247869 ], [ 352135.605289928789716, 3770916.683621566742659 ], [ 352134.689725330623332, 3770916.683621566742659 ], [ 352133.774160732456949, 3770915.76805696869269 ], [ 352133.774160732456949, 3770915.15768056968227 ], [ 352133.468972533068154, 3770914.85249237017706 ], [ 352133.468972533068154, 3770911.800610376521945 ], [ 352134.079348931845743, 3770911.190233977511525 ], [ 352134.689725330623332, 3770911.190233977511525 ], [ 352134.994913530012127, 3770910.885045778006315 ], [ 352136.215666327567305, 3770910.885045778006315 ], [ 352136.5208545269561, 3770910.579857578966767 ], [ 352137.131230925733689, 3770910.579857578966767 ], [ 352137.436419125122484, 3770910.885045778006315 ], [ 352138.046795523900073, 3770910.885045778006315 ], [ 352138.962360122066457, 3770911.800610376521945 ], [ 352138.962360122066457, 3770912.105798575561494 ], [ 352139.572736520844046, 3770912.716174974571913 ], [ 352139.572736520844046, 3770913.326551373116672 ], [ 352139.877924720232841, 3770913.631739572621882 ], [ 352139.572736520844046, 3770913.936927772127092 ], [ 352139.572736520844046, 3770915.15768056968227 ], [ 352139.267548321455251, 3770915.46286876918748 ], [ 352139.267548321455251, 3770915.76805696869269 ], [ 352138.657171922677662, 3770916.378433367237449 ], [ 352138.351983723288868, 3770916.378433367237449 ], [ 352138.046795523900073, 3770916.683621566742659 ], [ 352136.215666327567305, 3770916.683621566742659 ], [ 352135.910478128178511, 3770916.988809766247869 ] ] ] } },
{ "type": "Feature", "properties": { "confidence": 0.94385778903961182, "class": 1 }, "geometry": { "type": "Polygon", "coordinates": [ [ [ 352109.359104781295173, 3770916.378433367237449 ], [ 352108.748728382517584, 3770915.76805696869269 ], [ 352108.748728382517584, 3770915.46286876918748 ], [ 352108.443540183128789, 3770915.15768056968227 ], [ 352108.443540183128789, 3770914.85249237017706 ], [ 352108.138351983739994, 3770914.547304171137512 ], [ 352108.138351983739994, 3770913.631739572621882 ], [ 352108.443540183128789, 3770913.326551373116672 ], [ 352108.748728382517584, 3770913.326551373116672 ], [ 352109.664292980683967, 3770912.410986775066704 ], [ 352109.969481180072762, 3770912.410986775066704 ], [ 352110.274669379461557, 3770912.105798575561494 ], [ 352110.579857578850351, 3770912.105798575561494 ], [ 352110.885045778239146, 3770911.800610376521945 ], [ 352112.410986775183119, 3770911.800610376521945 ], [ 352112.716174974571913, 3770912.105798575561494 ], [ 352113.021363173960708, 3770912.105798575561494 ], [ 352113.021363173960708, 3770912.410986775066704 ], [ 352113.326551373349503, 3770912.716174974571913 ], [ 352113.326551373349503, 3770913.631739572621882 ], [ 352113.021363173960708, 3770913.936927772127092 ], [ 352113.021363173960708, 3770914.242115971632302 ], [ 352112.716174974571913, 3770914.547304171137512 ], [ 352112.716174974571913, 3770914.85249237017706 ], [ 352111.495422177016735, 3770916.073245167732239 ], [ 352111.19023397762794, 3770916.073245167732239 ], [ 352110.885045778239146, 3770916.378433367237449 ], [ 352109.359104781295173, 3770916.378433367237449 ] ] ] } },
{ "type": "Feature", "properties": { "confidence": 0.89262664318084717, "class": 1 }, "geometry": { "type": "Polygon", "coordinates": [ [ [ 351946.693794506601989, 3770930.111902339849621 ], [ 351946.388606307213195, 3770929.806714140344411 ], [ 351943.641912512714043, 3770929.806714140344411 ], [ 351943.336724313325249, 3770929.501525940839201 ], [ 351943.336724313325249, 3770924.008138352073729 ], [ 351943.641912512714043, 3770924.008138352073729 ], [ 351943.947100712102838, 3770923.702950152568519 ], [ 351944.252288911491632, 3770923.702950152568519 ], [ 351944.557477110880427, 3770924.008138352073729 ], [ 351948.524923702934757, 3770924.008138352073729 ], [ 351948.524923702934757, 3770924.618514750618488 ], [ 351948.830111902323551, 3770924.923702950123698 ], [ 351948.830111902323551, 3770928.585961342789233 ], [ 351948.524923702934757, 3770928.891149542294443 ], [ 351948.524923702934757, 3770929.501525940839201 ], [ 351947.914547304157168, 3770930.111902339849621 ], [ 351946.693794506601989, 3770930.111902339849621 ] ] ] } },
{ "type": "Feature", "properties": { "confidence": 0.78664648532867432, "class": 1 }, "geometry": { "type": "Polygon", "coordinates": [ [ [ 351836.826042726344895, 3770882.807731434237212 ], [ 351836.826042726344895, 3770882.502543235197663 ], [ 351837.131230925733689, 3770882.197355035692453 ], [ 351837.131230925733689, 3770880.061037640087306 ], [ 351837.436419125122484, 3770879.755849440582097 ], [ 351837.436419125122484, 3770878.535096643026918 ], [ 351837.741607324511278, 3770878.229908443521708 ], [ 351837.741607324511278, 3770877.31434384547174 ], [ 351838.046795523900073, 3770877.00915564596653 ], [ 351838.046795523900073, 3770876.398779247421771 ], [ 351838.351983723288868, 3770876.398779247421771 ], [ 351838.657171922677662, 3770876.093591047916561 ], [ 351840.183112919621635, 3770876.093591047916561 ], [ 351840.48830111901043, 3770876.398779247421771 ], [ 351841.098677517788019, 3770876.398779247421771 ], [ 351841.098677517788019, 3770880.061037640087306 ], [ 351840.793489318399224, 3770880.366225839126855 ], [ 351840.793489318399224, 3770882.807731434237212 ], [ 351836.826042726344895, 3770882.807731434237212 ] ] ] } },
{ "type": "Feature", "properties": { "confidence": 0.74403703212738037, "class": 1 }, "geometry": { "type": "Polygon", "coordinates": [ [ [ 351722.380467955255881, 3770989.318413021508604 ], [ 351722.075279755867086, 3770989.013224822003394 ], [ 351722.075279755867086, 3770981.078331637661904 ], [ 351722.380467955255881, 3770980.773143438622355 ], [ 351723.601220752811059, 3770980.773143438622355 ], [ 351723.906408952199854, 3770981.078331637661904 ], [ 351726.9582909460878, 3770981.078331637661904 ], [ 351728.179043743642978, 3770982.299084435217083 ], [ 351728.484231943031773, 3770982.299084435217083 ], [ 351728.789420142420568, 3770982.604272634722292 ], [ 351730.010172939975746, 3770982.604272634722292 ], [ 351730.315361139364541, 3770982.909460834227502 ], [ 351730.620549338753335, 3770982.909460834227502 ], [ 351730.620549338753335, 3770984.435401831287891 ], [ 351730.315361139364541, 3770984.740590030327439 ], [ 351730.315361139364541, 3770985.656154628843069 ], [ 351730.010172939975746, 3770985.961342827882618 ], [ 351730.010172939975746, 3770988.402848422992975 ], [ 351730.315361139364541, 3770988.708036622498184 ], [ 351730.010172939975746, 3770989.013224822003394 ], [ 351729.399796541198157, 3770989.013224822003394 ], [ 351729.094608341809362, 3770989.318413021508604 ], [ 351722.380467955255881, 3770989.318413021508604 ] ] ] } },
{ "type": "Feature", "properties": { "confidence": 0.71187680959701538, "class": 1 }, "geometry": { "type": "Polygon", "coordinates": [ [ [ 351990.335707019316033, 3770848.626653102692217 ], [ 351990.030518819927238, 3770848.321464903187007 ], [ 351986.978636826039292, 3770848.321464903187007 ], [ 351986.368260427261703, 3770847.711088504642248 ], [ 351986.368260427261703, 3770847.405900305137038 ], [ 351986.673448626650497, 3770847.100712105631828 ], [ 351986.673448626650497, 3770842.522889114916325 ], [ 351987.283825025428087, 3770841.912512716371566 ], [ 351990.335707019316033, 3770841.912512716371566 ], [ 351990.335707019316033, 3770848.626653102692217 ] ] ] } },
{ "type": "Feature", "properties": { "confidence": 0.66458374261856079, "class": 1 }, "geometry": { "type": "Polygon", "coordinates": [ [ [ 351928.077314343827311, 3770838.250254323706031 ], [ 351927.772126144438516, 3770837.945066124200821 ], [ 351927.466937945049722, 3770837.945066124200821 ], [ 351927.161749745660927, 3770837.639877924695611 ], [ 351926.551373346883338, 3770837.639877924695611 ], [ 351926.246185147494543, 3770837.334689725190401 ], [ 351925.635808748716954, 3770837.334689725190401 ], [ 351925.33062054932816, 3770837.029501526150852 ], [ 351925.025432349939365, 3770837.029501526150852 ], [ 351924.72024415055057, 3770836.724313326645643 ], [ 351924.109867751772981, 3770836.724313326645643 ], [ 351923.804679552384187, 3770836.419125127140433 ], [ 351923.804679552384187, 3770835.503560529090464 ], [ 351924.109867751772981, 3770835.198372329585254 ], [ 351924.109867751772981, 3770834.587995931040496 ], [ 351924.415055951161776, 3770834.282807731535286 ], [ 351924.415055951161776, 3770833.977619532030076 ], [ 351924.72024415055057, 3770833.672431332524866 ], [ 351924.72024415055057, 3770833.367243133485317 ], [ 351925.940996948105749, 3770833.367243133485317 ], [ 351926.246185147494543, 3770833.672431332524866 ], [ 351927.161749745660927, 3770833.672431332524866 ], [ 351927.466937945049722, 3770833.977619532030076 ], [ 351928.077314343827311, 3770833.977619532030076 ], [ 351928.382502543216106, 3770834.282807731535286 ], [ 351928.6876907426049, 3770834.282807731535286 ], [ 351929.298067141382489, 3770834.893184130080044 ], [ 351929.298067141382489, 3770836.724313326645643 ], [ 351928.992878941993695, 3770837.029501526150852 ], [ 351928.992878941993695, 3770837.945066124200821 ], [ 351928.6876907426049, 3770838.250254323706031 ], [ 351928.077314343827311, 3770838.250254323706031 ] ] ] } },
{ "type": "Feature", "properties": { "confidence": 0.63944578170776367, "class": 1 }, "geometry": { "type": "Polygon", "coordinates": [ [ [ 352173.448626653116662, 3770793.692777212709188 ], [ 352173.143438453727867, 3770793.387589013203979 ], [ 352172.533062054950278, 3770793.387589013203979 ], [ 352172.533062054950278, 3770793.082400813698769 ], [ 352173.143438453727867, 3770792.47202441515401 ], [ 352173.143438453727867, 3770791.86164801614359 ], [ 352173.448626653116662, 3770791.556459817104042 ], [ 352173.448626653116662, 3770790.946083418093622 ], [ 352173.753814852505457, 3770790.946083418093622 ], [ 352174.059003051894251, 3770790.640895218588412 ], [ 352175.27975584944943, 3770790.640895218588412 ], [ 352175.584944048838224, 3770790.335707019548863 ], [ 352176.500508647004608, 3770790.335707019548863 ], [ 352176.805696846393403, 3770790.030518820043653 ], [ 352177.721261444559786, 3770790.030518820043653 ], [ 352178.026449643948581, 3770789.725330620538443 ], [ 352183.519837232946884, 3770789.725330620538443 ], [ 352183.825025432335678, 3770790.030518820043653 ], [ 352183.825025432335678, 3770790.335707019548863 ], [ 352184.130213631724473, 3770790.640895218588412 ], [ 352184.130213631724473, 3770790.946083418093622 ], [ 352184.740590030502062, 3770791.556459817104042 ], [ 352184.740590030502062, 3770792.77721261465922 ], [ 352181.383519837225322, 3770792.77721261465922 ], [ 352181.078331637836527, 3770793.082400813698769 ], [ 352178.942014242114965, 3770793.082400813698769 ], [ 352178.63682604272617, 3770793.387589013203979 ], [ 352175.27975584944943, 3770793.387589013203979 ], [ 352174.974567650060635, 3770793.692777212709188 ], [ 352173.448626653116662, 3770793.692777212709188 ] ] ] } },
{ "type": "Feature", "properties": { "confidence": 0.61980873346328735, "class": 1 }, "geometry": { "type": "Polygon", "coordinates": [ [ [ 351630.518819938937668, 3770878.840284842532128 ], [ 351630.518819938937668, 3770877.924720244016498 ], [ 351630.824008138326462, 3770877.61953204497695 ], [ 351630.824008138326462, 3770874.262461851350963 ], [ 351631.129196337715257, 3770873.957273652311414 ], [ 351631.129196337715257, 3770871.820956256240606 ], [ 351631.434384537104052, 3770871.515768057201058 ], [ 351631.434384537104052, 3770871.210579857695848 ], [ 351631.739572736492846, 3770870.905391658190638 ], [ 351631.739572736492846, 3770870.600203458685428 ], [ 351632.044760935881641, 3770870.295015259180218 ], [ 351632.044760935881641, 3770869.07426246162504 ], [ 351632.349949135328643, 3770868.769074262585491 ], [ 351634.181078331661411, 3770868.769074262585491 ], [ 351635.096642929827794, 3770869.684638860635459 ], [ 351635.707019328605384, 3770869.684638860635459 ], [ 351635.707019328605384, 3770869.989827060140669 ], [ 351636.317395727382973, 3770870.600203458685428 ], [ 351636.622583926771767, 3770870.600203458685428 ], [ 351636.927772126160562, 3770870.905391658190638 ], [ 351637.232960325549357, 3770870.905391658190638 ], [ 351637.538148524938151, 3770871.210579857695848 ], [ 351637.538148524938151, 3770871.515768057201058 ], [ 351637.843336724326946, 3770871.820956256240606 ], [ 351637.843336724326946, 3770873.957273652311414 ], [ 351637.538148524938151, 3770874.262461851350963 ], [ 351637.538148524938151, 3770876.093591047916561 ], [ 351637.843336724326946, 3770876.398779247421771 ], [ 351637.843336724326946, 3770877.61953204497695 ], [ 351637.232960325549357, 3770878.229908443521708 ], [ 351636.927772126160562, 3770878.229908443521708 ], [ 351636.622583926771767, 3770878.535096643026918 ], [ 351635.707019328605384, 3770878.535096643026918 ], [ 351635.401831129216589, 3770878.229908443521708 ], [ 351635.096642929827794, 3770878.229908443521708 ], [ 351634.791454730439, 3770877.924720244016498 ], [ 351634.181078331661411, 3770877.924720244016498 ], [ 351633.570701932883821, 3770878.535096643026918 ], [ 351632.960325534106232, 3770878.535096643026918 ], [ 351632.655137334717438, 3770878.840284842532128 ], [ 351630.518819938937668, 3770878.840284842532128 ] ] ] } },
{ "type": "Feature", "properties": { "confidence": 0.59312176704406738, "class": 1 }, "geometry": { "type": "Polygon", "coordinates": [ [ [ 351993.387589013203979, 3770848.931841302197427 ], [ 351993.082400813815184, 3770848.626653102692217 ], [ 351991.861648016260006, 3770848.626653102692217 ], [ 351991.556459816871211, 3770848.321464903187007 ], [ 351990.946083418093622, 3770848.321464903187007 ], [ 351990.640895218704827, 3770848.016276704147458 ], [ 351990.030518819927238, 3770848.016276704147458 ], [ 351989.725330620538443, 3770847.711088504642248 ], [ 351989.114954221760854, 3770847.711088504642248 ], [ 351988.80976602237206, 3770847.405900305137038 ], [ 351988.80976602237206, 3770846.49033570708707 ], [ 351988.504577822983265, 3770846.18514750758186 ], [ 351988.504577822983265, 3770843.133265513926744 ], [ 351988.80976602237206, 3770842.828077314421535 ], [ 351988.80976602237206, 3770842.522889114916325 ], [ 351990.030518819927238, 3770842.522889114916325 ], [ 351990.335707019316033, 3770842.217700915411115 ], [ 351990.946083418093622, 3770842.217700915411115 ], [ 351991.251271617482416, 3770841.912512716371566 ], [ 351991.556459816871211, 3770841.912512716371566 ], [ 351991.861648016260006, 3770841.607324516866356 ], [ 351992.1668362156488, 3770841.607324516866356 ], [ 351992.472024415037595, 3770841.302136317361146 ], [ 351992.777212614426389, 3770841.302136317361146 ], [ 351993.082400813815184, 3770840.996948117855936 ], [ 351993.692777212592773, 3770840.996948117855936 ], [ 351993.997965411981568, 3770840.691759918816388 ], [ 351997.355035605316516, 3770840.691759918816388 ], [ 351997.660223804705311, 3770840.996948117855936 ], [ 351998.2706002034829, 3770840.996948117855936 ], [ 351998.880976602260489, 3770841.607324516866356 ], [ 351998.880976602260489, 3770842.828077314421535 ], [ 351998.575788402871694, 3770843.133265513926744 ], [ 351998.575788402871694, 3770843.743641912471503 ], [ 351997.355035605316516, 3770844.964394710026681 ], [ 351997.355035605316516, 3770845.269582909531891 ], [ 351997.049847405927721, 3770845.574771109037101 ], [ 351997.049847405927721, 3770846.49033570708707 ], [ 351996.744659206538927, 3770846.79552390659228 ], [ 351996.744659206538927, 3770847.100712105631828 ], [ 351996.439471007150132, 3770847.405900305137038 ], [ 351996.439471007150132, 3770847.711088504642248 ], [ 351996.13428280770313, 3770848.016276704147458 ], [ 351996.13428280770313, 3770848.321464903187007 ], [ 351995.829094608314335, 3770848.321464903187007 ], [ 351995.218718209536746, 3770848.931841302197427 ], [ 351993.387589013203979, 3770848.931841302197427 ] ] ] } },
{ "type": "Feature", "properties": { "confidence": 0.55743920803070068, "class": 1 }, "geometry": { "type": "Polygon", "coordinates": [ [ [ 352138.657171922677662, 3770882.807731434237212 ], [ 352138.657171922677662, 3770880.671414038632065 ], [ 352138.962360122066457, 3770880.366225839126855 ], [ 352139.267548321455251, 3770880.366225839126855 ], [ 352139.572736520844046, 3770880.061037640087306 ], [ 352142.929806714120787, 3770880.061037640087306 ], [ 352143.234994913509581, 3770880.366225839126855 ], [ 352143.540183112898376, 3770880.366225839126855 ], [ 352143.540183112898376, 3770880.671414038632065 ], [ 352144.150559511675965, 3770881.281790437642485 ], [ 352144.150559511675965, 3770882.807731434237212 ], [ 352138.657171922677662, 3770882.807731434237212 ] ] ] } },
{ "type": "Feature", "properties": { "confidence": 0.53617775440216064, "class": 1 }, "geometry": { "type": "Polygon", "coordinates": [ [ [ 351632.960325534106232, 3770623.702950152568519 ], [ 351632.655137334717438, 3770623.397761953063309 ], [ 351632.655137334717438, 3770619.125127161853015 ], [ 351632.349949135328643, 3770618.819938962347806 ], [ 351632.349949135328643, 3770618.209562563803047 ], [ 351632.044760935881641, 3770617.904374364297837 ], [ 351632.044760935881641, 3770617.293997965287417 ], [ 351631.739572736492846, 3770616.988809766247869 ], [ 351631.739572736492846, 3770616.683621566742659 ], [ 351631.434384537104052, 3770616.378433367237449 ], [ 351631.434384537104052, 3770614.85249237017706 ], [ 351631.129196337715257, 3770614.547304171137512 ], [ 351631.129196337715257, 3770613.936927772127092 ], [ 351631.434384537104052, 3770613.631739572621882 ], [ 351631.434384537104052, 3770613.326551373116672 ], [ 351631.739572736492846, 3770613.021363174077123 ], [ 351632.044760935881641, 3770613.021363174077123 ], [ 351632.349949135328643, 3770612.716174974571913 ], [ 351633.265513733495027, 3770612.716174974571913 ], [ 351633.570701932883821, 3770612.410986775066704 ], [ 351634.181078331661411, 3770612.410986775066704 ], [ 351634.486266531050205, 3770612.716174974571913 ], [ 351634.791454730439, 3770612.716174974571913 ], [ 351634.791454730439, 3770613.021363174077123 ], [ 351635.096642929827794, 3770613.326551373116672 ], [ 351635.096642929827794, 3770613.936927772127092 ], [ 351635.401831129216589, 3770614.242115971632302 ], [ 351635.401831129216589, 3770615.76805696869269 ], [ 351635.707019328605384, 3770616.073245167732239 ], [ 351635.707019328605384, 3770616.683621566742659 ], [ 351636.012207527994178, 3770616.988809766247869 ], [ 351636.012207527994178, 3770618.514750762842596 ], [ 351636.622583926771767, 3770619.125127161853015 ], [ 351636.622583926771767, 3770620.040691759902984 ], [ 351636.927772126160562, 3770620.345879959408194 ], [ 351636.927772126160562, 3770622.177009155508131 ], [ 351636.622583926771767, 3770622.482197355013341 ], [ 351636.622583926771767, 3770623.397761953063309 ], [ 351634.486266531050205, 3770623.397761953063309 ], [ 351634.181078331661411, 3770623.702950152568519 ], [ 351632.960325534106232, 3770623.702950152568519 ] ] ] } },
{ "type": "Feature", "properties": { "confidence": 0.52475345134735107, "class": 1 }, "geometry": { "type": "Polygon", "coordinates": [ [ [ 352140.793489318399224, 3770887.690742624457926 ], [ 352140.48830111901043, 3770887.385554425418377 ], [ 352140.183112919621635, 3770887.385554425418377 ], [ 352139.572736520844046, 3770886.775178026407957 ], [ 352139.572736520844046, 3770884.3336724312976 ], [ 352139.267548321455251, 3770884.02848423179239 ], [ 352139.267548321455251, 3770883.112919633742422 ], [ 352138.962360122066457, 3770882.807731434237212 ], [ 352138.962360122066457, 3770880.671414038632065 ], [ 352139.267548321455251, 3770880.366225839126855 ], [ 352143.540183112898376, 3770880.366225839126855 ], [ 352143.84537131228717, 3770880.671414038632065 ], [ 352143.84537131228717, 3770881.586978636682034 ], [ 352144.150559511675965, 3770881.892166836187243 ], [ 352144.150559511675965, 3770882.502543235197663 ], [ 352144.45574771106476, 3770882.807731434237212 ], [ 352144.45574771106476, 3770884.63886063080281 ], [ 352144.150559511675965, 3770884.94404883030802 ], [ 352144.150559511675965, 3770887.690742624457926 ], [ 352140.793489318399224, 3770887.690742624457926 ] ] ] } },
{ "type": "Feature", "properties": { "confidence": 0.49515116214752197, "class": 1 }, "geometry": { "type": "Polygon", "coordinates": [ [ [ 351959.51169888098957, 3770935.910478128120303 ], [ 351959.206510681600776, 3770935.605289928615093 ], [ 351958.290946083434392, 3770935.605289928615093 ], [ 351957.985757884045597, 3770935.300101729575545 ], [ 351957.070193285879213, 3770935.300101729575545 ], [ 351956.765005086490419, 3770934.994913530070335 ], [ 351954.628687690768857, 3770934.994913530070335 ], [ 351954.323499491380062, 3770934.689725330565125 ], [ 351954.018311291991267, 3770934.689725330565125 ], [ 351954.018311291991267, 3770934.079348932020366 ], [ 351953.713123092602473, 3770933.774160732515156 ], [ 351954.018311291991267, 3770933.468972533009946 ], [ 351954.018311291991267, 3770929.196337741799653 ], [ 351954.323499491380062, 3770928.891149542294443 ], [ 351954.933875890157651, 3770928.891149542294443 ], [ 351955.239064089546446, 3770928.585961342789233 ], [ 351957.985757884045597, 3770928.585961342789233 ], [ 351958.290946083434392, 3770928.280773143284023 ], [ 351958.290946083434392, 3770926.144455747678876 ], [ 351957.985757884045597, 3770925.839267548173666 ], [ 351957.985757884045597, 3770925.534079349134117 ], [ 351957.680569684656803, 3770925.228891149628907 ], [ 351957.680569684656803, 3770924.618514750618488 ], [ 351961.037639877933543, 3770924.618514750618488 ], [ 351961.342828077322338, 3770924.923702950123698 ], [ 351961.648016276711132, 3770924.923702950123698 ], [ 351962.258392675488722, 3770925.534079349134117 ], [ 351962.563580874877516, 3770925.534079349134117 ], [ 351963.173957273655105, 3770926.144455747678876 ], [ 351963.173957273655105, 3770926.754832146689296 ], [ 351963.4791454730439, 3770927.060020345728844 ], [ 351963.4791454730439, 3770929.196337741799653 ], [ 351963.784333672432695, 3770929.501525940839201 ], [ 351963.784333672432695, 3770931.332655137404799 ], [ 351963.173957273655105, 3770931.943031535949558 ], [ 351962.563580874877516, 3770931.943031535949558 ], [ 351961.648016276711132, 3770932.858596134465188 ], [ 351961.648016276711132, 3770933.163784333504736 ], [ 351961.342828077322338, 3770933.468972533009946 ], [ 351961.342828077322338, 3770934.689725330565125 ], [ 351961.037639877933543, 3770934.994913530070335 ], [ 351961.037639877933543, 3770935.300101729575545 ], [ 351960.732451678544749, 3770935.605289928615093 ], [ 351960.427263479155954, 3770935.605289928615093 ], [ 351960.122075279767159, 3770935.910478128120303 ], [ 351959.51169888098957, 3770935.910478128120303 ] ] ] } },
{ "type": "Feature", "properties": { "confidence": 0.47550302743911743, "class": 1 }, "geometry": { "type": "Polygon", "coordinates": [ [ [ 352006.205493387591559, 3770856.561546287033707 ], [ 352005.900305188202765, 3770856.256358087528497 ], [ 352005.59511698881397, 3770856.256358087528497 ], [ 352004.679552390647586, 3770855.340793489478528 ], [ 352004.374364191258792, 3770855.340793489478528 ], [ 352003.763987792481203, 3770854.730417090468109 ], [ 352003.153611393703613, 3770854.730417090468109 ], [ 352001.932858596148435, 3770853.50966429291293 ], [ 352001.932858596148435, 3770853.20447609340772 ], [ 352001.62767039675964, 3770852.899287894368172 ], [ 352001.322482197370846, 3770852.899287894368172 ], [ 352001.322482197370846, 3770852.594099694862962 ], [ 352001.017293997982051, 3770852.288911495357752 ], [ 352001.017293997982051, 3770849.847405900247395 ], [ 352000.712105798593257, 3770849.542217700742185 ], [ 352000.712105798593257, 3770849.237029501702636 ], [ 352001.017293997982051, 3770848.931841302197427 ], [ 352001.017293997982051, 3770846.79552390659228 ], [ 352001.322482197370846, 3770846.49033570708707 ], [ 352001.322482197370846, 3770846.18514750758186 ], [ 352001.62767039675964, 3770845.87995930807665 ], [ 352004.069175991869997, 3770845.87995930807665 ], [ 352004.374364191258792, 3770846.18514750758186 ], [ 352006.815869786369149, 3770846.18514750758186 ], [ 352007.426246185146738, 3770846.79552390659228 ], [ 352007.731434384535532, 3770846.79552390659228 ], [ 352008.036622583924327, 3770847.100712105631828 ], [ 352008.036622583924327, 3770847.405900305137038 ], [ 352008.341810783313122, 3770847.711088504642248 ], [ 352008.341810783313122, 3770848.016276704147458 ], [ 352008.646998982701916, 3770848.321464903187007 ], [ 352008.646998982701916, 3770848.626653102692217 ], [ 352008.952187182090711, 3770848.931841302197427 ], [ 352008.952187182090711, 3770852.899287894368172 ], [ 352009.257375381479505, 3770853.20447609340772 ], [ 352009.257375381479505, 3770855.645981688518077 ], [ 352008.646998982701916, 3770856.256358087528497 ], [ 352008.341810783313122, 3770856.256358087528497 ], [ 352008.036622583924327, 3770856.561546287033707 ], [ 352006.205493387591559, 3770856.561546287033707 ] ] ] } },
{ "type": "Feature", "properties": { "confidence": 0.41960793733596802, "class": 1 }, "geometry": { "type": "Polygon", "coordinates": [ [ [ 351978.128179043764248, 3770943.234994913451374 ], [ 351977.822990844375454, 3770942.929806713946164 ], [ 351975.381485249265097, 3770942.929806713946164 ], [ 351975.076297049876302, 3770942.624618514906615 ], [ 351974.7711088504293, 3770942.624618514906615 ], [ 351973.855544252262916, 3770941.709053916390985 ], [ 351973.855544252262916, 3770941.403865717351437 ], [ 351973.550356052874122, 3770941.098677517846227 ], [ 351973.550356052874122, 3770940.793489318341017 ], [ 351973.245167853485327, 3770940.488301118835807 ], [ 351973.245167853485327, 3770940.183112919796258 ], [ 351972.634791454707738, 3770939.572736520785838 ], [ 351972.634791454707738, 3770939.267548321280628 ], [ 351972.329603255318943, 3770938.96236012224108 ], [ 351972.329603255318943, 3770938.65717192273587 ], [ 351972.024415055930149, 3770938.35198372323066 ], [ 351972.024415055930149, 3770937.741607324685901 ], [ 351971.719226856541354, 3770937.436419125180691 ], [ 351971.719226856541354, 3770936.215666327625513 ], [ 351972.329603255318943, 3770935.605289928615093 ], [ 351973.550356052874122, 3770935.605289928615093 ], [ 351973.550356052874122, 3770936.215666327625513 ], [ 351973.855544252262916, 3770936.520854527130723 ], [ 351974.160732451651711, 3770936.520854527130723 ], [ 351974.160732451651711, 3770936.826042726170272 ], [ 351974.7711088504293, 3770937.436419125180691 ], [ 351975.076297049876302, 3770937.436419125180691 ], [ 351975.381485249265097, 3770937.741607324685901 ], [ 351975.686673448653892, 3770937.741607324685901 ], [ 351975.991861648042686, 3770938.04679552372545 ], [ 351976.297049847431481, 3770938.04679552372545 ], [ 351976.602238046820275, 3770938.35198372323066 ], [ 351976.90742624620907, 3770938.35198372323066 ], [ 351977.212614445597865, 3770938.65717192273587 ], [ 351977.517802644986659, 3770938.65717192273587 ], [ 351977.517802644986659, 3770938.96236012224108 ], [ 351978.128179043764248, 3770939.572736520785838 ], [ 351978.128179043764248, 3770939.877924720291048 ], [ 351978.433367243153043, 3770940.183112919796258 ], [ 351978.433367243153043, 3770940.488301118835807 ], [ 351978.738555442541838, 3770940.793489318341017 ], [ 351978.738555442541838, 3770941.403865717351437 ], [ 351979.043743641930632, 3770941.709053916390985 ], [ 351979.043743641930632, 3770943.234994913451374 ], [ 351978.128179043764248, 3770943.234994913451374 ] ] ] } },
{ "type": "Feature", "properties": { "confidence": 0.40608501434326172, "class": 1 }, "geometry": { "type": "Polygon", "coordinates": [ [ [ 351868.870803662284743, 3770848.016276704147458 ], [ 351868.565615462895948, 3770847.711088504642248 ], [ 351868.565615462895948, 3770846.79552390659228 ], [ 351868.260427263507154, 3770846.49033570708707 ], [ 351868.260427263507154, 3770845.269582909531891 ], [ 351867.955239064118359, 3770844.964394710026681 ], [ 351868.260427263507154, 3770844.659206510521472 ], [ 351872.533062054950278, 3770844.659206510521472 ], [ 351872.533062054950278, 3770847.711088504642248 ], [ 351872.227873855561484, 3770847.711088504642248 ], [ 351871.922685656172689, 3770848.016276704147458 ], [ 351868.870803662284743, 3770848.016276704147458 ] ] ] } },
{ "type": "Feature", "properties": { "confidence": 0.33168593049049377, "class": 1 }, "geometry": { "type": "Polygon", "coordinates": [ [ [ 351835.300101729400922, 3770889.521871821023524 ], [ 351834.994913530012127, 3770889.216683621518314 ], [ 351834.384537131234538, 3770889.216683621518314 ], [ 351834.384537131234538, 3770883.723296032752842 ], [ 351836.215666327567305, 3770883.723296032752842 ], [ 351836.5208545269561, 3770884.02848423179239 ], [ 351836.826042726344895, 3770884.02848423179239 ], [ 351837.131230925733689, 3770884.3336724312976 ], [ 351837.131230925733689, 3770885.859613428357989 ], [ 351836.826042726344895, 3770886.164801627863199 ], [ 351836.826042726344895, 3770887.385554425418377 ], [ 351836.215666327567305, 3770887.995930823963135 ], [ 351835.910478128178511, 3770887.995930823963135 ], [ 351835.605289928789716, 3770888.301119023468345 ], [ 351835.605289928789716, 3770889.216683621518314 ], [ 351835.300101729400922, 3770889.521871821023524 ] ] ] } },
{ "type": "Feature", "properties": { "confidence": 0.32409679889678955, "class": 1 }, "geometry": { "type": "Polygon", "coordinates": [ [ [ 351717.802644964365754, 3770598.677517802454531 ], [ 351717.49745676497696, 3770598.372329603414983 ], [ 351717.192268565588165, 3770598.372329603414983 ], [ 351717.192268565588165, 3770593.794506612233818 ], [ 351717.49745676497696, 3770593.794506612233818 ], [ 351717.802644964365754, 3770594.099694811739028 ], [ 351718.107833163812757, 3770594.099694811739028 ], [ 351719.328585961367935, 3770595.320447609294206 ], [ 351719.63377416075673, 3770595.320447609294206 ], [ 351719.63377416075673, 3770597.456765004899353 ], [ 351719.328585961367935, 3770597.761953204404563 ], [ 351719.328585961367935, 3770598.067141403909773 ], [ 351718.718209562590346, 3770598.677517802454531 ], [ 351717.802644964365754, 3770598.677517802454531 ] ] ] } },
{ "type": "Feature", "properties": { "confidence": 0.31681936979293823, "class": 1 }, "geometry": { "type": "Polygon", "coordinates": [ [ [ 351847.812817904399708, 3770825.737538148649037 ], [ 351847.507629705010913, 3770825.432349949143827 ], [ 351846.897253306233324, 3770825.432349949143827 ], [ 351846.897253306233324, 3770825.127161749638617 ], [ 351846.59206510684453, 3770824.821973550133407 ], [ 351846.59206510684453, 3770824.516785351093858 ], [ 351846.286876907397527, 3770824.211597151588649 ], [ 351846.286876907397527, 3770823.601220752578229 ], [ 351845.981688708008733, 3770823.29603255353868 ], [ 351845.981688708008733, 3770820.854526958428323 ], [ 351845.676500508619938, 3770820.549338758923113 ], [ 351845.676500508619938, 3770818.107833163812757 ], [ 351845.981688708008733, 3770817.802644964307547 ], [ 351845.981688708008733, 3770817.192268565762788 ], [ 351846.59206510684453, 3770816.581892166752368 ], [ 351849.033570701954886, 3770816.581892166752368 ], [ 351849.338758901343681, 3770816.887080366257578 ], [ 351849.338758901343681, 3770819.328585961367935 ], [ 351849.94913530012127, 3770819.938962359912694 ], [ 351849.94913530012127, 3770820.244150559417903 ], [ 351850.254323499510065, 3770820.549338758923113 ], [ 351850.254323499510065, 3770822.68565615452826 ], [ 351849.94913530012127, 3770822.99084435403347 ], [ 351849.94913530012127, 3770823.601220752578229 ], [ 351849.643947100732476, 3770823.906408952083439 ], [ 351849.643947100732476, 3770824.211597151588649 ], [ 351848.423194303177297, 3770825.432349949143827 ], [ 351848.118006103788503, 3770825.432349949143827 ], [ 351847.812817904399708, 3770825.737538148649037 ] ] ] } },
{ "type": "Feature", "properties": { "confidence": 0.31015637516975403, "class": 1 }, "geometry": { "type": "Polygon", "coordinates": [ [ [ 351891.149542217724957, 3770839.165818921755999 ], [ 351889.318413021392189, 3770837.334689725190401 ], [ 351889.318413021392189, 3770837.029501526150852 ], [ 351889.013224821945187, 3770836.724313326645643 ], [ 351889.623601220780984, 3770836.113936927635223 ], [ 351889.623601220780984, 3770835.808748728595674 ], [ 351889.928789420169778, 3770835.808748728595674 ], [ 351891.454730417113751, 3770834.282807731535286 ], [ 351891.759918616502546, 3770834.282807731535286 ], [ 351892.370295015280135, 3770833.672431332524866 ], [ 351893.285859613446519, 3770833.672431332524866 ], [ 351893.285859613446519, 3770834.282807731535286 ], [ 351893.591047812835313, 3770834.587995931040496 ], [ 351894.201424211612903, 3770834.587995931040496 ], [ 351894.811800610390492, 3770835.198372329585254 ], [ 351894.811800610390492, 3770835.503560529090464 ], [ 351894.506612411001697, 3770835.808748728595674 ], [ 351894.506612411001697, 3770836.113936927635223 ], [ 351893.896236012224108, 3770836.724313326645643 ], [ 351893.896236012224108, 3770837.029501526150852 ], [ 351892.67548321466893, 3770838.250254323706031 ], [ 351892.67548321466893, 3770838.555442522745579 ], [ 351892.370295015280135, 3770838.860630722250789 ], [ 351892.06510681589134, 3770838.860630722250789 ], [ 351891.759918616502546, 3770839.165818921755999 ], [ 351891.149542217724957, 3770839.165818921755999 ] ] ] } },
{ "type": "Feature", "properties": { "confidence": 0.2886485755443573, "class": 1 }, "geometry": { "type": "Polygon", "coordinates": [ [ [ 351754.425228891137522, 3770831.841302136424929 ], [ 351753.814852492359933, 3770831.230925737414509 ], [ 351753.509664292971138, 3770831.230925737414509 ], [ 351753.204476093582343, 3770830.92573753837496 ], [ 351752.899287894193549, 3770830.92573753837496 ], [ 351752.594099694804754, 3770830.62054933886975 ], [ 351752.28891149541596, 3770830.62054933886975 ], [ 351752.28891149541596, 3770830.315361139364541 ], [ 351751.983723296027165, 3770830.010172939859331 ], [ 351751.983723296027165, 3770828.179043743759394 ], [ 351752.28891149541596, 3770827.873855544254184 ], [ 351755.951169888081495, 3770827.873855544254184 ], [ 351755.951169888081495, 3770831.536113936919719 ], [ 351754.730417090526316, 3770831.536113936919719 ], [ 351754.425228891137522, 3770831.841302136424929 ] ] ] } },
{ "type": "Feature", "properties": { "confidence": 0.27925693988800049, "class": 1 }, "geometry": { "type": "Polygon", "coordinates": [ [ [ 352027.568667344865389, 3770846.18514750758186 ], [ 352026.9582909460878, 3770845.574771109037101 ], [ 352026.9582909460878, 3770844.964394710026681 ], [ 352026.347914547310211, 3770844.354018311481923 ], [ 352026.347914547310211, 3770844.048830111976713 ], [ 352034.28280773141887, 3770844.048830111976713 ], [ 352034.28280773141887, 3770844.964394710026681 ], [ 352033.977619532030076, 3770845.269582909531891 ], [ 352033.367243133252487, 3770845.269582909531891 ], [ 352033.062054933863692, 3770845.574771109037101 ], [ 352032.146490335697308, 3770845.574771109037101 ], [ 352031.841302136308514, 3770845.87995930807665 ], [ 352030.010172939975746, 3770845.87995930807665 ], [ 352029.704984740586951, 3770846.18514750758186 ], [ 352027.568667344865389, 3770846.18514750758186 ] ] ] } },
{ "type": "Feature", "properties": { "confidence": 0.27238252758979797, "class": 1 }, "geometry": { "type": "Polygon", "coordinates": [ [ [ 351899.084435401833616, 3770829.399796541314572 ], [ 351898.474059003056027, 3770828.789420142304152 ], [ 351898.474059003056027, 3770828.484231942798942 ], [ 351898.168870803667232, 3770828.179043743759394 ], [ 351898.168870803667232, 3770827.873855544254184 ], [ 351897.863682604278438, 3770827.568667344748974 ], [ 351897.863682604278438, 3770827.263479145243764 ], [ 351899.694811800611205, 3770825.432349949143827 ], [ 351899.694811800611205, 3770824.821973550133407 ], [ 351900.305188199388795, 3770824.211597151588649 ], [ 351901.525940996943973, 3770824.211597151588649 ], [ 351902.136317395721562, 3770824.821973550133407 ], [ 351902.136317395721562, 3770825.432349949143827 ], [ 351902.441505595110357, 3770825.737538148649037 ], [ 351902.441505595110357, 3770826.347914547193795 ], [ 351901.831129196332768, 3770826.958290946204215 ], [ 351901.831129196332768, 3770827.263479145243764 ], [ 351901.220752797555178, 3770827.873855544254184 ], [ 351901.220752797555178, 3770828.179043743759394 ], [ 351900.915564598166384, 3770828.484231942798942 ], [ 351900.915564598166384, 3770828.789420142304152 ], [ 351900.305188199388795, 3770829.399796541314572 ], [ 351899.084435401833616, 3770829.399796541314572 ] ] ] } },
{ "type": "Feature", "properties": { "confidence": 0.25598487257957458, "class": 1 }, "geometry": { "type": "Polygon", "coordinates": [ [ [ 351751.67853509663837, 3770987.792472024448216 ], [ 351751.67853509663837, 3770987.182095625437796 ], [ 351751.373346897249576, 3770986.876907426398247 ], [ 351751.068158697860781, 3770986.876907426398247 ], [ 351750.457782299083192, 3770986.266531027387828 ], [ 351750.152594099694397, 3770986.266531027387828 ], [ 351749.847405900305603, 3770985.961342827882618 ], [ 351749.237029501528013, 3770985.961342827882618 ], [ 351748.931841302139219, 3770985.656154628843069 ], [ 351748.931841302139219, 3770985.350966429337859 ], [ 351748.626653102750424, 3770985.045778229832649 ], [ 351748.626653102750424, 3770984.740590030327439 ], [ 351748.32146490336163, 3770984.435401831287891 ], [ 351748.32146490336163, 3770983.519837232772261 ], [ 351748.016276703972835, 3770983.214649033732712 ], [ 351748.016276703972835, 3770982.604272634722292 ], [ 351747.71108850458404, 3770982.299084435217083 ], [ 351747.71108850458404, 3770981.383519837167114 ], [ 351747.405900305195246, 3770981.078331637661904 ], [ 351747.405900305195246, 3770980.162767039611936 ], [ 351747.71108850458404, 3770979.857578840106726 ], [ 351747.71108850458404, 3770978.331637843511999 ], [ 351748.32146490336163, 3770977.721261444501579 ], [ 351748.32146490336163, 3770977.416073244996369 ], [ 351748.626653102750424, 3770977.416073244996369 ], [ 351749.847405900305603, 3770976.19532044744119 ], [ 351749.847405900305603, 3770975.890132248401642 ], [ 351750.152594099694397, 3770975.584944048896432 ], [ 351750.762970498471987, 3770975.584944048896432 ], [ 351751.983723296027165, 3770976.80569684645161 ], [ 351753.204476093582343, 3770976.80569684645161 ], [ 351753.509664292971138, 3770977.11088504595682 ], [ 351753.509664292971138, 3770977.416073244996369 ], [ 351754.120040691748727, 3770978.026449644006789 ], [ 351753.814852492359933, 3770978.331637843511999 ], [ 351753.814852492359933, 3770985.961342827882618 ], [ 351753.509664292971138, 3770986.266531027387828 ], [ 351753.509664292971138, 3770986.571719226893038 ], [ 351753.204476093582343, 3770986.876907426398247 ], [ 351753.204476093582343, 3770987.792472024448216 ], [ 351751.67853509663837, 3770987.792472024448216 ] ] ] } },
{ "type": "Feature", "properties": { "confidence": 0.25478059053421021, "class": 1 }, "geometry": { "type": "Polygon", "coordinates": [ [ [ 352137.436419125122484, 3770890.742624618578702 ], [ 352137.131230925733689, 3770890.437436419073492 ], [ 352136.5208545269561, 3770890.437436419073492 ], [ 352136.215666327567305, 3770890.132248219568282 ], [ 352136.215666327567305, 3770888.606307222973555 ], [ 352135.910478128178511, 3770888.301119023468345 ], [ 352135.910478128178511, 3770887.080366225913167 ], [ 352136.215666327567305, 3770886.775178026407957 ], [ 352136.215666327567305, 3770886.469989826902747 ], [ 352136.5208545269561, 3770886.164801627863199 ], [ 352137.131230925733689, 3770886.164801627863199 ], [ 352137.436419125122484, 3770885.859613428357989 ], [ 352138.962360122066457, 3770885.859613428357989 ], [ 352138.962360122066457, 3770886.164801627863199 ], [ 352139.572736520844046, 3770886.775178026407957 ], [ 352139.572736520844046, 3770887.080366225913167 ], [ 352139.877924720232841, 3770887.385554425418377 ], [ 352140.183112919621635, 3770887.385554425418377 ], [ 352140.48830111901043, 3770887.690742624457926 ], [ 352140.793489318399224, 3770887.690742624457926 ], [ 352141.098677517788019, 3770887.995930823963135 ], [ 352142.014242115954403, 3770887.995930823963135 ], [ 352142.014242115954403, 3770890.437436419073492 ], [ 352141.709053916565608, 3770890.742624618578702 ], [ 352137.436419125122484, 3770890.742624618578702 ] ] ] } }
]
}
