{
"type": "FeatureCollection",
"name": "cell_00178_pre",
"crs": { "type": "name", "properties": { "name": "urn:ogc:def:crs:EPSG::32611" } },
"features": [
{ "type": "Feature", "properties": { "confidence": 0.60129916667938232, "class": 1, "regularized": null }, "geometry": { "type": "Polygon", "coordinates": [ [ [ 355870.498474058986176, 3776500.10172939999029 ], [ 355870.193285859597381, 3776499.79654120048508 ], [ 355869.888097660208587, 3776499.79654120048508 ], [ 355869.582909460819792, 3776499.491353000979871 ], [ 355869.277721261430997, 3776499.491353000979871 ], [ 355868.972533062042203, 3776499.186164801474661 ], [ 355868.972533062042203, 3776497.965412003919482 ], [ 355869.277721261430997, 3776497.660223804879934 ], [ 355869.277721261430997, 3776496.134282807819545 ], [ 355869.888097660208587, 3776495.523906408809125 ], [ 355869.888097660208587, 3776495.218718209769577 ], [ 355870.193285859597381, 3776495.218718209769577 ], [ 355870.80366225837497, 3776494.608341810759157 ], [ 355871.108850457763765, 3776494.608341810759157 ], [ 355871.108850457763765, 3776495.218718209769577 ], [ 355871.41403865715256, 3776495.523906408809125 ], [ 355872.024415055930149, 3776495.523906408809125 ], [ 355872.634791454707738, 3776494.913530010264367 ], [ 355873.245167853485327, 3776494.913530010264367 ], [ 355873.550356052874122, 3776494.608341810759157 ], [ 355874.465920651040506, 3776494.608341810759157 ], [ 355874.7711088504293, 3776494.303153611253947 ], [ 355875.381485249265097, 3776494.303153611253947 ], [ 355875.686673448653892, 3776494.608341810759157 ], [ 355875.686673448653892, 3776494.913530010264367 ], [ 355875.991861648042686, 3776495.218718209769577 ], [ 355875.991861648042686, 3776495.523906408809125 ], [ 355875.686673448653892, 3776495.829094608314335 ], [ 355875.686673448653892, 3776496.439471007324755 ], [ 355873.855544252262916, 3776498.270600203424692 ], [ 355873.855544252262916, 3776498.575788402929902 ], [ 355873.550356052874122, 3776498.575788402929902 ], [ 355873.245167853485327, 3776498.880976602435112 ], [ 355872.939979654096533, 3776498.880976602435112 ], [ 355872.329603255318943, 3776499.491353000979871 ], [ 355872.024415055930149, 3776499.491353000979871 ], [ 355871.41403865715256, 3776500.10172939999029 ], [ 355870.498474058986176, 3776500.10172939999029 ] ] ] } },
{ "type": "Feature", "properties": { "confidence": 0.57329624891281128, "class": 1, "regularized": "rectangle" }, "geometry": { "type": "Polygon", "coordinates": [ [ [ 356177.8125, 3776846.0 ], [ 356188.1875, 3776846.0 ], [ 356188.1875, 3776861.5 ], [ 356177.8125, 3776861.5 ], [ 356177.8125, 3776846.0 ] ] ] } },
{ "type": "Feature", "properties": { "confidence": 0.3912205696105957, "class": 1, "regularized": null }, "geometry": { "type": "Polygon", "coordinates": [ [ [ 356170.80366225837497, 3776555.035605289973319 ], [ 356170.498474058986176, 3776554.730417090468109 ], [ 356170.193285859597381, 3776554.730417090468109 ], [ 356169.888097660208587, 3776554.425228890962899 ], [ 356169.888097660208587, 3776554.12004069192335 ], [ 356169.582909460819792, 3776553.81485249241814 ], [ 356169.582909460819792, 3776553.50966429291293 ], [ 356169.277721261430997, 3776553.20447609340772 ], [ 356169.277721261430997, 3776552.594099694862962 ], [ 356168.972533062042203, 3776552.288911495357752 ], [ 356168.972533062042203, 3776551.678535096812993 ], [ 356169.582909460819792, 3776551.068158697802573 ], [ 356170.193285859597381, 3776551.068158697802573 ], [ 356170.498474058986176, 3776550.762970498297364 ], [ 356171.41403865715256, 3776550.762970498297364 ], [ 356171.719226856541354, 3776551.068158697802573 ], [ 356173.245167853485327, 3776551.068158697802573 ], [ 356173.855544252262916, 3776551.678535096812993 ], [ 356173.855544252262916, 3776553.50966429291293 ], [ 356173.550356052874122, 3776553.81485249241814 ], [ 356173.550356052874122, 3776554.425228890962899 ], [ 356172.939979654096533, 3776555.035605289973319 ], [ 356170.80366225837497, 3776555.035605289973319 ] ] ] } },
{ "type": "Feature", "properties": { "confidence": 0.37444692850112915, "class": 1, "regularized": null }, "geometry": { "type": "Polygon", "coordinates": [ [ [ 356072.533062054950278, 3776497.355035605374724 ], [ 356072.227873855561484, 3776497.049847405869514 ], [ 356071.3123092573951, 3776497.049847405869514 ], [ 356071.007121058006305, 3776496.744659206364304 ], [ 356071.007121058006305, 3776496.439471007324755 ], [ 356070.701932858617511, 3776496.134282807819545 ], [ 356070.701932858617511, 3776495.523906408809125 ], [ 356070.396744659228716, 3776495.218718209769577 ], [ 356070.396744659228716, 3776493.082400813698769 ], [ 356073.143438453727867, 3776493.082400813698769 ], [ 356073.143438453727867, 3776497.355035605374724 ], [ 356072.533062054950278, 3776497.355035605374724 ] ] ] } },
{ "type": "Feature", "properties": { "confidence": 0.28231886029243469, "class": 1, "regularized": null }, "geometry": { "type": "Polygon", "coordinates": [ [ [ 356068.260427263507154, 3776500.712105798535049 ], [ 356067.955239064118359, 3776500.406917599029839 ], [ 356067.039674465893768, 3776500.406917599029839 ], [ 356066.429298067116179, 3776499.79654120048508 ], [ 356066.429298067116179, 3776499.491353000979871 ], [ 356066.124109867727384, 3776499.186164801474661 ], [ 356066.124109867727384, 3776498.270600203424692 ], [ 356065.818921668338589, 3776497.965412003919482 ], [ 356065.818921668338589, 3776496.439471007324755 ], [ 356066.124109867727384, 3776496.134282807819545 ], [ 356066.734486266504973, 3776496.134282807819545 ], [ 356067.039674465893768, 3776495.829094608314335 ], [ 356067.344862665282562, 3776495.829094608314335 ], [ 356067.650050864671357, 3776496.134282807819545 ], [ 356068.260427263507154, 3776496.134282807819545 ], [ 356069.175991861673538, 3776497.049847405869514 ], [ 356069.175991861673538, 3776500.10172939999029 ], [ 356068.870803662284743, 3776500.406917599029839 ], [ 356068.565615462895948, 3776500.406917599029839 ], [ 356068.260427263507154, 3776500.712105798535049 ] ] ] } }
]
}
