{
"type": "FeatureCollection",
"name": "cell_00466_pre",
"crs": { "type": "name", "properties": { "name": "urn:ogc:def:crs:EPSG::32611" } },
"features": [
{ "type": "Feature", "properties": { "confidence": 0.96231317520141602, "class": 1 }, "geometry": { "type": "Polygon", "coordinates": [ [ [ 400658.392675483191852, 3787218.006103763822466 ], [ 400658.087487283803057, 3787217.700915564782917 ], [ 400657.477110885025468, 3787217.700915564782917 ], [ 400657.171922685636673, 3787217.395727365277708 ], [ 400657.171922685636673, 3787217.090539165772498 ], [ 400656.866734486247879, 3787216.785350966267288 ], [ 400656.561546286859084, 3787216.785350966267288 ], [ 400656.561546286859084, 3787215.564598168712109 ], [ 400656.256358087470289, 3787215.259409969672561 ], [ 400656.256358087470289, 3787214.649033570662141 ], [ 400656.561546286859084, 3787214.343845371156931 ], [ 400656.561546286859084, 3787214.038657172117382 ], [ 400656.866734486247879, 3787214.038657172117382 ], [ 400657.171922685636673, 3787213.733468972612172 ], [ 400657.477110885025468, 3787213.733468972612172 ], [ 400657.782299084414262, 3787213.428280773106962 ], [ 400658.392675483191852, 3787213.428280773106962 ], [ 400658.697863682580646, 3787213.123092573601753 ], [ 400659.003051881969441, 3787213.123092573601753 ], [ 400659.308240081358235, 3787213.428280773106962 ], [ 400659.61342828074703, 3787213.428280773106962 ], [ 400659.61342828074703, 3787213.733468972612172 ], [ 400659.918616480135825, 3787214.038657172117382 ], [ 400660.223804679524619, 3787214.038657172117382 ], [ 400660.834181078360416, 3787214.649033570662141 ], [ 400661.139369277749211, 3787214.649033570662141 ], [ 400661.444557477138005, 3787214.954221770167351 ], [ 400661.444557477138005, 3787217.090539165772498 ], [ 400661.139369277749211, 3787217.395727365277708 ], [ 400660.834181078360416, 3787217.395727365277708 ], [ 400660.528992878913414, 3787217.700915564782917 ], [ 400658.697863682580646, 3787217.700915564782917 ], [ 400658.392675483191852, 3787218.006103763822466 ] ] ] } },
{ "type": "Feature", "properties": { "confidence": 0.93732386827468872, "class": 1 }, "geometry": { "type": "Polygon", "coordinates": [ [ [ 400366.632756866747513, 3787589.420142421033233 ], [ 400366.327568667358719, 3787589.114954221993685 ], [ 400366.022380467969924, 3787589.114954221993685 ], [ 400365.412004069192335, 3787588.504577822983265 ], [ 400365.412004069192335, 3787587.894201424438506 ], [ 400365.10681586980354, 3787587.589013224933296 ], [ 400365.10681586980354, 3787585.757884028367698 ], [ 400365.412004069192335, 3787585.452695828862488 ], [ 400365.412004069192335, 3787584.23194303130731 ], [ 400365.71719226858113, 3787583.926754832267761 ], [ 400365.71719226858113, 3787582.706002034712583 ], [ 400365.412004069192335, 3787582.400813835207373 ], [ 400365.71719226858113, 3787582.095625635702163 ], [ 400365.71719226858113, 3787581.485249237157404 ], [ 400366.022380467969924, 3787581.180061037652194 ], [ 400367.243133265525103, 3787581.180061037652194 ], [ 400367.548321464913897, 3787580.874872838146985 ], [ 400368.158697863691486, 3787580.874872838146985 ], [ 400368.463886063080281, 3787581.180061037652194 ], [ 400369.684638860635459, 3787581.180061037652194 ], [ 400369.989827060024254, 3787581.485249237157404 ], [ 400370.600203458801843, 3787581.485249237157404 ], [ 400370.905391658190638, 3787581.790437436196953 ], [ 400371.210579857579432, 3787581.790437436196953 ], [ 400371.515768056968227, 3787582.095625635702163 ], [ 400371.820956256357022, 3787582.095625635702163 ], [ 400371.820956256357022, 3787582.706002034712583 ], [ 400372.126144455745816, 3787583.011190233752131 ], [ 400372.126144455745816, 3787587.894201424438506 ], [ 400371.515768056968227, 3787588.504577822983265 ], [ 400371.210579857579432, 3787588.504577822983265 ], [ 400370.295015259413049, 3787589.420142421033233 ], [ 400366.632756866747513, 3787589.420142421033233 ] ] ] } },
{ "type": "Feature", "properties": { "confidence": 0.90189999341964722, "class": 1 }, "geometry": { "type": "Polygon", "coordinates": [ [ [ 400369.379450661246665, 3787475.279755849391222 ], [ 400369.07426246185787, 3787474.974567649886012 ], [ 400368.463886063080281, 3787474.974567649886012 ], [ 400368.158697863691486, 3787474.669379450846463 ], [ 400367.853509664302692, 3787474.669379450846463 ], [ 400367.243133265525103, 3787474.059003051836044 ], [ 400366.937945066136308, 3787474.059003051836044 ], [ 400366.937945066136308, 3787473.753814852330834 ], [ 400366.632756866747513, 3787473.448626653291285 ], [ 400366.022380467969924, 3787473.448626653291285 ], [ 400365.71719226858113, 3787473.143438453786075 ], [ 400365.412004069192335, 3787473.143438453786075 ], [ 400365.10681586980354, 3787472.838250254280865 ], [ 400365.10681586980354, 3787472.533062054775655 ], [ 400364.801627670414746, 3787472.227873855736107 ], [ 400364.801627670414746, 3787469.48118006112054 ], [ 400365.412004069192335, 3787468.87080366211012 ], [ 400366.022380467969924, 3787468.87080366211012 ], [ 400366.327568667358719, 3787468.565615463070571 ], [ 400367.243133265525103, 3787468.565615463070571 ], [ 400367.548321464913897, 3787468.260427263565361 ], [ 400367.853509664302692, 3787468.260427263565361 ], [ 400368.463886063080281, 3787467.650050864554942 ], [ 400368.769074262469076, 3787467.650050864554942 ], [ 400369.379450661246665, 3787467.039674466010183 ], [ 400372.431332655134611, 3787467.039674466010183 ], [ 400372.431332655134611, 3787467.344862665515393 ], [ 400372.736520854523405, 3787467.650050864554942 ], [ 400372.736520854523405, 3787467.955239064060152 ], [ 400372.431332655134611, 3787468.260427263565361 ], [ 400372.431332655134611, 3787469.17599186161533 ], [ 400372.736520854523405, 3787469.48118006112054 ], [ 400372.736520854523405, 3787471.312309257220477 ], [ 400373.0417090539122, 3787471.617497456725687 ], [ 400373.0417090539122, 3787472.533062054775655 ], [ 400373.346897253300995, 3787472.838250254280865 ], [ 400373.0417090539122, 3787473.143438453786075 ], [ 400373.0417090539122, 3787473.753814852330834 ], [ 400373.346897253300995, 3787474.059003051836044 ], [ 400373.346897253300995, 3787474.669379450846463 ], [ 400373.0417090539122, 3787474.974567649886012 ], [ 400372.736520854523405, 3787474.974567649886012 ], [ 400372.431332655134611, 3787475.279755849391222 ], [ 400369.379450661246665, 3787475.279755849391222 ] ] ] } },
{ "type": "Feature", "properties": { "confidence": 0.85807448625564575, "class": 1 }, "geometry": { "type": "Polygon", "coordinates": [ [ [ 400630.92573753814213, 3787302.238046795595437 ], [ 400630.620549338753335, 3787301.932858596090227 ], [ 400629.399796541198157, 3787301.932858596090227 ], [ 400629.094608341809362, 3787301.627670396585017 ], [ 400628.789420142420568, 3787301.627670396585017 ], [ 400628.484231943031773, 3787301.322482197545469 ], [ 400628.484231943031773, 3787301.017293998040259 ], [ 400627.873855544254184, 3787300.406917599029839 ], [ 400627.873855544254184, 3787298.575788402929902 ], [ 400628.179043743642978, 3787298.270600203424692 ], [ 400628.179043743642978, 3787297.660223804879934 ], [ 400628.484231943031773, 3787297.660223804879934 ], [ 400628.789420142420568, 3787297.355035605374724 ], [ 400628.789420142420568, 3787297.049847405869514 ], [ 400629.094608341809362, 3787297.049847405869514 ], [ 400629.399796541198157, 3787296.744659206364304 ], [ 400629.399796541198157, 3787296.439471007324755 ], [ 400630.620549338753335, 3787295.218718209769577 ], [ 400630.620549338753335, 3787294.303153611253947 ], [ 400630.92573753814213, 3787293.997965412214398 ], [ 400630.92573753814213, 3787293.692777212709188 ], [ 400631.230925737530924, 3787293.692777212709188 ], [ 400631.536113936919719, 3787293.387589013203979 ], [ 400632.146490335697308, 3787293.387589013203979 ], [ 400632.451678535086103, 3787293.082400813698769 ], [ 400633.367243133252487, 3787293.082400813698769 ], [ 400633.672431332641281, 3787293.387589013203979 ], [ 400633.977619532030076, 3787293.387589013203979 ], [ 400633.672431332641281, 3787293.692777212709188 ], [ 400633.672431332641281, 3787295.829094608314335 ], [ 400633.367243133252487, 3787296.134282807819545 ], [ 400633.367243133252487, 3787296.744659206364304 ], [ 400633.062054933863692, 3787297.049847405869514 ], [ 400633.062054933863692, 3787297.355035605374724 ], [ 400632.756866734474897, 3787297.660223804879934 ], [ 400632.756866734474897, 3787297.965412003919482 ], [ 400632.451678535086103, 3787298.270600203424692 ], [ 400632.451678535086103, 3787299.79654120048508 ], [ 400632.146490335697308, 3787300.10172939999029 ], [ 400632.146490335697308, 3787300.712105798535049 ], [ 400632.451678535086103, 3787301.017293998040259 ], [ 400632.451678535086103, 3787301.627670396585017 ], [ 400632.146490335697308, 3787301.932858596090227 ], [ 400631.230925737530924, 3787301.932858596090227 ], [ 400630.92573753814213, 3787302.238046795595437 ] ] ] } },
{ "type": "Feature", "properties": { "confidence": 0.65371823310852051, "class": 1 }, "geometry": { "type": "Polygon", "coordinates": [ [ [ 400589.114954221760854, 3787565.615462868940085 ], [ 400589.114954221760854, 3787565.310274669434875 ], [ 400588.80976602237206, 3787565.005086469929665 ], [ 400588.80976602237206, 3787564.089521871879697 ], [ 400589.114954221760854, 3787563.784333672374487 ], [ 400589.114954221760854, 3787563.479145472869277 ], [ 400590.030518819927238, 3787562.563580874819309 ], [ 400590.335707019316033, 3787562.563580874819309 ], [ 400590.640895218704827, 3787562.258392675314099 ], [ 400590.946083418093622, 3787562.258392675314099 ], [ 400591.556459816871211, 3787561.64801627676934 ], [ 400591.861648016260006, 3787561.64801627676934 ], [ 400592.1668362156488, 3787561.34282807726413 ], [ 400592.777212614426389, 3787561.34282807726413 ], [ 400593.082400813815184, 3787561.03763987775892 ], [ 400595.218718209536746, 3787561.03763987775892 ], [ 400595.523906408925541, 3787561.34282807726413 ], [ 400596.439471007150132, 3787561.34282807726413 ], [ 400596.744659206538927, 3787561.64801627676934 ], [ 400597.049847405927721, 3787561.64801627676934 ], [ 400597.660223804705311, 3787562.258392675314099 ], [ 400597.660223804705311, 3787563.479145472869277 ], [ 400597.355035605316516, 3787563.784333672374487 ], [ 400597.355035605316516, 3787564.699898270424455 ], [ 400597.049847405927721, 3787564.699898270424455 ], [ 400596.744659206538927, 3787565.005086469929665 ], [ 400596.744659206538927, 3787565.615462868940085 ], [ 400589.114954221760854, 3787565.615462868940085 ] ] ] } },
{ "type": "Feature", "properties": { "confidence": 0.59557217359542847, "class": 1 }, "geometry": { "type": "Polygon", "coordinates": [ [ [ 400677.619532044744119, 3787610.783316378481686 ], [ 400677.314343845355324, 3787610.478128178976476 ], [ 400676.398779247188941, 3787610.478128178976476 ], [ 400676.093591047800146, 3787610.172939979471266 ], [ 400675.788402848411351, 3787610.172939979471266 ], [ 400675.788402848411351, 3787609.562563580926508 ], [ 400675.483214649022557, 3787609.257375381421298 ], [ 400675.483214649022557, 3787608.952187181916088 ], [ 400675.178026449633762, 3787608.646998982876539 ], [ 400675.178026449633762, 3787606.815869786310941 ], [ 400675.483214649022557, 3787606.510681586805731 ], [ 400675.483214649022557, 3787604.984740590211004 ], [ 400675.788402848411351, 3787604.679552390705794 ], [ 400675.788402848411351, 3787604.374364191200584 ], [ 400677.00915564596653, 3787603.153611393645406 ], [ 400677.00915564596653, 3787602.848423194140196 ], [ 400677.619532044744119, 3787602.238046795595437 ], [ 400677.619532044744119, 3787601.932858596090227 ], [ 400678.229908443521708, 3787601.322482197545469 ], [ 400678.535096642910503, 3787601.322482197545469 ], [ 400678.840284842299297, 3787601.017293998040259 ], [ 400682.197355035634246, 3787601.017293998040259 ], [ 400682.807731434411835, 3787601.627670396585017 ], [ 400682.807731434411835, 3787601.932858596090227 ], [ 400683.11291963380063, 3787602.238046795595437 ], [ 400683.11291963380063, 3787602.848423194140196 ], [ 400683.418107833189424, 3787603.153611393645406 ], [ 400683.418107833189424, 3787603.763987792655826 ], [ 400683.723296032578219, 3787604.069175991695374 ], [ 400683.723296032578219, 3787604.984740590211004 ], [ 400684.028484231967013, 3787605.289928789250553 ], [ 400684.028484231967013, 3787607.121057985816151 ], [ 400683.723296032578219, 3787607.426246185321361 ], [ 400683.723296032578219, 3787607.731434384360909 ], [ 400683.11291963380063, 3787608.341810783371329 ], [ 400682.807731434411835, 3787608.341810783371329 ], [ 400682.50254323502304, 3787608.646998982876539 ], [ 400682.197355035634246, 3787608.646998982876539 ], [ 400681.892166836187243, 3787608.952187181916088 ], [ 400681.586978636798449, 3787608.952187181916088 ], [ 400680.36622583924327, 3787610.172939979471266 ], [ 400679.145473041688092, 3787610.172939979471266 ], [ 400678.840284842299297, 3787610.478128178976476 ], [ 400677.924720244132914, 3787610.478128178976476 ], [ 400677.619532044744119, 3787610.783316378481686 ] ] ] } },
{ "type": "Feature", "properties": { "confidence": 0.56148868799209595, "class": 1 }, "geometry": { "type": "Polygon", "coordinates": [ [ [ 400457.273652085452341, 3787408.13835198385641 ], [ 400456.968463886063546, 3787407.8331637843512 ], [ 400455.747711088508368, 3787407.8331637843512 ], [ 400455.442522889119573, 3787407.52797558484599 ], [ 400454.832146490341984, 3787407.52797558484599 ], [ 400454.221770091564395, 3787406.917599186301231 ], [ 400453.9165818921756, 3787406.917599186301231 ], [ 400453.611393692786805, 3787406.612410986796021 ], [ 400453.611393692786805, 3787406.307222787290812 ], [ 400453.306205493398011, 3787406.002034587785602 ], [ 400453.306205493398011, 3787404.781281790230423 ], [ 400453.001017294009216, 3787404.476093591190875 ], [ 400453.001017294009216, 3787403.865717192180455 ], [ 400452.695829094620422, 3787403.560528992675245 ], [ 400452.695829094620422, 3787403.255340793635696 ], [ 400452.390640895231627, 3787402.950152594130486 ], [ 400452.390640895231627, 3787402.339776195120066 ], [ 400452.085452695842832, 3787402.034587996080518 ], [ 400452.085452695842832, 3787400.508646999020129 ], [ 400452.390640895231627, 3787400.20345879951492 ], [ 400453.001017294009216, 3787400.20345879951492 ], [ 400453.306205493398011, 3787399.89827060000971 ], [ 400458.799593082396314, 3787399.89827060000971 ], [ 400459.104781281785108, 3787400.20345879951492 ], [ 400459.409969481173903, 3787400.20345879951492 ], [ 400460.020345879951492, 3787400.813835198525339 ], [ 400460.020345879951492, 3787401.119023397564888 ], [ 400460.325534079340287, 3787401.424211597070098 ], [ 400460.325534079340287, 3787402.034587996080518 ], [ 400460.630722278729081, 3787402.339776195120066 ], [ 400460.630722278729081, 3787404.170905391685665 ], [ 400460.325534079340287, 3787404.476093591190875 ], [ 400460.325534079340287, 3787406.002034587785602 ], [ 400460.020345879951492, 3787406.307222787290812 ], [ 400460.020345879951492, 3787406.917599186301231 ], [ 400459.715157680562697, 3787407.22278738534078 ], [ 400459.715157680562697, 3787407.52797558484599 ], [ 400459.409969481173903, 3787407.52797558484599 ], [ 400459.104781281785108, 3787407.8331637843512 ], [ 400458.799593082396314, 3787407.8331637843512 ], [ 400458.494404883007519, 3787408.13835198385641 ], [ 400457.273652085452341, 3787408.13835198385641 ] ] ] } },
{ "type": "Feature", "properties": { "confidence": 0.52817028760910034, "class": 1 }, "geometry": { "type": "Polygon", "coordinates": [ [ [ 400445.371312309231143, 3787411.800610376521945 ], [ 400445.066124109842349, 3787411.495422177016735 ], [ 400444.45574771106476, 3787411.495422177016735 ], [ 400444.150559511675965, 3787411.190233977511525 ], [ 400443.540183112898376, 3787411.190233977511525 ], [ 400442.929806714120787, 3787410.579857578966767 ], [ 400442.929806714120787, 3787409.969481179956347 ], [ 400442.624618514731992, 3787409.664292980451137 ], [ 400442.624618514731992, 3787409.359104781411588 ], [ 400442.319430315343197, 3787409.053916581906378 ], [ 400442.319430315343197, 3787408.748728382401168 ], [ 400442.014242115954403, 3787408.443540182895958 ], [ 400442.014242115954403, 3787407.22278738534078 ], [ 400442.319430315343197, 3787406.917599186301231 ], [ 400442.319430315343197, 3787406.612410986796021 ], [ 400442.929806714120787, 3787406.002034587785602 ], [ 400443.234994913509581, 3787406.002034587785602 ], [ 400443.540183112898376, 3787405.696846388746053 ], [ 400443.540183112898376, 3787405.086469989735633 ], [ 400443.84537131228717, 3787404.781281790230423 ], [ 400443.84537131228717, 3787404.170905391685665 ], [ 400444.45574771106476, 3787404.170905391685665 ], [ 400444.760935910453554, 3787403.865717192180455 ], [ 400445.676500508619938, 3787403.865717192180455 ], [ 400445.981688708008733, 3787403.560528992675245 ], [ 400446.59206510684453, 3787403.560528992675245 ], [ 400446.897253306233324, 3787403.255340793635696 ], [ 400447.507629705010913, 3787403.255340793635696 ], [ 400447.812817904399708, 3787403.560528992675245 ], [ 400448.423194303177297, 3787403.560528992675245 ], [ 400449.033570701954886, 3787404.170905391685665 ], [ 400449.033570701954886, 3787404.476093591190875 ], [ 400449.338758901343681, 3787404.781281790230423 ], [ 400449.338758901343681, 3787408.13835198385641 ], [ 400449.033570701954886, 3787408.443540182895958 ], [ 400449.033570701954886, 3787408.748728382401168 ], [ 400448.728382502566092, 3787409.053916581906378 ], [ 400448.728382502566092, 3787409.359104781411588 ], [ 400447.812817904399708, 3787410.274669379461557 ], [ 400447.507629705010913, 3787410.274669379461557 ], [ 400446.897253306233324, 3787410.885045778006315 ], [ 400446.897253306233324, 3787411.190233977511525 ], [ 400446.59206510684453, 3787411.190233977511525 ], [ 400446.286876907397527, 3787411.495422177016735 ], [ 400445.981688708008733, 3787411.495422177016735 ], [ 400445.676500508619938, 3787411.800610376521945 ], [ 400445.371312309231143, 3787411.800610376521945 ] ] ] } },
{ "type": "Feature", "properties": { "confidence": 0.4621431827545166, "class": 1 }, "geometry": { "type": "Polygon", "coordinates": [ [ [ 400489.318413021392189, 3787417.293997965287417 ], [ 400489.013224821945187, 3787416.988809766247869 ], [ 400488.708036622556392, 3787416.988809766247869 ], [ 400487.792472024390008, 3787416.073245167732239 ], [ 400487.792472024390008, 3787415.46286876918748 ], [ 400487.487283825001214, 3787415.15768056968227 ], [ 400487.792472024390008, 3787414.85249237017706 ], [ 400487.792472024390008, 3787410.579857578966767 ], [ 400488.097660223778803, 3787410.579857578966767 ], [ 400488.402848423167598, 3787410.274669379461557 ], [ 400493.591047812835313, 3787410.274669379461557 ], [ 400493.896236012224108, 3787410.579857578966767 ], [ 400493.591047812835313, 3787410.885045778006315 ], [ 400493.591047812835313, 3787411.495422177016735 ], [ 400493.285859613446519, 3787411.800610376521945 ], [ 400493.285859613446519, 3787412.410986775066704 ], [ 400493.591047812835313, 3787412.716174974571913 ], [ 400493.591047812835313, 3787415.15768056968227 ], [ 400493.285859613446519, 3787415.46286876918748 ], [ 400493.285859613446519, 3787415.76805696869269 ], [ 400492.980671414057724, 3787416.073245167732239 ], [ 400492.980671414057724, 3787416.378433367237449 ], [ 400492.67548321466893, 3787416.683621566742659 ], [ 400492.370295015280135, 3787416.683621566742659 ], [ 400492.06510681589134, 3787416.988809766247869 ], [ 400491.454730417113751, 3787416.988809766247869 ], [ 400491.149542217724957, 3787417.293997965287417 ], [ 400489.318413021392189, 3787417.293997965287417 ] ] ] } },
{ "type": "Feature", "properties": { "confidence": 0.41055572032928467, "class": 1 }, "geometry": { "type": "Polygon", "coordinates": [ [ [ 400682.807731434411835, 3787257.680569684598595 ], [ 400682.807731434411835, 3787257.070193286053836 ], [ 400682.50254323502304, 3787256.765005086548626 ], [ 400682.50254323502304, 3787256.459816887043417 ], [ 400680.36622583924327, 3787254.32349949143827 ], [ 400680.36622583924327, 3787254.01831129193306 ], [ 400680.061037639854476, 3787253.71312309242785 ], [ 400680.061037639854476, 3787253.102746693883091 ], [ 400680.36622583924327, 3787252.797558494377881 ], [ 400680.36622583924327, 3787252.187182095833123 ], [ 400680.671414038632065, 3787252.187182095833123 ], [ 400680.97660223802086, 3787251.881993896327913 ], [ 400682.197355035634246, 3787251.881993896327913 ], [ 400684.638860630744603, 3787254.32349949143827 ], [ 400684.638860630744603, 3787254.933875889983028 ], [ 400684.944048830133397, 3787255.239064089488238 ], [ 400684.944048830133397, 3787256.765005086548626 ], [ 400684.638860630744603, 3787257.070193286053836 ], [ 400684.333672431355808, 3787257.070193286053836 ], [ 400683.723296032578219, 3787257.680569684598595 ], [ 400682.807731434411835, 3787257.680569684598595 ] ] ] } },
{ "type": "Feature", "properties": { "confidence": 0.33725816011428833, "class": 1 }, "geometry": { "type": "Polygon", "coordinates": [ [ [ 400552.187182095600292, 3787311.393692777026445 ], [ 400551.881993896211497, 3787311.088504577986896 ], [ 400551.576805696822703, 3787311.088504577986896 ], [ 400551.576805696822703, 3787310.783316378481686 ], [ 400551.271617497433908, 3787310.478128178976476 ], [ 400551.271617497433908, 3787309.257375381421298 ], [ 400552.492370294989087, 3787308.036622583866119 ], [ 400553.102746693766676, 3787308.036622583866119 ], [ 400553.40793489315547, 3787307.731434384360909 ], [ 400554.628687690768857, 3787307.731434384360909 ], [ 400554.933875890157651, 3787308.036622583866119 ], [ 400554.933875890157651, 3787308.646998982876539 ], [ 400555.239064089546446, 3787308.952187181916088 ], [ 400555.239064089546446, 3787309.257375381421298 ], [ 400554.933875890157651, 3787309.562563580926508 ], [ 400554.933875890157651, 3787310.478128178976476 ], [ 400554.323499491380062, 3787311.088504577986896 ], [ 400552.492370294989087, 3787311.088504577986896 ], [ 400552.187182095600292, 3787311.393692777026445 ] ] ] } },
{ "type": "Feature", "properties": { "confidence": 0.33666029572486877, "class": 1 }, "geometry": { "type": "Polygon", "coordinates": [ [ [ 400464.598168870783411, 3787295.523906408809125 ], [ 400464.292980671394616, 3787295.218718209769577 ], [ 400463.987792472005822, 3787295.218718209769577 ], [ 400463.682604272617027, 3787294.913530010264367 ], [ 400463.377416073228233, 3787294.913530010264367 ], [ 400463.377416073228233, 3787294.608341810759157 ], [ 400463.072227873839438, 3787294.303153611253947 ], [ 400463.072227873839438, 3787292.47202441515401 ], [ 400467.650050864671357, 3787292.47202441515401 ], [ 400467.650050864671357, 3787293.387589013203979 ], [ 400467.344862665282562, 3787293.692777212709188 ], [ 400467.344862665282562, 3787293.997965412214398 ], [ 400466.429298067116179, 3787294.913530010264367 ], [ 400466.124109867727384, 3787294.913530010264367 ], [ 400465.818921668338589, 3787295.218718209769577 ], [ 400465.208545269561, 3787295.218718209769577 ], [ 400464.903357070172206, 3787295.523906408809125 ], [ 400464.598168870783411, 3787295.523906408809125 ] ] ] } },
{ "type": "Feature", "properties": { "confidence": 0.32954534888267517, "class": 1 }, "geometry": { "type": "Polygon", "coordinates": [ [ [ 400505.493387588998303, 3787538.758901322260499 ], [ 400504.883011190220714, 3787538.14852492371574 ], [ 400504.577822990831919, 3787538.14852492371574 ], [ 400504.577822990831919, 3787537.843336724210531 ], [ 400504.272634791443124, 3787537.538148524705321 ], [ 400504.272634791443124, 3787537.232960325665772 ], [ 400503.96744659205433, 3787536.927772126160562 ], [ 400503.96744659205433, 3787535.707019328605384 ], [ 400504.272634791443124, 3787535.401831129100174 ], [ 400504.272634791443124, 3787535.096642929594964 ], [ 400504.883011190220714, 3787534.486266531050205 ], [ 400505.188199389609508, 3787534.486266531050205 ], [ 400505.493387588998303, 3787534.181078331544995 ], [ 400505.493387588998303, 3787533.875890132039785 ], [ 400505.798575788387097, 3787533.570701933000237 ], [ 400506.103763987775892, 3787533.570701933000237 ], [ 400506.714140386553481, 3787532.960325533989817 ], [ 400507.32451678533107, 3787532.960325533989817 ], [ 400507.629704984719865, 3787532.655137334484607 ], [ 400509.460834181052633, 3787532.655137334484607 ], [ 400509.766022380441427, 3787532.960325533989817 ], [ 400511.291963377443608, 3787532.960325533989817 ], [ 400511.597151576832402, 3787532.655137334484607 ], [ 400512.512716174998786, 3787532.655137334484607 ], [ 400512.817904374387581, 3787532.349949135445058 ], [ 400513.733468972553965, 3787532.349949135445058 ], [ 400514.038657171942759, 3787532.655137334484607 ], [ 400515.259409969497938, 3787532.655137334484607 ], [ 400515.869786368275527, 3787533.265513733495027 ], [ 400515.869786368275527, 3787534.791454730555415 ], [ 400515.259409969497938, 3787535.401831129100174 ], [ 400515.259409969497938, 3787535.707019328605384 ], [ 400514.954221770109143, 3787535.707019328605384 ], [ 400514.343845371331554, 3787536.317395727150142 ], [ 400513.733468972553965, 3787536.317395727150142 ], [ 400513.42828077316517, 3787536.622583926655352 ], [ 400513.123092573776376, 3787536.622583926655352 ], [ 400512.817904374387581, 3787536.927772126160562 ], [ 400511.902339776221197, 3787536.927772126160562 ], [ 400511.597151576832402, 3787537.232960325665772 ], [ 400511.291963377443608, 3787537.232960325665772 ], [ 400510.986775178054813, 3787537.538148524705321 ], [ 400510.071210579830222, 3787537.538148524705321 ], [ 400509.766022380441427, 3787537.843336724210531 ], [ 400509.460834181052633, 3787537.843336724210531 ], [ 400509.155645981663838, 3787538.14852492371574 ], [ 400508.240081383497454, 3787538.14852492371574 ], [ 400507.93489318410866, 3787538.45371312322095 ], [ 400507.629704984719865, 3787538.45371312322095 ], [ 400507.32451678533107, 3787538.758901322260499 ], [ 400505.493387588998303, 3787538.758901322260499 ] ] ] } },
{ "type": "Feature", "properties": { "confidence": 0.31712406873703003, "class": 1 }, "geometry": { "type": "Polygon", "coordinates": [ [ [ 400320.854526958311908, 3787616.581892166752368 ], [ 400320.549338758923113, 3787616.276703967247158 ], [ 400320.244150559534319, 3787616.276703967247158 ], [ 400319.938962360145524, 3787615.97151576820761 ], [ 400319.938962360145524, 3787615.36113936919719 ], [ 400319.63377416075673, 3787615.05595116969198 ], [ 400319.63377416075673, 3787611.393692777026445 ], [ 400319.328585961367935, 3787611.088504577986896 ], [ 400319.328585961367935, 3787607.426246185321361 ], [ 400319.63377416075673, 3787607.121057985816151 ], [ 400319.63377416075673, 3787606.815869786310941 ], [ 400319.938962360145524, 3787606.510681586805731 ], [ 400320.854526958311908, 3787606.510681586805731 ], [ 400321.464903357089497, 3787607.121057985816151 ], [ 400321.770091556478292, 3787607.121057985816151 ], [ 400322.380467955255881, 3787607.731434384360909 ], [ 400322.380467955255881, 3787608.341810783371329 ], [ 400322.685656154644676, 3787608.646998982876539 ], [ 400322.685656154644676, 3787609.257375381421298 ], [ 400322.99084435403347, 3787609.562563580926508 ], [ 400322.99084435403347, 3787611.393692777026445 ], [ 400323.296032553422265, 3787611.698880976531655 ], [ 400323.296032553422265, 3787612.004069176036865 ], [ 400323.601220752811059, 3787612.309257375542074 ], [ 400323.601220752811059, 3787612.614445574581623 ], [ 400323.906408952199854, 3787612.919633774086833 ], [ 400323.906408952199854, 3787614.140386571642011 ], [ 400323.601220752811059, 3787614.445574771147221 ], [ 400323.601220752811059, 3787614.750762970652431 ], [ 400322.99084435403347, 3787615.36113936919719 ], [ 400322.99084435403347, 3787615.6663275687024 ], [ 400322.075279755867086, 3787616.581892166752368 ], [ 400320.854526958311908, 3787616.581892166752368 ] ] ] } },
{ "type": "Feature", "properties": { "confidence": 0.3049982488155365, "class": 1 }, "geometry": { "type": "Polygon", "coordinates": [ [ [ 400467.650050864671357, 3787591.86164801614359 ], [ 400467.344862665282562, 3787591.556459817104042 ], [ 400466.734486266504973, 3787591.556459817104042 ], [ 400466.429298067116179, 3787591.251271617598832 ], [ 400466.429298067116179, 3787590.946083418093622 ], [ 400466.124109867727384, 3787590.640895218588412 ], [ 400466.124109867727384, 3787590.335707019548863 ], [ 400465.818921668338589, 3787590.030518820043653 ], [ 400466.124109867727384, 3787589.725330620538443 ], [ 400466.124109867727384, 3787588.199389623478055 ], [ 400466.734486266504973, 3787587.589013224933296 ], [ 400466.734486266504973, 3787587.283825025428087 ], [ 400467.039674465893768, 3787587.283825025428087 ], [ 400469.786368260451127, 3787584.53713123081252 ], [ 400470.091556459839921, 3787584.53713123081252 ], [ 400470.701932858617511, 3787583.926754832267761 ], [ 400471.007121058006305, 3787583.926754832267761 ], [ 400471.3123092573951, 3787583.621566632762551 ], [ 400472.533062054950278, 3787583.621566632762551 ], [ 400472.533062054950278, 3787585.757884028367698 ], [ 400472.227873855561484, 3787586.063072227872908 ], [ 400472.227873855561484, 3787586.978636825922877 ], [ 400471.922685656172689, 3787587.283825025428087 ], [ 400471.922685656172689, 3787587.894201424438506 ], [ 400471.3123092573951, 3787588.504577822983265 ], [ 400471.3123092573951, 3787588.809766022488475 ], [ 400471.007121058006305, 3787589.114954221993685 ], [ 400471.007121058006305, 3787590.335707019548863 ], [ 400470.091556459839921, 3787591.251271617598832 ], [ 400469.786368260451127, 3787591.251271617598832 ], [ 400469.481180061062332, 3787591.556459817104042 ], [ 400468.260427263507154, 3787591.556459817104042 ], [ 400467.955239064118359, 3787591.86164801614359 ], [ 400467.650050864671357, 3787591.86164801614359 ] ] ] } },
{ "type": "Feature", "properties": { "confidence": 0.27020439505577087, "class": 1 }, "geometry": { "type": "Polygon", "coordinates": [ [ [ 400528.992878941993695, 3787211.597151577007025 ], [ 400528.6876907426049, 3787211.291963377501816 ], [ 400528.382502543216106, 3787211.291963377501816 ], [ 400528.382502543216106, 3787210.681586978491396 ], [ 400528.077314343827311, 3787210.376398779451847 ], [ 400528.077314343827311, 3787209.460834180936217 ], [ 400527.772126144438516, 3787209.155645981896669 ], [ 400527.772126144438516, 3787207.32451678533107 ], [ 400527.466937945049722, 3787207.019328585825861 ], [ 400527.466937945049722, 3787206.103763987775892 ], [ 400528.077314343827311, 3787205.493387589231133 ], [ 400528.077314343827311, 3787205.188199389725924 ], [ 400528.992878941993695, 3787204.272634791675955 ], [ 400529.298067141382489, 3787204.272634791675955 ], [ 400530.213631739548873, 3787203.357070193160325 ], [ 400532.044760935881641, 3787203.357070193160325 ], [ 400532.349949135328643, 3787203.662258392665535 ], [ 400532.655137334717438, 3787203.662258392665535 ], [ 400532.960325534106232, 3787203.967446592170745 ], [ 400533.265513733495027, 3787203.967446592170745 ], [ 400533.570701932883821, 3787204.272634791675955 ], [ 400534.181078331661411, 3787204.272634791675955 ], [ 400534.791454730439, 3787204.883011190220714 ], [ 400534.791454730439, 3787207.019328585825861 ], [ 400534.486266531050205, 3787207.32451678533107 ], [ 400534.486266531050205, 3787208.240081383381039 ], [ 400534.181078331661411, 3787208.545269582886249 ], [ 400534.181078331661411, 3787208.850457782391459 ], [ 400533.875890132272616, 3787209.155645981896669 ], [ 400533.875890132272616, 3787209.460834180936217 ], [ 400533.265513733495027, 3787210.071210579946637 ], [ 400533.265513733495027, 3787210.376398779451847 ], [ 400532.960325534106232, 3787210.376398779451847 ], [ 400532.655137334717438, 3787210.681586978491396 ], [ 400532.655137334717438, 3787210.986775177996606 ], [ 400532.044760935881641, 3787210.986775177996606 ], [ 400531.739572736492846, 3787211.291963377501816 ], [ 400531.129196337715257, 3787211.291963377501816 ], [ 400530.824008138326462, 3787211.597151577007025 ], [ 400528.992878941993695, 3787211.597151577007025 ] ] ] } }
]
}
