{
"type": "FeatureCollection",
"name": "cell_00485_pre",
"crs": { "type": "name", "properties": { "name": "urn:ogc:def:crs:EPSG::32611" } },
"features": [
{ "type": "Feature", "properties": { "confidence": 0.96821725368499756, "class": 1, "regularized": null }, "geometry": { "type": "Polygon", "coordinates": [ [ [ 401679.552390640892554, 3782612.716174974571913 ], [ 401679.247202441503759, 3782612.410986775066704 ], [ 401678.942014242114965, 3782612.410986775066704 ], [ 401678.63682604272617, 3782612.105798575561494 ], [ 401678.331637843337376, 3782612.105798575561494 ], [ 401677.721261444559786, 3782611.495422177016735 ], [ 401677.416073245170992, 3782611.495422177016735 ], [ 401676.805696846393403, 3782610.885045778006315 ], [ 401676.805696846393403, 3782610.579857578966767 ], [ 401676.500508647004608, 3782610.274669379461557 ], [ 401676.500508647004608, 3782609.664292980451137 ], [ 401681.688708036614116, 3782609.664292980451137 ], [ 401681.688708036614116, 3782611.190233977511525 ], [ 401681.993896236002911, 3782611.495422177016735 ], [ 401681.993896236002911, 3782612.410986775066704 ], [ 401681.688708036614116, 3782612.410986775066704 ], [ 401681.383519837225322, 3782612.716174974571913 ], [ 401679.552390640892554, 3782612.716174974571913 ] ] ] } },
{ "type": "Feature", "properties": { "confidence": 0.96737021207809448, "class": 1, "regularized": null }, "geometry": { "type": "Polygon", "coordinates": [ [ [ 401763.173957273655105, 3782957.884028484113514 ], [ 401763.173957273655105, 3782957.578840285073966 ], [ 401762.563580874877516, 3782956.968463886063546 ], [ 401762.563580874877516, 3782956.663275686558336 ], [ 401761.953204476099927, 3782956.052899288013577 ], [ 401761.953204476099927, 3782955.442522889003158 ], [ 401761.648016276711132, 3782955.137334689497948 ], [ 401761.648016276711132, 3782953.916581891942769 ], [ 401762.868769074266311, 3782953.916581891942769 ], [ 401763.173957273655105, 3782954.221770091447979 ], [ 401764.699898270599078, 3782954.221770091447979 ], [ 401765.005086469987873, 3782953.916581891942769 ], [ 401765.920651068154257, 3782953.916581891942769 ], [ 401766.225839267543051, 3782953.611393692903221 ], [ 401768.056968463875819, 3782953.611393692903221 ], [ 401768.362156663264614, 3782953.916581891942769 ], [ 401768.362156663264614, 3782956.052899288013577 ], [ 401767.751780264487024, 3782956.663275686558336 ], [ 401766.836215666320641, 3782956.663275686558336 ], [ 401766.531027466931846, 3782956.968463886063546 ], [ 401766.225839267543051, 3782956.968463886063546 ], [ 401765.920651068154257, 3782957.273652085568756 ], [ 401765.615462868765462, 3782957.273652085568756 ], [ 401765.005086469987873, 3782957.884028484113514 ], [ 401763.173957273655105, 3782957.884028484113514 ] ] ] } },
{ "type": "Feature", "properties": { "confidence": 0.9655420184135437, "class": 1, "regularized": null }, "geometry": { "type": "Polygon", "coordinates": [ [ [ 401614.242115971515886, 3782853.20447609340772 ], [ 401613.631739572738297, 3782852.594099694862962 ], [ 401613.326551373349503, 3782852.594099694862962 ], [ 401612.410986775183119, 3782851.678535096812993 ], [ 401612.410986775183119, 3782850.762970498297364 ], [ 401612.105798575794324, 3782850.457782299257815 ], [ 401612.105798575794324, 3782849.847405900247395 ], [ 401611.80061037640553, 3782849.542217700742185 ], [ 401611.80061037640553, 3782848.321464903187007 ], [ 401612.105798575794324, 3782848.016276704147458 ], [ 401612.105798575794324, 3782847.711088504642248 ], [ 401612.716174974571913, 3782847.100712105631828 ], [ 401613.021363173960708, 3782847.100712105631828 ], [ 401613.631739572738297, 3782846.49033570708707 ], [ 401613.936927772127092, 3782846.49033570708707 ], [ 401614.547304170904681, 3782845.87995930807665 ], [ 401614.852492370293476, 3782845.87995930807665 ], [ 401615.15768056968227, 3782845.574771109037101 ], [ 401616.073245167848654, 3782845.574771109037101 ], [ 401616.378433367237449, 3782845.269582909531891 ], [ 401618.209562563570216, 3782845.269582909531891 ], [ 401619.1251271617366, 3782846.18514750758186 ], [ 401619.1251271617366, 3782846.79552390659228 ], [ 401619.430315361125395, 3782847.100712105631828 ], [ 401619.430315361125395, 3782848.016276704147458 ], [ 401619.1251271617366, 3782848.321464903187007 ], [ 401619.1251271617366, 3782851.678535096812993 ], [ 401618.819938962347806, 3782851.678535096812993 ], [ 401618.209562563570216, 3782852.288911495357752 ], [ 401617.904374364181422, 3782852.288911495357752 ], [ 401617.599186164792627, 3782852.594099694862962 ], [ 401616.988809766015038, 3782852.594099694862962 ], [ 401616.378433367237449, 3782853.20447609340772 ], [ 401614.242115971515886, 3782853.20447609340772 ] ] ] } },
{ "type": "Feature", "properties": { "confidence": 0.96306395530700684, "class": 1, "regularized": null }, "geometry": { "type": "Polygon", "coordinates": [ [ [ 401543.438453713140916, 3782848.321464903187007 ], [ 401543.133265513752121, 3782848.016276704147458 ], [ 401542.828077314363327, 3782848.016276704147458 ], [ 401540.996948118030559, 3782846.18514750758186 ], [ 401540.996948118030559, 3782845.87995930807665 ], [ 401540.691759918641765, 3782845.574771109037101 ], [ 401540.691759918641765, 3782845.269582909531891 ], [ 401540.996948118030559, 3782844.964394710026681 ], [ 401540.996948118030559, 3782844.048830111976713 ], [ 401551.373346897249576, 3782844.048830111976713 ], [ 401551.373346897249576, 3782845.574771109037101 ], [ 401551.068158697860781, 3782845.87995930807665 ], [ 401551.068158697860781, 3782847.100712105631828 ], [ 401550.762970498471987, 3782847.100712105631828 ], [ 401550.457782299083192, 3782847.405900305137038 ], [ 401550.152594099694397, 3782847.405900305137038 ], [ 401549.847405900305603, 3782847.711088504642248 ], [ 401546.490335707028862, 3782847.711088504642248 ], [ 401546.185147507640067, 3782848.016276704147458 ], [ 401544.964394710084889, 3782848.016276704147458 ], [ 401544.659206510696094, 3782848.321464903187007 ], [ 401543.438453713140916, 3782848.321464903187007 ] ] ] } },
{ "type": "Feature", "properties": { "confidence": 0.95917677879333496, "class": 1, "regularized": null }, "geometry": { "type": "Polygon", "coordinates": [ [ [ 401657.578840284841135, 3782672.227873855736107 ], [ 401657.273652085452341, 3782671.922685656230897 ], [ 401656.968463886063546, 3782671.922685656230897 ], [ 401656.663275686674751, 3782671.617497456725687 ], [ 401656.663275686674751, 3782671.312309257220477 ], [ 401656.358087487285957, 3782671.007121058180928 ], [ 401656.358087487285957, 3782670.091556459665298 ], [ 401656.663275686674751, 3782670.091556459665298 ], [ 401656.968463886063546, 3782669.78636826062575 ], [ 401656.968463886063546, 3782669.48118006112054 ], [ 401657.578840284841135, 3782668.87080366211012 ], [ 401659.715157680562697, 3782668.87080366211012 ], [ 401660.020345879951492, 3782668.565615463070571 ], [ 401660.935910478117876, 3782668.565615463070571 ], [ 401661.24109867750667, 3782668.260427263565361 ], [ 401661.85147507628426, 3782668.260427263565361 ], [ 401662.156663275673054, 3782667.955239064060152 ], [ 401662.461851475061849, 3782667.955239064060152 ], [ 401662.767039674450643, 3782667.650050864554942 ], [ 401663.987792472005822, 3782667.650050864554942 ], [ 401663.987792472005822, 3782668.565615463070571 ], [ 401663.377416073228233, 3782669.17599186161533 ], [ 401663.377416073228233, 3782669.48118006112054 ], [ 401663.072227873839438, 3782669.48118006112054 ], [ 401662.767039674450643, 3782669.78636826062575 ], [ 401662.767039674450643, 3782670.091556459665298 ], [ 401661.24109867750667, 3782671.617497456725687 ], [ 401660.630722278729081, 3782671.617497456725687 ], [ 401660.325534079340287, 3782671.922685656230897 ], [ 401659.409969481173903, 3782671.922685656230897 ], [ 401659.104781281785108, 3782672.227873855736107 ], [ 401657.578840284841135, 3782672.227873855736107 ] ] ] } },
{ "type": "Feature", "properties": { "confidence": 0.95316803455352783, "class": 1, "regularized": null }, "geometry": { "type": "Polygon", "coordinates": [ [ [ 401644.760935910453554, 3782865.717192268464714 ], [ 401644.760935910453554, 3782864.801627670414746 ], [ 401643.84537131228717, 3782863.886063072364777 ], [ 401643.234994913509581, 3782863.886063072364777 ], [ 401642.624618514731992, 3782863.275686673354357 ], [ 401642.319430315343197, 3782863.275686673354357 ], [ 401641.403865717176814, 3782862.360122075304389 ], [ 401641.403865717176814, 3782860.834181078244001 ], [ 401641.709053916565608, 3782860.528992878738791 ], [ 401641.709053916565608, 3782860.223804679699242 ], [ 401642.014242115954403, 3782859.918616480194032 ], [ 401642.319430315343197, 3782859.918616480194032 ], [ 401642.624618514731992, 3782859.613428280688822 ], [ 401642.929806714120787, 3782859.613428280688822 ], [ 401643.234994913509581, 3782859.308240081183612 ], [ 401644.760935910453554, 3782859.308240081183612 ], [ 401644.760935910453554, 3782859.613428280688822 ], [ 401645.066124109842349, 3782859.918616480194032 ], [ 401646.286876907397527, 3782859.918616480194032 ], [ 401646.286876907397527, 3782860.223804679699242 ], [ 401646.59206510684453, 3782860.528992878738791 ], [ 401647.202441505622119, 3782860.528992878738791 ], [ 401647.812817904399708, 3782861.139369277749211 ], [ 401647.812817904399708, 3782864.801627670414746 ], [ 401647.507629705010913, 3782865.106815869919956 ], [ 401647.202441505622119, 3782865.106815869919956 ], [ 401646.897253306233324, 3782865.412004068959504 ], [ 401645.981688708008733, 3782865.412004068959504 ], [ 401645.676500508619938, 3782865.717192268464714 ], [ 401644.760935910453554, 3782865.717192268464714 ] ] ] } },
{ "type": "Feature", "properties": { "confidence": 0.93034416437149048, "class": 1, "regularized": null }, "geometry": { "type": "Polygon", "coordinates": [ [ [ 401774.465920651040506, 3782944.760935910511762 ], [ 401773.245167853485327, 3782943.540183112956583 ], [ 401773.245167853485327, 3782939.267548321280628 ], [ 401773.550356052874122, 3782938.96236012224108 ], [ 401773.550356052874122, 3782938.65717192273587 ], [ 401773.855544252262916, 3782938.65717192273587 ], [ 401774.160732451651711, 3782938.35198372323066 ], [ 401775.991861648042686, 3782938.35198372323066 ], [ 401776.297049847431481, 3782938.65717192273587 ], [ 401776.90742624620907, 3782938.65717192273587 ], [ 401777.212614445597865, 3782938.96236012224108 ], [ 401777.822990844375454, 3782938.96236012224108 ], [ 401778.433367243153043, 3782939.572736520785838 ], [ 401778.433367243153043, 3782939.877924720291048 ], [ 401779.348931841319427, 3782940.793489318341017 ], [ 401779.654120040708221, 3782940.793489318341017 ], [ 401779.959308240097016, 3782941.098677517846227 ], [ 401780.264496439485811, 3782941.098677517846227 ], [ 401780.569684638874605, 3782941.403865717351437 ], [ 401780.569684638874605, 3782942.929806713946164 ], [ 401780.264496439485811, 3782943.234994913451374 ], [ 401780.264496439485811, 3782943.540183112956583 ], [ 401779.959308240097016, 3782943.845371312461793 ], [ 401779.654120040708221, 3782943.845371312461793 ], [ 401779.348931841319427, 3782944.150559511501342 ], [ 401779.043743641930632, 3782944.150559511501342 ], [ 401778.738555442541838, 3782944.455747711006552 ], [ 401777.212614445597865, 3782944.455747711006552 ], [ 401776.90742624620907, 3782944.760935910511762 ], [ 401774.465920651040506, 3782944.760935910511762 ] ] ] } },
{ "type": "Feature", "properties": { "confidence": 0.92669010162353516, "class": 1, "regularized": null }, "geometry": { "type": "Polygon", "coordinates": [ [ [ 401730.213631739548873, 3782616.683621566742659 ], [ 401729.908443540160079, 3782616.378433367237449 ], [ 401729.603255340771284, 3782616.378433367237449 ], [ 401729.298067141382489, 3782616.073245167732239 ], [ 401728.992878941993695, 3782616.073245167732239 ], [ 401728.6876907426049, 3782615.76805696869269 ], [ 401727.772126144438516, 3782615.76805696869269 ], [ 401727.466937945049722, 3782615.46286876918748 ], [ 401727.466937945049722, 3782614.85249237017706 ], [ 401725.940996948105749, 3782613.326551373116672 ], [ 401725.940996948105749, 3782613.021363174077123 ], [ 401725.635808748716954, 3782612.716174974571913 ], [ 401725.635808748716954, 3782609.969481179956347 ], [ 401725.940996948105749, 3782609.664292980451137 ], [ 401727.466937945049722, 3782609.664292980451137 ], [ 401727.772126144438516, 3782609.359104781411588 ], [ 401728.992878941993695, 3782609.359104781411588 ], [ 401729.298067141382489, 3782609.664292980451137 ], [ 401729.603255340771284, 3782609.664292980451137 ], [ 401729.908443540160079, 3782609.969481179956347 ], [ 401730.213631739548873, 3782609.969481179956347 ], [ 401730.518819938937668, 3782610.274669379461557 ], [ 401730.824008138326462, 3782610.274669379461557 ], [ 401731.129196337715257, 3782610.579857578966767 ], [ 401731.434384537104052, 3782610.579857578966767 ], [ 401732.044760935881641, 3782611.190233977511525 ], [ 401732.044760935881641, 3782611.495422177016735 ], [ 401732.349949135328643, 3782611.800610376521945 ], [ 401732.655137334717438, 3782611.800610376521945 ], [ 401732.655137334717438, 3782612.716174974571913 ], [ 401732.960325534106232, 3782613.021363174077123 ], [ 401732.960325534106232, 3782615.46286876918748 ], [ 401732.655137334717438, 3782615.76805696869269 ], [ 401731.739572736492846, 3782615.76805696869269 ], [ 401731.434384537104052, 3782616.073245167732239 ], [ 401731.129196337715257, 3782616.073245167732239 ], [ 401730.824008138326462, 3782616.378433367237449 ], [ 401730.518819938937668, 3782616.378433367237449 ], [ 401730.213631739548873, 3782616.683621566742659 ] ] ] } },
{ "type": "Feature", "properties": { "confidence": 0.92405843734741211, "class": 1, "regularized": null }, "geometry": { "type": "Polygon", "coordinates": [ [ [ 401675.584944048838224, 3782861.139369277749211 ], [ 401675.27975584944943, 3782860.834181078244001 ], [ 401675.27975584944943, 3782857.171922685578465 ], [ 401676.500508647004608, 3782855.951169888023287 ], [ 401676.805696846393403, 3782855.951169888023287 ], [ 401677.110885045782197, 3782855.645981688518077 ], [ 401677.416073245170992, 3782855.645981688518077 ], [ 401678.026449643948581, 3782855.035605289973319 ], [ 401678.63682604272617, 3782855.035605289973319 ], [ 401678.942014242114965, 3782854.730417090468109 ], [ 401679.552390640892554, 3782854.730417090468109 ], [ 401679.857578840281349, 3782855.035605289973319 ], [ 401680.162767039670143, 3782855.035605289973319 ], [ 401680.162767039670143, 3782855.340793489478528 ], [ 401680.467955239058938, 3782855.645981688518077 ], [ 401680.467955239058938, 3782855.951169888023287 ], [ 401680.773143438447732, 3782856.256358087528497 ], [ 401681.078331637836527, 3782856.256358087528497 ], [ 401681.383519837225322, 3782856.561546287033707 ], [ 401681.383519837225322, 3782856.866734486073256 ], [ 401681.688708036614116, 3782857.171922685578465 ], [ 401681.383519837225322, 3782857.477110885083675 ], [ 401681.383519837225322, 3782857.782299084588885 ], [ 401680.773143438447732, 3782858.392675483133644 ], [ 401680.773143438447732, 3782858.697863682638854 ], [ 401678.331637843337376, 3782861.139369277749211 ], [ 401675.584944048838224, 3782861.139369277749211 ] ] ] } },
{ "type": "Feature", "properties": { "confidence": 0.92269361019134521, "class": 1, "regularized": null }, "geometry": { "type": "Polygon", "coordinates": [ [ [ 401571.820956256357022, 3782501.017293998040259 ], [ 401571.515768056968227, 3782500.712105798535049 ], [ 401570.295015259413049, 3782500.712105798535049 ], [ 401569.684638860635459, 3782500.10172939999029 ], [ 401569.379450661246665, 3782500.10172939999029 ], [ 401568.769074262469076, 3782499.491353000979871 ], [ 401568.463886063080281, 3782499.491353000979871 ], [ 401568.158697863691486, 3782499.186164801474661 ], [ 401568.158697863691486, 3782498.880976602435112 ], [ 401567.548321464913897, 3782498.270600203424692 ], [ 401567.548321464913897, 3782497.965412003919482 ], [ 401566.327568667358719, 3782496.744659206364304 ], [ 401566.022380467969924, 3782496.744659206364304 ], [ 401565.412004069192335, 3782496.134282807819545 ], [ 401565.10681586980354, 3782496.134282807819545 ], [ 401564.801627670414746, 3782495.829094608314335 ], [ 401564.801627670414746, 3782493.997965412214398 ], [ 401566.937945066136308, 3782491.86164801614359 ], [ 401566.937945066136308, 3782491.556459817104042 ], [ 401567.853509664302692, 3782490.640895218588412 ], [ 401569.989827060024254, 3782490.640895218588412 ], [ 401570.295015259413049, 3782490.946083418093622 ], [ 401570.905391658190638, 3782490.946083418093622 ], [ 401570.905391658190638, 3782491.251271617598832 ], [ 401571.210579857579432, 3782491.556459817104042 ], [ 401571.515768056968227, 3782491.556459817104042 ], [ 401571.820956256357022, 3782491.86164801614359 ], [ 401571.820956256357022, 3782492.1668362156488 ], [ 401572.126144455745816, 3782492.47202441515401 ], [ 401572.431332655134611, 3782492.47202441515401 ], [ 401573.652085452689789, 3782493.692777212709188 ], [ 401574.262461851467378, 3782493.692777212709188 ], [ 401574.872838250244968, 3782494.303153611253947 ], [ 401574.872838250244968, 3782494.608341810759157 ], [ 401575.178026449633762, 3782494.913530010264367 ], [ 401575.178026449633762, 3782495.218718209769577 ], [ 401574.872838250244968, 3782495.523906408809125 ], [ 401574.872838250244968, 3782497.965412003919482 ], [ 401574.567650050856173, 3782498.270600203424692 ], [ 401574.567650050856173, 3782498.575788402929902 ], [ 401572.126144455745816, 3782501.017293998040259 ], [ 401571.820956256357022, 3782501.017293998040259 ] ] ] } },
{ "type": "Feature", "properties": { "confidence": 0.89089304208755493, "class": 1, "regularized": null }, "geometry": { "type": "Polygon", "coordinates": [ [ [ 401740.284842319437303, 3782660.935910478234291 ], [ 401739.979654120048508, 3782660.630722278729081 ], [ 401739.674465920659713, 3782660.630722278729081 ], [ 401739.369277721270919, 3782660.325534079223871 ], [ 401738.453713123104535, 3782660.325534079223871 ], [ 401738.14852492371574, 3782660.020345880184323 ], [ 401737.843336724326946, 3782660.020345880184323 ], [ 401737.843336724326946, 3782658.494404883123934 ], [ 401738.14852492371574, 3782658.494404883123934 ], [ 401738.453713123104535, 3782658.189216683618724 ], [ 401738.75890132249333, 3782658.189216683618724 ], [ 401739.064089521882124, 3782657.884028484113514 ], [ 401741.505595116992481, 3782657.884028484113514 ], [ 401741.810783316381276, 3782658.189216683618724 ], [ 401742.11597151577007, 3782658.189216683618724 ], [ 401742.421159715158865, 3782658.494404883123934 ], [ 401742.726347914547659, 3782658.494404883123934 ], [ 401742.726347914547659, 3782660.325534079223871 ], [ 401742.421159715158865, 3782660.325534079223871 ], [ 401742.11597151577007, 3782660.630722278729081 ], [ 401741.810783316381276, 3782660.630722278729081 ], [ 401741.505595116992481, 3782660.935910478234291 ], [ 401740.284842319437303, 3782660.935910478234291 ] ] ] } },
{ "type": "Feature", "properties": { "confidence": 0.88242876529693604, "class": 1, "regularized": null }, "geometry": { "type": "Polygon", "coordinates": [ [ [ 401527.568667344865389, 3782559.613428280688822 ], [ 401527.263479145476595, 3782559.308240081183612 ], [ 401526.347914547310211, 3782559.308240081183612 ], [ 401526.347914547310211, 3782559.003051882144064 ], [ 401526.042726347921416, 3782558.697863682638854 ], [ 401526.042726347921416, 3782557.477110885083675 ], [ 401526.347914547310211, 3782557.171922685578465 ], [ 401526.347914547310211, 3782555.340793489478528 ], [ 401526.653102746699005, 3782555.035605289973319 ], [ 401526.653102746699005, 3782554.425228890962899 ], [ 401527.263479145476595, 3782553.81485249241814 ], [ 401528.179043743642978, 3782553.81485249241814 ], [ 401528.484231943031773, 3782554.12004069192335 ], [ 401528.789420142420568, 3782554.12004069192335 ], [ 401529.094608341809362, 3782554.425228890962899 ], [ 401529.399796541198157, 3782554.425228890962899 ], [ 401529.399796541198157, 3782554.730417090468109 ], [ 401529.704984740586951, 3782555.035605289973319 ], [ 401530.010172939975746, 3782555.035605289973319 ], [ 401530.010172939975746, 3782555.951169888023287 ], [ 401530.315361139364541, 3782556.256358087528497 ], [ 401530.315361139364541, 3782557.477110885083675 ], [ 401530.010172939975746, 3782557.782299084588885 ], [ 401530.010172939975746, 3782558.087487283628434 ], [ 401528.789420142420568, 3782559.308240081183612 ], [ 401528.179043743642978, 3782559.308240081183612 ], [ 401527.873855544254184, 3782559.613428280688822 ], [ 401527.568667344865389, 3782559.613428280688822 ] ] ] } },
{ "type": "Feature", "properties": { "confidence": 0.86733901500701904, "class": 1, "regularized": null }, "geometry": { "type": "Polygon", "coordinates": [ [ [ 401834.587995930807665, 3782949.643947100732476 ], [ 401834.28280773141887, 3782949.338758901227266 ], [ 401833.672431332641281, 3782949.338758901227266 ], [ 401833.367243133252487, 3782949.033570701722056 ], [ 401833.062054933863692, 3782949.033570701722056 ], [ 401832.756866734474897, 3782948.728382502682507 ], [ 401832.146490335697308, 3782948.728382502682507 ], [ 401831.841302136308514, 3782948.423194303177297 ], [ 401831.536113936919719, 3782948.423194303177297 ], [ 401830.92573753814213, 3782947.812817904166877 ], [ 401830.92573753814213, 3782945.98168870806694 ], [ 401830.620549338753335, 3782945.67650050856173 ], [ 401830.620549338753335, 3782944.760935910511762 ], [ 401830.92573753814213, 3782944.455747711006552 ], [ 401830.92573753814213, 3782943.845371312461793 ], [ 401831.230925737530924, 3782943.845371312461793 ], [ 401831.841302136308514, 3782943.234994913451374 ], [ 401832.451678535086103, 3782943.234994913451374 ], [ 401832.756866734474897, 3782942.929806713946164 ], [ 401833.672431332641281, 3782942.929806713946164 ], [ 401833.977619532030076, 3782943.234994913451374 ], [ 401833.977619532030076, 3782944.455747711006552 ], [ 401834.89318413019646, 3782945.37131230905652 ], [ 401837.029501525918022, 3782945.37131230905652 ], [ 401837.334689725306816, 3782945.67650050856173 ], [ 401837.639877924695611, 3782945.67650050856173 ], [ 401837.945066124084406, 3782945.98168870806694 ], [ 401837.945066124084406, 3782946.28687690757215 ], [ 401838.2502543234732, 3782946.592065106611699 ], [ 401838.2502543234732, 3782947.202441505622119 ], [ 401837.945066124084406, 3782947.507629705127329 ], [ 401837.945066124084406, 3782948.423194303177297 ], [ 401837.639877924695611, 3782948.423194303177297 ], [ 401837.029501525918022, 3782949.033570701722056 ], [ 401836.724313326529227, 3782949.033570701722056 ], [ 401836.419125127140433, 3782949.338758901227266 ], [ 401836.113936927751638, 3782949.338758901227266 ], [ 401835.808748728362843, 3782949.643947100732476 ], [ 401834.587995930807665, 3782949.643947100732476 ] ] ] } },
{ "type": "Feature", "properties": { "confidence": 0.84620356559753418, "class": 1, "regularized": null }, "geometry": { "type": "Polygon", "coordinates": [ [ [ 401517.802644964365754, 3782440.590030518826097 ], [ 401517.49745676497696, 3782440.284842319320887 ], [ 401517.192268565588165, 3782440.284842319320887 ], [ 401517.192268565588165, 3782436.927772126160562 ], [ 401517.49745676497696, 3782436.927772126160562 ], [ 401518.107833163812757, 3782436.317395727150142 ], [ 401518.107833163812757, 3782436.012207528110594 ], [ 401518.413021363201551, 3782435.707019328605384 ], [ 401518.718209562590346, 3782435.707019328605384 ], [ 401519.02339776197914, 3782435.401831129100174 ], [ 401520.549338758923113, 3782435.401831129100174 ], [ 401520.854526958311908, 3782435.096642929594964 ], [ 401521.159715157700703, 3782435.401831129100174 ], [ 401521.159715157700703, 3782438.14852492371574 ], [ 401520.854526958311908, 3782438.45371312322095 ], [ 401520.854526958311908, 3782439.064089521765709 ], [ 401520.549338758923113, 3782439.369277721270919 ], [ 401520.549338758923113, 3782439.674465920776129 ], [ 401519.63377416075673, 3782440.590030518826097 ], [ 401517.802644964365754, 3782440.590030518826097 ] ] ] } },
{ "type": "Feature", "properties": { "confidence": 0.81592196226119995, "class": 1, "regularized": null }, "geometry": { "type": "Polygon", "coordinates": [ [ [ 401764.089521871821489, 3782918.514750762842596 ], [ 401763.784333672432695, 3782918.209562563803047 ], [ 401760.732451678544749, 3782918.209562563803047 ], [ 401760.427263479155954, 3782917.904374364297837 ], [ 401760.427263479155954, 3782916.073245167732239 ], [ 401760.732451678544749, 3782915.76805696869269 ], [ 401760.732451678544749, 3782913.936927772127092 ], [ 401761.648016276711132, 3782913.021363174077123 ], [ 401761.953204476099927, 3782913.021363174077123 ], [ 401762.258392675488722, 3782912.716174974571913 ], [ 401762.868769074266311, 3782912.716174974571913 ], [ 401763.173957273655105, 3782913.021363174077123 ], [ 401764.089521871821489, 3782913.021363174077123 ], [ 401764.394710071210284, 3782913.326551373116672 ], [ 401764.699898270599078, 3782913.326551373116672 ], [ 401765.005086469987873, 3782913.631739572621882 ], [ 401765.310274669376668, 3782913.631739572621882 ], [ 401765.920651068154257, 3782914.242115971632302 ], [ 401766.225839267543051, 3782914.242115971632302 ], [ 401766.531027466931846, 3782914.547304171137512 ], [ 401766.836215666320641, 3782914.547304171137512 ], [ 401767.141403865709435, 3782914.85249237017706 ], [ 401767.141403865709435, 3782915.15768056968227 ], [ 401767.44659206509823, 3782915.46286876918748 ], [ 401767.44659206509823, 3782917.904374364297837 ], [ 401767.141403865709435, 3782918.209562563803047 ], [ 401766.531027466931846, 3782918.209562563803047 ], [ 401766.225839267543051, 3782918.514750762842596 ], [ 401764.089521871821489, 3782918.514750762842596 ] ] ] } },
{ "type": "Feature", "properties": { "confidence": 0.81023693084716797, "class": 1, "regularized": null }, "geometry": { "type": "Polygon", "coordinates": [ [ [ 401520.244150559534319, 3782532.451678534969687 ], [ 401519.938962360145524, 3782532.146490335930139 ], [ 401519.63377416075673, 3782532.146490335930139 ], [ 401519.328585961367935, 3782531.841302136424929 ], [ 401519.328585961367935, 3782531.536113936919719 ], [ 401519.02339776197914, 3782531.230925737414509 ], [ 401519.328585961367935, 3782530.92573753837496 ], [ 401519.328585961367935, 3782529.399796541314572 ], [ 401519.63377416075673, 3782529.094608341809362 ], [ 401519.938962360145524, 3782529.094608341809362 ], [ 401520.854526958311908, 3782528.179043743759394 ], [ 401521.159715157700703, 3782528.179043743759394 ], [ 401521.770091556478292, 3782527.568667344748974 ], [ 401522.075279755867086, 3782527.568667344748974 ], [ 401522.380467955255881, 3782527.263479145243764 ], [ 401523.296032553422265, 3782527.263479145243764 ], [ 401523.601220752811059, 3782526.958290946204215 ], [ 401525.127161749755032, 3782526.958290946204215 ], [ 401525.432349949143827, 3782527.263479145243764 ], [ 401525.737538148532622, 3782527.263479145243764 ], [ 401525.737538148532622, 3782528.789420142304152 ], [ 401525.432349949143827, 3782529.094608341809362 ], [ 401525.432349949143827, 3782529.399796541314572 ], [ 401525.127161749755032, 3782529.399796541314572 ], [ 401524.516785350977443, 3782530.010172939859331 ], [ 401524.516785350977443, 3782530.315361139364541 ], [ 401524.211597151588649, 3782530.62054933886975 ], [ 401524.211597151588649, 3782531.230925737414509 ], [ 401523.906408952199854, 3782531.536113936919719 ], [ 401523.906408952199854, 3782531.841302136424929 ], [ 401523.601220752811059, 3782531.841302136424929 ], [ 401523.296032553422265, 3782532.146490335930139 ], [ 401522.380467955255881, 3782532.146490335930139 ], [ 401522.075279755867086, 3782532.451678534969687 ], [ 401520.244150559534319, 3782532.451678534969687 ] ] ] } },
{ "type": "Feature", "properties": { "confidence": 0.80366009473800659, "class": 1, "regularized": null }, "geometry": { "type": "Polygon", "coordinates": [ [ [ 401884.333672431355808, 3782609.969481179956347 ], [ 401884.028484231967013, 3782609.664292980451137 ], [ 401883.723296032578219, 3782609.664292980451137 ], [ 401883.723296032578219, 3782609.053916581906378 ], [ 401883.418107833189424, 3782608.748728382401168 ], [ 401883.418107833189424, 3782608.13835198385641 ], [ 401883.723296032578219, 3782607.8331637843512 ], [ 401883.723296032578219, 3782606.002034587785602 ], [ 401884.638860630744603, 3782605.086469989735633 ], [ 401884.638860630744603, 3782604.781281790230423 ], [ 401885.554425228910986, 3782603.865717192180455 ], [ 401887.690742624632549, 3782603.865717192180455 ], [ 401887.995930824021343, 3782604.170905391685665 ], [ 401888.606307222798932, 3782604.170905391685665 ], [ 401888.911495422187727, 3782604.476093591190875 ], [ 401888.911495422187727, 3782604.781281790230423 ], [ 401889.216683621576522, 3782605.086469989735633 ], [ 401889.216683621576522, 3782605.696846388746053 ], [ 401888.911495422187727, 3782606.002034587785602 ], [ 401888.911495422187727, 3782606.612410986796021 ], [ 401888.606307222798932, 3782606.917599186301231 ], [ 401888.606307222798932, 3782607.22278738534078 ], [ 401887.995930824021343, 3782607.8331637843512 ], [ 401887.995930824021343, 3782608.13835198385641 ], [ 401887.690742624632549, 3782608.443540182895958 ], [ 401887.690742624632549, 3782608.748728382401168 ], [ 401887.385554425243754, 3782609.053916581906378 ], [ 401887.385554425243754, 3782609.359104781411588 ], [ 401887.080366225854959, 3782609.359104781411588 ], [ 401886.775178026466165, 3782609.664292980451137 ], [ 401886.46998982707737, 3782609.664292980451137 ], [ 401886.164801627688576, 3782609.969481179956347 ], [ 401884.333672431355808, 3782609.969481179956347 ] ] ] } },
{ "type": "Feature", "properties": { "confidence": 0.78778809309005737, "class": 1, "regularized": "rectangle" }, "geometry": { "type": "Polygon", "coordinates": [ [ [ 401587.125, 3782694.0 ], [ 401597.75, 3782694.0 ], [ 401597.75, 3782706.0 ], [ 401587.125, 3782706.0 ], [ 401587.125, 3782694.0 ] ] ] } },
{ "type": "Feature", "properties": { "confidence": 0.73812323808670044, "class": 1, "regularized": null }, "geometry": { "type": "Polygon", "coordinates": [ [ [ 401839.776195320475381, 3782594.404883011244237 ], [ 401839.471007121086586, 3782594.099694811739028 ], [ 401839.471007121086586, 3782590.437436419073492 ], [ 401840.081383519864175, 3782589.827060020528734 ], [ 401842.217700915585738, 3782589.827060020528734 ], [ 401842.828077314363327, 3782589.216683621518314 ], [ 401843.133265513752121, 3782589.216683621518314 ], [ 401843.438453713140916, 3782588.911495422013104 ], [ 401844.048830111918505, 3782588.911495422013104 ], [ 401844.659206510696094, 3782588.301119023468345 ], [ 401845.574771108862478, 3782588.301119023468345 ], [ 401845.879959308251273, 3782587.995930823963135 ], [ 401848.626653102750424, 3782587.995930823963135 ], [ 401848.626653102750424, 3782592.573753814678639 ], [ 401848.32146490336163, 3782592.573753814678639 ], [ 401848.016276703972835, 3782592.878942014183849 ], [ 401847.405900305195246, 3782592.878942014183849 ], [ 401847.100712105806451, 3782593.184130213689059 ], [ 401846.185147507640067, 3782593.184130213689059 ], [ 401845.879959308251273, 3782593.489318413194269 ], [ 401844.048830111918505, 3782593.489318413194269 ], [ 401843.743641912529711, 3782593.794506612233818 ], [ 401843.133265513752121, 3782593.794506612233818 ], [ 401842.828077314363327, 3782594.099694811739028 ], [ 401842.522889114974532, 3782594.099694811739028 ], [ 401842.217700915585738, 3782594.404883011244237 ], [ 401839.776195320475381, 3782594.404883011244237 ] ] ] } },
{ "type": "Feature", "properties": { "confidence": 0.67666256427764893, "class": 1, "regularized": null }, "geometry": { "type": "Polygon", "coordinates": [ [ [ 401709.155645981663838, 3782954.221770091447979 ], [ 401708.850457782275043, 3782953.916581891942769 ], [ 401708.545269582886249, 3782953.916581891942769 ], [ 401707.93489318410866, 3782953.306205493398011 ], [ 401707.93489318410866, 3782952.695829094387591 ], [ 401707.629704984719865, 3782952.390640895348042 ], [ 401707.93489318410866, 3782952.085452695842832 ], [ 401707.93489318410866, 3782950.559511698782444 ], [ 401707.629704984719865, 3782950.254323499277234 ], [ 401707.629704984719865, 3782949.643947100732476 ], [ 401707.93489318410866, 3782949.338758901227266 ], [ 401707.93489318410866, 3782948.728382502682507 ], [ 401708.240081383497454, 3782948.728382502682507 ], [ 401708.545269582886249, 3782948.423194303177297 ], [ 401708.850457782275043, 3782948.423194303177297 ], [ 401709.155645981663838, 3782948.118006103672087 ], [ 401709.766022380441427, 3782948.118006103672087 ], [ 401710.071210579830222, 3782947.812817904166877 ], [ 401710.986775178054813, 3782947.812817904166877 ], [ 401711.291963377443608, 3782948.118006103672087 ], [ 401711.597151576832402, 3782948.118006103672087 ], [ 401711.902339776221197, 3782948.423194303177297 ], [ 401711.902339776221197, 3782949.033570701722056 ], [ 401712.207527975609992, 3782949.338758901227266 ], [ 401712.207527975609992, 3782953.916581891942769 ], [ 401711.902339776221197, 3782954.221770091447979 ], [ 401709.155645981663838, 3782954.221770091447979 ] ] ] } },
{ "type": "Feature", "properties": { "confidence": 0.61590075492858887, "class": 1, "regularized": null }, "geometry": { "type": "Polygon", "coordinates": [ [ [ 401766.836215666320641, 3782661.241098677739501 ], [ 401765.920651068154257, 3782660.325534079223871 ], [ 401765.920651068154257, 3782660.020345880184323 ], [ 401765.615462868765462, 3782659.715157680679113 ], [ 401765.615462868765462, 3782659.409969481173903 ], [ 401765.005086469987873, 3782658.799593082629144 ], [ 401765.005086469987873, 3782658.189216683618724 ], [ 401764.699898270599078, 3782657.884028484113514 ], [ 401764.699898270599078, 3782655.137334689497948 ], [ 401765.005086469987873, 3782654.832146490458399 ], [ 401766.225839267543051, 3782654.832146490458399 ], [ 401767.44659206509823, 3782656.052899288013577 ], [ 401767.751780264487024, 3782656.052899288013577 ], [ 401768.056968463875819, 3782656.358087487053126 ], [ 401768.362156663264614, 3782656.358087487053126 ], [ 401768.667344862653408, 3782656.663275686558336 ], [ 401770.193285859597381, 3782656.663275686558336 ], [ 401770.498474058986176, 3782656.968463886063546 ], [ 401771.41403865715256, 3782656.968463886063546 ], [ 401771.719226856541354, 3782657.273652085568756 ], [ 401772.024415055930149, 3782657.273652085568756 ], [ 401772.024415055930149, 3782657.578840285073966 ], [ 401772.634791454707738, 3782658.189216683618724 ], [ 401772.329603255318943, 3782658.494404883123934 ], [ 401772.329603255318943, 3782659.104781281668693 ], [ 401771.719226856541354, 3782659.715157680679113 ], [ 401771.41403865715256, 3782659.715157680679113 ], [ 401771.108850457763765, 3782660.020345880184323 ], [ 401770.498474058986176, 3782660.020345880184323 ], [ 401769.888097660208587, 3782660.630722278729081 ], [ 401769.277721261430997, 3782660.630722278729081 ], [ 401768.972533062042203, 3782660.935910478234291 ], [ 401768.362156663264614, 3782660.935910478234291 ], [ 401768.056968463875819, 3782661.241098677739501 ], [ 401766.836215666320641, 3782661.241098677739501 ] ] ] } },
{ "type": "Feature", "properties": { "confidence": 0.61003297567367554, "class": 1, "regularized": null }, "geometry": { "type": "Polygon", "coordinates": [ [ [ 401616.378433367237449, 3782694.506612410768867 ], [ 401615.768056968459859, 3782693.896236012224108 ], [ 401613.936927772127092, 3782693.896236012224108 ], [ 401613.631739572738297, 3782693.591047812718898 ], [ 401613.021363173960708, 3782693.591047812718898 ], [ 401612.716174974571913, 3782693.285859613213688 ], [ 401612.716174974571913, 3782692.980671414174139 ], [ 401612.410986775183119, 3782692.67548321466893 ], [ 401612.410986775183119, 3782692.06510681565851 ], [ 401612.105798575794324, 3782691.759918616618961 ], [ 401612.105798575794324, 3782691.454730417113751 ], [ 401611.80061037640553, 3782691.149542217608541 ], [ 401611.80061037640553, 3782690.844354018103331 ], [ 401611.495422177016735, 3782690.539165819063783 ], [ 401611.495422177016735, 3782688.097660223953426 ], [ 401612.410986775183119, 3782687.182095625437796 ], [ 401613.021363173960708, 3782687.182095625437796 ], [ 401613.326551373349503, 3782686.876907426398247 ], [ 401613.936927772127092, 3782686.876907426398247 ], [ 401614.242115971515886, 3782686.571719226893038 ], [ 401616.988809766015038, 3782686.571719226893038 ], [ 401617.293997965403832, 3782686.876907426398247 ], [ 401617.599186164792627, 3782686.876907426398247 ], [ 401617.904374364181422, 3782687.182095625437796 ], [ 401617.904374364181422, 3782687.792472024448216 ], [ 401618.209562563570216, 3782688.097660223953426 ], [ 401618.514750762959011, 3782688.097660223953426 ], [ 401619.735503560514189, 3782689.318413021508604 ], [ 401620.040691759902984, 3782689.318413021508604 ], [ 401620.040691759902984, 3782689.928789420053363 ], [ 401620.345879959291779, 3782690.233977619558573 ], [ 401620.345879959291779, 3782690.539165819063783 ], [ 401620.651068158680573, 3782690.844354018103331 ], [ 401620.651068158680573, 3782691.454730417113751 ], [ 401620.345879959291779, 3782691.759918616618961 ], [ 401620.345879959291779, 3782692.06510681565851 ], [ 401620.040691759902984, 3782692.37029501516372 ], [ 401619.735503560514189, 3782692.37029501516372 ], [ 401617.904374364181422, 3782694.201424211729318 ], [ 401617.904374364181422, 3782694.506612410768867 ], [ 401616.378433367237449, 3782694.506612410768867 ] ] ] } },
{ "type": "Feature", "properties": { "confidence": 0.58603793382644653, "class": 1, "regularized": null }, "geometry": { "type": "Polygon", "coordinates": [ [ [ 401751.881993896211497, 3782665.513733468949795 ], [ 401751.576805696822703, 3782665.208545269444585 ], [ 401751.271617497433908, 3782665.208545269444585 ], [ 401751.271617497433908, 3782663.682604272849858 ], [ 401750.966429298045114, 3782663.377416073344648 ], [ 401750.966429298045114, 3782662.767039674334228 ], [ 401751.271617497433908, 3782662.461851475294679 ], [ 401751.271617497433908, 3782662.156663275789469 ], [ 401754.628687690768857, 3782662.156663275789469 ], [ 401754.933875890157651, 3782662.461851475294679 ], [ 401756.15462868771283, 3782662.461851475294679 ], [ 401756.459816887101624, 3782662.767039674334228 ], [ 401756.459816887101624, 3782663.682604272849858 ], [ 401756.15462868771283, 3782663.987792471889406 ], [ 401756.15462868771283, 3782664.292980671394616 ], [ 401755.54425228893524, 3782664.903357070405036 ], [ 401755.239064089546446, 3782664.903357070405036 ], [ 401754.933875890157651, 3782665.208545269444585 ], [ 401754.628687690768857, 3782665.208545269444585 ], [ 401754.323499491380062, 3782665.513733468949795 ], [ 401751.881993896211497, 3782665.513733468949795 ] ] ] } },
{ "type": "Feature", "properties": { "confidence": 0.55838388204574585, "class": 1, "regularized": null }, "geometry": { "type": "Polygon", "coordinates": [ [ [ 401539.471007121086586, 3782840.691759918816388 ], [ 401539.165818921639584, 3782840.386571719311178 ], [ 401538.860630722250789, 3782840.386571719311178 ], [ 401538.555442522861995, 3782840.081383519805968 ], [ 401538.555442522861995, 3782839.776195320300758 ], [ 401538.860630722250789, 3782839.471007121261209 ], [ 401538.860630722250789, 3782838.250254323706031 ], [ 401538.555442522861995, 3782837.945066124200821 ], [ 401538.860630722250789, 3782837.639877924695611 ], [ 401538.860630722250789, 3782835.808748728595674 ], [ 401538.555442522861995, 3782835.503560529090464 ], [ 401538.555442522861995, 3782833.062054933980107 ], [ 401543.438453713140916, 3782833.062054933980107 ], [ 401543.743641912529711, 3782833.367243133485317 ], [ 401544.048830111918505, 3782833.367243133485317 ], [ 401544.048830111918505, 3782834.587995931040496 ], [ 401543.743641912529711, 3782834.893184130080044 ], [ 401543.743641912529711, 3782838.555442522745579 ], [ 401542.828077314363327, 3782839.471007121261209 ], [ 401542.828077314363327, 3782839.776195320300758 ], [ 401542.217700915585738, 3782840.386571719311178 ], [ 401542.217700915585738, 3782840.691759918816388 ], [ 401539.471007121086586, 3782840.691759918816388 ] ] ] } },
{ "type": "Feature", "properties": { "confidence": 0.5570717453956604, "class": 1, "regularized": null }, "geometry": { "type": "Polygon", "coordinates": [ [ [ 401869.684638860635459, 3782616.683621566742659 ], [ 401869.684638860635459, 3782616.073245167732239 ], [ 401869.379450661246665, 3782615.76805696869269 ], [ 401869.684638860635459, 3782615.46286876918748 ], [ 401869.684638860635459, 3782615.15768056968227 ], [ 401869.989827060024254, 3782614.85249237017706 ], [ 401869.989827060024254, 3782614.242115971632302 ], [ 401869.684638860635459, 3782613.936927772127092 ], [ 401869.684638860635459, 3782613.021363174077123 ], [ 401869.989827060024254, 3782612.716174974571913 ], [ 401869.989827060024254, 3782612.410986775066704 ], [ 401870.600203458801843, 3782611.800610376521945 ], [ 401870.600203458801843, 3782611.190233977511525 ], [ 401870.905391658190638, 3782610.885045778006315 ], [ 401870.905391658190638, 3782610.579857578966767 ], [ 401871.210579857579432, 3782610.579857578966767 ], [ 401871.515768056968227, 3782610.274669379461557 ], [ 401873.652085452689789, 3782610.274669379461557 ], [ 401873.957273652078584, 3782610.579857578966767 ], [ 401873.957273652078584, 3782612.410986775066704 ], [ 401873.346897253300995, 3782613.021363174077123 ], [ 401873.346897253300995, 3782613.326551373116672 ], [ 401871.820956256357022, 3782614.85249237017706 ], [ 401871.820956256357022, 3782615.15768056968227 ], [ 401870.600203458801843, 3782616.378433367237449 ], [ 401870.295015259413049, 3782616.378433367237449 ], [ 401869.989827060024254, 3782616.683621566742659 ], [ 401869.684638860635459, 3782616.683621566742659 ] ] ] } },
{ "type": "Feature", "properties": { "confidence": 0.54601860046386719, "class": 1, "regularized": null }, "geometry": { "type": "Polygon", "coordinates": [ [ [ 401410.376398779219016, 3782846.49033570708707 ], [ 401410.071210579830222, 3782846.18514750758186 ], [ 401409.766022380441427, 3782846.18514750758186 ], [ 401409.155645981663838, 3782845.574771109037101 ], [ 401409.155645981663838, 3782845.269582909531891 ], [ 401408.850457782275043, 3782844.964394710026681 ], [ 401408.850457782275043, 3782843.133265513926744 ], [ 401408.545269582886249, 3782842.828077314421535 ], [ 401408.545269582886249, 3782841.912512716371566 ], [ 401408.240081383497454, 3782841.607324516866356 ], [ 401408.240081383497454, 3782841.302136317361146 ], [ 401407.93489318410866, 3782840.996948117855936 ], [ 401407.93489318410866, 3782840.081383519805968 ], [ 401408.545269582886249, 3782839.471007121261209 ], [ 401408.545269582886249, 3782839.165818921755999 ], [ 401408.850457782275043, 3782838.860630722250789 ], [ 401409.155645981663838, 3782838.860630722250789 ], [ 401409.460834181052633, 3782838.555442522745579 ], [ 401410.071210579830222, 3782838.555442522745579 ], [ 401410.376398779219016, 3782838.860630722250789 ], [ 401410.986775178054813, 3782838.860630722250789 ], [ 401411.291963377443608, 3782839.165818921755999 ], [ 401411.291963377443608, 3782839.776195320300758 ], [ 401411.902339776221197, 3782840.386571719311178 ], [ 401411.902339776221197, 3782840.691759918816388 ], [ 401412.512716174998786, 3782841.302136317361146 ], [ 401412.817904374387581, 3782841.302136317361146 ], [ 401413.733468972553965, 3782842.217700915411115 ], [ 401413.733468972553965, 3782844.048830111976713 ], [ 401412.817904374387581, 3782844.964394710026681 ], [ 401412.512716174998786, 3782844.964394710026681 ], [ 401412.207527975609992, 3782845.269582909531891 ], [ 401411.902339776221197, 3782845.269582909531891 ], [ 401410.986775178054813, 3782846.18514750758186 ], [ 401410.681586978607811, 3782846.18514750758186 ], [ 401410.376398779219016, 3782846.49033570708707 ] ] ] } },
{ "type": "Feature", "properties": { "confidence": 0.53891921043395996, "class": 1, "regularized": null }, "geometry": { "type": "Polygon", "coordinates": [ [ [ 401663.987792472005822, 3782616.378433367237449 ], [ 401663.987792472005822, 3782615.46286876918748 ], [ 401664.292980671394616, 3782615.15768056968227 ], [ 401664.292980671394616, 3782612.716174974571913 ], [ 401664.598168870783411, 3782612.410986775066704 ], [ 401664.903357070172206, 3782612.410986775066704 ], [ 401665.208545269561, 3782612.105798575561494 ], [ 401666.124109867727384, 3782612.105798575561494 ], [ 401666.429298067116179, 3782611.800610376521945 ], [ 401667.344862665282562, 3782611.800610376521945 ], [ 401667.344862665282562, 3782616.378433367237449 ], [ 401663.987792472005822, 3782616.378433367237449 ] ] ] } },
{ "type": "Feature", "properties": { "confidence": 0.52743697166442871, "class": 1, "regularized": null }, "geometry": { "type": "Polygon", "coordinates": [ [ [ 401735.707019328605384, 3782877.31434384547174 ], [ 401735.401831129216589, 3782877.00915564596653 ], [ 401735.096642929827794, 3782877.00915564596653 ], [ 401734.791454730439, 3782876.70396744646132 ], [ 401732.349949135328643, 3782876.70396744646132 ], [ 401732.044760935881641, 3782876.398779247421771 ], [ 401731.434384537104052, 3782876.398779247421771 ], [ 401730.518819938937668, 3782875.483214648906142 ], [ 401730.518819938937668, 3782875.178026449866593 ], [ 401730.213631739548873, 3782874.872838250361383 ], [ 401730.213631739548873, 3782873.652085452806205 ], [ 401730.518819938937668, 3782873.346897253300995 ], [ 401730.824008138326462, 3782873.346897253300995 ], [ 401731.129196337715257, 3782873.041709053795785 ], [ 401735.707019328605384, 3782873.041709053795785 ], [ 401736.622583926771767, 3782873.957273652311414 ], [ 401736.927772126160562, 3782873.957273652311414 ], [ 401738.14852492371574, 3782875.178026449866593 ], [ 401738.75890132249333, 3782875.178026449866593 ], [ 401739.064089521882124, 3782875.483214648906142 ], [ 401739.064089521882124, 3782876.398779247421771 ], [ 401737.232960325549357, 3782876.398779247421771 ], [ 401736.317395727382973, 3782877.31434384547174 ], [ 401735.707019328605384, 3782877.31434384547174 ] ] ] } },
{ "type": "Feature", "properties": { "confidence": 0.52179110050201416, "class": 1, "regularized": null }, "geometry": { "type": "Polygon", "coordinates": [ [ [ 401562.054933875915594, 3782538.860630722250789 ], [ 401561.7497456765268, 3782538.555442522745579 ], [ 401561.444557477138005, 3782538.555442522745579 ], [ 401561.444557477138005, 3782538.250254323706031 ], [ 401561.139369277749211, 3782537.945066124200821 ], [ 401561.139369277749211, 3782535.808748728595674 ], [ 401562.360122075304389, 3782534.587995931040496 ], [ 401563.580874872859567, 3782534.587995931040496 ], [ 401564.191251271637157, 3782535.198372329585254 ], [ 401564.496439471025951, 3782535.198372329585254 ], [ 401565.10681586980354, 3782535.808748728595674 ], [ 401565.10681586980354, 3782537.029501526150852 ], [ 401564.801627670414746, 3782537.334689725190401 ], [ 401564.801627670414746, 3782538.250254323706031 ], [ 401564.496439471025951, 3782538.250254323706031 ], [ 401564.191251271637157, 3782538.555442522745579 ], [ 401562.665310274693184, 3782538.555442522745579 ], [ 401562.360122075304389, 3782538.860630722250789 ], [ 401562.054933875915594, 3782538.860630722250789 ] ] ] } },
{ "type": "Feature", "properties": { "confidence": 0.52066773176193237, "class": 1, "regularized": null }, "geometry": { "type": "Polygon", "coordinates": [ [ [ 401854.120040691748727, 3782963.682604272849858 ], [ 401853.814852492359933, 3782963.377416073344648 ], [ 401853.509664292971138, 3782963.377416073344648 ], [ 401852.899287894193549, 3782962.767039674334228 ], [ 401852.899287894193549, 3782962.461851475294679 ], [ 401852.594099694804754, 3782962.156663275789469 ], [ 401852.594099694804754, 3782961.54628687677905 ], [ 401852.28891149541596, 3782961.241098677739501 ], [ 401852.594099694804754, 3782960.935910478234291 ], [ 401852.594099694804754, 3782959.715157680679113 ], [ 401853.204476093582343, 3782959.104781281668693 ], [ 401854.730417090526316, 3782959.104781281668693 ], [ 401855.035605289915111, 3782959.409969481173903 ], [ 401855.6459816886927, 3782959.409969481173903 ], [ 401855.951169888081495, 3782959.715157680679113 ], [ 401856.256358087470289, 3782959.715157680679113 ], [ 401856.561546286859084, 3782960.020345880184323 ], [ 401856.866734486247879, 3782960.020345880184323 ], [ 401857.477110885025468, 3782960.630722278729081 ], [ 401857.782299084414262, 3782960.630722278729081 ], [ 401857.782299084414262, 3782960.935910478234291 ], [ 401858.087487283803057, 3782961.241098677739501 ], [ 401858.087487283803057, 3782962.461851475294679 ], [ 401857.477110885025468, 3782963.072227873839438 ], [ 401857.171922685636673, 3782963.072227873839438 ], [ 401856.866734486247879, 3782963.377416073344648 ], [ 401856.561546286859084, 3782963.377416073344648 ], [ 401856.256358087470289, 3782963.682604272849858 ], [ 401854.120040691748727, 3782963.682604272849858 ] ] ] } },
{ "type": "Feature", "properties": { "confidence": 0.50859838724136353, "class": 1, "regularized": null }, "geometry": { "type": "Polygon", "coordinates": [ [ [ 401675.584944048838224, 3782606.307222787290812 ], [ 401675.27975584944943, 3782606.002034587785602 ], [ 401674.974567650060635, 3782606.002034587785602 ], [ 401674.66937945067184, 3782605.696846388746053 ], [ 401674.66937945067184, 3782605.391658189240843 ], [ 401674.364191251283046, 3782605.086469989735633 ], [ 401674.364191251283046, 3782602.950152594130486 ], [ 401674.974567650060635, 3782602.339776195120066 ], [ 401675.27975584944943, 3782602.339776195120066 ], [ 401675.584944048838224, 3782602.034587996080518 ], [ 401675.584944048838224, 3782601.729399796575308 ], [ 401676.195320447615813, 3782601.729399796575308 ], [ 401676.500508647004608, 3782601.424211597070098 ], [ 401679.552390640892554, 3782601.424211597070098 ], [ 401680.162767039670143, 3782602.034587996080518 ], [ 401680.162767039670143, 3782602.950152594130486 ], [ 401680.467955239058938, 3782603.255340793635696 ], [ 401680.467955239058938, 3782604.170905391685665 ], [ 401680.162767039670143, 3782604.476093591190875 ], [ 401680.162767039670143, 3782605.696846388746053 ], [ 401679.857578840281349, 3782606.002034587785602 ], [ 401679.247202441503759, 3782606.002034587785602 ], [ 401678.942014242114965, 3782606.307222787290812 ], [ 401675.584944048838224, 3782606.307222787290812 ] ] ] } },
{ "type": "Feature", "properties": { "confidence": 0.50140362977981567, "class": 1, "regularized": null }, "geometry": { "type": "Polygon", "coordinates": [ [ [ 401874.567650050856173, 3782588.911495422013104 ], [ 401874.262461851467378, 3782588.606307222973555 ], [ 401873.957273652078584, 3782588.606307222973555 ], [ 401873.0417090539122, 3782587.690742624457926 ], [ 401873.0417090539122, 3782587.385554425418377 ], [ 401872.431332655134611, 3782586.775178026407957 ], [ 401872.126144455745816, 3782586.775178026407957 ], [ 401871.820956256357022, 3782586.469989826902747 ], [ 401871.820956256357022, 3782586.164801627863199 ], [ 401871.515768056968227, 3782585.859613428357989 ], [ 401871.515768056968227, 3782585.554425228852779 ], [ 401871.210579857579432, 3782585.249237029347569 ], [ 401871.210579857579432, 3782584.02848423179239 ], [ 401871.515768056968227, 3782583.723296032752842 ], [ 401876.093591047800146, 3782583.723296032752842 ], [ 401876.703967446577735, 3782584.3336724312976 ], [ 401876.703967446577735, 3782584.94404883030802 ], [ 401877.00915564596653, 3782585.249237029347569 ], [ 401877.00915564596653, 3782587.995930823963135 ], [ 401876.398779247188941, 3782588.606307222973555 ], [ 401876.093591047800146, 3782588.606307222973555 ], [ 401875.788402848411351, 3782588.911495422013104 ], [ 401874.567650050856173, 3782588.911495422013104 ] ] ] } },
{ "type": "Feature", "properties": { "confidence": 0.49701198935508728, "class": 1, "regularized": null }, "geometry": { "type": "Polygon", "coordinates": [ [ [ 401904.476093591074459, 3782924.618514750618488 ], [ 401904.170905391685665, 3782924.313326551578939 ], [ 401903.86571719229687, 3782924.313326551578939 ], [ 401903.560528992908075, 3782924.008138352073729 ], [ 401903.560528992908075, 3782921.871820956468582 ], [ 401902.644964394683484, 3782920.956256357952952 ], [ 401902.644964394683484, 3782918.514750762842596 ], [ 401904.781281790463254, 3782918.514750762842596 ], [ 401904.781281790463254, 3782919.735503560397774 ], [ 401904.476093591074459, 3782920.040691759902984 ], [ 401904.476093591074459, 3782920.651068158913404 ], [ 401904.781281790463254, 3782920.956256357952952 ], [ 401905.391658189240843, 3782920.956256357952952 ], [ 401905.696846388629638, 3782920.651068158913404 ], [ 401906.917599186184816, 3782920.651068158913404 ], [ 401907.222787385573611, 3782920.345879959408194 ], [ 401907.527975584962405, 3782920.345879959408194 ], [ 401907.527975584962405, 3782924.313326551578939 ], [ 401906.917599186184816, 3782924.313326551578939 ], [ 401906.612410986796021, 3782924.618514750618488 ], [ 401904.476093591074459, 3782924.618514750618488 ] ] ] } },
{ "type": "Feature", "properties": { "confidence": 0.48968198895454407, "class": 1, "regularized": null }, "geometry": { "type": "Polygon", "coordinates": [ [ [ 401853.204476093582343, 3782613.631739572621882 ], [ 401852.899287894193549, 3782613.326551373116672 ], [ 401852.899287894193549, 3782609.969481179956347 ], [ 401852.594099694804754, 3782609.664292980451137 ], [ 401858.392675483191852, 3782609.664292980451137 ], [ 401858.392675483191852, 3782611.800610376521945 ], [ 401857.782299084414262, 3782612.410986775066704 ], [ 401857.171922685636673, 3782612.410986775066704 ], [ 401856.561546286859084, 3782613.021363174077123 ], [ 401856.256358087470289, 3782613.021363174077123 ], [ 401855.951169888081495, 3782613.326551373116672 ], [ 401855.035605289915111, 3782613.326551373116672 ], [ 401854.730417090526316, 3782613.631739572621882 ], [ 401853.204476093582343, 3782613.631739572621882 ] ] ] } },
{ "type": "Feature", "properties": { "confidence": 0.46815121173858643, "class": 1, "regularized": null }, "geometry": { "type": "Polygon", "coordinates": [ [ [ 401934.689725330623332, 3782568.158697863575071 ], [ 401934.384537131234538, 3782567.853509664069861 ], [ 401933.468972533068154, 3782567.853509664069861 ], [ 401933.163784333679359, 3782567.548321465030313 ], [ 401932.858596134290565, 3782567.548321465030313 ], [ 401932.55340793490177, 3782567.243133265525103 ], [ 401932.248219735512976, 3782567.243133265525103 ], [ 401931.943031536124181, 3782566.937945066019893 ], [ 401931.637843336735386, 3782566.937945066019893 ], [ 401931.027466937957797, 3782566.327568667475134 ], [ 401930.722278738569003, 3782566.327568667475134 ], [ 401930.417090539180208, 3782566.022380467969924 ], [ 401929.806714140402619, 3782566.022380467969924 ], [ 401929.806714140402619, 3782565.717192268464714 ], [ 401929.501525941013824, 3782565.412004068959504 ], [ 401929.501525941013824, 3782565.106815869919956 ], [ 401929.19633774162503, 3782564.801627670414746 ], [ 401929.501525941013824, 3782564.496439470909536 ], [ 401929.501525941013824, 3782563.886063072364777 ], [ 401929.806714140402619, 3782563.886063072364777 ], [ 401930.111902339791413, 3782563.580874872859567 ], [ 401930.722278738569003, 3782563.580874872859567 ], [ 401931.027466937957797, 3782563.275686673354357 ], [ 401931.943031536124181, 3782563.275686673354357 ], [ 401932.248219735512976, 3782562.970498473849148 ], [ 401932.858596134290565, 3782562.970498473849148 ], [ 401933.163784333679359, 3782562.665310274809599 ], [ 401933.774160732456949, 3782562.665310274809599 ], [ 401934.079348931845743, 3782562.970498473849148 ], [ 401934.994913530012127, 3782562.970498473849148 ], [ 401935.300101729400922, 3782563.275686673354357 ], [ 401935.910478128178511, 3782563.275686673354357 ], [ 401936.215666327567305, 3782563.580874872859567 ], [ 401936.826042726344895, 3782563.580874872859567 ], [ 401937.131230925733689, 3782563.886063072364777 ], [ 401937.436419125122484, 3782563.886063072364777 ], [ 401937.741607324511278, 3782564.191251271404326 ], [ 401937.741607324511278, 3782564.801627670414746 ], [ 401937.436419125122484, 3782565.106815869919956 ], [ 401937.436419125122484, 3782566.327568667475134 ], [ 401937.131230925733689, 3782566.632756866514683 ], [ 401937.131230925733689, 3782566.937945066019893 ], [ 401936.826042726344895, 3782566.937945066019893 ], [ 401936.5208545269561, 3782567.243133265525103 ], [ 401936.215666327567305, 3782567.243133265525103 ], [ 401935.605289928789716, 3782567.853509664069861 ], [ 401934.994913530012127, 3782567.853509664069861 ], [ 401934.689725330623332, 3782568.158697863575071 ] ] ] } },
{ "type": "Feature", "properties": { "confidence": 0.46107426285743713, "class": 1, "regularized": null }, "geometry": { "type": "Polygon", "coordinates": [ [ [ 401788.19938962359447, 3782924.923702950123698 ], [ 401787.894201424205676, 3782924.618514750618488 ], [ 401787.589013224816881, 3782924.618514750618488 ], [ 401787.283825025428087, 3782924.313326551578939 ], [ 401786.978636826039292, 3782924.313326551578939 ], [ 401786.673448626650497, 3782924.008138352073729 ], [ 401786.368260427261703, 3782924.008138352073729 ], [ 401786.063072227872908, 3782923.702950152568519 ], [ 401786.063072227872908, 3782918.819938962347806 ], [ 401786.368260427261703, 3782918.514750762842596 ], [ 401786.368260427261703, 3782918.209562563803047 ], [ 401786.978636826039292, 3782917.599186164792627 ], [ 401786.978636826039292, 3782917.293997965287417 ], [ 401787.283825025428087, 3782916.988809766247869 ], [ 401787.283825025428087, 3782916.683621566742659 ], [ 401788.19938962359447, 3782915.76805696869269 ], [ 401788.80976602237206, 3782915.76805696869269 ], [ 401789.114954221760854, 3782915.46286876918748 ], [ 401789.725330620538443, 3782915.46286876918748 ], [ 401789.725330620538443, 3782924.618514750618488 ], [ 401789.114954221760854, 3782924.618514750618488 ], [ 401788.80976602237206, 3782924.923702950123698 ], [ 401788.19938962359447, 3782924.923702950123698 ] ] ] } },
{ "type": "Feature", "properties": { "confidence": 0.42903366684913635, "class": 1, "regularized": null }, "geometry": { "type": "Polygon", "coordinates": [ [ [ 401713.42828077316517, 3782947.812817904166877 ], [ 401712.512716174998786, 3782946.897253306116909 ], [ 401712.512716174998786, 3782946.28687690757215 ], [ 401712.207527975609992, 3782945.98168870806694 ], [ 401712.207527975609992, 3782945.37131230905652 ], [ 401712.512716174998786, 3782945.066124110016972 ], [ 401712.512716174998786, 3782944.150559511501342 ], [ 401712.817904374387581, 3782943.845371312461793 ], [ 401712.817904374387581, 3782943.540183112956583 ], [ 401713.733468972553965, 3782942.624618514906615 ], [ 401714.038657171942759, 3782942.624618514906615 ], [ 401714.343845371331554, 3782942.319430315401405 ], [ 401714.954221770109143, 3782942.319430315401405 ], [ 401715.564598168886732, 3782941.709053916390985 ], [ 401715.869786368275527, 3782941.709053916390985 ], [ 401716.174974567664322, 3782941.403865717351437 ], [ 401718.921668362163473, 3782941.403865717351437 ], [ 401718.921668362163473, 3782941.709053916390985 ], [ 401719.226856561552268, 3782942.014242115896195 ], [ 401719.226856561552268, 3782942.624618514906615 ], [ 401718.921668362163473, 3782942.929806713946164 ], [ 401718.921668362163473, 3782944.455747711006552 ], [ 401718.616480162774678, 3782944.760935910511762 ], [ 401718.616480162774678, 3782945.066124110016972 ], [ 401718.311291963385884, 3782945.37131230905652 ], [ 401718.311291963385884, 3782945.67650050856173 ], [ 401717.3957273652195, 3782946.592065106611699 ], [ 401717.090539165830705, 3782946.592065106611699 ], [ 401716.785350966441911, 3782946.897253306116909 ], [ 401716.480162767053116, 3782946.897253306116909 ], [ 401715.564598168886732, 3782947.812817904166877 ], [ 401713.42828077316517, 3782947.812817904166877 ] ] ] } },
{ "type": "Feature", "properties": { "confidence": 0.41636070609092712, "class": 1, "regularized": null }, "geometry": { "type": "Polygon", "coordinates": [ [ [ 401553.509664292971138, 3782525.737538148649037 ], [ 401553.204476093582343, 3782525.432349949143827 ], [ 401552.899287894193549, 3782525.432349949143827 ], [ 401552.899287894193549, 3782524.516785351093858 ], [ 401552.594099694804754, 3782524.211597151588649 ], [ 401552.594099694804754, 3782522.68565615452826 ], [ 401552.28891149541596, 3782522.38046795502305 ], [ 401552.28891149541596, 3782521.464903356973082 ], [ 401551.983723296027165, 3782521.159715157467872 ], [ 401551.983723296027165, 3782519.328585961367935 ], [ 401552.28891149541596, 3782519.023397761862725 ], [ 401553.204476093582343, 3782519.023397761862725 ], [ 401553.509664292971138, 3782519.328585961367935 ], [ 401553.814852492359933, 3782519.328585961367935 ], [ 401553.814852492359933, 3782519.633774160873145 ], [ 401554.120040691748727, 3782519.938962359912694 ], [ 401554.730417090526316, 3782519.938962359912694 ], [ 401554.730417090526316, 3782520.244150559417903 ], [ 401555.035605289915111, 3782520.549338758923113 ], [ 401555.951169888081495, 3782520.549338758923113 ], [ 401555.951169888081495, 3782525.737538148649037 ], [ 401553.509664292971138, 3782525.737538148649037 ] ] ] } },
{ "type": "Feature", "properties": { "confidence": 0.40567618608474731, "class": 1, "regularized": null }, "geometry": { "type": "Polygon", "coordinates": [ [ [ 401878.840284842299297, 3782613.936927772127092 ], [ 401878.840284842299297, 3782612.716174974571913 ], [ 401879.145473041688092, 3782612.410986775066704 ], [ 401879.145473041688092, 3782610.579857578966767 ], [ 401878.840284842299297, 3782610.274669379461557 ], [ 401878.840284842299297, 3782609.664292980451137 ], [ 401883.418107833189424, 3782609.664292980451137 ], [ 401883.418107833189424, 3782612.105798575561494 ], [ 401883.723296032578219, 3782612.410986775066704 ], [ 401883.418107833189424, 3782612.716174974571913 ], [ 401883.11291963380063, 3782612.716174974571913 ], [ 401882.807731434411835, 3782613.021363174077123 ], [ 401882.197355035634246, 3782613.021363174077123 ], [ 401881.892166836187243, 3782613.326551373116672 ], [ 401880.97660223802086, 3782613.326551373116672 ], [ 401880.671414038632065, 3782613.631739572621882 ], [ 401880.36622583924327, 3782613.631739572621882 ], [ 401880.061037639854476, 3782613.936927772127092 ], [ 401878.840284842299297, 3782613.936927772127092 ] ] ] } },
{ "type": "Feature", "properties": { "confidence": 0.39223581552505493, "class": 1, "regularized": null }, "geometry": { "type": "Polygon", "coordinates": [ [ [ 401519.328585961367935, 3782495.523906408809125 ], [ 401519.328585961367935, 3782495.218718209769577 ], [ 401518.107833163812757, 3782493.997965412214398 ], [ 401518.107833163812757, 3782493.082400813698769 ], [ 401517.802644964365754, 3782492.77721261465922 ], [ 401517.802644964365754, 3782492.47202441515401 ], [ 401522.99084435403347, 3782492.47202441515401 ], [ 401522.99084435403347, 3782494.608341810759157 ], [ 401522.685656154644676, 3782494.913530010264367 ], [ 401522.380467955255881, 3782494.913530010264367 ], [ 401522.075279755867086, 3782495.218718209769577 ], [ 401521.770091556478292, 3782495.218718209769577 ], [ 401521.464903357089497, 3782495.523906408809125 ], [ 401520.854526958311908, 3782495.523906408809125 ], [ 401520.549338758923113, 3782495.218718209769577 ], [ 401519.63377416075673, 3782495.218718209769577 ], [ 401519.328585961367935, 3782495.523906408809125 ] ] ] } },
{ "type": "Feature", "properties": { "confidence": 0.37717422842979431, "class": 1, "regularized": null }, "geometry": { "type": "Polygon", "coordinates": [ [ [ 401551.983723296027165, 3782793.082400813698769 ], [ 401551.67853509663837, 3782792.77721261465922 ], [ 401551.67853509663837, 3782791.86164801614359 ], [ 401551.983723296027165, 3782791.556459817104042 ], [ 401551.983723296027165, 3782790.030518820043653 ], [ 401552.594099694804754, 3782789.420142421033233 ], [ 401552.899287894193549, 3782789.420142421033233 ], [ 401553.204476093582343, 3782789.114954221993685 ], [ 401554.120040691748727, 3782789.114954221993685 ], [ 401554.730417090526316, 3782789.725330620538443 ], [ 401555.035605289915111, 3782789.725330620538443 ], [ 401555.340793489303906, 3782790.030518820043653 ], [ 401555.6459816886927, 3782790.030518820043653 ], [ 401555.951169888081495, 3782790.335707019548863 ], [ 401555.951169888081495, 3782791.251271617598832 ], [ 401555.6459816886927, 3782791.556459817104042 ], [ 401555.6459816886927, 3782791.86164801614359 ], [ 401555.340793489303906, 3782792.1668362156488 ], [ 401555.035605289915111, 3782792.1668362156488 ], [ 401554.730417090526316, 3782792.47202441515401 ], [ 401554.425228891137522, 3782792.47202441515401 ], [ 401554.120040691748727, 3782792.77721261465922 ], [ 401553.204476093582343, 3782792.77721261465922 ], [ 401552.899287894193549, 3782793.082400813698769 ], [ 401551.983723296027165, 3782793.082400813698769 ] ] ] } },
{ "type": "Feature", "properties": { "confidence": 0.35281273722648621, "class": 1, "regularized": null }, "geometry": { "type": "Polygon", "coordinates": [ [ [ 401786.978636826039292, 3782954.526958290953189 ], [ 401786.673448626650497, 3782954.221770091447979 ], [ 401786.368260427261703, 3782954.221770091447979 ], [ 401786.368260427261703, 3782953.916581891942769 ], [ 401786.063072227872908, 3782953.611393692903221 ], [ 401786.063072227872908, 3782953.306205493398011 ], [ 401785.452695829095319, 3782952.695829094387591 ], [ 401785.452695829095319, 3782952.390640895348042 ], [ 401785.147507629706524, 3782952.085452695842832 ], [ 401785.147507629706524, 3782951.780264496337622 ], [ 401784.84231943031773, 3782951.475076296832412 ], [ 401784.84231943031773, 3782950.254323499277234 ], [ 401785.147507629706524, 3782949.949135300237685 ], [ 401786.673448626650497, 3782949.949135300237685 ], [ 401787.894201424205676, 3782951.169888097792864 ], [ 401787.894201424205676, 3782951.475076296832412 ], [ 401789.114954221760854, 3782952.695829094387591 ], [ 401789.114954221760854, 3782953.001017293892801 ], [ 401789.420142421149649, 3782953.306205493398011 ], [ 401789.420142421149649, 3782954.526958290953189 ], [ 401786.978636826039292, 3782954.526958290953189 ] ] ] } },
{ "type": "Feature", "properties": { "confidence": 0.3434794545173645, "class": 1, "regularized": null }, "geometry": { "type": "Polygon", "coordinates": [ [ [ 401543.133265513752121, 3782548.321464903187007 ], [ 401542.828077314363327, 3782548.016276704147458 ], [ 401542.217700915585738, 3782548.016276704147458 ], [ 401541.302136317419354, 3782547.100712105631828 ], [ 401541.302136317419354, 3782545.87995930807665 ], [ 401540.996948118030559, 3782545.574771109037101 ], [ 401540.996948118030559, 3782543.438453712966293 ], [ 401541.302136317419354, 3782543.133265513926744 ], [ 401541.302136317419354, 3782542.828077314421535 ], [ 401541.607324516808148, 3782542.828077314421535 ], [ 401541.912512716196943, 3782542.522889114916325 ], [ 401543.743641912529711, 3782542.522889114916325 ], [ 401544.048830111918505, 3782542.828077314421535 ], [ 401544.3540183113073, 3782542.828077314421535 ], [ 401544.3540183113073, 3782543.133265513926744 ], [ 401544.659206510696094, 3782543.438453712966293 ], [ 401544.659206510696094, 3782543.743641912471503 ], [ 401545.879959308251273, 3782544.964394710026681 ], [ 401545.879959308251273, 3782547.405900305137038 ], [ 401545.574771108862478, 3782547.711088504642248 ], [ 401545.574771108862478, 3782548.016276704147458 ], [ 401545.269582909473684, 3782548.321464903187007 ], [ 401543.133265513752121, 3782548.321464903187007 ] ] ] } },
{ "type": "Feature", "properties": { "confidence": 0.32169181108474731, "class": 1, "regularized": null }, "geometry": { "type": "Polygon", "coordinates": [ [ [ 401426.551373346883338, 3782416.480162767227739 ], [ 401426.551373346883338, 3782414.954221770167351 ], [ 401426.856561546272133, 3782414.649033570662141 ], [ 401426.856561546272133, 3782412.817904374562204 ], [ 401427.161749745660927, 3782412.512716175056994 ], [ 401427.161749745660927, 3782411.902339776046574 ], [ 401427.772126144438516, 3782411.291963377501816 ], [ 401427.772126144438516, 3782410.986775177996606 ], [ 401428.077314343827311, 3782410.681586978491396 ], [ 401428.077314343827311, 3782409.766022380441427 ], [ 401427.772126144438516, 3782409.460834180936217 ], [ 401428.077314343827311, 3782409.155645981896669 ], [ 401428.077314343827311, 3782408.850457782391459 ], [ 401428.6876907426049, 3782408.240081383381039 ], [ 401428.992878941993695, 3782408.240081383381039 ], [ 401429.298067141382489, 3782407.93489318434149 ], [ 401430.213631739548873, 3782407.93489318434149 ], [ 401430.213631739548873, 3782410.986775177996606 ], [ 401430.518819938937668, 3782411.291963377501816 ], [ 401431.129196337715257, 3782411.291963377501816 ], [ 401431.129196337715257, 3782411.597151577007025 ], [ 401431.739572736492846, 3782412.207527975551784 ], [ 401431.739572736492846, 3782413.428280773106962 ], [ 401431.129196337715257, 3782414.038657172117382 ], [ 401431.129196337715257, 3782414.343845371156931 ], [ 401430.518819938937668, 3782414.954221770167351 ], [ 401430.518819938937668, 3782415.259409969672561 ], [ 401429.908443540160079, 3782415.869786368217319 ], [ 401429.603255340771284, 3782415.869786368217319 ], [ 401429.298067141382489, 3782416.174974567722529 ], [ 401427.772126144438516, 3782416.174974567722529 ], [ 401427.466937945049722, 3782416.480162767227739 ], [ 401426.551373346883338, 3782416.480162767227739 ] ] ] } },
{ "type": "Feature", "properties": { "confidence": 0.31389209628105164, "class": 1, "regularized": null }, "geometry": { "type": "Polygon", "coordinates": [ [ [ 401537.639877924695611, 3782609.664292980451137 ], [ 401537.639877924695611, 3782606.612410986796021 ], [ 401538.2502543234732, 3782606.002034587785602 ], [ 401538.860630722250789, 3782606.002034587785602 ], [ 401539.165818921639584, 3782605.696846388746053 ], [ 401539.471007121086586, 3782606.002034587785602 ], [ 401540.081383519864175, 3782606.002034587785602 ], [ 401540.38657171925297, 3782606.307222787290812 ], [ 401540.691759918641765, 3782606.307222787290812 ], [ 401541.302136317419354, 3782606.917599186301231 ], [ 401541.302136317419354, 3782608.443540182895958 ], [ 401540.691759918641765, 3782609.053916581906378 ], [ 401540.38657171925297, 3782609.053916581906378 ], [ 401540.081383519864175, 3782609.359104781411588 ], [ 401539.165818921639584, 3782609.359104781411588 ], [ 401538.860630722250789, 3782609.664292980451137 ], [ 401537.639877924695611, 3782609.664292980451137 ] ] ] } },
{ "type": "Feature", "properties": { "confidence": 0.30605745315551758, "class": 1, "regularized": null }, "geometry": { "type": "Polygon", "coordinates": [ [ [ 401469.582909460819792, 3782529.704984740819782 ], [ 401469.277721261430997, 3782529.399796541314572 ], [ 401465.920651068154257, 3782529.399796541314572 ], [ 401465.310274669376668, 3782528.789420142304152 ], [ 401465.310274669376668, 3782528.179043743759394 ], [ 401465.005086469987873, 3782527.873855544254184 ], [ 401465.005086469987873, 3782527.568667344748974 ], [ 401464.699898270599078, 3782527.263479145243764 ], [ 401464.699898270599078, 3782526.347914547193795 ], [ 401464.394710071210284, 3782526.042726347688586 ], [ 401464.394710071210284, 3782525.737538148649037 ], [ 401464.089521871821489, 3782525.432349949143827 ], [ 401464.089521871821489, 3782525.127161749638617 ], [ 401463.784333672432695, 3782524.821973550133407 ], [ 401463.4791454730439, 3782524.821973550133407 ], [ 401463.4791454730439, 3782524.211597151588649 ], [ 401464.089521871821489, 3782523.601220752578229 ], [ 401464.089521871821489, 3782523.29603255353868 ], [ 401464.394710071210284, 3782523.29603255353868 ], [ 401465.005086469987873, 3782522.68565615452826 ], [ 401467.141403865709435, 3782522.68565615452826 ], [ 401468.056968463875819, 3782523.601220752578229 ], [ 401468.056968463875819, 3782523.906408952083439 ], [ 401468.362156663264614, 3782524.211597151588649 ], [ 401468.667344862653408, 3782524.211597151588649 ], [ 401468.972533062042203, 3782524.516785351093858 ], [ 401469.277721261430997, 3782524.516785351093858 ], [ 401469.888097660208587, 3782525.127161749638617 ], [ 401470.193285859597381, 3782525.127161749638617 ], [ 401470.193285859597381, 3782525.432349949143827 ], [ 401470.498474058986176, 3782525.737538148649037 ], [ 401470.498474058986176, 3782526.042726347688586 ], [ 401470.80366225837497, 3782526.347914547193795 ], [ 401470.80366225837497, 3782526.653102746699005 ], [ 401471.108850457763765, 3782526.958290946204215 ], [ 401471.108850457763765, 3782527.263479145243764 ], [ 401471.41403865715256, 3782527.568667344748974 ], [ 401471.41403865715256, 3782528.179043743759394 ], [ 401471.719226856541354, 3782528.484231942798942 ], [ 401471.719226856541354, 3782528.789420142304152 ], [ 401470.80366225837497, 3782528.789420142304152 ], [ 401470.498474058986176, 3782529.094608341809362 ], [ 401470.193285859597381, 3782529.094608341809362 ], [ 401469.582909460819792, 3782529.704984740819782 ] ] ] } },
{ "type": "Feature", "properties": { "confidence": 0.28927618265151978, "class": 1, "regularized": null }, "geometry": { "type": "Polygon", "coordinates": [ [ [ 401727.466937945049722, 3782613.936927772127092 ], [ 401727.161749745660927, 3782613.631739572621882 ], [ 401726.856561546272133, 3782613.631739572621882 ], [ 401726.856561546272133, 3782612.105798575561494 ], [ 401726.551373346883338, 3782611.800610376521945 ], [ 401726.551373346883338, 3782611.495422177016735 ], [ 401725.940996948105749, 3782610.885045778006315 ], [ 401725.940996948105749, 3782610.579857578966767 ], [ 401725.635808748716954, 3782610.274669379461557 ], [ 401730.213631739548873, 3782610.274669379461557 ], [ 401730.213631739548873, 3782610.579857578966767 ], [ 401730.518819938937668, 3782610.885045778006315 ], [ 401730.518819938937668, 3782611.190233977511525 ], [ 401730.824008138326462, 3782611.495422177016735 ], [ 401730.824008138326462, 3782612.105798575561494 ], [ 401730.518819938937668, 3782612.410986775066704 ], [ 401730.518819938937668, 3782612.716174974571913 ], [ 401729.603255340771284, 3782613.631739572621882 ], [ 401729.298067141382489, 3782613.631739572621882 ], [ 401728.992878941993695, 3782613.936927772127092 ], [ 401727.466937945049722, 3782613.936927772127092 ] ] ] } },
{ "type": "Feature", "properties": { "confidence": 0.26951026916503906, "class": 1, "regularized": null }, "geometry": { "type": "Polygon", "coordinates": [ [ [ 401711.291963377443608, 3782860.834181078244001 ], [ 401710.986775178054813, 3782860.528992878738791 ], [ 401710.681586978607811, 3782860.528992878738791 ], [ 401710.376398779219016, 3782860.223804679699242 ], [ 401710.376398779219016, 3782859.918616480194032 ], [ 401710.071210579830222, 3782859.613428280688822 ], [ 401710.071210579830222, 3782855.645981688518077 ], [ 401709.766022380441427, 3782855.340793489478528 ], [ 401709.766022380441427, 3782855.035605289973319 ], [ 401710.071210579830222, 3782854.730417090468109 ], [ 401710.071210579830222, 3782854.425228890962899 ], [ 401710.681586978607811, 3782853.81485249241814 ], [ 401710.986775178054813, 3782853.81485249241814 ], [ 401711.291963377443608, 3782853.50966429291293 ], [ 401714.038657171942759, 3782853.50966429291293 ], [ 401714.343845371331554, 3782853.81485249241814 ], [ 401714.649033570720349, 3782853.81485249241814 ], [ 401714.954221770109143, 3782854.12004069192335 ], [ 401714.954221770109143, 3782854.425228890962899 ], [ 401715.564598168886732, 3782855.035605289973319 ], [ 401715.564598168886732, 3782856.561546287033707 ], [ 401715.259409969497938, 3782856.866734486073256 ], [ 401715.259409969497938, 3782857.171922685578465 ], [ 401714.954221770109143, 3782857.477110885083675 ], [ 401714.954221770109143, 3782858.087487283628434 ], [ 401714.649033570720349, 3782858.392675483133644 ], [ 401714.649033570720349, 3782859.308240081183612 ], [ 401714.343845371331554, 3782859.613428280688822 ], [ 401714.343845371331554, 3782859.918616480194032 ], [ 401714.038657171942759, 3782860.223804679699242 ], [ 401713.733468972553965, 3782860.223804679699242 ], [ 401713.42828077316517, 3782860.528992878738791 ], [ 401712.817904374387581, 3782860.528992878738791 ], [ 401712.512716174998786, 3782860.834181078244001 ], [ 401711.291963377443608, 3782860.834181078244001 ] ] ] } }
]
}
