{
"type": "FeatureCollection",
"name": "cell_00194_pre",
"crs": { "type": "name", "properties": { "name": "urn:ogc:def:crs:EPSG::32611" } },
"features": [
{ "type": "Feature", "properties": { "confidence": 0.308351069688797, "class": 1 }, "geometry": { "type": "Polygon", "coordinates": [ [ [ 356555.951169888081495, 3776790.030518820043653 ], [ 356555.6459816886927, 3776789.725330620538443 ], [ 356553.814852492359933, 3776789.725330620538443 ], [ 356553.509664292971138, 3776789.420142421033233 ], [ 356553.509664292971138, 3776788.809766022488475 ], [ 356552.899287894193549, 3776788.199389623478055 ], [ 356552.899287894193549, 3776786.368260427378118 ], [ 356553.204476093582343, 3776786.063072227872908 ], [ 356553.509664292971138, 3776786.063072227872908 ], [ 356554.120040691748727, 3776785.452695828862488 ], [ 356554.425228891137522, 3776785.452695828862488 ], [ 356554.730417090526316, 3776785.14750762982294 ], [ 356555.340793489303906, 3776785.14750762982294 ], [ 356555.6459816886927, 3776784.84231943031773 ], [ 356555.951169888081495, 3776784.84231943031773 ], [ 356555.951169888081495, 3776790.030518820043653 ] ] ] } },
{ "type": "Feature", "properties": { "confidence": 0.2682252824306488, "class": 1 }, "geometry": { "type": "Polygon", "coordinates": [ [ [ 356859.308240081358235, 3776729.908443540334702 ], [ 356857.477110885025468, 3776728.077314343769103 ], [ 356857.477110885025468, 3776727.466937945224345 ], [ 356857.171922685636673, 3776727.161749745719135 ], [ 356857.171922685636673, 3776726.856561546213925 ], [ 356861.444557477138005, 3776726.856561546213925 ], [ 356861.444557477138005, 3776728.687690742779523 ], [ 356861.139369277749211, 3776728.992878941819072 ], [ 356861.139369277749211, 3776729.603255340829492 ], [ 356860.834181078360416, 3776729.908443540334702 ], [ 356859.308240081358235, 3776729.908443540334702 ] ] ] } },
{ "type": "Feature", "properties": { "confidence": 0.26505699753761292, "class": 1 }, "geometry": { "type": "Polygon", "coordinates": [ [ [ 356551.068158697860781, 3776616.378433367237449 ], [ 356550.762970498471987, 3776616.073245167732239 ], [ 356550.152594099694397, 3776616.073245167732239 ], [ 356549.847405900305603, 3776615.76805696869269 ], [ 356549.847405900305603, 3776615.15768056968227 ], [ 356548.626653102750424, 3776613.936927772127092 ], [ 356548.32146490336163, 3776613.936927772127092 ], [ 356547.71108850458404, 3776613.326551373116672 ], [ 356547.405900305195246, 3776613.326551373116672 ], [ 356546.795523906417657, 3776612.716174974571913 ], [ 356546.490335707028862, 3776612.716174974571913 ], [ 356545.879959308251273, 3776612.105798575561494 ], [ 356545.574771108862478, 3776612.105798575561494 ], [ 356545.574771108862478, 3776611.800610376521945 ], [ 356545.269582909473684, 3776611.495422177016735 ], [ 356544.964394710084889, 3776611.495422177016735 ], [ 356544.964394710084889, 3776611.190233977511525 ], [ 356544.659206510696094, 3776610.885045778006315 ], [ 356544.659206510696094, 3776609.664292980451137 ], [ 356553.204476093582343, 3776609.664292980451137 ], [ 356553.204476093582343, 3776609.969481179956347 ], [ 356553.509664292971138, 3776610.274669379461557 ], [ 356553.814852492359933, 3776610.274669379461557 ], [ 356553.814852492359933, 3776613.326551373116672 ], [ 356553.509664292971138, 3776613.631739572621882 ], [ 356553.509664292971138, 3776615.15768056968227 ], [ 356553.204476093582343, 3776615.46286876918748 ], [ 356552.594099694804754, 3776615.46286876918748 ], [ 356551.983723296027165, 3776616.073245167732239 ], [ 356551.983723296027165, 3776616.378433367237449 ], [ 356551.068158697860781, 3776616.378433367237449 ] ] ] } },
{ "type": "Feature", "properties": { "confidence": 0.25343969464302063, "class": 1 }, "geometry": { "type": "Polygon", "coordinates": [ [ [ 356782.400813835207373, 3776729.908443540334702 ], [ 356780.8748728382634, 3776728.382502543274313 ], [ 356780.8748728382634, 3776728.077314343769103 ], [ 356780.569684638874605, 3776727.772126144263893 ], [ 356780.569684638874605, 3776726.856561546213925 ], [ 356786.368260427261703, 3776726.856561546213925 ], [ 356786.368260427261703, 3776728.077314343769103 ], [ 356786.063072227872908, 3776728.077314343769103 ], [ 356785.757884028484114, 3776728.382502543274313 ], [ 356785.452695829095319, 3776728.382502543274313 ], [ 356784.537131230928935, 3776729.298067141324282 ], [ 356783.621566632762551, 3776729.298067141324282 ], [ 356783.316378433373757, 3776729.603255340829492 ], [ 356782.706002034596168, 3776729.603255340829492 ], [ 356782.400813835207373, 3776729.908443540334702 ] ] ] } }
]
}
