{
"type": "FeatureCollection",
"name": "cell_00407_pre",
"crs": { "type": "name", "properties": { "name": "urn:ogc:def:crs:EPSG::32611" } },
"features": [
{ "type": "Feature", "properties": { "confidence": 0.67918086051940918, "class": 1 }, "geometry": { "type": "Polygon", "coordinates": [ [ [ 398155.239064089546446, 3785048.118006103672087 ], [ 398154.933875890157651, 3785047.812817904166877 ], [ 398154.628687690768857, 3785047.812817904166877 ], [ 398154.628687690768857, 3785047.507629705127329 ], [ 398154.018311291991267, 3785046.897253306116909 ], [ 398154.018311291991267, 3785041.098677517846227 ], [ 398154.933875890157651, 3785040.183112919796258 ], [ 398155.239064089546446, 3785040.183112919796258 ], [ 398155.849440488324035, 3785039.572736520785838 ], [ 398155.849440488324035, 3785039.267548321280628 ], [ 398156.15462868771283, 3785038.96236012224108 ], [ 398156.15462868771283, 3785038.65717192273587 ], [ 398156.459816887101624, 3785038.35198372323066 ], [ 398156.765005086490419, 3785038.35198372323066 ], [ 398157.070193285879213, 3785038.04679552372545 ], [ 398157.375381485268008, 3785038.04679552372545 ], [ 398157.680569684656803, 3785037.741607324685901 ], [ 398158.290946083434392, 3785037.741607324685901 ], [ 398158.596134282823186, 3785038.04679552372545 ], [ 398158.901322482211981, 3785038.04679552372545 ], [ 398159.206510681600776, 3785038.35198372323066 ], [ 398159.51169888098957, 3785038.35198372323066 ], [ 398159.816887080378365, 3785038.65717192273587 ], [ 398160.122075279767159, 3785038.65717192273587 ], [ 398161.037639877933543, 3785039.572736520785838 ], [ 398161.037639877933543, 3785039.877924720291048 ], [ 398161.342828077322338, 3785040.183112919796258 ], [ 398161.342828077322338, 3785042.624618514906615 ], [ 398161.037639877933543, 3785042.929806713946164 ], [ 398161.037639877933543, 3785044.150559511501342 ], [ 398160.427263479155954, 3785044.760935910511762 ], [ 398160.427263479155954, 3785045.37131230905652 ], [ 398158.596134282823186, 3785047.202441505622119 ], [ 398158.596134282823186, 3785047.507629705127329 ], [ 398158.290946083434392, 3785047.812817904166877 ], [ 398157.985757884045597, 3785047.812817904166877 ], [ 398157.680569684656803, 3785048.118006103672087 ], [ 398155.239064089546446, 3785048.118006103672087 ] ] ] } },
{ "type": "Feature", "properties": { "confidence": 0.42862847447395325, "class": 1 }, "geometry": { "type": "Polygon", "coordinates": [ [ [ 398161.037639877933543, 3784843.947100711986423 ], [ 398160.732451678544749, 3784843.641912512946874 ], [ 398160.427263479155954, 3784843.641912512946874 ], [ 398160.122075279767159, 3784843.336724313441664 ], [ 398160.122075279767159, 3784843.031536113936454 ], [ 398159.51169888098957, 3784842.421159714926034 ], [ 398159.206510681600776, 3784842.421159714926034 ], [ 398159.206510681600776, 3784842.115971515886486 ], [ 398158.901322482211981, 3784841.810783316381276 ], [ 398158.901322482211981, 3784840.895218718331307 ], [ 398159.206510681600776, 3784840.590030518826097 ], [ 398159.206510681600776, 3784838.758901322260499 ], [ 398158.901322482211981, 3784838.45371312322095 ], [ 398158.901322482211981, 3784836.927772126160562 ], [ 398158.596134282823186, 3784836.622583926655352 ], [ 398158.596134282823186, 3784833.875890132039785 ], [ 398159.206510681600776, 3784833.265513733495027 ], [ 398159.816887080378365, 3784833.265513733495027 ], [ 398160.122075279767159, 3784832.960325533989817 ], [ 398160.732451678544749, 3784832.960325533989817 ], [ 398161.037639877933543, 3784832.655137334484607 ], [ 398161.342828077322338, 3784832.960325533989817 ], [ 398161.953204476099927, 3784832.960325533989817 ], [ 398162.258392675488722, 3784833.265513733495027 ], [ 398162.563580874877516, 3784833.265513733495027 ], [ 398162.563580874877516, 3784833.570701933000237 ], [ 398163.173957273655105, 3784834.181078331544995 ], [ 398163.173957273655105, 3784834.486266531050205 ], [ 398163.4791454730439, 3784834.791454730555415 ], [ 398163.4791454730439, 3784835.401831129100174 ], [ 398164.089521871821489, 3784836.012207528110594 ], [ 398164.089521871821489, 3784836.317395727150142 ], [ 398164.394710071210284, 3784836.622583926655352 ], [ 398164.394710071210284, 3784837.232960325665772 ], [ 398164.699898270599078, 3784837.538148524705321 ], [ 398164.699898270599078, 3784837.843336724210531 ], [ 398165.005086469987873, 3784838.14852492371574 ], [ 398165.005086469987873, 3784838.45371312322095 ], [ 398165.615462868765462, 3784839.064089521765709 ], [ 398165.615462868765462, 3784839.369277721270919 ], [ 398166.836215666320641, 3784840.590030518826097 ], [ 398166.836215666320641, 3784842.421159714926034 ], [ 398166.531027466931846, 3784842.421159714926034 ], [ 398165.615462868765462, 3784843.336724313441664 ], [ 398165.310274669376668, 3784843.336724313441664 ], [ 398165.005086469987873, 3784843.641912512946874 ], [ 398164.394710071210284, 3784843.641912512946874 ], [ 398164.089521871821489, 3784843.947100711986423 ], [ 398161.037639877933543, 3784843.947100711986423 ] ] ] } },
{ "type": "Feature", "properties": { "confidence": 0.40885075926780701, "class": 1 }, "geometry": { "type": "Polygon", "coordinates": [ [ [ 398366.124109867727384, 3785246.49033570708707 ], [ 398365.818921668338589, 3785246.18514750758186 ], [ 398365.208545269561, 3785246.18514750758186 ], [ 398364.292980671394616, 3785245.269582909531891 ], [ 398364.292980671394616, 3785244.048830111976713 ], [ 398371.922685656172689, 3785244.048830111976713 ], [ 398371.922685656172689, 3785244.659206510521472 ], [ 398371.3123092573951, 3785245.269582909531891 ], [ 398370.701932858617511, 3785245.269582909531891 ], [ 398370.396744659228716, 3785245.574771109037101 ], [ 398369.786368260451127, 3785245.574771109037101 ], [ 398369.481180061062332, 3785245.87995930807665 ], [ 398368.870803662284743, 3785245.87995930807665 ], [ 398368.565615462895948, 3785246.18514750758186 ], [ 398367.344862665282562, 3785246.18514750758186 ], [ 398367.039674465893768, 3785246.49033570708707 ], [ 398366.124109867727384, 3785246.49033570708707 ] ] ] } },
{ "type": "Feature", "properties": { "confidence": 0.40760400891304016, "class": 1 }, "geometry": { "type": "Polygon", "coordinates": [ [ [ 397914.140386571700219, 3785247.711088504642248 ], [ 397912.309257375367451, 3785245.87995930807665 ], [ 397912.309257375367451, 3785244.048830111976713 ], [ 397919.02339776197914, 3785244.048830111976713 ], [ 397919.02339776197914, 3785244.659206510521472 ], [ 397919.328585961367935, 3785244.964394710026681 ], [ 397919.328585961367935, 3785245.574771109037101 ], [ 397919.02339776197914, 3785245.87995930807665 ], [ 397918.718209562590346, 3785245.87995930807665 ], [ 397918.413021363201551, 3785246.18514750758186 ], [ 397917.802644964365754, 3785246.18514750758186 ], [ 397917.192268565588165, 3785246.79552390659228 ], [ 397916.88708036619937, 3785246.79552390659228 ], [ 397916.581892166810576, 3785247.100712105631828 ], [ 397916.276703967421781, 3785247.100712105631828 ], [ 397915.971515768032987, 3785247.405900305137038 ], [ 397915.055951169866603, 3785247.405900305137038 ], [ 397914.750762970477808, 3785247.711088504642248 ], [ 397914.140386571700219, 3785247.711088504642248 ] ] ] } },
{ "type": "Feature", "properties": { "confidence": 0.38364747166633606, "class": 1 }, "geometry": { "type": "Polygon", "coordinates": [ [ [ 397917.802644964365754, 3785359.715157680679113 ], [ 397917.802644964365754, 3785359.409969481173903 ], [ 397917.49745676497696, 3785359.104781281668693 ], [ 397917.192268565588165, 3785359.104781281668693 ], [ 397917.192268565588165, 3785353.306205493398011 ], [ 397917.802644964365754, 3785353.306205493398011 ], [ 397918.107833163812757, 3785353.001017293892801 ], [ 397919.02339776197914, 3785353.001017293892801 ], [ 397919.02339776197914, 3785354.526958290953189 ], [ 397919.328585961367935, 3785354.832146490458399 ], [ 397919.328585961367935, 3785359.104781281668693 ], [ 397919.02339776197914, 3785359.409969481173903 ], [ 397918.413021363201551, 3785359.409969481173903 ], [ 397918.107833163812757, 3785359.715157680679113 ], [ 397917.802644964365754, 3785359.715157680679113 ] ] ] } },
{ "type": "Feature", "properties": { "confidence": 0.34239420294761658, "class": 1 }, "geometry": { "type": "Polygon", "coordinates": [ [ [ 397810.986775178054813, 3784908.341810783371329 ], [ 397810.681586978607811, 3784908.036622583866119 ], [ 397810.376398779219016, 3784908.036622583866119 ], [ 397810.071210579830222, 3784907.731434384360909 ], [ 397809.766022380441427, 3784907.731434384360909 ], [ 397809.460834181052633, 3784907.426246185321361 ], [ 397809.155645981663838, 3784907.426246185321361 ], [ 397808.545269582886249, 3784906.815869786310941 ], [ 397808.545269582886249, 3784906.510681586805731 ], [ 397808.240081383497454, 3784906.205493387766182 ], [ 397808.240081383497454, 3784905.900305188260972 ], [ 397807.93489318410866, 3784905.595116988755763 ], [ 397807.93489318410866, 3784904.374364191200584 ], [ 397808.240081383497454, 3784904.069175991695374 ], [ 397809.460834181052633, 3784904.069175991695374 ], [ 397809.766022380441427, 3784903.763987792655826 ], [ 397810.071210579830222, 3784903.763987792655826 ], [ 397810.681586978607811, 3784903.153611393645406 ], [ 397812.207527975609992, 3784903.153611393645406 ], [ 397812.512716174998786, 3784902.848423194140196 ], [ 397813.42828077316517, 3784902.848423194140196 ], [ 397813.733468972553965, 3784903.153611393645406 ], [ 397814.954221770109143, 3784903.153611393645406 ], [ 397814.954221770109143, 3784903.458799593150616 ], [ 397815.259409969497938, 3784903.763987792655826 ], [ 397815.259409969497938, 3784904.069175991695374 ], [ 397815.564598168886732, 3784904.374364191200584 ], [ 397815.564598168886732, 3784904.679552390705794 ], [ 397815.259409969497938, 3784904.984740590211004 ], [ 397815.259409969497938, 3784906.205493387766182 ], [ 397814.954221770109143, 3784906.510681586805731 ], [ 397814.954221770109143, 3784906.815869786310941 ], [ 397814.649033570720349, 3784907.121057985816151 ], [ 397814.343845371331554, 3784907.121057985816151 ], [ 397814.038657171942759, 3784907.426246185321361 ], [ 397814.038657171942759, 3784907.731434384360909 ], [ 397813.733468972553965, 3784908.036622583866119 ], [ 397813.42828077316517, 3784908.036622583866119 ], [ 397813.123092573776376, 3784908.341810783371329 ], [ 397810.986775178054813, 3784908.341810783371329 ] ] ] } },
{ "type": "Feature", "properties": { "confidence": 0.29124397039413452, "class": 1 }, "geometry": { "type": "Polygon", "coordinates": [ [ [ 397953.814852492359933, 3784860.732451678719372 ], [ 397952.28891149541596, 3784859.206510681658983 ], [ 397952.28891149541596, 3784858.290946083609015 ], [ 397951.983723296027165, 3784857.985757884103805 ], [ 397951.983723296027165, 3784857.070193286053836 ], [ 397951.67853509663837, 3784856.765005086548626 ], [ 397951.67853509663837, 3784855.849440488498658 ], [ 397951.373346897249576, 3784855.544252288993448 ], [ 397951.373346897249576, 3784854.62868769094348 ], [ 397951.068158697860781, 3784854.32349949143827 ], [ 397951.068158697860781, 3784853.102746693883091 ], [ 397950.762970498471987, 3784852.797558494377881 ], [ 397950.762970498471987, 3784851.881993896327913 ], [ 397951.068158697860781, 3784851.576805696822703 ], [ 397951.068158697860781, 3784850.966429298277944 ], [ 397951.67853509663837, 3784850.356052899267524 ], [ 397954.730417090526316, 3784850.356052899267524 ], [ 397955.6459816886927, 3784851.271617497317493 ], [ 397955.6459816886927, 3784851.881993896327913 ], [ 397955.951169888081495, 3784852.187182095833123 ], [ 397956.256358087470289, 3784852.187182095833123 ], [ 397956.866734486247879, 3784852.797558494377881 ], [ 397957.171922685636673, 3784852.797558494377881 ], [ 397957.477110885025468, 3784853.102746693883091 ], [ 397957.782299084414262, 3784853.102746693883091 ], [ 397958.087487283803057, 3784853.407934893388301 ], [ 397958.392675483191852, 3784853.407934893388301 ], [ 397958.697863682580646, 3784853.71312309242785 ], [ 397959.003051881969441, 3784853.71312309242785 ], [ 397959.308240081358235, 3784854.01831129193306 ], [ 397959.61342828074703, 3784854.01831129193306 ], [ 397959.918616480135825, 3784854.32349949143827 ], [ 397959.918616480135825, 3784856.154628687538207 ], [ 397959.61342828074703, 3784856.459816887043417 ], [ 397959.61342828074703, 3784857.985757884103805 ], [ 397959.308240081358235, 3784858.290946083609015 ], [ 397959.308240081358235, 3784859.206510681658983 ], [ 397958.697863682580646, 3784859.816887080203742 ], [ 397958.697863682580646, 3784860.122075279708952 ], [ 397958.087487283803057, 3784860.732451678719372 ], [ 397953.814852492359933, 3784860.732451678719372 ] ] ] } }
]
}
