{
"type": "FeatureCollection",
"name": "cell_00424_pre",
"crs": { "type": "name", "properties": { "name": "urn:ogc:def:crs:EPSG::32611" } },
"features": [
{ "type": "Feature", "properties": { "confidence": 0.98679786920547485, "class": 1, "regularized": null }, "geometry": { "type": "Polygon", "coordinates": [ [ [ 398642.319430315343197, 3786748.016276704147458 ], [ 398642.014242115954403, 3786747.711088504642248 ], [ 398641.403865717176814, 3786747.711088504642248 ], [ 398641.098677517788019, 3786747.405900305137038 ], [ 398641.098677517788019, 3786746.18514750758186 ], [ 398641.403865717176814, 3786745.87995930807665 ], [ 398641.403865717176814, 3786743.438453712966293 ], [ 398640.793489318399224, 3786742.828077314421535 ], [ 398640.793489318399224, 3786742.217700915411115 ], [ 398640.48830111901043, 3786741.912512716371566 ], [ 398640.48830111901043, 3786740.386571719311178 ], [ 398640.793489318399224, 3786740.081383519805968 ], [ 398640.793489318399224, 3786739.776195320300758 ], [ 398641.709053916565608, 3786739.776195320300758 ], [ 398642.014242115954403, 3786739.471007121261209 ], [ 398643.234994913509581, 3786739.471007121261209 ], [ 398643.540183112898376, 3786739.165818921755999 ], [ 398646.286876907397527, 3786739.165818921755999 ], [ 398646.59206510684453, 3786739.471007121261209 ], [ 398646.897253306233324, 3786739.471007121261209 ], [ 398647.507629705010913, 3786740.081383519805968 ], [ 398647.812817904399708, 3786740.081383519805968 ], [ 398647.812817904399708, 3786740.386571719311178 ], [ 398648.423194303177297, 3786740.996948117855936 ], [ 398648.728382502566092, 3786740.996948117855936 ], [ 398648.728382502566092, 3786741.302136317361146 ], [ 398649.338758901343681, 3786741.912512716371566 ], [ 398649.338758901343681, 3786742.217700915411115 ], [ 398649.643947100732476, 3786742.522889114916325 ], [ 398649.643947100732476, 3786743.438453712966293 ], [ 398649.338758901343681, 3786743.743641912471503 ], [ 398649.338758901343681, 3786744.048830111976713 ], [ 398649.033570701954886, 3786744.354018311481923 ], [ 398648.728382502566092, 3786744.354018311481923 ], [ 398648.423194303177297, 3786744.659206510521472 ], [ 398648.118006103788503, 3786744.659206510521472 ], [ 398647.507629705010913, 3786745.269582909531891 ], [ 398647.202441505622119, 3786745.269582909531891 ], [ 398646.897253306233324, 3786745.574771109037101 ], [ 398646.897253306233324, 3786745.87995930807665 ], [ 398645.981688708008733, 3786746.79552390659228 ], [ 398645.981688708008733, 3786747.100712105631828 ], [ 398645.676500508619938, 3786747.100712105631828 ], [ 398645.371312309231143, 3786747.405900305137038 ], [ 398644.760935910453554, 3786747.405900305137038 ], [ 398644.45574771106476, 3786747.711088504642248 ], [ 398643.540183112898376, 3786747.711088504642248 ], [ 398643.234994913509581, 3786748.016276704147458 ], [ 398642.319430315343197, 3786748.016276704147458 ] ] ] } },
{ "type": "Feature", "properties": { "confidence": 0.98213779926300049, "class": 1, "regularized": null }, "geometry": { "type": "Polygon", "coordinates": [ [ [ 398755.239064089546446, 3786936.622583926655352 ], [ 398754.933875890157651, 3786936.317395727150142 ], [ 398753.40793489315547, 3786936.317395727150142 ], [ 398752.797558494377881, 3786935.707019328605384 ], [ 398752.492370294989087, 3786935.707019328605384 ], [ 398751.881993896211497, 3786935.096642929594964 ], [ 398751.881993896211497, 3786932.960325533989817 ], [ 398752.187182095600292, 3786932.655137334484607 ], [ 398752.187182095600292, 3786928.687690742779523 ], [ 398751.881993896211497, 3786928.382502543274313 ], [ 398751.881993896211497, 3786927.772126144263893 ], [ 398752.187182095600292, 3786927.466937945224345 ], [ 398753.102746693766676, 3786927.466937945224345 ], [ 398753.40793489315547, 3786927.161749745719135 ], [ 398753.40793489315547, 3786926.856561546213925 ], [ 398757.680569684656803, 3786926.856561546213925 ], [ 398757.680569684656803, 3786927.161749745719135 ], [ 398757.985757884045597, 3786927.466937945224345 ], [ 398757.985757884045597, 3786928.077314343769103 ], [ 398758.290946083434392, 3786928.382502543274313 ], [ 398758.290946083434392, 3786933.570701933000237 ], [ 398757.985757884045597, 3786933.875890132039785 ], [ 398757.985757884045597, 3786934.486266531050205 ], [ 398757.680569684656803, 3786934.791454730555415 ], [ 398757.680569684656803, 3786935.096642929594964 ], [ 398757.070193285879213, 3786935.707019328605384 ], [ 398757.070193285879213, 3786936.012207528110594 ], [ 398756.765005086490419, 3786936.012207528110594 ], [ 398756.459816887101624, 3786936.317395727150142 ], [ 398755.54425228893524, 3786936.317395727150142 ], [ 398755.239064089546446, 3786936.622583926655352 ] ] ] } },
{ "type": "Feature", "properties": { "confidence": 0.97442638874053955, "class": 1, "regularized": "rectangle" }, "geometry": { "type": "Polygon", "coordinates": [ [ [ 398848.03125, 3786638.5 ], [ 398858.09375, 3786638.5 ], [ 398858.09375, 3786651.0 ], [ 398848.03125, 3786651.0 ], [ 398848.03125, 3786638.5 ] ] ] } },
{ "type": "Feature", "properties": { "confidence": 0.96781462430953979, "class": 1, "regularized": null }, "geometry": { "type": "Polygon", "coordinates": [ [ [ 398525.737538148532622, 3787134.994913530070335 ], [ 398525.127161749755032, 3787134.384537131059915 ], [ 398524.821973550366238, 3787134.384537131059915 ], [ 398524.516785350977443, 3787134.079348932020366 ], [ 398524.516785350977443, 3787133.774160732515156 ], [ 398524.211597151588649, 3787133.468972533009946 ], [ 398524.211597151588649, 3787131.637843336910009 ], [ 398524.516785350977443, 3787131.332655137404799 ], [ 398524.516785350977443, 3787131.02746693789959 ], [ 398524.821973550366238, 3787130.72227873839438 ], [ 398524.821973550366238, 3787129.806714140344411 ], [ 398525.127161749755032, 3787129.501525940839201 ], [ 398525.127161749755032, 3787128.585961342789233 ], [ 398525.432349949143827, 3787128.280773143284023 ], [ 398525.432349949143827, 3787127.975584944244474 ], [ 398525.737538148532622, 3787127.670396744739264 ], [ 398525.737538148532622, 3787127.060020345728844 ], [ 398526.042726347921416, 3787126.754832146689296 ], [ 398526.042726347921416, 3787126.449643947184086 ], [ 398526.347914547310211, 3787126.144455747678876 ], [ 398526.653102746699005, 3787126.144455747678876 ], [ 398526.9582909460878, 3787125.839267548173666 ], [ 398528.484231943031773, 3787125.839267548173666 ], [ 398528.789420142420568, 3787126.144455747678876 ], [ 398529.399796541198157, 3787126.144455747678876 ], [ 398529.704984740586951, 3787126.449643947184086 ], [ 398530.315361139364541, 3787126.449643947184086 ], [ 398532.146490335697308, 3787128.280773143284023 ], [ 398532.146490335697308, 3787130.417090539354831 ], [ 398531.841302136308514, 3787130.72227873839438 ], [ 398531.841302136308514, 3787131.02746693789959 ], [ 398529.704984740586951, 3787133.163784333504736 ], [ 398529.704984740586951, 3787133.468972533009946 ], [ 398529.399796541198157, 3787133.468972533009946 ], [ 398529.094608341809362, 3787133.774160732515156 ], [ 398529.094608341809362, 3787134.079348932020366 ], [ 398528.484231943031773, 3787134.079348932020366 ], [ 398528.179043743642978, 3787134.384537131059915 ], [ 398527.568667344865389, 3787134.384537131059915 ], [ 398527.263479145476595, 3787134.689725330565125 ], [ 398526.653102746699005, 3787134.689725330565125 ], [ 398526.347914547310211, 3787134.994913530070335 ], [ 398525.737538148532622, 3787134.994913530070335 ] ] ] } },
{ "type": "Feature", "properties": { "confidence": 0.94876605272293091, "class": 1, "regularized": null }, "geometry": { "type": "Polygon", "coordinates": [ [ [ 398906.917599186184816, 3786932.044760935939848 ], [ 398906.612410986796021, 3786931.739572736434639 ], [ 398906.307222787407227, 3786931.739572736434639 ], [ 398906.307222787407227, 3786931.434384536929429 ], [ 398905.696846388629638, 3786930.82400813838467 ], [ 398905.696846388629638, 3786930.51881993887946 ], [ 398905.391658189240843, 3786930.21363173937425 ], [ 398905.391658189240843, 3786929.908443540334702 ], [ 398904.170905391685665, 3786928.687690742779523 ], [ 398904.170905391685665, 3786927.161749745719135 ], [ 398903.86571719229687, 3786926.856561546213925 ], [ 398907.527975584962405, 3786926.856561546213925 ], [ 398907.527975584962405, 3786932.044760935939848 ], [ 398906.917599186184816, 3786932.044760935939848 ] ] ] } },
{ "type": "Feature", "properties": { "confidence": 0.94695460796356201, "class": 1, "regularized": null }, "geometry": { "type": "Polygon", "coordinates": [ [ [ 398609.053916581906378, 3786819.430315361358225 ], [ 398608.748728382517584, 3786819.125127161853015 ], [ 398608.443540183128789, 3786819.125127161853015 ], [ 398608.138351983739994, 3786818.819938962347806 ], [ 398608.138351983739994, 3786818.514750762842596 ], [ 398607.8331637843512, 3786818.209562563803047 ], [ 398607.8331637843512, 3786817.904374364297837 ], [ 398608.138351983739994, 3786817.599186164792627 ], [ 398608.138351983739994, 3786816.073245167732239 ], [ 398608.443540183128789, 3786815.76805696869269 ], [ 398608.443540183128789, 3786813.936927772127092 ], [ 398608.748728382517584, 3786813.631739572621882 ], [ 398608.748728382517584, 3786813.326551373116672 ], [ 398609.359104781295173, 3786812.716174974571913 ], [ 398609.359104781295173, 3786812.410986775066704 ], [ 398609.664292980683967, 3786812.410986775066704 ], [ 398609.969481180072762, 3786812.105798575561494 ], [ 398610.579857578850351, 3786812.105798575561494 ], [ 398610.885045778239146, 3786811.800610376521945 ], [ 398614.852492370293476, 3786811.800610376521945 ], [ 398615.15768056968227, 3786812.105798575561494 ], [ 398615.462868769071065, 3786812.105798575561494 ], [ 398615.768056968459859, 3786812.410986775066704 ], [ 398616.073245167848654, 3786812.410986775066704 ], [ 398616.378433367237449, 3786812.716174974571913 ], [ 398616.378433367237449, 3786813.326551373116672 ], [ 398616.683621566626243, 3786813.631739572621882 ], [ 398616.683621566626243, 3786814.242115971632302 ], [ 398616.988809766015038, 3786814.547304171137512 ], [ 398616.988809766015038, 3786816.683621566742659 ], [ 398616.378433367237449, 3786817.293997965287417 ], [ 398616.073245167848654, 3786817.293997965287417 ], [ 398615.768056968459859, 3786817.599186164792627 ], [ 398615.462868769071065, 3786817.599186164792627 ], [ 398615.15768056968227, 3786817.904374364297837 ], [ 398614.852492370293476, 3786817.904374364297837 ], [ 398614.547304170904681, 3786818.209562563803047 ], [ 398613.936927772127092, 3786818.209562563803047 ], [ 398613.631739572738297, 3786818.514750762842596 ], [ 398613.021363173960708, 3786818.514750762842596 ], [ 398612.716174974571913, 3786818.819938962347806 ], [ 398610.885045778239146, 3786818.819938962347806 ], [ 398610.579857578850351, 3786819.125127161853015 ], [ 398609.664292980683967, 3786819.125127161853015 ], [ 398609.359104781295173, 3786819.430315361358225 ], [ 398609.053916581906378, 3786819.430315361358225 ] ] ] } },
{ "type": "Feature", "properties": { "confidence": 0.94530147314071655, "class": 1, "regularized": null }, "geometry": { "type": "Polygon", "coordinates": [ [ [ 398637.131230925733689, 3786983.621566632762551 ], [ 398636.826042726344895, 3786983.316378433257341 ], [ 398636.826042726344895, 3786980.874872838146985 ], [ 398637.131230925733689, 3786980.569684638641775 ], [ 398637.131230925733689, 3786980.264496439602226 ], [ 398638.351983723288868, 3786979.043743642047048 ], [ 398638.351983723288868, 3786978.738555442541838 ], [ 398638.962360122066457, 3786978.128179043531418 ], [ 398638.962360122066457, 3786977.517802644986659 ], [ 398639.267548321455251, 3786977.517802644986659 ], [ 398639.572736520844046, 3786977.212614445481449 ], [ 398639.572736520844046, 3786976.297049847431481 ], [ 398640.183112919621635, 3786975.686673448421061 ], [ 398640.183112919621635, 3786975.381485249381512 ], [ 398640.48830111901043, 3786975.381485249381512 ], [ 398640.793489318399224, 3786975.076297049876302 ], [ 398642.014242115954403, 3786975.076297049876302 ], [ 398642.624618514731992, 3786974.465920650865883 ], [ 398645.066124109842349, 3786974.465920650865883 ], [ 398645.371312309231143, 3786974.771108850371093 ], [ 398645.371312309231143, 3786975.076297049876302 ], [ 398645.676500508619938, 3786975.381485249381512 ], [ 398645.371312309231143, 3786975.686673448421061 ], [ 398645.371312309231143, 3786978.128179043531418 ], [ 398645.066124109842349, 3786978.433367243036628 ], [ 398645.066124109842349, 3786979.348931841086596 ], [ 398644.760935910453554, 3786979.654120040591806 ], [ 398644.760935910453554, 3786979.959308240097016 ], [ 398644.150559511675965, 3786980.569684638641775 ], [ 398644.150559511675965, 3786980.874872838146985 ], [ 398642.929806714120787, 3786982.095625635702163 ], [ 398642.624618514731992, 3786982.095625635702163 ], [ 398642.014242115954403, 3786982.706002034712583 ], [ 398641.403865717176814, 3786982.706002034712583 ], [ 398641.098677517788019, 3786983.011190233752131 ], [ 398640.48830111901043, 3786983.011190233752131 ], [ 398640.183112919621635, 3786983.316378433257341 ], [ 398638.962360122066457, 3786983.316378433257341 ], [ 398638.657171922677662, 3786983.621566632762551 ], [ 398637.131230925733689, 3786983.621566632762551 ] ] ] } },
{ "type": "Feature", "properties": { "confidence": 0.93272686004638672, "class": 1, "regularized": null }, "geometry": { "type": "Polygon", "coordinates": [ [ [ 398875.788402848411351, 3786914.954221770167351 ], [ 398875.483214649022557, 3786914.649033570662141 ], [ 398874.567650050856173, 3786914.649033570662141 ], [ 398874.262461851467378, 3786914.343845371156931 ], [ 398873.346897253300995, 3786914.343845371156931 ], [ 398873.0417090539122, 3786914.649033570662141 ], [ 398872.431332655134611, 3786914.649033570662141 ], [ 398872.126144455745816, 3786914.343845371156931 ], [ 398871.820956256357022, 3786914.343845371156931 ], [ 398871.515768056968227, 3786914.038657172117382 ], [ 398870.905391658190638, 3786914.038657172117382 ], [ 398870.905391658190638, 3786913.733468972612172 ], [ 398870.600203458801843, 3786913.428280773106962 ], [ 398870.600203458801843, 3786913.123092573601753 ], [ 398870.295015259413049, 3786912.817904374562204 ], [ 398870.295015259413049, 3786912.207527975551784 ], [ 398869.989827060024254, 3786911.902339776046574 ], [ 398869.989827060024254, 3786911.291963377501816 ], [ 398869.684638860635459, 3786910.986775177996606 ], [ 398869.684638860635459, 3786909.460834180936217 ], [ 398869.379450661246665, 3786909.155645981896669 ], [ 398869.379450661246665, 3786907.32451678533107 ], [ 398869.989827060024254, 3786906.714140386786312 ], [ 398874.567650050856173, 3786906.714140386786312 ], [ 398874.872838250244968, 3786907.019328585825861 ], [ 398875.788402848411351, 3786907.019328585825861 ], [ 398876.398779247188941, 3786907.62970498483628 ], [ 398876.398779247188941, 3786907.93489318434149 ], [ 398876.703967446577735, 3786908.240081383381039 ], [ 398876.703967446577735, 3786908.545269582886249 ], [ 398877.00915564596653, 3786908.850457782391459 ], [ 398877.314343845355324, 3786908.850457782391459 ], [ 398877.924720244132914, 3786909.460834180936217 ], [ 398877.924720244132914, 3786909.766022380441427 ], [ 398878.229908443521708, 3786910.071210579946637 ], [ 398878.229908443521708, 3786911.291963377501816 ], [ 398877.924720244132914, 3786911.597151577007025 ], [ 398877.924720244132914, 3786913.428280773106962 ], [ 398877.619532044744119, 3786913.733468972612172 ], [ 398877.619532044744119, 3786914.038657172117382 ], [ 398877.314343845355324, 3786914.343845371156931 ], [ 398877.314343845355324, 3786914.649033570662141 ], [ 398876.398779247188941, 3786914.649033570662141 ], [ 398876.093591047800146, 3786914.954221770167351 ], [ 398875.788402848411351, 3786914.954221770167351 ] ] ] } },
{ "type": "Feature", "properties": { "confidence": 0.92231428623199463, "class": 1, "regularized": null }, "geometry": { "type": "Polygon", "coordinates": [ [ [ 398963.682604272617027, 3786868.260427263565361 ], [ 398963.377416073228233, 3786867.955239064060152 ], [ 398963.377416073228233, 3786867.650050864554942 ], [ 398963.072227873839438, 3786867.344862665515393 ], [ 398963.072227873839438, 3786866.124109867960215 ], [ 398962.767039674450643, 3786865.818921668455005 ], [ 398962.767039674450643, 3786865.513733468949795 ], [ 398962.461851475061849, 3786865.208545269444585 ], [ 398962.461851475061849, 3786861.241098677739501 ], [ 398962.767039674450643, 3786861.241098677739501 ], [ 398963.072227873839438, 3786860.935910478234291 ], [ 398963.682604272617027, 3786860.935910478234291 ], [ 398963.987792472005822, 3786860.630722278729081 ], [ 398964.903357070172206, 3786860.630722278729081 ], [ 398965.208545269561, 3786860.935910478234291 ], [ 398966.124109867727384, 3786860.935910478234291 ], [ 398966.429298067116179, 3786861.241098677739501 ], [ 398967.650050864671357, 3786861.241098677739501 ], [ 398967.955239064118359, 3786861.54628687677905 ], [ 398968.260427263507154, 3786861.54628687677905 ], [ 398968.870803662284743, 3786862.156663275789469 ], [ 398969.481180061062332, 3786862.156663275789469 ], [ 398969.481180061062332, 3786862.461851475294679 ], [ 398969.786368260451127, 3786862.767039674334228 ], [ 398969.786368260451127, 3786864.598168870899826 ], [ 398969.481180061062332, 3786864.903357070405036 ], [ 398968.870803662284743, 3786864.903357070405036 ], [ 398968.565615462895948, 3786865.208545269444585 ], [ 398968.260427263507154, 3786865.208545269444585 ], [ 398967.955239064118359, 3786865.513733468949795 ], [ 398967.650050864671357, 3786865.513733468949795 ], [ 398967.039674465893768, 3786866.124109867960215 ], [ 398967.039674465893768, 3786866.429298066999763 ], [ 398966.734486266504973, 3786866.734486266504973 ], [ 398966.734486266504973, 3786867.039674466010183 ], [ 398966.429298067116179, 3786867.344862665515393 ], [ 398966.429298067116179, 3786867.955239064060152 ], [ 398965.818921668338589, 3786867.955239064060152 ], [ 398965.513733468949795, 3786868.260427263565361 ], [ 398963.682604272617027, 3786868.260427263565361 ] ] ] } },
{ "type": "Feature", "properties": { "confidence": 0.8902319073677063, "class": 1, "regularized": "rectangle" }, "geometry": { "type": "Polygon", "coordinates": [ [ [ 398712.5, 3787106.25 ], [ 398722.625, 3787106.25 ], [ 398722.625, 3787120.75 ], [ 398712.5, 3787120.75 ], [ 398712.5, 3787106.25 ] ] ] } },
{ "type": "Feature", "properties": { "confidence": 0.88946837186813354, "class": 1, "regularized": null }, "geometry": { "type": "Polygon", "coordinates": [ [ [ 398799.491353001038078, 3786641.200406917370856 ], [ 398799.186164801649284, 3786640.895218718331307 ], [ 398797.049847405927721, 3786640.895218718331307 ], [ 398796.744659206538927, 3786640.590030518826097 ], [ 398796.439471007150132, 3786640.590030518826097 ], [ 398796.439471007150132, 3786640.284842319320887 ], [ 398796.13428280770313, 3786639.979654119815677 ], [ 398796.13428280770313, 3786639.369277721270919 ], [ 398795.829094608314335, 3786639.064089521765709 ], [ 398795.829094608314335, 3786638.14852492371574 ], [ 398796.13428280770313, 3786637.843336724210531 ], [ 398796.13428280770313, 3786636.317395727150142 ], [ 398796.439471007150132, 3786636.012207528110594 ], [ 398796.439471007150132, 3786635.096642929594964 ], [ 398796.744659206538927, 3786634.791454730555415 ], [ 398796.744659206538927, 3786634.486266531050205 ], [ 398797.049847405927721, 3786634.181078331544995 ], [ 398797.049847405927721, 3786633.875890132039785 ], [ 398797.965412004094105, 3786632.960325533989817 ], [ 398798.575788402871694, 3786632.960325533989817 ], [ 398798.880976602260489, 3786632.655137334484607 ], [ 398799.186164801649284, 3786632.960325533989817 ], [ 398801.932858596148435, 3786632.960325533989817 ], [ 398802.23804679553723, 3786632.655137334484607 ], [ 398802.543234994926024, 3786632.655137334484607 ], [ 398802.848423194314819, 3786632.960325533989817 ], [ 398802.543234994926024, 3786633.265513733495027 ], [ 398802.543234994926024, 3786635.401831129100174 ], [ 398802.23804679553723, 3786635.707019328605384 ], [ 398802.23804679553723, 3786636.012207528110594 ], [ 398801.932858596148435, 3786636.317395727150142 ], [ 398801.932858596148435, 3786638.14852492371574 ], [ 398802.23804679553723, 3786638.45371312322095 ], [ 398802.23804679553723, 3786639.979654119815677 ], [ 398801.932858596148435, 3786640.284842319320887 ], [ 398801.932858596148435, 3786640.590030518826097 ], [ 398801.62767039675964, 3786640.590030518826097 ], [ 398801.322482197370846, 3786640.895218718331307 ], [ 398801.017293997982051, 3786640.895218718331307 ], [ 398800.712105798593257, 3786641.200406917370856 ], [ 398799.491353001038078, 3786641.200406917370856 ] ] ] } },
{ "type": "Feature", "properties": { "confidence": 0.86425185203552246, "class": 1, "regularized": null }, "geometry": { "type": "Polygon", "coordinates": [ [ [ 398965.208545269561, 3786979.959308240097016 ], [ 398964.903357070172206, 3786979.654120040591806 ], [ 398964.598168870783411, 3786979.654120040591806 ], [ 398964.292980671394616, 3786979.348931841086596 ], [ 398963.377416073228233, 3786979.348931841086596 ], [ 398963.072227873839438, 3786979.043743642047048 ], [ 398962.156663275673054, 3786979.043743642047048 ], [ 398961.85147507628426, 3786978.738555442541838 ], [ 398961.85147507628426, 3786977.517802644986659 ], [ 398962.156663275673054, 3786977.212614445481449 ], [ 398962.156663275673054, 3786976.907426245976239 ], [ 398962.461851475061849, 3786976.602238046936691 ], [ 398962.461851475061849, 3786976.297049847431481 ], [ 398962.767039674450643, 3786975.991861647926271 ], [ 398962.767039674450643, 3786975.686673448421061 ], [ 398963.377416073228233, 3786975.076297049876302 ], [ 398963.377416073228233, 3786974.771108850371093 ], [ 398965.208545269561, 3786972.939979654271156 ], [ 398965.208545269561, 3786972.634791454765946 ], [ 398965.513733468949795, 3786972.329603255260736 ], [ 398965.513733468949795, 3786972.024415055755526 ], [ 398965.818921668338589, 3786971.719226856715977 ], [ 398967.344862665282562, 3786971.719226856715977 ], [ 398968.260427263507154, 3786972.634791454765946 ], [ 398968.565615462895948, 3786972.634791454765946 ], [ 398969.786368260451127, 3786973.855544252321124 ], [ 398969.786368260451127, 3786975.076297049876302 ], [ 398969.481180061062332, 3786975.381485249381512 ], [ 398969.481180061062332, 3786975.686673448421061 ], [ 398968.870803662284743, 3786976.297049847431481 ], [ 398968.870803662284743, 3786976.907426245976239 ], [ 398968.565615462895948, 3786977.212614445481449 ], [ 398968.565615462895948, 3786977.822990844491869 ], [ 398968.260427263507154, 3786978.128179043531418 ], [ 398968.260427263507154, 3786978.738555442541838 ], [ 398967.955239064118359, 3786979.043743642047048 ], [ 398967.955239064118359, 3786979.348931841086596 ], [ 398967.650050864671357, 3786979.654120040591806 ], [ 398967.344862665282562, 3786979.654120040591806 ], [ 398967.039674465893768, 3786979.959308240097016 ], [ 398965.208545269561, 3786979.959308240097016 ] ] ] } },
{ "type": "Feature", "properties": { "confidence": 0.79771500825881958, "class": 1, "regularized": null }, "geometry": { "type": "Polygon", "coordinates": [ [ [ 398439.979654120048508, 3786636.622583926655352 ], [ 398439.674465920659713, 3786636.317395727150142 ], [ 398439.369277721270919, 3786636.317395727150142 ], [ 398437.843336724326946, 3786634.791454730555415 ], [ 398437.843336724326946, 3786634.486266531050205 ], [ 398436.927772126160562, 3786633.570701933000237 ], [ 398436.927772126160562, 3786633.265513733495027 ], [ 398436.317395727382973, 3786632.655137334484607 ], [ 398436.317395727382973, 3786632.349949135445058 ], [ 398435.096642929827794, 3786631.12919633788988 ], [ 398434.791454730439, 3786631.12919633788988 ], [ 398434.486266531050205, 3786630.82400813838467 ], [ 398434.181078331661411, 3786630.82400813838467 ], [ 398433.875890132272616, 3786630.51881993887946 ], [ 398433.875890132272616, 3786628.382502543274313 ], [ 398436.927772126160562, 3786628.382502543274313 ], [ 398437.538148524938151, 3786627.772126144263893 ], [ 398437.843336724326946, 3786627.772126144263893 ], [ 398438.14852492371574, 3786628.077314343769103 ], [ 398438.453713123104535, 3786628.077314343769103 ], [ 398438.75890132249333, 3786628.382502543274313 ], [ 398439.369277721270919, 3786628.382502543274313 ], [ 398439.674465920659713, 3786628.077314343769103 ], [ 398440.284842319437303, 3786628.077314343769103 ], [ 398440.590030518826097, 3786627.772126144263893 ], [ 398441.810783316381276, 3786627.772126144263893 ], [ 398442.11597151577007, 3786628.077314343769103 ], [ 398442.421159715158865, 3786628.077314343769103 ], [ 398442.726347914547659, 3786628.382502543274313 ], [ 398443.031536113936454, 3786628.382502543274313 ], [ 398443.336724313325249, 3786628.687690742779523 ], [ 398443.641912512714043, 3786628.687690742779523 ], [ 398443.947100712102838, 3786628.992878941819072 ], [ 398443.947100712102838, 3786631.739572736434639 ], [ 398443.641912512714043, 3786632.044760935939848 ], [ 398443.641912512714043, 3786632.655137334484607 ], [ 398443.336724313325249, 3786632.960325533989817 ], [ 398443.336724313325249, 3786633.265513733495027 ], [ 398443.031536113936454, 3786633.570701933000237 ], [ 398443.031536113936454, 3786634.181078331544995 ], [ 398442.726347914547659, 3786634.486266531050205 ], [ 398442.726347914547659, 3786634.791454730555415 ], [ 398442.11597151577007, 3786635.401831129100174 ], [ 398442.11597151577007, 3786635.707019328605384 ], [ 398441.810783316381276, 3786636.012207528110594 ], [ 398441.810783316381276, 3786636.317395727150142 ], [ 398441.505595116992481, 3786636.622583926655352 ], [ 398439.979654120048508, 3786636.622583926655352 ] ] ] } },
{ "type": "Feature", "properties": { "confidence": 0.74813425540924072, "class": 1, "regularized": null }, "geometry": { "type": "Polygon", "coordinates": [ [ [ 398753.40793489315547, 3786751.983723295852542 ], [ 398753.102746693766676, 3786751.678535096812993 ], [ 398752.492370294989087, 3786751.678535096812993 ], [ 398752.492370294989087, 3786750.762970498297364 ], [ 398752.187182095600292, 3786750.457782299257815 ], [ 398752.492370294989087, 3786750.152594099752605 ], [ 398752.492370294989087, 3786748.626653102692217 ], [ 398752.187182095600292, 3786748.321464903187007 ], [ 398751.881993896211497, 3786748.321464903187007 ], [ 398751.881993896211497, 3786747.100712105631828 ], [ 398752.187182095600292, 3786746.79552390659228 ], [ 398752.492370294989087, 3786746.79552390659228 ], [ 398752.797558494377881, 3786746.49033570708707 ], [ 398753.102746693766676, 3786746.49033570708707 ], [ 398753.713123092602473, 3786745.87995930807665 ], [ 398753.713123092602473, 3786745.574771109037101 ], [ 398754.018311291991267, 3786745.269582909531891 ], [ 398754.018311291991267, 3786744.964394710026681 ], [ 398754.628687690768857, 3786744.354018311481923 ], [ 398754.628687690768857, 3786744.048830111976713 ], [ 398755.54425228893524, 3786743.133265513926744 ], [ 398755.54425228893524, 3786742.522889114916325 ], [ 398755.849440488324035, 3786742.522889114916325 ], [ 398756.15462868771283, 3786742.217700915411115 ], [ 398756.15462868771283, 3786741.912512716371566 ], [ 398756.459816887101624, 3786741.912512716371566 ], [ 398756.765005086490419, 3786741.607324516866356 ], [ 398757.070193285879213, 3786741.912512716371566 ], [ 398757.680569684656803, 3786741.912512716371566 ], [ 398757.680569684656803, 3786742.217700915411115 ], [ 398757.985757884045597, 3786742.522889114916325 ], [ 398757.985757884045597, 3786743.133265513926744 ], [ 398758.290946083434392, 3786743.438453712966293 ], [ 398758.290946083434392, 3786744.048830111976713 ], [ 398758.596134282823186, 3786744.354018311481923 ], [ 398758.596134282823186, 3786746.18514750758186 ], [ 398758.901322482211981, 3786746.49033570708707 ], [ 398758.901322482211981, 3786747.711088504642248 ], [ 398758.596134282823186, 3786748.016276704147458 ], [ 398758.596134282823186, 3786748.931841302197427 ], [ 398758.290946083434392, 3786749.237029501702636 ], [ 398758.290946083434392, 3786750.152594099752605 ], [ 398757.375381485268008, 3786751.068158697802573 ], [ 398757.070193285879213, 3786751.068158697802573 ], [ 398756.765005086490419, 3786751.373346897307783 ], [ 398756.459816887101624, 3786751.373346897307783 ], [ 398756.15462868771283, 3786751.678535096812993 ], [ 398755.54425228893524, 3786751.678535096812993 ], [ 398755.239064089546446, 3786751.983723295852542 ], [ 398753.40793489315547, 3786751.983723295852542 ] ] ] } },
{ "type": "Feature", "properties": { "confidence": 0.73985028266906738, "class": 1, "regularized": null }, "geometry": { "type": "Polygon", "coordinates": [ [ [ 398588.301119023410138, 3786642.421159714926034 ], [ 398587.690742624632549, 3786641.810783316381276 ], [ 398587.385554425243754, 3786641.810783316381276 ], [ 398586.775178026466165, 3786641.200406917370856 ], [ 398586.164801627688576, 3786641.200406917370856 ], [ 398585.859613428299781, 3786640.895218718331307 ], [ 398585.249237029522192, 3786640.895218718331307 ], [ 398584.944048830133397, 3786640.590030518826097 ], [ 398584.638860630744603, 3786640.590030518826097 ], [ 398584.333672431355808, 3786640.284842319320887 ], [ 398583.723296032578219, 3786640.284842319320887 ], [ 398583.418107833189424, 3786639.979654119815677 ], [ 398583.418107833189424, 3786639.674465920776129 ], [ 398582.807731434411835, 3786639.064089521765709 ], [ 398582.807731434411835, 3786638.758901322260499 ], [ 398582.50254323502304, 3786638.45371312322095 ], [ 398582.197355035634246, 3786638.45371312322095 ], [ 398582.197355035634246, 3786636.927772126160562 ], [ 398582.807731434411835, 3786636.317395727150142 ], [ 398583.723296032578219, 3786636.317395727150142 ], [ 398584.028484231967013, 3786636.012207528110594 ], [ 398584.333672431355808, 3786636.012207528110594 ], [ 398584.638860630744603, 3786636.317395727150142 ], [ 398585.554425228910986, 3786636.317395727150142 ], [ 398586.164801627688576, 3786636.927772126160562 ], [ 398586.775178026466165, 3786636.927772126160562 ], [ 398587.690742624632549, 3786637.843336724210531 ], [ 398587.995930824021343, 3786637.843336724210531 ], [ 398589.216683621576522, 3786639.064089521765709 ], [ 398589.521871820965316, 3786639.064089521765709 ], [ 398590.4374364191317, 3786639.979654119815677 ], [ 398590.4374364191317, 3786640.284842319320887 ], [ 398590.742624618520495, 3786640.590030518826097 ], [ 398590.742624618520495, 3786641.810783316381276 ], [ 398590.4374364191317, 3786642.115971515886486 ], [ 398590.4374364191317, 3786642.421159714926034 ], [ 398588.301119023410138, 3786642.421159714926034 ] ] ] } },
{ "type": "Feature", "properties": { "confidence": 0.69097226858139038, "class": 1, "regularized": null }, "geometry": { "type": "Polygon", "coordinates": [ [ [ 398638.657171922677662, 3786784.63886063080281 ], [ 398638.351983723288868, 3786784.3336724312976 ], [ 398638.046795523900073, 3786784.3336724312976 ], [ 398637.131230925733689, 3786783.418107833247632 ], [ 398636.826042726344895, 3786783.418107833247632 ], [ 398636.826042726344895, 3786782.807731434237212 ], [ 398636.5208545269561, 3786782.502543235197663 ], [ 398636.5208545269561, 3786781.586978636682034 ], [ 398636.215666327567305, 3786781.281790437642485 ], [ 398636.215666327567305, 3786780.061037640087306 ], [ 398635.910478128178511, 3786779.755849440582097 ], [ 398635.910478128178511, 3786779.145473041571677 ], [ 398636.215666327567305, 3786778.840284842532128 ], [ 398636.215666327567305, 3786777.31434384547174 ], [ 398636.826042726344895, 3786776.70396744646132 ], [ 398637.436419125122484, 3786776.70396744646132 ], [ 398637.741607324511278, 3786776.398779247421771 ], [ 398638.046795523900073, 3786776.398779247421771 ], [ 398638.351983723288868, 3786776.093591047916561 ], [ 398641.709053916565608, 3786776.093591047916561 ], [ 398642.014242115954403, 3786776.398779247421771 ], [ 398642.624618514731992, 3786776.398779247421771 ], [ 398642.929806714120787, 3786776.70396744646132 ], [ 398643.540183112898376, 3786776.70396744646132 ], [ 398643.540183112898376, 3786781.892166836187243 ], [ 398643.234994913509581, 3786782.197355035692453 ], [ 398643.234994913509581, 3786782.807731434237212 ], [ 398642.929806714120787, 3786783.112919633742422 ], [ 398642.929806714120787, 3786783.418107833247632 ], [ 398642.624618514731992, 3786783.723296032752842 ], [ 398642.624618514731992, 3786784.02848423179239 ], [ 398642.014242115954403, 3786784.02848423179239 ], [ 398641.709053916565608, 3786784.3336724312976 ], [ 398640.48830111901043, 3786784.3336724312976 ], [ 398640.183112919621635, 3786784.63886063080281 ], [ 398638.657171922677662, 3786784.63886063080281 ] ] ] } },
{ "type": "Feature", "properties": { "confidence": 0.64428001642227173, "class": 1, "regularized": null }, "geometry": { "type": "Polygon", "coordinates": [ [ [ 398533.977619532030076, 3786682.706002034712583 ], [ 398533.672431332641281, 3786682.400813835207373 ], [ 398533.062054933863692, 3786682.400813835207373 ], [ 398532.756866734474897, 3786682.095625635702163 ], [ 398531.841302136308514, 3786682.095625635702163 ], [ 398531.536113936919719, 3786681.790437436196953 ], [ 398530.92573753814213, 3786681.790437436196953 ], [ 398530.315361139364541, 3786681.180061037652194 ], [ 398530.315361139364541, 3786679.348931841086596 ], [ 398530.620549338753335, 3786679.043743642047048 ], [ 398531.841302136308514, 3786679.043743642047048 ], [ 398532.146490335697308, 3786678.738555442541838 ], [ 398532.451678535086103, 3786678.738555442541838 ], [ 398532.756866734474897, 3786678.433367243036628 ], [ 398533.062054933863692, 3786678.433367243036628 ], [ 398533.672431332641281, 3786677.822990844491869 ], [ 398535.503560528974049, 3786677.822990844491869 ], [ 398535.808748728362843, 3786677.517802644986659 ], [ 398536.419125127140433, 3786677.517802644986659 ], [ 398536.724313326529227, 3786677.822990844491869 ], [ 398537.029501525918022, 3786677.822990844491869 ], [ 398537.029501525918022, 3786679.654120040591806 ], [ 398536.419125127140433, 3786680.264496439602226 ], [ 398536.419125127140433, 3786680.569684638641775 ], [ 398536.113936927751638, 3786680.874872838146985 ], [ 398536.113936927751638, 3786681.180061037652194 ], [ 398535.503560528974049, 3786681.790437436196953 ], [ 398535.503560528974049, 3786682.095625635702163 ], [ 398535.198372329585254, 3786682.400813835207373 ], [ 398534.28280773141887, 3786682.400813835207373 ], [ 398533.977619532030076, 3786682.706002034712583 ] ] ] } },
{ "type": "Feature", "properties": { "confidence": 0.58370637893676758, "class": 1, "regularized": null }, "geometry": { "type": "Polygon", "coordinates": [ [ [ 398878.229908443521708, 3786825.839267548173666 ], [ 398877.924720244132914, 3786825.534079349134117 ], [ 398877.619532044744119, 3786825.534079349134117 ], [ 398877.00915564596653, 3786824.923702950123698 ], [ 398877.00915564596653, 3786824.618514750618488 ], [ 398876.703967446577735, 3786824.313326551578939 ], [ 398876.703967446577735, 3786821.566632756963372 ], [ 398876.398779247188941, 3786821.261444557458162 ], [ 398876.398779247188941, 3786817.599186164792627 ], [ 398876.093591047800146, 3786817.293997965287417 ], [ 398876.093591047800146, 3786816.378433367237449 ], [ 398875.788402848411351, 3786816.073245167732239 ], [ 398875.788402848411351, 3786813.936927772127092 ], [ 398877.00915564596653, 3786813.936927772127092 ], [ 398877.314343845355324, 3786813.631739572621882 ], [ 398877.619532044744119, 3786813.631739572621882 ], [ 398877.924720244132914, 3786813.326551373116672 ], [ 398878.229908443521708, 3786813.326551373116672 ], [ 398878.535096642910503, 3786813.021363174077123 ], [ 398879.145473041688092, 3786813.021363174077123 ], [ 398879.450661241076887, 3786812.716174974571913 ], [ 398880.97660223802086, 3786812.716174974571913 ], [ 398880.97660223802086, 3786814.242115971632302 ], [ 398881.281790437409654, 3786814.547304171137512 ], [ 398881.281790437409654, 3786815.46286876918748 ], [ 398881.586978636798449, 3786815.76805696869269 ], [ 398881.586978636798449, 3786816.378433367237449 ], [ 398882.197355035634246, 3786816.988809766247869 ], [ 398882.197355035634246, 3786817.293997965287417 ], [ 398883.11291963380063, 3786818.209562563803047 ], [ 398883.11291963380063, 3786819.125127161853015 ], [ 398883.418107833189424, 3786819.430315361358225 ], [ 398883.418107833189424, 3786820.651068158913404 ], [ 398883.11291963380063, 3786820.956256357952952 ], [ 398883.11291963380063, 3786821.261444557458162 ], [ 398882.807731434411835, 3786821.566632756963372 ], [ 398882.807731434411835, 3786822.177009155508131 ], [ 398882.50254323502304, 3786822.482197355013341 ], [ 398882.50254323502304, 3786822.787385554518551 ], [ 398882.197355035634246, 3786823.092573754023761 ], [ 398882.197355035634246, 3786823.702950152568519 ], [ 398881.892166836187243, 3786824.008138352073729 ], [ 398881.892166836187243, 3786824.618514750618488 ], [ 398881.281790437409654, 3786825.228891149628907 ], [ 398880.061037639854476, 3786825.228891149628907 ], [ 398879.755849440465681, 3786825.534079349134117 ], [ 398879.450661241076887, 3786825.534079349134117 ], [ 398879.145473041688092, 3786825.839267548173666 ], [ 398878.229908443521708, 3786825.839267548173666 ] ] ] } },
{ "type": "Feature", "properties": { "confidence": 0.55274993181228638, "class": 1, "regularized": null }, "geometry": { "type": "Polygon", "coordinates": [ [ [ 398645.066124109842349, 3787120.040691759902984 ], [ 398644.760935910453554, 3787119.735503560397774 ], [ 398644.760935910453554, 3787116.683621566742659 ], [ 398645.066124109842349, 3787116.378433367237449 ], [ 398645.066124109842349, 3787116.073245167732239 ], [ 398645.676500508619938, 3787115.46286876918748 ], [ 398645.981688708008733, 3787115.46286876918748 ], [ 398647.202441505622119, 3787114.242115971632302 ], [ 398647.202441505622119, 3787113.936927772127092 ], [ 398647.507629705010913, 3787113.631739572621882 ], [ 398647.507629705010913, 3787113.326551373116672 ], [ 398647.812817904399708, 3787113.021363174077123 ], [ 398647.812817904399708, 3787112.716174974571913 ], [ 398648.728382502566092, 3787112.716174974571913 ], [ 398649.033570701954886, 3787113.021363174077123 ], [ 398649.338758901343681, 3787113.021363174077123 ], [ 398649.338758901343681, 3787113.631739572621882 ], [ 398649.643947100732476, 3787113.936927772127092 ], [ 398649.643947100732476, 3787115.76805696869269 ], [ 398649.338758901343681, 3787116.073245167732239 ], [ 398649.338758901343681, 3787116.988809766247869 ], [ 398649.033570701954886, 3787117.293997965287417 ], [ 398649.033570701954886, 3787118.819938962347806 ], [ 398648.728382502566092, 3787119.125127161853015 ], [ 398648.728382502566092, 3787119.430315361358225 ], [ 398648.423194303177297, 3787119.735503560397774 ], [ 398647.202441505622119, 3787119.735503560397774 ], [ 398646.897253306233324, 3787120.040691759902984 ], [ 398645.066124109842349, 3787120.040691759902984 ] ] ] } },
{ "type": "Feature", "properties": { "confidence": 0.52285617589950562, "class": 1, "regularized": null }, "geometry": { "type": "Polygon", "coordinates": [ [ [ 398950.254323499510065, 3786700.10172939999029 ], [ 398949.94913530012127, 3786699.79654120048508 ], [ 398949.643947100732476, 3786699.79654120048508 ], [ 398949.033570701954886, 3786699.186164801474661 ], [ 398949.033570701954886, 3786698.880976602435112 ], [ 398948.728382502566092, 3786698.575788402929902 ], [ 398948.728382502566092, 3786695.829094608314335 ], [ 398949.033570701954886, 3786695.523906408809125 ], [ 398949.033570701954886, 3786695.218718209769577 ], [ 398949.643947100732476, 3786694.608341810759157 ], [ 398949.643947100732476, 3786694.303153611253947 ], [ 398950.254323499510065, 3786693.692777212709188 ], [ 398952.085452695842832, 3786693.692777212709188 ], [ 398952.390640895231627, 3786693.997965412214398 ], [ 398952.390640895231627, 3786694.303153611253947 ], [ 398953.001017294009216, 3786694.913530010264367 ], [ 398953.001017294009216, 3786696.134282807819545 ], [ 398952.695829094620422, 3786696.439471007324755 ], [ 398952.695829094620422, 3786696.744659206364304 ], [ 398952.390640895231627, 3786697.049847405869514 ], [ 398952.390640895231627, 3786697.660223804879934 ], [ 398952.085452695842832, 3786697.965412003919482 ], [ 398952.085452695842832, 3786698.575788402929902 ], [ 398951.780264496454038, 3786698.880976602435112 ], [ 398951.780264496454038, 3786699.186164801474661 ], [ 398950.864699898287654, 3786700.10172939999029 ], [ 398950.254323499510065, 3786700.10172939999029 ] ] ] } },
{ "type": "Feature", "properties": { "confidence": 0.51123207807540894, "class": 1, "regularized": null }, "geometry": { "type": "Polygon", "coordinates": [ [ [ 398566.632756866747513, 3786719.938962359912694 ], [ 398566.022380467969924, 3786719.328585961367935 ], [ 398566.022380467969924, 3786718.107833163812757 ], [ 398566.327568667358719, 3786717.802644964307547 ], [ 398566.327568667358719, 3786717.497456764802337 ], [ 398567.243133265525103, 3786716.581892166752368 ], [ 398567.548321464913897, 3786716.581892166752368 ], [ 398567.853509664302692, 3786716.276703967247158 ], [ 398567.853509664302692, 3786715.97151576820761 ], [ 398568.158697863691486, 3786715.6663275687024 ], [ 398568.158697863691486, 3786715.36113936919719 ], [ 398568.463886063080281, 3786715.05595116969198 ], [ 398568.463886063080281, 3786714.445574771147221 ], [ 398568.769074262469076, 3786714.140386571642011 ], [ 398570.600203458801843, 3786714.140386571642011 ], [ 398571.210579857579432, 3786714.750762970652431 ], [ 398571.210579857579432, 3786715.05595116969198 ], [ 398571.515768056968227, 3786715.36113936919719 ], [ 398571.515768056968227, 3786716.276703967247158 ], [ 398569.684638860635459, 3786718.107833163812757 ], [ 398569.684638860635459, 3786718.413021363317966 ], [ 398569.379450661246665, 3786718.718209562357515 ], [ 398569.379450661246665, 3786719.023397761862725 ], [ 398569.07426246185787, 3786719.328585961367935 ], [ 398569.07426246185787, 3786719.633774160873145 ], [ 398567.853509664302692, 3786719.633774160873145 ], [ 398567.548321464913897, 3786719.938962359912694 ], [ 398566.632756866747513, 3786719.938962359912694 ] ] ] } },
{ "type": "Feature", "properties": { "confidence": 0.4886002242565155, "class": 1, "regularized": null }, "geometry": { "type": "Polygon", "coordinates": [ [ [ 398574.872838250244968, 3787033.367243133485317 ], [ 398574.567650050856173, 3787033.062054933980107 ], [ 398573.652085452689789, 3787033.062054933980107 ], [ 398573.346897253300995, 3787032.756866734474897 ], [ 398573.0417090539122, 3787032.756866734474897 ], [ 398571.820956256357022, 3787031.536113936919719 ], [ 398571.820956256357022, 3787030.92573753837496 ], [ 398571.515768056968227, 3787030.62054933886975 ], [ 398571.515768056968227, 3787029.094608341809362 ], [ 398571.820956256357022, 3787028.789420142304152 ], [ 398571.820956256357022, 3787027.568667344748974 ], [ 398572.126144455745816, 3787027.263479145243764 ], [ 398572.126144455745816, 3787026.958290946204215 ], [ 398572.431332655134611, 3787026.958290946204215 ], [ 398572.736520854523405, 3787026.653102746699005 ], [ 398573.652085452689789, 3787026.653102746699005 ], [ 398573.957273652078584, 3787026.347914547193795 ], [ 398575.483214649022557, 3787026.347914547193795 ], [ 398575.788402848411351, 3787026.042726347688586 ], [ 398576.093591047800146, 3787026.042726347688586 ], [ 398576.398779247188941, 3787025.737538148649037 ], [ 398577.00915564596653, 3787025.737538148649037 ], [ 398577.314343845355324, 3787025.432349949143827 ], [ 398577.924720244132914, 3787025.432349949143827 ], [ 398578.229908443521708, 3787025.127161749638617 ], [ 398578.840284842299297, 3787025.127161749638617 ], [ 398579.145473041688092, 3787025.432349949143827 ], [ 398580.36622583924327, 3787025.432349949143827 ], [ 398580.671414038632065, 3787025.737538148649037 ], [ 398580.671414038632065, 3787027.263479145243764 ], [ 398580.36622583924327, 3787027.568667344748974 ], [ 398580.36622583924327, 3787030.62054933886975 ], [ 398580.061037639854476, 3787030.92573753837496 ], [ 398580.061037639854476, 3787031.230925737414509 ], [ 398579.755849440465681, 3787031.536113936919719 ], [ 398579.755849440465681, 3787031.841302136424929 ], [ 398579.450661241076887, 3787032.146490335930139 ], [ 398579.450661241076887, 3787032.451678534969687 ], [ 398579.145473041688092, 3787032.756866734474897 ], [ 398578.840284842299297, 3787032.756866734474897 ], [ 398578.535096642910503, 3787033.062054933980107 ], [ 398577.619532044744119, 3787033.062054933980107 ], [ 398577.314343845355324, 3787033.367243133485317 ], [ 398574.872838250244968, 3787033.367243133485317 ] ] ] } },
{ "type": "Feature", "properties": { "confidence": 0.48697629570960999, "class": 1, "regularized": null }, "geometry": { "type": "Polygon", "coordinates": [ [ [ 398471.719226856541354, 3786697.355035605374724 ], [ 398471.719226856541354, 3786694.913530010264367 ], [ 398471.41403865715256, 3786694.608341810759157 ], [ 398471.41403865715256, 3786693.387589013203979 ], [ 398471.108850457763765, 3786693.082400813698769 ], [ 398478.128179043764248, 3786693.082400813698769 ], [ 398477.822990844375454, 3786693.387589013203979 ], [ 398477.822990844375454, 3786693.997965412214398 ], [ 398476.90742624620907, 3786694.913530010264367 ], [ 398476.602238046820275, 3786694.913530010264367 ], [ 398475.991861648042686, 3786695.523906408809125 ], [ 398475.686673448653892, 3786695.523906408809125 ], [ 398475.381485249265097, 3786695.829094608314335 ], [ 398475.076297049876302, 3786695.829094608314335 ], [ 398474.7711088504293, 3786696.134282807819545 ], [ 398474.465920651040506, 3786696.134282807819545 ], [ 398473.550356052874122, 3786697.049847405869514 ], [ 398473.245167853485327, 3786697.049847405869514 ], [ 398472.939979654096533, 3786697.355035605374724 ], [ 398471.719226856541354, 3786697.355035605374724 ] ] ] } },
{ "type": "Feature", "properties": { "confidence": 0.43691873550415039, "class": 1, "regularized": null }, "geometry": { "type": "Polygon", "coordinates": [ [ [ 398449.745676500489935, 3786701.932858596090227 ], [ 398449.440488301101141, 3786701.627670396585017 ], [ 398449.135300101712346, 3786701.627670396585017 ], [ 398448.830111902323551, 3786701.322482197545469 ], [ 398448.830111902323551, 3786698.880976602435112 ], [ 398450.661241098656319, 3786697.049847405869514 ], [ 398450.661241098656319, 3786696.439471007324755 ], [ 398450.966429298045114, 3786696.134282807819545 ], [ 398450.966429298045114, 3786695.218718209769577 ], [ 398451.271617497433908, 3786694.913530010264367 ], [ 398451.271617497433908, 3786694.608341810759157 ], [ 398451.576805696822703, 3786694.608341810759157 ], [ 398451.881993896211497, 3786694.303153611253947 ], [ 398451.881993896211497, 3786693.997965412214398 ], [ 398452.187182095600292, 3786693.692777212709188 ], [ 398452.187182095600292, 3786693.387589013203979 ], [ 398452.492370294989087, 3786693.387589013203979 ], [ 398452.797558494377881, 3786693.082400813698769 ], [ 398454.933875890157651, 3786693.082400813698769 ], [ 398455.239064089546446, 3786693.387589013203979 ], [ 398456.15462868771283, 3786693.387589013203979 ], [ 398455.849440488324035, 3786693.692777212709188 ], [ 398455.849440488324035, 3786695.218718209769577 ], [ 398456.15462868771283, 3786695.523906408809125 ], [ 398456.15462868771283, 3786695.829094608314335 ], [ 398456.459816887101624, 3786696.134282807819545 ], [ 398456.459816887101624, 3786700.10172939999029 ], [ 398456.765005086490419, 3786700.406917599029839 ], [ 398456.765005086490419, 3786700.712105798535049 ], [ 398456.459816887101624, 3786701.017293998040259 ], [ 398456.459816887101624, 3786701.322482197545469 ], [ 398456.15462868771283, 3786701.322482197545469 ], [ 398455.849440488324035, 3786701.627670396585017 ], [ 398454.323499491380062, 3786701.627670396585017 ], [ 398454.018311291991267, 3786701.932858596090227 ], [ 398449.745676500489935, 3786701.932858596090227 ] ] ] } },
{ "type": "Feature", "properties": { "confidence": 0.38295787572860718, "class": 1, "regularized": "rectangle" }, "geometry": { "type": "Polygon", "coordinates": [ [ [ 398782.1875, 3786815.75 ], [ 398793.6875, 3786812.75 ], [ 398796.375, 3786823.75 ], [ 398784.875, 3786826.75 ], [ 398782.1875, 3786815.75 ] ] ] } },
{ "type": "Feature", "properties": { "confidence": 0.37542858719825745, "class": 1, "regularized": null }, "geometry": { "type": "Polygon", "coordinates": [ [ [ 398557.477110885025468, 3786653.407934893388301 ], [ 398557.171922685636673, 3786653.102746693883091 ], [ 398556.866734486247879, 3786653.102746693883091 ], [ 398555.6459816886927, 3786651.881993896327913 ], [ 398555.6459816886927, 3786651.271617497317493 ], [ 398555.340793489303906, 3786650.966429298277944 ], [ 398555.340793489303906, 3786650.661241098772734 ], [ 398555.035605289915111, 3786650.356052899267524 ], [ 398555.035605289915111, 3786649.745676500722766 ], [ 398555.340793489303906, 3786649.440488301217556 ], [ 398555.340793489303906, 3786649.135300101712346 ], [ 398555.6459816886927, 3786649.135300101712346 ], [ 398555.951169888081495, 3786648.830111902207136 ], [ 398556.256358087470289, 3786648.830111902207136 ], [ 398556.561546286859084, 3786648.524923703167588 ], [ 398557.782299084414262, 3786648.524923703167588 ], [ 398558.087487283803057, 3786648.219735503662378 ], [ 398558.392675483191852, 3786648.219735503662378 ], [ 398559.003051881969441, 3786648.830111902207136 ], [ 398559.918616480135825, 3786648.830111902207136 ], [ 398560.223804679524619, 3786649.135300101712346 ], [ 398560.223804679524619, 3786649.440488301217556 ], [ 398560.528992878913414, 3786649.745676500722766 ], [ 398560.834181078360416, 3786649.745676500722766 ], [ 398560.834181078360416, 3786650.661241098772734 ], [ 398561.139369277749211, 3786650.966429298277944 ], [ 398561.139369277749211, 3786652.187182095833123 ], [ 398560.834181078360416, 3786652.492370294872671 ], [ 398560.834181078360416, 3786652.797558494377881 ], [ 398560.528992878913414, 3786653.102746693883091 ], [ 398559.918616480135825, 3786653.102746693883091 ], [ 398559.61342828074703, 3786653.407934893388301 ], [ 398557.477110885025468, 3786653.407934893388301 ] ] ] } },
{ "type": "Feature", "properties": { "confidence": 0.35968485474586487, "class": 1, "regularized": null }, "geometry": { "type": "Polygon", "coordinates": [ [ [ 398682.299084435391705, 3786961.64801627676934 ], [ 398681.993896236002911, 3786961.34282807726413 ], [ 398681.993896236002911, 3786956.459816887043417 ], [ 398682.299084435391705, 3786956.154628687538207 ], [ 398682.299084435391705, 3786955.544252288993448 ], [ 398682.6042726347805, 3786955.544252288993448 ], [ 398682.909460834169295, 3786955.239064089488238 ], [ 398683.825025432335678, 3786955.239064089488238 ], [ 398684.130213631724473, 3786954.933875889983028 ], [ 398685.961342828057241, 3786954.933875889983028 ], [ 398685.961342828057241, 3786955.239064089488238 ], [ 398686.266531027446035, 3786955.544252288993448 ], [ 398686.266531027446035, 3786956.154628687538207 ], [ 398686.57171922683483, 3786956.459816887043417 ], [ 398686.57171922683483, 3786956.765005086548626 ], [ 398686.876907426223624, 3786957.070193286053836 ], [ 398686.876907426223624, 3786957.375381485093385 ], [ 398687.182095625612419, 3786957.680569684598595 ], [ 398687.182095625612419, 3786958.290946083609015 ], [ 398687.487283825001214, 3786958.596134282648563 ], [ 398687.487283825001214, 3786959.206510681658983 ], [ 398687.182095625612419, 3786959.511698881164193 ], [ 398686.876907426223624, 3786959.511698881164193 ], [ 398686.57171922683483, 3786959.816887080203742 ], [ 398685.961342828057241, 3786959.816887080203742 ], [ 398684.740590030502062, 3786961.03763987775892 ], [ 398684.435401831113268, 3786961.03763987775892 ], [ 398684.130213631724473, 3786961.34282807726413 ], [ 398683.214649033558089, 3786961.34282807726413 ], [ 398682.909460834169295, 3786961.64801627676934 ], [ 398682.299084435391705, 3786961.64801627676934 ] ] ] } },
{ "type": "Feature", "properties": { "confidence": 0.32927605509757996, "class": 1, "regularized": null }, "geometry": { "type": "Polygon", "coordinates": [ [ [ 398641.098677517788019, 3786696.744659206364304 ], [ 398640.48830111901043, 3786696.134282807819545 ], [ 398640.48830111901043, 3786695.829094608314335 ], [ 398640.183112919621635, 3786695.523906408809125 ], [ 398640.183112919621635, 3786695.218718209769577 ], [ 398639.877924720232841, 3786694.913530010264367 ], [ 398639.877924720232841, 3786693.997965412214398 ], [ 398639.572736520844046, 3786693.692777212709188 ], [ 398639.572736520844046, 3786692.47202441515401 ], [ 398643.234994913509581, 3786692.47202441515401 ], [ 398643.234994913509581, 3786694.913530010264367 ], [ 398642.624618514731992, 3786695.523906408809125 ], [ 398642.624618514731992, 3786695.829094608314335 ], [ 398642.319430315343197, 3786696.134282807819545 ], [ 398642.319430315343197, 3786696.439471007324755 ], [ 398642.014242115954403, 3786696.744659206364304 ], [ 398641.098677517788019, 3786696.744659206364304 ] ] ] } },
{ "type": "Feature", "properties": { "confidence": 0.31718850135803223, "class": 1, "regularized": null }, "geometry": { "type": "Polygon", "coordinates": [ [ [ 398485.147507629706524, 3786634.791454730555415 ], [ 398483.011190233984962, 3786632.655137334484607 ], [ 398483.011190233984962, 3786632.044760935939848 ], [ 398482.706002034596168, 3786631.739572736434639 ], [ 398482.706002034596168, 3786631.12919633788988 ], [ 398482.400813835207373, 3786630.82400813838467 ], [ 398482.400813835207373, 3786628.992878941819072 ], [ 398482.706002034596168, 3786628.687690742779523 ], [ 398485.757884028484114, 3786628.687690742779523 ], [ 398485.757884028484114, 3786629.298067141324282 ], [ 398486.063072227872908, 3786629.603255340829492 ], [ 398486.063072227872908, 3786629.908443540334702 ], [ 398486.673448626650497, 3786630.51881993887946 ], [ 398486.673448626650497, 3786631.12919633788988 ], [ 398486.978636826039292, 3786631.434384536929429 ], [ 398486.978636826039292, 3786632.349949135445058 ], [ 398487.283825025428087, 3786632.655137334484607 ], [ 398487.283825025428087, 3786633.265513733495027 ], [ 398487.589013224816881, 3786633.570701933000237 ], [ 398486.978636826039292, 3786634.181078331544995 ], [ 398486.673448626650497, 3786634.181078331544995 ], [ 398486.368260427261703, 3786634.486266531050205 ], [ 398486.063072227872908, 3786634.486266531050205 ], [ 398485.757884028484114, 3786634.791454730555415 ], [ 398485.147507629706524, 3786634.791454730555415 ] ] ] } },
{ "type": "Feature", "properties": { "confidence": 0.29858532547950745, "class": 1, "regularized": null }, "geometry": { "type": "Polygon", "coordinates": [ [ [ 398854.730417090526316, 3786742.522889114916325 ], [ 398854.120040691748727, 3786741.912512716371566 ], [ 398854.120040691748727, 3786739.165818921755999 ], [ 398854.425228891137522, 3786738.860630722250789 ], [ 398854.425228891137522, 3786738.250254323706031 ], [ 398854.730417090526316, 3786737.945066124200821 ], [ 398854.730417090526316, 3786737.639877924695611 ], [ 398855.035605289915111, 3786737.639877924695611 ], [ 398855.340793489303906, 3786737.334689725190401 ], [ 398857.171922685636673, 3786737.334689725190401 ], [ 398857.171922685636673, 3786740.691759918816388 ], [ 398856.866734486247879, 3786740.996948117855936 ], [ 398856.866734486247879, 3786741.607324516866356 ], [ 398856.256358087470289, 3786742.217700915411115 ], [ 398855.6459816886927, 3786742.217700915411115 ], [ 398855.340793489303906, 3786742.522889114916325 ], [ 398854.730417090526316, 3786742.522889114916325 ] ] ] } },
{ "type": "Feature", "properties": { "confidence": 0.29123842716217041, "class": 1, "regularized": null }, "geometry": { "type": "Polygon", "coordinates": [ [ [ 398671.617497456783894, 3786751.983723295852542 ], [ 398671.617497456783894, 3786750.457782299257815 ], [ 398671.3123092573951, 3786750.152594099752605 ], [ 398671.3123092573951, 3786746.79552390659228 ], [ 398671.617497456783894, 3786746.49033570708707 ], [ 398672.227873855561484, 3786746.49033570708707 ], [ 398672.533062054950278, 3786746.18514750758186 ], [ 398673.143438453727867, 3786746.18514750758186 ], [ 398673.143438453727867, 3786751.983723295852542 ], [ 398671.617497456783894, 3786751.983723295852542 ] ] ] } },
{ "type": "Feature", "properties": { "confidence": 0.2795279324054718, "class": 1, "regularized": null }, "geometry": { "type": "Polygon", "coordinates": [ [ [ 398647.507629705010913, 3786795.625635808799416 ], [ 398646.897253306233324, 3786795.015259409788996 ], [ 398646.897253306233324, 3786794.710071210749447 ], [ 398646.59206510684453, 3786794.404883011244237 ], [ 398646.59206510684453, 3786794.099694811739028 ], [ 398646.286876907397527, 3786793.794506612233818 ], [ 398646.286876907397527, 3786792.878942014183849 ], [ 398645.981688708008733, 3786792.573753814678639 ], [ 398645.981688708008733, 3786791.658189216628671 ], [ 398646.286876907397527, 3786791.353001017123461 ], [ 398646.286876907397527, 3786790.437436419073492 ], [ 398646.59206510684453, 3786790.132248219568282 ], [ 398646.897253306233324, 3786790.132248219568282 ], [ 398647.812817904399708, 3786789.216683621518314 ], [ 398648.118006103788503, 3786789.216683621518314 ], [ 398648.728382502566092, 3786788.606307222973555 ], [ 398651.475076297065243, 3786788.606307222973555 ], [ 398651.475076297065243, 3786788.911495422013104 ], [ 398651.780264496454038, 3786789.216683621518314 ], [ 398652.085452695842832, 3786789.216683621518314 ], [ 398652.390640895231627, 3786789.521871821023524 ], [ 398652.695829094620422, 3786789.521871821023524 ], [ 398653.001017294009216, 3786789.827060020528734 ], [ 398653.001017294009216, 3786791.047812818083912 ], [ 398652.695829094620422, 3786791.353001017123461 ], [ 398652.695829094620422, 3786791.658189216628671 ], [ 398651.475076297065243, 3786792.878942014183849 ], [ 398651.475076297065243, 3786793.184130213689059 ], [ 398651.169888097676449, 3786793.489318413194269 ], [ 398651.169888097676449, 3786793.794506612233818 ], [ 398650.864699898287654, 3786794.099694811739028 ], [ 398650.864699898287654, 3786794.404883011244237 ], [ 398650.559511698898859, 3786794.404883011244237 ], [ 398650.254323499510065, 3786794.710071210749447 ], [ 398650.254323499510065, 3786795.015259409788996 ], [ 398649.94913530012127, 3786795.015259409788996 ], [ 398649.338758901343681, 3786795.625635808799416 ], [ 398647.507629705010913, 3786795.625635808799416 ] ] ] } },
{ "type": "Feature", "properties": { "confidence": 0.27572953701019287, "class": 1, "regularized": null }, "geometry": { "type": "Polygon", "coordinates": [ [ [ 398761.037639877933543, 3786770.905391658190638 ], [ 398759.816887080378365, 3786769.684638860635459 ], [ 398759.816887080378365, 3786769.07426246162504 ], [ 398759.51169888098957, 3786768.769074262585491 ], [ 398759.51169888098957, 3786761.749745676293969 ], [ 398759.816887080378365, 3786761.444557477254421 ], [ 398759.816887080378365, 3786761.139369277749211 ], [ 398760.122075279767159, 3786760.834181078244001 ], [ 398760.122075279767159, 3786760.528992878738791 ], [ 398760.427263479155954, 3786760.528992878738791 ], [ 398761.037639877933543, 3786759.918616480194032 ], [ 398761.342828077322338, 3786759.918616480194032 ], [ 398761.648016276711132, 3786759.613428280688822 ], [ 398763.4791454730439, 3786759.613428280688822 ], [ 398763.784333672432695, 3786759.918616480194032 ], [ 398764.089521871821489, 3786759.918616480194032 ], [ 398764.089521871821489, 3786760.528992878738791 ], [ 398764.394710071210284, 3786760.834181078244001 ], [ 398764.394710071210284, 3786762.360122075304389 ], [ 398764.699898270599078, 3786762.665310274809599 ], [ 398764.699898270599078, 3786762.970498473849148 ], [ 398765.005086469987873, 3786763.275686673354357 ], [ 398765.005086469987873, 3786765.106815869919956 ], [ 398764.699898270599078, 3786765.412004068959504 ], [ 398764.699898270599078, 3786767.243133265525103 ], [ 398764.394710071210284, 3786767.548321465030313 ], [ 398764.394710071210284, 3786768.769074262585491 ], [ 398763.784333672432695, 3786769.37945066113025 ], [ 398763.784333672432695, 3786769.989827060140669 ], [ 398763.173957273655105, 3786769.989827060140669 ], [ 398762.563580874877516, 3786770.600203458685428 ], [ 398761.953204476099927, 3786770.600203458685428 ], [ 398761.648016276711132, 3786770.905391658190638 ], [ 398761.037639877933543, 3786770.905391658190638 ] ] ] } },
{ "type": "Feature", "properties": { "confidence": 0.27442061901092529, "class": 1, "regularized": null }, "geometry": { "type": "Polygon", "coordinates": [ [ [ 398624.008138351957314, 3786695.829094608314335 ], [ 398623.09257375379093, 3786694.913530010264367 ], [ 398623.09257375379093, 3786694.608341810759157 ], [ 398622.787385554402135, 3786694.303153611253947 ], [ 398622.787385554402135, 3786693.387589013203979 ], [ 398622.482197355013341, 3786693.082400813698769 ], [ 398622.482197355013341, 3786692.47202441515401 ], [ 398627.670396744681057, 3786692.47202441515401 ], [ 398627.670396744681057, 3786693.387589013203979 ], [ 398627.365208545292262, 3786693.692777212709188 ], [ 398627.365208545292262, 3786694.303153611253947 ], [ 398627.060020345903467, 3786694.303153611253947 ], [ 398626.449643947125878, 3786694.913530010264367 ], [ 398626.449643947125878, 3786695.218718209769577 ], [ 398626.144455747737084, 3786695.523906408809125 ], [ 398625.839267548348289, 3786695.523906408809125 ], [ 398625.534079348959494, 3786695.829094608314335 ], [ 398624.008138351957314, 3786695.829094608314335 ] ] ] } },
{ "type": "Feature", "properties": { "confidence": 0.25105667114257812, "class": 1, "regularized": null }, "geometry": { "type": "Polygon", "coordinates": [ [ [ 398714.343845371331554, 3786683.926754832267761 ], [ 398714.038657171942759, 3786683.621566632762551 ], [ 398713.42828077316517, 3786683.621566632762551 ], [ 398712.207527975609992, 3786682.400813835207373 ], [ 398712.207527975609992, 3786681.485249237157404 ], [ 398711.902339776221197, 3786681.180061037652194 ], [ 398712.207527975609992, 3786680.874872838146985 ], [ 398712.207527975609992, 3786680.264496439602226 ], [ 398711.902339776221197, 3786679.959308240097016 ], [ 398711.902339776221197, 3786679.348931841086596 ], [ 398711.597151576832402, 3786679.043743642047048 ], [ 398711.597151576832402, 3786678.738555442541838 ], [ 398711.291963377443608, 3786678.433367243036628 ], [ 398711.291963377443608, 3786676.907426245976239 ], [ 398710.986775178054813, 3786676.602238046936691 ], [ 398711.597151576832402, 3786675.991861647926271 ], [ 398712.512716174998786, 3786675.991861647926271 ], [ 398712.817904374387581, 3786675.686673448421061 ], [ 398713.733468972553965, 3786675.686673448421061 ], [ 398714.038657171942759, 3786675.991861647926271 ], [ 398714.649033570720349, 3786675.991861647926271 ], [ 398714.954221770109143, 3786676.297049847431481 ], [ 398715.259409969497938, 3786676.297049847431481 ], [ 398715.564598168886732, 3786676.602238046936691 ], [ 398716.480162767053116, 3786676.602238046936691 ], [ 398716.785350966441911, 3786676.907426245976239 ], [ 398717.700915564608295, 3786676.907426245976239 ], [ 398718.006103763997089, 3786677.212614445481449 ], [ 398718.311291963385884, 3786677.212614445481449 ], [ 398718.311291963385884, 3786677.822990844491869 ], [ 398718.616480162774678, 3786678.128179043531418 ], [ 398718.616480162774678, 3786681.180061037652194 ], [ 398718.006103763997089, 3786681.790437436196953 ], [ 398718.006103763997089, 3786682.095625635702163 ], [ 398717.700915564608295, 3786682.400813835207373 ], [ 398717.700915564608295, 3786682.706002034712583 ], [ 398717.090539165830705, 3786683.316378433257341 ], [ 398716.785350966441911, 3786683.316378433257341 ], [ 398716.480162767053116, 3786683.621566632762551 ], [ 398716.174974567664322, 3786683.621566632762551 ], [ 398715.869786368275527, 3786683.926754832267761 ], [ 398714.343845371331554, 3786683.926754832267761 ] ] ] } }
]
}
