{
"type": "FeatureCollection",
"name": "cell_00452_pre",
"crs": { "type": "name", "properties": { "name": "urn:ogc:def:crs:EPSG::32611" } },
"features": [
{ "type": "Feature", "properties": { "confidence": 0.96423417329788208, "class": 1 }, "geometry": { "type": "Polygon", "coordinates": [ [ [ 399742.522889114974532, 3787296.134282807819545 ], [ 399742.217700915585738, 3787295.829094608314335 ], [ 399741.912512716196943, 3787295.829094608314335 ], [ 399741.302136317419354, 3787295.218718209769577 ], [ 399741.302136317419354, 3787294.913530010264367 ], [ 399740.996948118030559, 3787294.608341810759157 ], [ 399740.996948118030559, 3787294.303153611253947 ], [ 399740.38657171925297, 3787293.692777212709188 ], [ 399740.38657171925297, 3787292.47202441515401 ], [ 399745.574771108862478, 3787292.47202441515401 ], [ 399745.574771108862478, 3787293.082400813698769 ], [ 399745.879959308251273, 3787293.387589013203979 ], [ 399745.879959308251273, 3787295.218718209769577 ], [ 399745.574771108862478, 3787295.523906408809125 ], [ 399745.269582909473684, 3787295.523906408809125 ], [ 399744.964394710084889, 3787295.829094608314335 ], [ 399744.3540183113073, 3787295.829094608314335 ], [ 399744.048830111918505, 3787296.134282807819545 ], [ 399742.522889114974532, 3787296.134282807819545 ] ] ] } },
{ "type": "Feature", "properties": { "confidence": 0.91070038080215454, "class": 1 }, "geometry": { "type": "Polygon", "coordinates": [ [ [ 399811.80061037640553, 3787369.989827060140669 ], [ 399811.495422177016735, 3787369.684638860635459 ], [ 399809.969481180072762, 3787369.684638860635459 ], [ 399809.664292980683967, 3787369.37945066113025 ], [ 399809.359104781295173, 3787369.37945066113025 ], [ 399808.443540183128789, 3787368.463886063080281 ], [ 399808.443540183128789, 3787367.853509664069861 ], [ 399807.8331637843512, 3787367.243133265525103 ], [ 399807.8331637843512, 3787366.632756866514683 ], [ 399807.527975584962405, 3787366.327568667475134 ], [ 399807.527975584962405, 3787365.717192268464714 ], [ 399807.8331637843512, 3787365.412004068959504 ], [ 399807.8331637843512, 3787364.496439470909536 ], [ 399808.138351983739994, 3787364.191251271404326 ], [ 399808.138351983739994, 3787363.275686673354357 ], [ 399808.443540183128789, 3787362.970498473849148 ], [ 399808.443540183128789, 3787362.360122075304389 ], [ 399809.359104781295173, 3787361.444557477254421 ], [ 399809.969481180072762, 3787361.444557477254421 ], [ 399810.274669379461557, 3787361.139369277749211 ], [ 399812.716174974571913, 3787361.139369277749211 ], [ 399813.021363173960708, 3787361.444557477254421 ], [ 399813.631739572738297, 3787361.444557477254421 ], [ 399813.631739572738297, 3787361.749745676293969 ], [ 399814.242115971515886, 3787362.360122075304389 ], [ 399814.242115971515886, 3787362.665310274809599 ], [ 399814.547304170904681, 3787362.970498473849148 ], [ 399814.852492370293476, 3787362.970498473849148 ], [ 399814.852492370293476, 3787363.275686673354357 ], [ 399815.462868769071065, 3787363.886063072364777 ], [ 399815.768056968459859, 3787363.886063072364777 ], [ 399815.768056968459859, 3787364.191251271404326 ], [ 399816.378433367237449, 3787364.801627670414746 ], [ 399816.683621566626243, 3787364.801627670414746 ], [ 399817.293997965403832, 3787365.412004068959504 ], [ 399817.293997965403832, 3787365.717192268464714 ], [ 399817.599186164792627, 3787366.022380467969924 ], [ 399817.599186164792627, 3787366.937945066019893 ], [ 399817.293997965403832, 3787367.243133265525103 ], [ 399817.293997965403832, 3787367.548321465030313 ], [ 399816.988809766015038, 3787367.853509664069861 ], [ 399816.988809766015038, 3787368.158697863575071 ], [ 399816.683621566626243, 3787368.158697863575071 ], [ 399815.15768056968227, 3787369.684638860635459 ], [ 399814.547304170904681, 3787369.684638860635459 ], [ 399814.242115971515886, 3787369.989827060140669 ], [ 399811.80061037640553, 3787369.989827060140669 ] ] ] } },
{ "type": "Feature", "properties": { "confidence": 0.88377469778060913, "class": 1 }, "geometry": { "type": "Polygon", "coordinates": [ [ [ 399941.505595116992481, 3787321.464903356973082 ], [ 399941.200406917603686, 3787321.159715157467872 ], [ 399939.979654120048508, 3787321.159715157467872 ], [ 399939.369277721270919, 3787320.549338758923113 ], [ 399939.369277721270919, 3787317.497456764802337 ], [ 399939.674465920659713, 3787317.192268565762788 ], [ 399939.674465920659713, 3787316.581892166752368 ], [ 399939.979654120048508, 3787316.276703967247158 ], [ 399939.979654120048508, 3787315.97151576820761 ], [ 399940.590030518826097, 3787315.36113936919719 ], [ 399940.590030518826097, 3787315.05595116969198 ], [ 399940.895218718214892, 3787315.05595116969198 ], [ 399941.200406917603686, 3787314.750762970652431 ], [ 399941.200406917603686, 3787314.445574771147221 ], [ 399941.505595116992481, 3787314.140386571642011 ], [ 399941.505595116992481, 3787313.530010173097253 ], [ 399941.200406917603686, 3787313.224821973592043 ], [ 399941.505595116992481, 3787312.919633774086833 ], [ 399941.505595116992481, 3787312.309257375542074 ], [ 399942.11597151577007, 3787312.309257375542074 ], [ 399942.421159715158865, 3787312.614445574581623 ], [ 399943.031536113936454, 3787312.614445574581623 ], [ 399943.641912512714043, 3787313.224821973592043 ], [ 399944.252288911491632, 3787313.224821973592043 ], [ 399944.252288911491632, 3787313.530010173097253 ], [ 399944.557477110880427, 3787313.835198372136801 ], [ 399944.862665310269222, 3787313.835198372136801 ], [ 399944.862665310269222, 3787314.445574771147221 ], [ 399945.473041709046811, 3787315.05595116969198 ], [ 399945.473041709046811, 3787315.36113936919719 ], [ 399946.0834181078244, 3787315.97151576820761 ], [ 399946.0834181078244, 3787317.802644964307547 ], [ 399945.778229908435605, 3787318.107833163812757 ], [ 399945.778229908435605, 3787318.413021363317966 ], [ 399945.473041709046811, 3787318.718209562357515 ], [ 399945.473041709046811, 3787319.328585961367935 ], [ 399944.862665310269222, 3787319.938962359912694 ], [ 399944.557477110880427, 3787319.938962359912694 ], [ 399944.252288911491632, 3787320.244150559417903 ], [ 399943.947100712102838, 3787320.244150559417903 ], [ 399943.641912512714043, 3787320.549338758923113 ], [ 399943.641912512714043, 3787320.854526958428323 ], [ 399943.336724313325249, 3787320.854526958428323 ], [ 399943.031536113936454, 3787321.159715157467872 ], [ 399942.421159715158865, 3787321.159715157467872 ], [ 399942.11597151577007, 3787321.464903356973082 ], [ 399941.505595116992481, 3787321.464903356973082 ] ] ] } },
{ "type": "Feature", "properties": { "confidence": 0.82181394100189209, "class": 1 }, "geometry": { "type": "Polygon", "coordinates": [ [ [ 400081.892166836187243, 3787529.603255340829492 ], [ 400081.586978636798449, 3787529.298067141324282 ], [ 400081.281790437409654, 3787529.298067141324282 ], [ 400080.671414038632065, 3787528.687690742779523 ], [ 400080.671414038632065, 3787526.856561546213925 ], [ 400088.301119023410138, 3787526.856561546213925 ], [ 400088.301119023410138, 3787527.161749745719135 ], [ 400087.995930824021343, 3787527.466937945224345 ], [ 400087.995930824021343, 3787527.772126144263893 ], [ 400087.690742624632549, 3787527.772126144263893 ], [ 400087.385554425243754, 3787528.077314343769103 ], [ 400086.775178026466165, 3787528.077314343769103 ], [ 400086.46998982707737, 3787528.382502543274313 ], [ 400086.164801627688576, 3787528.382502543274313 ], [ 400085.859613428299781, 3787528.687690742779523 ], [ 400084.333672431355808, 3787528.687690742779523 ], [ 400084.028484231967013, 3787528.992878941819072 ], [ 400083.723296032578219, 3787528.992878941819072 ], [ 400083.418107833189424, 3787529.298067141324282 ], [ 400083.11291963380063, 3787529.298067141324282 ], [ 400082.807731434411835, 3787529.603255340829492 ], [ 400081.892166836187243, 3787529.603255340829492 ] ] ] } },
{ "type": "Feature", "properties": { "confidence": 0.68857955932617188, "class": 1 }, "geometry": { "type": "Polygon", "coordinates": [ [ [ 400115.15768056968227, 3787307.121057985816151 ], [ 400114.852492370293476, 3787306.815869786310941 ], [ 400113.631739572738297, 3787306.815869786310941 ], [ 400113.326551373349503, 3787306.510681586805731 ], [ 400113.021363173960708, 3787306.510681586805731 ], [ 400112.716174974571913, 3787306.205493387766182 ], [ 400112.410986775183119, 3787306.205493387766182 ], [ 400112.105798575794324, 3787305.900305188260972 ], [ 400111.80061037640553, 3787305.900305188260972 ], [ 400110.885045778239146, 3787304.984740590211004 ], [ 400110.579857578850351, 3787304.984740590211004 ], [ 400107.8331637843512, 3787302.238046795595437 ], [ 400107.222787385573611, 3787302.238046795595437 ], [ 400106.917599186184816, 3787301.932858596090227 ], [ 400106.612410986796021, 3787301.932858596090227 ], [ 400105.696846388629638, 3787301.017293998040259 ], [ 400105.696846388629638, 3787300.712105798535049 ], [ 400105.391658189240843, 3787300.406917599029839 ], [ 400105.391658189240843, 3787299.491353000979871 ], [ 400105.086469989852048, 3787299.186164801474661 ], [ 400105.086469989852048, 3787297.049847405869514 ], [ 400105.391658189240843, 3787296.744659206364304 ], [ 400105.391658189240843, 3787296.439471007324755 ], [ 400105.696846388629638, 3787296.134282807819545 ], [ 400109.359104781295173, 3787296.134282807819545 ], [ 400109.969481180072762, 3787296.744659206364304 ], [ 400110.274669379461557, 3787296.744659206364304 ], [ 400111.80061037640553, 3787298.270600203424692 ], [ 400112.105798575794324, 3787298.270600203424692 ], [ 400112.410986775183119, 3787298.575788402929902 ], [ 400113.021363173960708, 3787298.575788402929902 ], [ 400113.631739572738297, 3787299.186164801474661 ], [ 400113.936927772127092, 3787299.186164801474661 ], [ 400114.242115971515886, 3787299.491353000979871 ], [ 400114.547304170904681, 3787299.491353000979871 ], [ 400116.988809766015038, 3787301.932858596090227 ], [ 400116.988809766015038, 3787302.238046795595437 ], [ 400118.514750762959011, 3787303.763987792655826 ], [ 400118.514750762959011, 3787305.289928789250553 ], [ 400117.904374364181422, 3787305.900305188260972 ], [ 400117.904374364181422, 3787306.205493387766182 ], [ 400117.599186164792627, 3787306.510681586805731 ], [ 400117.293997965403832, 3787306.510681586805731 ], [ 400116.988809766015038, 3787306.815869786310941 ], [ 400116.073245167848654, 3787306.815869786310941 ], [ 400115.768056968459859, 3787307.121057985816151 ], [ 400115.15768056968227, 3787307.121057985816151 ] ] ] } },
{ "type": "Feature", "properties": { "confidence": 0.66738760471343994, "class": 1 }, "geometry": { "type": "Polygon", "coordinates": [ [ [ 399828.280773143458646, 3787414.85249237017706 ], [ 399827.975584944069851, 3787414.547304171137512 ], [ 399827.670396744681057, 3787414.547304171137512 ], [ 399827.060020345903467, 3787413.936927772127092 ], [ 399827.060020345903467, 3787413.631739572621882 ], [ 399826.754832146514673, 3787413.326551373116672 ], [ 399826.754832146514673, 3787412.716174974571913 ], [ 399825.839267548348289, 3787411.800610376521945 ], [ 399825.839267548348289, 3787411.495422177016735 ], [ 399825.534079348959494, 3787411.190233977511525 ], [ 399825.534079348959494, 3787410.885045778006315 ], [ 399825.2288911495707, 3787410.579857578966767 ], [ 399825.2288911495707, 3787409.664292980451137 ], [ 399829.501525941013824, 3787409.664292980451137 ], [ 399829.501525941013824, 3787411.190233977511525 ], [ 399829.806714140402619, 3787411.495422177016735 ], [ 399829.806714140402619, 3787412.105798575561494 ], [ 399830.111902339791413, 3787412.410986775066704 ], [ 399830.111902339791413, 3787413.326551373116672 ], [ 399830.417090539180208, 3787413.631739572621882 ], [ 399830.417090539180208, 3787413.936927772127092 ], [ 399830.111902339791413, 3787414.242115971632302 ], [ 399830.111902339791413, 3787414.547304171137512 ], [ 399829.501525941013824, 3787414.547304171137512 ], [ 399829.19633774162503, 3787414.85249237017706 ], [ 399828.280773143458646, 3787414.85249237017706 ] ] ] } },
{ "type": "Feature", "properties": { "confidence": 0.64857131242752075, "class": 1 }, "geometry": { "type": "Polygon", "coordinates": [ [ [ 399737.639877924695611, 3787417.599186164792627 ], [ 399737.334689725306816, 3787417.293997965287417 ], [ 399737.334689725306816, 3787416.683621566742659 ], [ 399737.029501525918022, 3787416.378433367237449 ], [ 399737.029501525918022, 3787414.85249237017706 ], [ 399736.724313326529227, 3787414.547304171137512 ], [ 399736.724313326529227, 3787413.936927772127092 ], [ 399736.419125127140433, 3787413.631739572621882 ], [ 399736.419125127140433, 3787413.021363174077123 ], [ 399736.113936927751638, 3787412.716174974571913 ], [ 399736.113936927751638, 3787412.105798575561494 ], [ 399736.419125127140433, 3787411.800610376521945 ], [ 399736.419125127140433, 3787410.885045778006315 ], [ 399736.724313326529227, 3787410.579857578966767 ], [ 399736.724313326529227, 3787410.274669379461557 ], [ 399743.438453713140916, 3787410.274669379461557 ], [ 399743.743641912529711, 3787410.579857578966767 ], [ 399743.743641912529711, 3787411.800610376521945 ], [ 399744.048830111918505, 3787412.105798575561494 ], [ 399744.048830111918505, 3787412.410986775066704 ], [ 399744.3540183113073, 3787412.716174974571913 ], [ 399744.3540183113073, 3787415.76805696869269 ], [ 399744.048830111918505, 3787416.073245167732239 ], [ 399743.743641912529711, 3787416.073245167732239 ], [ 399743.438453713140916, 3787416.378433367237449 ], [ 399743.133265513752121, 3787416.378433367237449 ], [ 399742.522889114974532, 3787416.988809766247869 ], [ 399741.912512716196943, 3787416.988809766247869 ], [ 399741.607324516808148, 3787417.293997965287417 ], [ 399740.996948118030559, 3787417.293997965287417 ], [ 399740.691759918641765, 3787417.599186164792627 ], [ 399737.639877924695611, 3787417.599186164792627 ] ] ] } },
{ "type": "Feature", "properties": { "confidence": 0.54884815216064453, "class": 1 }, "geometry": { "type": "Polygon", "coordinates": [ [ [ 399834.384537131234538, 3787387.080366225913167 ], [ 399834.384537131234538, 3787380.061037640087306 ], [ 399834.994913530012127, 3787380.061037640087306 ], [ 399835.300101729400922, 3787379.755849440582097 ], [ 399835.910478128178511, 3787379.755849440582097 ], [ 399836.215666327567305, 3787380.061037640087306 ], [ 399836.826042726344895, 3787380.061037640087306 ], [ 399836.826042726344895, 3787380.976602238137275 ], [ 399837.131230925733689, 3787381.281790437642485 ], [ 399837.131230925733689, 3787381.586978636682034 ], [ 399838.657171922677662, 3787383.112919633742422 ], [ 399838.657171922677662, 3787383.418107833247632 ], [ 399838.962360122066457, 3787383.723296032752842 ], [ 399838.962360122066457, 3787386.164801627863199 ], [ 399838.351983723288868, 3787386.775178026407957 ], [ 399835.300101729400922, 3787386.775178026407957 ], [ 399834.994913530012127, 3787387.080366225913167 ], [ 399834.384537131234538, 3787387.080366225913167 ] ] ] } },
{ "type": "Feature", "properties": { "confidence": 0.49859637022018433, "class": 1 }, "geometry": { "type": "Polygon", "coordinates": [ [ [ 399703.153611393703613, 3787530.21363173937425 ], [ 399702.848423194314819, 3787529.908443540334702 ], [ 399702.543234994926024, 3787529.908443540334702 ], [ 399702.23804679553723, 3787529.603255340829492 ], [ 399701.932858596148435, 3787529.603255340829492 ], [ 399701.322482197370846, 3787528.992878941819072 ], [ 399701.322482197370846, 3787528.687690742779523 ], [ 399701.017293997982051, 3787528.382502543274313 ], [ 399701.017293997982051, 3787526.856561546213925 ], [ 399708.341810783313122, 3787526.856561546213925 ], [ 399708.341810783313122, 3787527.466937945224345 ], [ 399707.731434384535532, 3787528.077314343769103 ], [ 399707.731434384535532, 3787528.382502543274313 ], [ 399706.815869786369149, 3787529.298067141324282 ], [ 399706.510681586980354, 3787529.298067141324282 ], [ 399706.205493387591559, 3787529.603255340829492 ], [ 399705.900305188202765, 3787529.603255340829492 ], [ 399705.59511698881397, 3787529.908443540334702 ], [ 399705.289928789425176, 3787529.908443540334702 ], [ 399704.984740590036381, 3787530.21363173937425 ], [ 399703.153611393703613, 3787530.21363173937425 ] ] ] } },
{ "type": "Feature", "properties": { "confidence": 0.43601641058921814, "class": 1 }, "geometry": { "type": "Polygon", "coordinates": [ [ [ 399625.635808748716954, 3787297.049847405869514 ], [ 399625.33062054932816, 3787296.744659206364304 ], [ 399624.415055951161776, 3787296.744659206364304 ], [ 399623.499491352995392, 3787295.829094608314335 ], [ 399623.499491352995392, 3787294.913530010264367 ], [ 399623.194303153606597, 3787294.608341810759157 ], [ 399623.194303153606597, 3787294.303153611253947 ], [ 399622.889114954217803, 3787293.997965412214398 ], [ 399622.889114954217803, 3787293.692777212709188 ], [ 399623.194303153606597, 3787293.387589013203979 ], [ 399623.194303153606597, 3787292.47202441515401 ], [ 399629.603255340771284, 3787292.47202441515401 ], [ 399629.603255340771284, 3787293.997965412214398 ], [ 399629.298067141382489, 3787294.303153611253947 ], [ 399629.298067141382489, 3787294.913530010264367 ], [ 399628.6876907426049, 3787295.523906408809125 ], [ 399628.6876907426049, 3787296.134282807819545 ], [ 399628.077314343827311, 3787296.744659206364304 ], [ 399627.772126144438516, 3787296.744659206364304 ], [ 399627.466937945049722, 3787297.049847405869514 ], [ 399625.635808748716954, 3787297.049847405869514 ] ] ] } },
{ "type": "Feature", "properties": { "confidence": 0.37098684906959534, "class": 1 }, "geometry": { "type": "Polygon", "coordinates": [ [ [ 399868.260427263507154, 3787331.230925737414509 ], [ 399868.260427263507154, 3787330.315361139364541 ], [ 399867.955239064118359, 3787330.010172939859331 ], [ 399867.955239064118359, 3787326.347914547193795 ], [ 399868.870803662284743, 3787325.432349949143827 ], [ 399869.481180061062332, 3787325.432349949143827 ], [ 399869.786368260451127, 3787325.737538148649037 ], [ 399870.701932858617511, 3787325.737538148649037 ], [ 399871.922685656172689, 3787326.958290946204215 ], [ 399871.922685656172689, 3787327.263479145243764 ], [ 399872.227873855561484, 3787327.568667344748974 ], [ 399872.227873855561484, 3787328.484231942798942 ], [ 399872.533062054950278, 3787328.789420142304152 ], [ 399872.533062054950278, 3787331.230925737414509 ], [ 399868.260427263507154, 3787331.230925737414509 ] ] ] } },
{ "type": "Feature", "properties": { "confidence": 0.33823415637016296, "class": 1 }, "geometry": { "type": "Polygon", "coordinates": [ [ [ 399752.28891149541596, 3787289.114954221993685 ], [ 399751.983723296027165, 3787288.809766022488475 ], [ 399750.152594099694397, 3787288.809766022488475 ], [ 399749.847405900305603, 3787288.504577822983265 ], [ 399749.542217700916808, 3787288.504577822983265 ], [ 399748.626653102750424, 3787287.589013224933296 ], [ 399748.626653102750424, 3787287.283825025428087 ], [ 399748.32146490336163, 3787286.978636825922877 ], [ 399748.32146490336163, 3787286.673448626883328 ], [ 399748.016276703972835, 3787286.368260427378118 ], [ 399748.016276703972835, 3787285.757884028367698 ], [ 399747.71108850458404, 3787285.452695828862488 ], [ 399747.71108850458404, 3787284.53713123081252 ], [ 399748.016276703972835, 3787284.23194303130731 ], [ 399748.016276703972835, 3787283.926754832267761 ], [ 399748.32146490336163, 3787283.621566632762551 ], [ 399748.32146490336163, 3787283.011190233752131 ], [ 399748.626653102750424, 3787282.706002034712583 ], [ 399748.626653102750424, 3787282.095625635702163 ], [ 399748.931841302139219, 3787281.790437436196953 ], [ 399749.542217700916808, 3787281.790437436196953 ], [ 399749.847405900305603, 3787281.485249237157404 ], [ 399751.068158697860781, 3787281.485249237157404 ], [ 399751.373346897249576, 3787281.790437436196953 ], [ 399751.983723296027165, 3787281.790437436196953 ], [ 399752.594099694804754, 3787282.400813835207373 ], [ 399752.594099694804754, 3787283.011190233752131 ], [ 399753.204476093582343, 3787283.621566632762551 ], [ 399753.204476093582343, 3787283.926754832267761 ], [ 399753.509664292971138, 3787284.23194303130731 ], [ 399753.509664292971138, 3787287.589013224933296 ], [ 399753.204476093582343, 3787287.894201424438506 ], [ 399753.204476093582343, 3787288.809766022488475 ], [ 399752.899287894193549, 3787288.809766022488475 ], [ 399752.594099694804754, 3787289.114954221993685 ], [ 399752.28891149541596, 3787289.114954221993685 ] ] ] } },
{ "type": "Feature", "properties": { "confidence": 0.3293241560459137, "class": 1 }, "geometry": { "type": "Polygon", "coordinates": [ [ [ 400092.573753814853262, 3787536.012207528110594 ], [ 400091.963377416075673, 3787535.401831129100174 ], [ 400091.963377416075673, 3787534.791454730555415 ], [ 400091.658189216686878, 3787534.486266531050205 ], [ 400091.658189216686878, 3787532.655137334484607 ], [ 400091.963377416075673, 3787532.349949135445058 ], [ 400091.963377416075673, 3787532.044760935939848 ], [ 400092.268565615464468, 3787532.044760935939848 ], [ 400092.573753814853262, 3787531.739572736434639 ], [ 400093.489318413019646, 3787531.739572736434639 ], [ 400094.099694811797235, 3787532.349949135445058 ], [ 400094.40488301118603, 3787532.349949135445058 ], [ 400094.710071210574824, 3787532.655137334484607 ], [ 400095.015259409963619, 3787532.655137334484607 ], [ 400095.320447609352414, 3787532.960325533989817 ], [ 400095.320447609352414, 3787533.265513733495027 ], [ 400095.625635808741208, 3787533.570701933000237 ], [ 400095.625635808741208, 3787533.875890132039785 ], [ 400095.320447609352414, 3787534.181078331544995 ], [ 400095.320447609352414, 3787534.791454730555415 ], [ 400095.015259409963619, 3787535.096642929594964 ], [ 400095.015259409963619, 3787535.401831129100174 ], [ 400094.710071210574824, 3787535.707019328605384 ], [ 400094.40488301118603, 3787535.707019328605384 ], [ 400094.099694811797235, 3787536.012207528110594 ], [ 400092.573753814853262, 3787536.012207528110594 ] ] ] } },
{ "type": "Feature", "properties": { "confidence": 0.3093244731426239, "class": 1 }, "geometry": { "type": "Polygon", "coordinates": [ [ [ 400022.99084435403347, 3787530.82400813838467 ], [ 400022.99084435403347, 3787530.51881993887946 ], [ 400022.685656154644676, 3787530.21363173937425 ], [ 400022.685656154644676, 3787529.298067141324282 ], [ 400022.380467955255881, 3787528.992878941819072 ], [ 400022.380467955255881, 3787528.687690742779523 ], [ 400022.075279755867086, 3787528.382502543274313 ], [ 400022.075279755867086, 3787527.772126144263893 ], [ 400022.380467955255881, 3787527.466937945224345 ], [ 400022.380467955255881, 3787526.856561546213925 ], [ 400030.92573753814213, 3787526.856561546213925 ], [ 400030.92573753814213, 3787527.161749745719135 ], [ 400030.010172939975746, 3787528.077314343769103 ], [ 400030.010172939975746, 3787528.382502543274313 ], [ 400029.704984740586951, 3787528.382502543274313 ], [ 400028.179043743642978, 3787529.908443540334702 ], [ 400028.179043743642978, 3787530.21363173937425 ], [ 400027.873855544254184, 3787530.51881993887946 ], [ 400026.653102746699005, 3787530.51881993887946 ], [ 400026.347914547310211, 3787530.82400813838467 ], [ 400022.99084435403347, 3787530.82400813838467 ] ] ] } },
{ "type": "Feature", "properties": { "confidence": 0.30617332458496094, "class": 1 }, "geometry": { "type": "Polygon", "coordinates": [ [ [ 399753.814852492359933, 3787296.439471007324755 ], [ 399753.509664292971138, 3787296.134282807819545 ], [ 399752.899287894193549, 3787296.134282807819545 ], [ 399752.594099694804754, 3787295.829094608314335 ], [ 399752.594099694804754, 3787295.523906408809125 ], [ 399751.983723296027165, 3787294.913530010264367 ], [ 399751.373346897249576, 3787294.913530010264367 ], [ 399751.373346897249576, 3787294.303153611253947 ], [ 399751.068158697860781, 3787293.997965412214398 ], [ 399751.068158697860781, 3787292.47202441515401 ], [ 399755.340793489303906, 3787292.47202441515401 ], [ 399755.340793489303906, 3787296.439471007324755 ], [ 399753.814852492359933, 3787296.439471007324755 ] ] ] } },
{ "type": "Feature", "properties": { "confidence": 0.29415199160575867, "class": 1 }, "geometry": { "type": "Polygon", "coordinates": [ [ [ 400051.983723296027165, 3787511.902339776046574 ], [ 400051.67853509663837, 3787511.597151577007025 ], [ 400051.373346897249576, 3787511.597151577007025 ], [ 400051.068158697860781, 3787511.291963377501816 ], [ 400051.068158697860781, 3787509.155645981896669 ], [ 400051.373346897249576, 3787509.155645981896669 ], [ 400051.67853509663837, 3787508.850457782391459 ], [ 400051.67853509663837, 3787508.545269582886249 ], [ 400051.983723296027165, 3787508.545269582886249 ], [ 400052.28891149541596, 3787508.240081383381039 ], [ 400052.28891149541596, 3787507.32451678533107 ], [ 400052.594099694804754, 3787507.32451678533107 ], [ 400052.899287894193549, 3787507.019328585825861 ], [ 400052.899287894193549, 3787506.714140386786312 ], [ 400053.204476093582343, 3787506.714140386786312 ], [ 400054.120040691748727, 3787505.798575788270682 ], [ 400055.035605289915111, 3787505.798575788270682 ], [ 400055.340793489303906, 3787505.493387589231133 ], [ 400055.340793489303906, 3787505.188199389725924 ], [ 400059.61342828074703, 3787505.188199389725924 ], [ 400059.918616480135825, 3787504.883011190220714 ], [ 400060.528992878913414, 3787504.883011190220714 ], [ 400060.834181078360416, 3787505.188199389725924 ], [ 400061.139369277749211, 3787505.188199389725924 ], [ 400061.139369277749211, 3787506.408952187281102 ], [ 400060.834181078360416, 3787506.714140386786312 ], [ 400060.834181078360416, 3787507.019328585825861 ], [ 400060.528992878913414, 3787507.019328585825861 ], [ 400059.003051881969441, 3787508.545269582886249 ], [ 400059.003051881969441, 3787508.850457782391459 ], [ 400058.697863682580646, 3787509.155645981896669 ], [ 400058.697863682580646, 3787509.460834180936217 ], [ 400058.392675483191852, 3787509.766022380441427 ], [ 400058.392675483191852, 3787510.071210579946637 ], [ 400058.087487283803057, 3787510.071210579946637 ], [ 400057.782299084414262, 3787510.376398779451847 ], [ 400057.171922685636673, 3787510.376398779451847 ], [ 400056.561546286859084, 3787510.986775177996606 ], [ 400056.256358087470289, 3787510.986775177996606 ], [ 400055.6459816886927, 3787511.597151577007025 ], [ 400055.035605289915111, 3787511.597151577007025 ], [ 400054.730417090526316, 3787511.902339776046574 ], [ 400051.983723296027165, 3787511.902339776046574 ] ] ] } },
{ "type": "Feature", "properties": { "confidence": 0.28619822859764099, "class": 1 }, "geometry": { "type": "Polygon", "coordinates": [ [ [ 399837.741607324511278, 3787398.982706001959741 ], [ 399837.436419125122484, 3787398.677517802454531 ], [ 399837.131230925733689, 3787398.677517802454531 ], [ 399836.5208545269561, 3787398.067141403909773 ], [ 399836.5208545269561, 3787397.761953204404563 ], [ 399836.215666327567305, 3787397.456765004899353 ], [ 399836.215666327567305, 3787397.151576805859804 ], [ 399835.910478128178511, 3787396.846388606354594 ], [ 399835.910478128178511, 3787395.625635808799416 ], [ 399835.605289928789716, 3787395.320447609294206 ], [ 399835.605289928789716, 3787390.742624618578702 ], [ 399836.215666327567305, 3787390.132248219568282 ], [ 399836.826042726344895, 3787390.132248219568282 ], [ 399837.436419125122484, 3787389.521871821023524 ], [ 399840.183112919621635, 3787389.521871821023524 ], [ 399840.48830111901043, 3787389.827060020528734 ], [ 399840.48830111901043, 3787390.742624618578702 ], [ 399840.793489318399224, 3787391.047812818083912 ], [ 399840.793489318399224, 3787391.353001017123461 ], [ 399841.098677517788019, 3787391.658189216628671 ], [ 399841.098677517788019, 3787393.184130213689059 ], [ 399841.403865717176814, 3787393.489318413194269 ], [ 399841.403865717176814, 3787395.320447609294206 ], [ 399841.098677517788019, 3787395.625635808799416 ], [ 399841.098677517788019, 3787395.930824008304626 ], [ 399840.793489318399224, 3787396.236012207344174 ], [ 399840.793489318399224, 3787396.541200406849384 ], [ 399840.48830111901043, 3787396.846388606354594 ], [ 399840.48830111901043, 3787397.456765004899353 ], [ 399840.183112919621635, 3787397.761953204404563 ], [ 399840.183112919621635, 3787398.677517802454531 ], [ 399839.877924720232841, 3787398.677517802454531 ], [ 399839.572736520844046, 3787398.982706001959741 ], [ 399837.741607324511278, 3787398.982706001959741 ] ] ] } },
{ "type": "Feature", "properties": { "confidence": 0.27275341749191284, "class": 1 }, "geometry": { "type": "Polygon", "coordinates": [ [ [ 399981.180061037652194, 3787531.434384536929429 ], [ 399980.8748728382634, 3787531.12919633788988 ], [ 399979.959308240097016, 3787531.12919633788988 ], [ 399979.348931841319427, 3787530.51881993887946 ], [ 399979.348931841319427, 3787530.21363173937425 ], [ 399979.043743641930632, 3787529.908443540334702 ], [ 399979.043743641930632, 3787529.603255340829492 ], [ 399978.738555442541838, 3787529.298067141324282 ], [ 399978.738555442541838, 3787528.687690742779523 ], [ 399978.433367243153043, 3787528.382502543274313 ], [ 399978.433367243153043, 3787528.077314343769103 ], [ 399978.128179043764248, 3787527.772126144263893 ], [ 399978.128179043764248, 3787527.466937945224345 ], [ 399984.84231943031773, 3787527.466937945224345 ], [ 399984.84231943031773, 3787527.772126144263893 ], [ 399984.537131230928935, 3787528.077314343769103 ], [ 399984.537131230928935, 3787528.687690742779523 ], [ 399984.231943031540141, 3787528.992878941819072 ], [ 399984.231943031540141, 3787529.603255340829492 ], [ 399983.926754832151346, 3787529.603255340829492 ], [ 399983.316378433373757, 3787530.21363173937425 ], [ 399983.316378433373757, 3787530.51881993887946 ], [ 399982.706002034596168, 3787531.12919633788988 ], [ 399981.790437436429784, 3787531.12919633788988 ], [ 399981.485249237040989, 3787531.434384536929429 ], [ 399981.180061037652194, 3787531.434384536929429 ] ] ] } },
{ "type": "Feature", "properties": { "confidence": 0.27077656984329224, "class": 1 }, "geometry": { "type": "Polygon", "coordinates": [ [ [ 399867.955239064118359, 3787212.817904374562204 ], [ 399867.650050864671357, 3787212.512716175056994 ], [ 399867.344862665282562, 3787212.512716175056994 ], [ 399865.513733468949795, 3787210.681586978491396 ], [ 399865.208545269561, 3787210.681586978491396 ], [ 399864.903357070172206, 3787210.376398779451847 ], [ 399864.292980671394616, 3787210.376398779451847 ], [ 399863.987792472005822, 3787210.071210579946637 ], [ 399863.682604272617027, 3787210.071210579946637 ], [ 399863.377416073228233, 3787209.766022380441427 ], [ 399863.072227873839438, 3787209.766022380441427 ], [ 399861.85147507628426, 3787208.545269582886249 ], [ 399861.85147507628426, 3787208.240081383381039 ], [ 399861.546286876895465, 3787207.93489318434149 ], [ 399861.546286876895465, 3787207.62970498483628 ], [ 399860.325534079340287, 3787206.408952187281102 ], [ 399860.325534079340287, 3787206.103763987775892 ], [ 399859.715157680562697, 3787205.493387589231133 ], [ 399859.715157680562697, 3787201.525940997060388 ], [ 399867.039674465893768, 3787201.525940997060388 ], [ 399867.039674465893768, 3787201.831129196565598 ], [ 399867.650050864671357, 3787202.441505595110357 ], [ 399867.650050864671357, 3787203.051881994120777 ], [ 399867.955239064118359, 3787203.357070193160325 ], [ 399867.955239064118359, 3787203.662258392665535 ], [ 399868.260427263507154, 3787203.967446592170745 ], [ 399868.260427263507154, 3787204.272634791675955 ], [ 399868.565615462895948, 3787204.577822990715504 ], [ 399868.565615462895948, 3787204.883011190220714 ], [ 399868.870803662284743, 3787205.188199389725924 ], [ 399868.870803662284743, 3787205.493387589231133 ], [ 399869.481180061062332, 3787206.103763987775892 ], [ 399869.481180061062332, 3787206.408952187281102 ], [ 399869.786368260451127, 3787206.714140386786312 ], [ 399869.786368260451127, 3787207.019328585825861 ], [ 399870.091556459839921, 3787207.32451678533107 ], [ 399870.091556459839921, 3787208.545269582886249 ], [ 399870.396744659228716, 3787208.850457782391459 ], [ 399870.396744659228716, 3787210.376398779451847 ], [ 399869.786368260451127, 3787210.986775177996606 ], [ 399869.786368260451127, 3787211.291963377501816 ], [ 399869.175991861673538, 3787211.902339776046574 ], [ 399869.175991861673538, 3787212.512716175056994 ], [ 399868.565615462895948, 3787212.512716175056994 ], [ 399868.260427263507154, 3787212.817904374562204 ], [ 399867.955239064118359, 3787212.817904374562204 ] ] ] } }
]
}
