{
"type": "FeatureCollection",
"name": "cell_00477_pre",
"crs": { "type": "name", "properties": { "name": "urn:ogc:def:crs:EPSG::32611" } },
"features": [
{ "type": "Feature", "properties": { "confidence": 0.9800410270690918, "class": 1 }, "geometry": { "type": "Polygon", "coordinates": [ [ [ 400825.025432349939365, 3785907.8331637843512 ], [ 400824.72024415055057, 3785907.52797558484599 ], [ 400824.415055951161776, 3785907.52797558484599 ], [ 400823.804679552384187, 3785906.917599186301231 ], [ 400823.499491352995392, 3785906.917599186301231 ], [ 400823.194303153606597, 3785906.612410986796021 ], [ 400822.278738555440214, 3785906.612410986796021 ], [ 400821.973550356051419, 3785906.307222787290812 ], [ 400821.668362156662624, 3785906.307222787290812 ], [ 400821.36317395727383, 3785906.002034587785602 ], [ 400821.36317395727383, 3785905.086469989735633 ], [ 400821.057985757885035, 3785904.781281790230423 ], [ 400821.36317395727383, 3785904.476093591190875 ], [ 400821.36317395727383, 3785904.170905391685665 ], [ 400821.973550356051419, 3785903.560528992675245 ], [ 400822.278738555440214, 3785903.560528992675245 ], [ 400823.194303153606597, 3785902.644964394625276 ], [ 400823.499491352995392, 3785902.644964394625276 ], [ 400824.109867751772981, 3785902.034587996080518 ], [ 400824.72024415055057, 3785902.034587996080518 ], [ 400825.33062054932816, 3785901.424211597070098 ], [ 400825.940996948105749, 3785901.424211597070098 ], [ 400826.551373346883338, 3785902.034587996080518 ], [ 400826.551373346883338, 3785902.339776195120066 ], [ 400827.161749745660927, 3785902.950152594130486 ], [ 400828.077314343827311, 3785902.950152594130486 ], [ 400828.382502543216106, 3785903.255340793635696 ], [ 400828.6876907426049, 3785903.255340793635696 ], [ 400828.6876907426049, 3785903.865717192180455 ], [ 400828.992878941993695, 3785904.170905391685665 ], [ 400828.992878941993695, 3785904.476093591190875 ], [ 400829.298067141382489, 3785904.781281790230423 ], [ 400829.298067141382489, 3785906.612410986796021 ], [ 400828.992878941993695, 3785906.612410986796021 ], [ 400828.382502543216106, 3785907.22278738534078 ], [ 400827.772126144438516, 3785907.22278738534078 ], [ 400827.466937945049722, 3785907.52797558484599 ], [ 400826.856561546272133, 3785907.52797558484599 ], [ 400826.551373346883338, 3785907.8331637843512 ], [ 400825.025432349939365, 3785907.8331637843512 ] ] ] } },
{ "type": "Feature", "properties": { "confidence": 0.97955602407455444, "class": 1 }, "geometry": { "type": "Polygon", "coordinates": [ [ [ 400825.940996948105749, 3785897.456765004899353 ], [ 400825.635808748716954, 3785897.151576805859804 ], [ 400825.635808748716954, 3785896.541200406849384 ], [ 400825.940996948105749, 3785896.236012207344174 ], [ 400825.940996948105749, 3785895.625635808799416 ], [ 400826.856561546272133, 3785894.710071210749447 ], [ 400827.161749745660927, 3785894.710071210749447 ], [ 400827.466937945049722, 3785894.404883011244237 ], [ 400827.772126144438516, 3785894.404883011244237 ], [ 400828.382502543216106, 3785893.794506612233818 ], [ 400831.129196337715257, 3785893.794506612233818 ], [ 400831.129196337715257, 3785894.099694811739028 ], [ 400831.434384537104052, 3785894.404883011244237 ], [ 400831.434384537104052, 3785895.625635808799416 ], [ 400831.129196337715257, 3785895.930824008304626 ], [ 400831.129196337715257, 3785896.541200406849384 ], [ 400830.518819938937668, 3785897.151576805859804 ], [ 400830.213631739548873, 3785897.151576805859804 ], [ 400829.908443540160079, 3785897.456765004899353 ], [ 400825.940996948105749, 3785897.456765004899353 ] ] ] } },
{ "type": "Feature", "properties": { "confidence": 0.89107000827789307, "class": 1 }, "geometry": { "type": "Polygon", "coordinates": [ [ [ 401179.043743641930632, 3785730.51881993887946 ], [ 401179.043743641930632, 3785727.466937945224345 ], [ 401178.738555442541838, 3785727.161749745719135 ], [ 401178.738555442541838, 3785726.856561546213925 ], [ 401186.673448626650497, 3785726.856561546213925 ], [ 401186.673448626650497, 3785728.077314343769103 ], [ 401186.368260427261703, 3785728.382502543274313 ], [ 401186.063072227872908, 3785728.382502543274313 ], [ 401185.452695829095319, 3785728.992878941819072 ], [ 401184.231943031540141, 3785728.992878941819072 ], [ 401183.926754832151346, 3785729.298067141324282 ], [ 401182.400813835207373, 3785729.298067141324282 ], [ 401182.095625635818578, 3785729.603255340829492 ], [ 401181.790437436429784, 3785729.603255340829492 ], [ 401181.485249237040989, 3785729.908443540334702 ], [ 401181.180061037652194, 3785729.908443540334702 ], [ 401180.569684638874605, 3785730.51881993887946 ], [ 401179.043743641930632, 3785730.51881993887946 ] ] ] } },
{ "type": "Feature", "properties": { "confidence": 0.78001624345779419, "class": 1 }, "geometry": { "type": "Polygon", "coordinates": [ [ [ 400917.192268565588165, 3785728.992878941819072 ], [ 400917.192268565588165, 3785726.856561546213925 ], [ 400922.380467955255881, 3785726.856561546213925 ], [ 400922.380467955255881, 3785728.382502543274313 ], [ 400922.075279755867086, 3785728.687690742779523 ], [ 400921.464903357089497, 3785728.687690742779523 ], [ 400921.159715157700703, 3785728.992878941819072 ], [ 400917.192268565588165, 3785728.992878941819072 ] ] ] } },
{ "type": "Feature", "properties": { "confidence": 0.55833452939987183, "class": 1 }, "geometry": { "type": "Polygon", "coordinates": [ [ [ 401039.572736520844046, 3785522.38046795502305 ], [ 401039.267548321455251, 3785522.075279755983502 ], [ 401038.657171922677662, 3785522.075279755983502 ], [ 401038.046795523900073, 3785521.464903356973082 ], [ 401038.046795523900073, 3785518.107833163812757 ], [ 401038.351983723288868, 3785517.802644964307547 ], [ 401038.351983723288868, 3785515.6663275687024 ], [ 401038.657171922677662, 3785515.36113936919719 ], [ 401038.657171922677662, 3785512.919633774086833 ], [ 401038.962360122066457, 3785512.919633774086833 ], [ 401039.267548321455251, 3785512.614445574581623 ], [ 401039.267548321455251, 3785508.341810783371329 ], [ 401039.877924720232841, 3785507.731434384360909 ], [ 401040.48830111901043, 3785507.731434384360909 ], [ 401040.793489318399224, 3785507.426246185321361 ], [ 401041.098677517788019, 3785507.426246185321361 ], [ 401041.403865717176814, 3785507.121057985816151 ], [ 401041.709053916565608, 3785507.121057985816151 ], [ 401042.014242115954403, 3785506.815869786310941 ], [ 401042.624618514731992, 3785506.815869786310941 ], [ 401042.929806714120787, 3785506.510681586805731 ], [ 401043.234994913509581, 3785506.815869786310941 ], [ 401043.84537131228717, 3785506.815869786310941 ], [ 401044.760935910453554, 3785507.731434384360909 ], [ 401044.760935910453554, 3785508.341810783371329 ], [ 401045.066124109842349, 3785508.646998982876539 ], [ 401045.066124109842349, 3785509.867751780431718 ], [ 401045.371312309231143, 3785510.172939979471266 ], [ 401045.371312309231143, 3785511.698880976531655 ], [ 401045.676500508619938, 3785512.004069176036865 ], [ 401045.066124109842349, 3785512.614445574581623 ], [ 401045.066124109842349, 3785514.445574771147221 ], [ 401045.371312309231143, 3785514.750762970652431 ], [ 401045.371312309231143, 3785515.6663275687024 ], [ 401045.676500508619938, 3785515.97151576820761 ], [ 401045.676500508619938, 3785516.887080366257578 ], [ 401045.371312309231143, 3785517.192268565762788 ], [ 401045.371312309231143, 3785518.413021363317966 ], [ 401045.066124109842349, 3785518.718209562357515 ], [ 401045.066124109842349, 3785519.328585961367935 ], [ 401044.760935910453554, 3785519.328585961367935 ], [ 401044.45574771106476, 3785519.633774160873145 ], [ 401044.150559511675965, 3785519.633774160873145 ], [ 401043.540183112898376, 3785520.244150559417903 ], [ 401043.234994913509581, 3785520.244150559417903 ], [ 401042.929806714120787, 3785520.549338758923113 ], [ 401042.624618514731992, 3785520.549338758923113 ], [ 401041.098677517788019, 3785522.075279755983502 ], [ 401040.183112919621635, 3785522.075279755983502 ], [ 401039.877924720232841, 3785522.38046795502305 ], [ 401039.572736520844046, 3785522.38046795502305 ] ] ] } },
{ "type": "Feature", "properties": { "confidence": 0.54425907135009766, "class": 1 }, "geometry": { "type": "Polygon", "coordinates": [ [ [ 401305.086469989852048, 3785788.504577822983265 ], [ 401304.781281790463254, 3785788.199389623478055 ], [ 401303.86571719229687, 3785788.199389623478055 ], [ 401303.560528992908075, 3785787.894201424438506 ], [ 401303.255340793461073, 3785787.894201424438506 ], [ 401302.034587995905895, 3785786.673448626883328 ], [ 401301.7293997965171, 3785786.673448626883328 ], [ 401301.424211597128306, 3785786.368260427378118 ], [ 401301.424211597128306, 3785786.063072227872908 ], [ 401301.119023397739511, 3785785.757884028367698 ], [ 401301.119023397739511, 3785783.316378433257341 ], [ 401301.7293997965171, 3785782.706002034712583 ], [ 401301.7293997965171, 3785782.400813835207373 ], [ 401302.034587995905895, 3785782.400813835207373 ], [ 401303.560528992908075, 3785780.874872838146985 ], [ 401303.86571719229687, 3785780.874872838146985 ], [ 401304.170905391685665, 3785780.569684638641775 ], [ 401304.476093591074459, 3785780.569684638641775 ], [ 401305.086469989852048, 3785779.959308240097016 ], [ 401305.086469989852048, 3785779.654120040591806 ], [ 401305.391658189240843, 3785779.654120040591806 ], [ 401306.002034588018432, 3785779.043743642047048 ], [ 401306.307222787407227, 3785779.043743642047048 ], [ 401307.222787385573611, 3785778.128179043531418 ], [ 401307.222787385573611, 3785777.517802644986659 ], [ 401307.527975584962405, 3785777.212614445481449 ], [ 401307.8331637843512, 3785777.517802644986659 ], [ 401308.443540183128789, 3785777.517802644986659 ], [ 401308.748728382517584, 3785777.822990844491869 ], [ 401308.748728382517584, 3785779.043743642047048 ], [ 401309.359104781295173, 3785779.654120040591806 ], [ 401309.359104781295173, 3785779.959308240097016 ], [ 401309.969481180072762, 3785780.569684638641775 ], [ 401309.969481180072762, 3785783.011190233752131 ], [ 401309.359104781295173, 3785783.621566632762551 ], [ 401309.359104781295173, 3785783.926754832267761 ], [ 401309.053916581906378, 3785784.23194303130731 ], [ 401309.053916581906378, 3785784.84231943031773 ], [ 401308.748728382517584, 3785785.14750762982294 ], [ 401308.748728382517584, 3785785.757884028367698 ], [ 401308.443540183128789, 3785786.063072227872908 ], [ 401308.443540183128789, 3785786.368260427378118 ], [ 401307.8331637843512, 3785786.978636825922877 ], [ 401307.8331637843512, 3785787.283825025428087 ], [ 401307.527975584962405, 3785787.589013224933296 ], [ 401307.222787385573611, 3785787.589013224933296 ], [ 401306.612410986796021, 3785788.199389623478055 ], [ 401306.307222787407227, 3785788.199389623478055 ], [ 401306.002034588018432, 3785788.504577822983265 ], [ 401305.086469989852048, 3785788.504577822983265 ] ] ] } },
{ "type": "Feature", "properties": { "confidence": 0.49129050970077515, "class": 1 }, "geometry": { "type": "Polygon", "coordinates": [ [ [ 401185.147507629706524, 3785735.401831129100174 ], [ 401184.84231943031773, 3785735.096642929594964 ], [ 401183.926754832151346, 3785735.096642929594964 ], [ 401183.621566632762551, 3785734.791454730555415 ], [ 401183.621566632762551, 3785734.181078331544995 ], [ 401183.926754832151346, 3785733.875890132039785 ], [ 401183.926754832151346, 3785733.570701933000237 ], [ 401185.452695829095319, 3785732.044760935939848 ], [ 401186.368260427261703, 3785732.044760935939848 ], [ 401186.673448626650497, 3785731.739572736434639 ], [ 401187.589013224816881, 3785731.739572736434639 ], [ 401187.894201424205676, 3785732.044760935939848 ], [ 401187.894201424205676, 3785732.655137334484607 ], [ 401187.589013224816881, 3785732.960325533989817 ], [ 401187.589013224816881, 3785733.265513733495027 ], [ 401187.283825025428087, 3785733.570701933000237 ], [ 401187.283825025428087, 3785733.875890132039785 ], [ 401186.673448626650497, 3785734.486266531050205 ], [ 401186.673448626650497, 3785734.791454730555415 ], [ 401186.063072227872908, 3785735.401831129100174 ], [ 401185.147507629706524, 3785735.401831129100174 ] ] ] } },
{ "type": "Feature", "properties": { "confidence": 0.46353653073310852, "class": 1 }, "geometry": { "type": "Polygon", "coordinates": [ [ [ 401250.762970498471987, 3785731.12919633788988 ], [ 401250.457782299083192, 3785730.82400813838467 ], [ 401249.847405900305603, 3785730.82400813838467 ], [ 401249.847405900305603, 3785730.21363173937425 ], [ 401249.542217700916808, 3785729.908443540334702 ], [ 401249.542217700916808, 3785729.298067141324282 ], [ 401249.237029501528013, 3785728.992878941819072 ], [ 401249.237029501528013, 3785727.466937945224345 ], [ 401256.866734486247879, 3785727.466937945224345 ], [ 401256.561546286859084, 3785727.772126144263893 ], [ 401256.561546286859084, 3785729.603255340829492 ], [ 401256.256358087470289, 3785729.603255340829492 ], [ 401255.340793489303906, 3785730.51881993887946 ], [ 401255.035605289915111, 3785730.51881993887946 ], [ 401254.730417090526316, 3785730.82400813838467 ], [ 401254.425228891137522, 3785730.82400813838467 ], [ 401254.120040691748727, 3785731.12919633788988 ], [ 401250.762970498471987, 3785731.12919633788988 ] ] ] } },
{ "type": "Feature", "properties": { "confidence": 0.41771331429481506, "class": 1 }, "geometry": { "type": "Polygon", "coordinates": [ [ [ 400956.561546286859084, 3785483.316378433257341 ], [ 400955.951169888081495, 3785482.706002034712583 ], [ 400955.6459816886927, 3785482.706002034712583 ], [ 400955.6459816886927, 3785482.400813835207373 ], [ 400955.340793489303906, 3785482.095625635702163 ], [ 400955.340793489303906, 3785481.790437436196953 ], [ 400955.6459816886927, 3785481.485249237157404 ], [ 400955.6459816886927, 3785479.654120040591806 ], [ 400955.951169888081495, 3785479.348931841086596 ], [ 400955.951169888081495, 3785479.043743642047048 ], [ 400956.256358087470289, 3785478.738555442541838 ], [ 400956.256358087470289, 3785476.907426245976239 ], [ 400956.561546286859084, 3785476.602238046936691 ], [ 400956.561546286859084, 3785476.297049847431481 ], [ 400956.866734486247879, 3785475.991861647926271 ], [ 400957.171922685636673, 3785475.991861647926271 ], [ 400957.477110885025468, 3785475.686673448421061 ], [ 400957.782299084414262, 3785475.686673448421061 ], [ 400958.087487283803057, 3785475.381485249381512 ], [ 400958.697863682580646, 3785475.381485249381512 ], [ 400959.308240081358235, 3785474.771108850371093 ], [ 400961.139369277749211, 3785474.771108850371093 ], [ 400961.444557477138005, 3785475.076297049876302 ], [ 400961.7497456765268, 3785475.076297049876302 ], [ 400962.054933875915594, 3785475.381485249381512 ], [ 400963.886063072248362, 3785475.381485249381512 ], [ 400964.191251271637157, 3785475.686673448421061 ], [ 400964.801627670414746, 3785475.686673448421061 ], [ 400964.801627670414746, 3785477.822990844491869 ], [ 400964.496439471025951, 3785478.128179043531418 ], [ 400964.496439471025951, 3785478.433367243036628 ], [ 400964.191251271637157, 3785478.738555442541838 ], [ 400963.886063072248362, 3785478.738555442541838 ], [ 400962.665310274693184, 3785479.959308240097016 ], [ 400962.665310274693184, 3785480.569684638641775 ], [ 400962.054933875915594, 3785481.180061037652194 ], [ 400962.054933875915594, 3785481.485249237157404 ], [ 400961.7497456765268, 3785481.790437436196953 ], [ 400961.7497456765268, 3785482.095625635702163 ], [ 400961.444557477138005, 3785482.095625635702163 ], [ 400961.139369277749211, 3785482.400813835207373 ], [ 400961.139369277749211, 3785482.706002034712583 ], [ 400960.834181078360416, 3785482.706002034712583 ], [ 400960.528992878913414, 3785483.011190233752131 ], [ 400958.697863682580646, 3785483.011190233752131 ], [ 400958.392675483191852, 3785483.316378433257341 ], [ 400956.561546286859084, 3785483.316378433257341 ] ] ] } },
{ "type": "Feature", "properties": { "confidence": 0.40663695335388184, "class": 1 }, "geometry": { "type": "Polygon", "coordinates": [ [ [ 400817.090539165830705, 3785898.677517802454531 ], [ 400816.785350966441911, 3785898.372329603414983 ], [ 400816.174974567664322, 3785898.372329603414983 ], [ 400816.174974567664322, 3785898.067141403909773 ], [ 400815.869786368275527, 3785897.761953204404563 ], [ 400815.869786368275527, 3785896.541200406849384 ], [ 400816.174974567664322, 3785896.236012207344174 ], [ 400816.174974567664322, 3785895.320447609294206 ], [ 400816.480162767053116, 3785895.015259409788996 ], [ 400816.480162767053116, 3785894.710071210749447 ], [ 400816.785350966441911, 3785894.404883011244237 ], [ 400816.785350966441911, 3785893.794506612233818 ], [ 400817.3957273652195, 3785893.184130213689059 ], [ 400817.3957273652195, 3785891.963377416133881 ], [ 400818.006103763997089, 3785891.353001017123461 ], [ 400818.311291963385884, 3785891.353001017123461 ], [ 400818.616480162774678, 3785891.047812818083912 ], [ 400818.921668362163473, 3785891.047812818083912 ], [ 400819.532044760941062, 3785890.437436419073492 ], [ 400820.447609359107446, 3785890.437436419073492 ], [ 400820.752797558496241, 3785890.742624618578702 ], [ 400820.752797558496241, 3785891.658189216628671 ], [ 400821.668362156662624, 3785892.573753814678639 ], [ 400821.668362156662624, 3785892.878942014183849 ], [ 400821.973550356051419, 3785893.184130213689059 ], [ 400822.583926754829008, 3785893.184130213689059 ], [ 400822.583926754829008, 3785896.236012207344174 ], [ 400822.278738555440214, 3785896.541200406849384 ], [ 400821.973550356051419, 3785896.541200406849384 ], [ 400821.36317395727383, 3785897.151576805859804 ], [ 400821.057985757885035, 3785897.151576805859804 ], [ 400820.752797558496241, 3785897.456765004899353 ], [ 400820.447609359107446, 3785897.456765004899353 ], [ 400820.142421159718651, 3785897.761953204404563 ], [ 400819.837232960329857, 3785897.761953204404563 ], [ 400819.532044760941062, 3785898.067141403909773 ], [ 400819.226856561552268, 3785898.067141403909773 ], [ 400818.921668362163473, 3785898.372329603414983 ], [ 400818.006103763997089, 3785898.372329603414983 ], [ 400817.700915564608295, 3785898.677517802454531 ], [ 400817.090539165830705, 3785898.677517802454531 ] ] ] } },
{ "type": "Feature", "properties": { "confidence": 0.36931329965591431, "class": 1 }, "geometry": { "type": "Polygon", "coordinates": [ [ [ 400989.521871820965316, 3785578.535096643026918 ], [ 400988.911495422187727, 3785577.924720244016498 ], [ 400988.911495422187727, 3785577.61953204497695 ], [ 400988.606307222798932, 3785577.31434384547174 ], [ 400988.606307222798932, 3785577.00915564596653 ], [ 400988.301119023410138, 3785576.70396744646132 ], [ 400988.301119023410138, 3785574.262461851350963 ], [ 400988.606307222798932, 3785574.567650050856173 ], [ 400989.216683621576522, 3785574.567650050856173 ], [ 400989.827060020354111, 3785573.957273652311414 ], [ 400990.132248219742905, 3785573.957273652311414 ], [ 400990.4374364191317, 3785574.262461851350963 ], [ 400991.047812817909289, 3785574.262461851350963 ], [ 400991.658189216686878, 3785574.872838250361383 ], [ 400991.963377416075673, 3785574.872838250361383 ], [ 400991.658189216686878, 3785575.178026449866593 ], [ 400991.658189216686878, 3785576.093591047916561 ], [ 400991.353001017298084, 3785576.398779247421771 ], [ 400991.353001017298084, 3785577.00915564596653 ], [ 400991.047812817909289, 3785577.31434384547174 ], [ 400991.047812817909289, 3785577.924720244016498 ], [ 400990.742624618520495, 3785578.229908443521708 ], [ 400990.742624618520495, 3785578.535096643026918 ], [ 400989.521871820965316, 3785578.535096643026918 ] ] ] } },
{ "type": "Feature", "properties": { "confidence": 0.30623209476470947, "class": 1 }, "geometry": { "type": "Polygon", "coordinates": [ [ [ 401274.262461851467378, 3785613.326551373116672 ], [ 401273.957273652078584, 3785613.021363174077123 ], [ 401273.957273652078584, 3785612.410986775066704 ], [ 401273.652085452689789, 3785612.105798575561494 ], [ 401273.652085452689789, 3785609.664292980451137 ], [ 401277.619532044744119, 3785609.664292980451137 ], [ 401277.314343845355324, 3785609.969481179956347 ], [ 401277.314343845355324, 3785610.579857578966767 ], [ 401276.703967446577735, 3785611.190233977511525 ], [ 401276.398779247188941, 3785611.190233977511525 ], [ 401276.093591047800146, 3785611.495422177016735 ], [ 401276.093591047800146, 3785611.800610376521945 ], [ 401275.483214649022557, 3785612.410986775066704 ], [ 401275.483214649022557, 3785612.716174974571913 ], [ 401274.872838250244968, 3785613.326551373116672 ], [ 401274.262461851467378, 3785613.326551373116672 ] ] ] } },
{ "type": "Feature", "properties": { "confidence": 0.25779455900192261, "class": 1 }, "geometry": { "type": "Polygon", "coordinates": [ [ [ 401325.2288911495707, 3785612.410986775066704 ], [ 401324.923702950123698, 3785612.105798575561494 ], [ 401324.313326551346108, 3785612.105798575561494 ], [ 401324.008138351957314, 3785611.800610376521945 ], [ 401323.09257375379093, 3785611.800610376521945 ], [ 401322.787385554402135, 3785611.495422177016735 ], [ 401322.787385554402135, 3785611.190233977511525 ], [ 401322.482197355013341, 3785610.885045778006315 ], [ 401322.482197355013341, 3785610.274669379461557 ], [ 401322.787385554402135, 3785609.969481179956347 ], [ 401322.787385554402135, 3785609.664292980451137 ], [ 401329.501525941013824, 3785609.664292980451137 ], [ 401329.501525941013824, 3785610.579857578966767 ], [ 401327.975584944069851, 3785612.105798575561494 ], [ 401327.365208545292262, 3785612.105798575561494 ], [ 401327.060020345903467, 3785612.410986775066704 ], [ 401325.2288911495707, 3785612.410986775066704 ] ] ] } }
]
}
