{
"type": "FeatureCollection",
"name": "cell_00475_pre",
"crs": { "type": "name", "properties": { "name": "urn:ogc:def:crs:EPSG::32611" } },
"features": [
{ "type": "Feature", "properties": { "confidence": 0.98446828126907349, "class": 1 }, "geometry": { "type": "Polygon", "coordinates": [ [ [ 401130.213631739548873, 3784314.140386571642011 ], [ 401129.908443540160079, 3784313.835198372136801 ], [ 401129.603255340771284, 3784313.835198372136801 ], [ 401129.603255340771284, 3784313.530010173097253 ], [ 401129.298067141382489, 3784313.224821973592043 ], [ 401128.992878941993695, 3784313.224821973592043 ], [ 401128.382502543216106, 3784312.614445574581623 ], [ 401128.382502543216106, 3784312.309257375542074 ], [ 401127.772126144438516, 3784311.698880976531655 ], [ 401127.772126144438516, 3784311.393692777026445 ], [ 401127.466937945049722, 3784311.088504577986896 ], [ 401127.466937945049722, 3784309.867751780431718 ], [ 401127.161749745660927, 3784309.562563580926508 ], [ 401127.161749745660927, 3784307.731434384360909 ], [ 401127.466937945049722, 3784307.426246185321361 ], [ 401128.077314343827311, 3784307.426246185321361 ], [ 401128.382502543216106, 3784307.121057985816151 ], [ 401132.044760935881641, 3784307.121057985816151 ], [ 401132.349949135328643, 3784307.426246185321361 ], [ 401132.655137334717438, 3784307.426246185321361 ], [ 401132.960325534106232, 3784307.731434384360909 ], [ 401133.265513733495027, 3784307.731434384360909 ], [ 401133.875890132272616, 3784308.341810783371329 ], [ 401133.875890132272616, 3784308.646998982876539 ], [ 401134.181078331661411, 3784308.952187181916088 ], [ 401134.791454730439, 3784308.952187181916088 ], [ 401135.401831129216589, 3784309.562563580926508 ], [ 401135.401831129216589, 3784312.004069176036865 ], [ 401135.096642929827794, 3784312.309257375542074 ], [ 401135.096642929827794, 3784312.614445574581623 ], [ 401134.791454730439, 3784312.919633774086833 ], [ 401134.791454730439, 3784313.224821973592043 ], [ 401134.486266531050205, 3784313.530010173097253 ], [ 401134.486266531050205, 3784313.835198372136801 ], [ 401134.181078331661411, 3784313.835198372136801 ], [ 401133.875890132272616, 3784314.140386571642011 ], [ 401130.213631739548873, 3784314.140386571642011 ] ] ] } },
{ "type": "Feature", "properties": { "confidence": 0.94826692342758179, "class": 1 }, "geometry": { "type": "Polygon", "coordinates": [ [ [ 401028.58596134284744, 3784422.177009155508131 ], [ 401028.280773143458646, 3784421.871820956468582 ], [ 401027.975584944069851, 3784421.871820956468582 ], [ 401027.670396744681057, 3784421.566632756963372 ], [ 401027.060020345903467, 3784421.566632756963372 ], [ 401026.754832146514673, 3784421.261444557458162 ], [ 401026.449643947125878, 3784421.261444557458162 ], [ 401026.144455747737084, 3784420.956256357952952 ], [ 401025.534079348959494, 3784420.956256357952952 ], [ 401025.534079348959494, 3784420.651068158913404 ], [ 401024.923702950123698, 3784420.040691759902984 ], [ 401024.923702950123698, 3784419.735503560397774 ], [ 401024.618514750734903, 3784419.430315361358225 ], [ 401024.618514750734903, 3784419.125127161853015 ], [ 401024.313326551346108, 3784418.819938962347806 ], [ 401024.313326551346108, 3784417.599186164792627 ], [ 401024.008138351957314, 3784417.293997965287417 ], [ 401024.008138351957314, 3784416.073245167732239 ], [ 401026.144455747737084, 3784416.073245167732239 ], [ 401026.449643947125878, 3784415.76805696869269 ], [ 401026.754832146514673, 3784415.76805696869269 ], [ 401027.670396744681057, 3784414.85249237017706 ], [ 401027.670396744681057, 3784414.547304171137512 ], [ 401028.280773143458646, 3784413.936927772127092 ], [ 401029.501525941013824, 3784413.936927772127092 ], [ 401029.806714140402619, 3784414.242115971632302 ], [ 401032.55340793490177, 3784414.242115971632302 ], [ 401033.163784333679359, 3784414.85249237017706 ], [ 401033.468972533068154, 3784414.85249237017706 ], [ 401033.468972533068154, 3784415.15768056968227 ], [ 401033.774160732456949, 3784415.46286876918748 ], [ 401033.774160732456949, 3784418.819938962347806 ], [ 401034.079348931845743, 3784419.125127161853015 ], [ 401033.468972533068154, 3784419.735503560397774 ], [ 401032.858596134290565, 3784419.735503560397774 ], [ 401031.027466937957797, 3784421.566632756963372 ], [ 401030.417090539180208, 3784421.566632756963372 ], [ 401030.111902339791413, 3784421.871820956468582 ], [ 401030.111902339791413, 3784422.177009155508131 ], [ 401028.58596134284744, 3784422.177009155508131 ] ] ] } },
{ "type": "Feature", "properties": { "confidence": 0.91074264049530029, "class": 1 }, "geometry": { "type": "Polygon", "coordinates": [ [ [ 401035.910478128178511, 3784433.468972533009946 ], [ 401034.689725330623332, 3784432.248219735454768 ], [ 401034.384537131234538, 3784432.248219735454768 ], [ 401034.384537131234538, 3784430.417090539354831 ], [ 401034.689725330623332, 3784430.417090539354831 ], [ 401034.994913530012127, 3784430.111902339849621 ], [ 401034.994913530012127, 3784429.196337741799653 ], [ 401035.300101729400922, 3784428.891149542294443 ], [ 401035.300101729400922, 3784427.060020345728844 ], [ 401035.605289928789716, 3784426.754832146689296 ], [ 401035.605289928789716, 3784425.534079349134117 ], [ 401035.910478128178511, 3784425.228891149628907 ], [ 401035.910478128178511, 3784423.397761953063309 ], [ 401036.215666327567305, 3784423.092573754023761 ], [ 401036.215666327567305, 3784422.787385554518551 ], [ 401036.5208545269561, 3784422.482197355013341 ], [ 401036.826042726344895, 3784422.482197355013341 ], [ 401037.131230925733689, 3784422.177009155508131 ], [ 401037.436419125122484, 3784422.177009155508131 ], [ 401037.741607324511278, 3784421.871820956468582 ], [ 401038.351983723288868, 3784421.871820956468582 ], [ 401038.657171922677662, 3784422.177009155508131 ], [ 401041.403865717176814, 3784422.177009155508131 ], [ 401041.709053916565608, 3784422.482197355013341 ], [ 401041.709053916565608, 3784425.839267548173666 ], [ 401041.403865717176814, 3784426.144455747678876 ], [ 401041.403865717176814, 3784426.449643947184086 ], [ 401041.098677517788019, 3784426.449643947184086 ], [ 401040.48830111901043, 3784427.060020345728844 ], [ 401040.48830111901043, 3784427.365208545234054 ], [ 401040.183112919621635, 3784427.670396744739264 ], [ 401040.183112919621635, 3784428.891149542294443 ], [ 401039.877924720232841, 3784429.196337741799653 ], [ 401039.877924720232841, 3784430.417090539354831 ], [ 401039.572736520844046, 3784430.72227873839438 ], [ 401039.572736520844046, 3784431.943031535949558 ], [ 401039.267548321455251, 3784432.248219735454768 ], [ 401039.267548321455251, 3784432.553407934959978 ], [ 401038.657171922677662, 3784433.163784333504736 ], [ 401037.131230925733689, 3784433.163784333504736 ], [ 401036.826042726344895, 3784433.468972533009946 ], [ 401035.910478128178511, 3784433.468972533009946 ] ] ] } },
{ "type": "Feature", "properties": { "confidence": 0.87186646461486816, "class": 1 }, "geometry": { "type": "Polygon", "coordinates": [ [ [ 401357.578840284841135, 3784468.260427263565361 ], [ 401357.273652085452341, 3784467.955239064060152 ], [ 401357.273652085452341, 3784465.208545269444585 ], [ 401357.578840284841135, 3784464.903357070405036 ], [ 401357.578840284841135, 3784463.987792471889406 ], [ 401357.88402848422993, 3784463.682604272849858 ], [ 401357.88402848422993, 3784463.072227873839438 ], [ 401358.799593082396314, 3784462.156663275789469 ], [ 401359.104781281785108, 3784462.156663275789469 ], [ 401359.715157680562697, 3784461.54628687677905 ], [ 401360.935910478117876, 3784461.54628687677905 ], [ 401361.24109867750667, 3784461.241098677739501 ], [ 401361.546286876895465, 3784461.54628687677905 ], [ 401363.682604272617027, 3784461.54628687677905 ], [ 401363.682604272617027, 3784464.292980671394616 ], [ 401363.377416073228233, 3784464.598168870899826 ], [ 401363.377416073228233, 3784464.903357070405036 ], [ 401362.767039674450643, 3784465.513733468949795 ], [ 401362.461851475061849, 3784465.513733468949795 ], [ 401361.546286876895465, 3784466.429298066999763 ], [ 401361.546286876895465, 3784466.734486266504973 ], [ 401360.325534079340287, 3784467.955239064060152 ], [ 401359.409969481173903, 3784467.955239064060152 ], [ 401359.104781281785108, 3784468.260427263565361 ], [ 401357.578840284841135, 3784468.260427263565361 ] ] ] } },
{ "type": "Feature", "properties": { "confidence": 0.76692986488342285, "class": 1 }, "geometry": { "type": "Polygon", "coordinates": [ [ [ 401341.709053916565608, 3784414.242115971632302 ], [ 401341.403865717176814, 3784413.936927772127092 ], [ 401340.183112919621635, 3784413.936927772127092 ], [ 401339.877924720232841, 3784413.631739572621882 ], [ 401336.5208545269561, 3784413.631739572621882 ], [ 401336.215666327567305, 3784413.326551373116672 ], [ 401336.215666327567305, 3784411.495422177016735 ], [ 401337.131230925733689, 3784410.579857578966767 ], [ 401337.436419125122484, 3784410.579857578966767 ], [ 401337.741607324511278, 3784410.274669379461557 ], [ 401337.741607324511278, 3784409.664292980451137 ], [ 401344.760935910453554, 3784409.664292980451137 ], [ 401344.760935910453554, 3784410.274669379461557 ], [ 401345.066124109842349, 3784410.579857578966767 ], [ 401345.066124109842349, 3784410.885045778006315 ], [ 401345.371312309231143, 3784411.190233977511525 ], [ 401345.371312309231143, 3784412.105798575561494 ], [ 401345.066124109842349, 3784412.410986775066704 ], [ 401345.066124109842349, 3784412.716174974571913 ], [ 401344.45574771106476, 3784413.326551373116672 ], [ 401344.45574771106476, 3784413.631739572621882 ], [ 401344.150559511675965, 3784413.631739572621882 ], [ 401343.84537131228717, 3784413.936927772127092 ], [ 401343.234994913509581, 3784413.936927772127092 ], [ 401342.929806714120787, 3784414.242115971632302 ], [ 401341.709053916565608, 3784414.242115971632302 ] ] ] } },
{ "type": "Feature", "properties": { "confidence": 0.75204312801361084, "class": 1 }, "geometry": { "type": "Polygon", "coordinates": [ [ [ 401310.579857578850351, 3784353.50966429291293 ], [ 401310.274669379461557, 3784353.20447609340772 ], [ 401309.359104781295173, 3784353.20447609340772 ], [ 401309.053916581906378, 3784352.899287894368172 ], [ 401308.748728382517584, 3784352.899287894368172 ], [ 401308.443540183128789, 3784352.594099694862962 ], [ 401308.138351983739994, 3784352.594099694862962 ], [ 401307.527975584962405, 3784351.983723295852542 ], [ 401307.222787385573611, 3784351.983723295852542 ], [ 401307.222787385573611, 3784351.678535096812993 ], [ 401306.002034588018432, 3784350.457782299257815 ], [ 401306.002034588018432, 3784350.152594099752605 ], [ 401305.696846388629638, 3784349.847405900247395 ], [ 401305.696846388629638, 3784347.100712105631828 ], [ 401306.917599186184816, 3784347.100712105631828 ], [ 401307.222787385573611, 3784346.79552390659228 ], [ 401309.359104781295173, 3784346.79552390659228 ], [ 401309.664292980683967, 3784346.49033570708707 ], [ 401311.80061037640553, 3784346.49033570708707 ], [ 401312.105798575794324, 3784346.79552390659228 ], [ 401313.631739572738297, 3784346.79552390659228 ], [ 401313.936927772127092, 3784347.100712105631828 ], [ 401314.242115971515886, 3784347.100712105631828 ], [ 401314.547304170904681, 3784347.405900305137038 ], [ 401315.15768056968227, 3784347.405900305137038 ], [ 401315.768056968459859, 3784348.016276704147458 ], [ 401316.073245167848654, 3784348.016276704147458 ], [ 401316.073245167848654, 3784350.152594099752605 ], [ 401315.768056968459859, 3784350.457782299257815 ], [ 401315.768056968459859, 3784350.762970498297364 ], [ 401315.462868769071065, 3784351.068158697802573 ], [ 401315.15768056968227, 3784351.068158697802573 ], [ 401314.852492370293476, 3784351.373346897307783 ], [ 401314.547304170904681, 3784351.373346897307783 ], [ 401314.242115971515886, 3784351.678535096812993 ], [ 401313.936927772127092, 3784351.678535096812993 ], [ 401313.021363173960708, 3784352.594099694862962 ], [ 401313.021363173960708, 3784352.899287894368172 ], [ 401312.716174974571913, 3784353.20447609340772 ], [ 401312.410986775183119, 3784353.20447609340772 ], [ 401312.105798575794324, 3784353.50966429291293 ], [ 401310.579857578850351, 3784353.50966429291293 ] ] ] } },
{ "type": "Feature", "properties": { "confidence": 0.73448026180267334, "class": 1 }, "geometry": { "type": "Polygon", "coordinates": [ [ [ 401260.834181078360416, 3784326.958290946204215 ], [ 401260.528992878913414, 3784326.653102746699005 ], [ 401260.223804679524619, 3784326.653102746699005 ], [ 401259.918616480135825, 3784326.347914547193795 ], [ 401259.61342828074703, 3784326.347914547193795 ], [ 401259.308240081358235, 3784326.042726347688586 ], [ 401259.308240081358235, 3784325.737538148649037 ], [ 401257.782299084414262, 3784324.211597151588649 ], [ 401257.782299084414262, 3784323.906408952083439 ], [ 401257.477110885025468, 3784323.601220752578229 ], [ 401257.477110885025468, 3784323.29603255353868 ], [ 401257.171922685636673, 3784322.99084435403347 ], [ 401257.171922685636673, 3784322.38046795502305 ], [ 401256.866734486247879, 3784322.075279755983502 ], [ 401256.866734486247879, 3784321.770091556478292 ], [ 401256.256358087470289, 3784321.159715157467872 ], [ 401256.256358087470289, 3784320.244150559417903 ], [ 401255.951169888081495, 3784319.938962359912694 ], [ 401255.951169888081495, 3784319.633774160873145 ], [ 401255.6459816886927, 3784319.328585961367935 ], [ 401255.6459816886927, 3784317.802644964307547 ], [ 401255.951169888081495, 3784317.497456764802337 ], [ 401256.256358087470289, 3784317.497456764802337 ], [ 401256.561546286859084, 3784317.192268565762788 ], [ 401257.171922685636673, 3784317.192268565762788 ], [ 401257.477110885025468, 3784316.887080366257578 ], [ 401257.782299084414262, 3784316.887080366257578 ], [ 401258.087487283803057, 3784316.581892166752368 ], [ 401259.61342828074703, 3784316.581892166752368 ], [ 401259.918616480135825, 3784316.887080366257578 ], [ 401260.223804679524619, 3784316.887080366257578 ], [ 401260.528992878913414, 3784317.192268565762788 ], [ 401260.834181078360416, 3784317.192268565762788 ], [ 401261.139369277749211, 3784317.497456764802337 ], [ 401261.7497456765268, 3784317.497456764802337 ], [ 401261.7497456765268, 3784317.802644964307547 ], [ 401262.054933875915594, 3784318.107833163812757 ], [ 401262.360122075304389, 3784318.107833163812757 ], [ 401262.665310274693184, 3784318.413021363317966 ], [ 401262.970498474081978, 3784318.413021363317966 ], [ 401263.580874872859567, 3784319.023397761862725 ], [ 401263.580874872859567, 3784319.328585961367935 ], [ 401263.886063072248362, 3784319.633774160873145 ], [ 401263.886063072248362, 3784326.042726347688586 ], [ 401263.275686673470773, 3784326.653102746699005 ], [ 401262.970498474081978, 3784326.653102746699005 ], [ 401262.665310274693184, 3784326.958290946204215 ], [ 401260.834181078360416, 3784326.958290946204215 ] ] ] } },
{ "type": "Feature", "properties": { "confidence": 0.72895532846450806, "class": 1 }, "geometry": { "type": "Polygon", "coordinates": [ [ [ 400967.853509664302692, 3784499.084435401950032 ], [ 400966.937945066136308, 3784498.168870803434402 ], [ 400966.937945066136308, 3784497.863682604394853 ], [ 400966.632756866747513, 3784497.558494404889643 ], [ 400966.632756866747513, 3784497.253306205384433 ], [ 400966.327568667358719, 3784496.948118005879223 ], [ 400966.327568667358719, 3784496.642929806839675 ], [ 400966.022380467969924, 3784496.337741607334465 ], [ 400966.022380467969924, 3784495.422177009284496 ], [ 400965.71719226858113, 3784495.116988809779286 ], [ 400966.022380467969924, 3784494.811800610274076 ], [ 400966.022380467969924, 3784494.506612410768867 ], [ 400966.632756866747513, 3784493.896236012224108 ], [ 400966.632756866747513, 3784493.591047812718898 ], [ 400967.243133265525103, 3784492.980671414174139 ], [ 400967.243133265525103, 3784492.67548321466893 ], [ 400968.463886063080281, 3784491.454730417113751 ], [ 400968.769074262469076, 3784491.454730417113751 ], [ 400969.379450661246665, 3784490.844354018103331 ], [ 400969.684638860635459, 3784491.149542217608541 ], [ 400970.295015259413049, 3784491.149542217608541 ], [ 400970.600203458801843, 3784491.454730417113751 ], [ 400970.905391658190638, 3784491.454730417113751 ], [ 400972.126144455745816, 3784492.67548321466893 ], [ 400972.126144455745816, 3784492.980671414174139 ], [ 400972.431332655134611, 3784493.285859613213688 ], [ 400972.431332655134611, 3784496.337741607334465 ], [ 400972.126144455745816, 3784496.642929806839675 ], [ 400972.126144455745816, 3784497.253306205384433 ], [ 400971.820956256357022, 3784497.558494404889643 ], [ 400971.820956256357022, 3784497.863682604394853 ], [ 400971.515768056968227, 3784498.168870803434402 ], [ 400971.210579857579432, 3784498.168870803434402 ], [ 400970.905391658190638, 3784498.474059002939612 ], [ 400970.600203458801843, 3784498.474059002939612 ], [ 400970.295015259413049, 3784498.779247202444822 ], [ 400969.684638860635459, 3784498.779247202444822 ], [ 400969.379450661246665, 3784499.084435401950032 ], [ 400967.853509664302692, 3784499.084435401950032 ] ] ] } },
{ "type": "Feature", "properties": { "confidence": 0.69566422700881958, "class": 1 }, "geometry": { "type": "Polygon", "coordinates": [ [ [ 401029.19633774162503, 3784413.326551373116672 ], [ 401028.891149542236235, 3784413.021363174077123 ], [ 401025.839267548348289, 3784413.021363174077123 ], [ 401025.2288911495707, 3784412.410986775066704 ], [ 401024.923702950123698, 3784412.410986775066704 ], [ 401024.313326551346108, 3784411.800610376521945 ], [ 401024.313326551346108, 3784411.190233977511525 ], [ 401024.008138351957314, 3784410.885045778006315 ], [ 401024.008138351957314, 3784409.664292980451137 ], [ 401032.55340793490177, 3784409.664292980451137 ], [ 401032.55340793490177, 3784410.579857578966767 ], [ 401032.248219735512976, 3784410.885045778006315 ], [ 401032.248219735512976, 3784411.800610376521945 ], [ 401031.637843336735386, 3784412.410986775066704 ], [ 401031.637843336735386, 3784412.716174974571913 ], [ 401031.332655137346592, 3784412.716174974571913 ], [ 401031.027466937957797, 3784413.021363174077123 ], [ 401030.417090539180208, 3784413.021363174077123 ], [ 401030.111902339791413, 3784413.326551373116672 ], [ 401029.19633774162503, 3784413.326551373116672 ] ] ] } },
{ "type": "Feature", "properties": { "confidence": 0.62115460634231567, "class": 1 }, "geometry": { "type": "Polygon", "coordinates": [ [ [ 400845.167853509658016, 3784413.631739572621882 ], [ 400844.557477110880427, 3784413.021363174077123 ], [ 400844.557477110880427, 3784412.716174974571913 ], [ 400843.641912512714043, 3784411.800610376521945 ], [ 400843.641912512714043, 3784410.885045778006315 ], [ 400843.031536113936454, 3784410.274669379461557 ], [ 400849.135300101712346, 3784410.274669379461557 ], [ 400849.135300101712346, 3784412.410986775066704 ], [ 400848.524923702934757, 3784413.021363174077123 ], [ 400848.219735503545962, 3784413.021363174077123 ], [ 400847.914547304157168, 3784413.326551373116672 ], [ 400847.304170905379578, 3784413.326551373116672 ], [ 400846.998982705990784, 3784413.631739572621882 ], [ 400845.167853509658016, 3784413.631739572621882 ] ] ] } },
{ "type": "Feature", "properties": { "confidence": 0.56822288036346436, "class": 1 }, "geometry": { "type": "Polygon", "coordinates": [ [ [ 400958.697863682580646, 3784507.019328585825861 ], [ 400958.392675483191852, 3784506.714140386786312 ], [ 400958.087487283803057, 3784506.714140386786312 ], [ 400957.477110885025468, 3784506.103763987775892 ], [ 400957.477110885025468, 3784505.798575788270682 ], [ 400957.171922685636673, 3784505.493387589231133 ], [ 400957.171922685636673, 3784505.188199389725924 ], [ 400956.866734486247879, 3784504.883011190220714 ], [ 400956.866734486247879, 3784501.220752797555178 ], [ 400958.392675483191852, 3784499.69481180049479 ], [ 400958.697863682580646, 3784499.69481180049479 ], [ 400959.308240081358235, 3784499.084435401950032 ], [ 400959.61342828074703, 3784499.084435401950032 ], [ 400959.918616480135825, 3784498.779247202444822 ], [ 400960.834181078360416, 3784498.779247202444822 ], [ 400961.139369277749211, 3784498.474059002939612 ], [ 400961.444557477138005, 3784498.779247202444822 ], [ 400962.665310274693184, 3784498.779247202444822 ], [ 400962.970498474081978, 3784499.084435401950032 ], [ 400963.275686673470773, 3784499.084435401950032 ], [ 400963.886063072248362, 3784499.69481180049479 ], [ 400964.191251271637157, 3784499.69481180049479 ], [ 400964.801627670414746, 3784500.30518819950521 ], [ 400964.801627670414746, 3784503.051881994120777 ], [ 400964.496439471025951, 3784503.357070193160325 ], [ 400964.496439471025951, 3784504.577822990715504 ], [ 400961.7497456765268, 3784504.577822990715504 ], [ 400961.444557477138005, 3784504.883011190220714 ], [ 400961.139369277749211, 3784504.883011190220714 ], [ 400960.528992878913414, 3784505.493387589231133 ], [ 400960.528992878913414, 3784506.103763987775892 ], [ 400960.223804679524619, 3784506.408952187281102 ], [ 400960.223804679524619, 3784506.714140386786312 ], [ 400959.918616480135825, 3784507.019328585825861 ], [ 400958.697863682580646, 3784507.019328585825861 ] ] ] } },
{ "type": "Feature", "properties": { "confidence": 0.55163693428039551, "class": 1 }, "geometry": { "type": "Polygon", "coordinates": [ [ [ 401160.122075279767159, 3784295.829094608314335 ], [ 401159.816887080378365, 3784295.523906408809125 ], [ 401159.816887080378365, 3784294.303153611253947 ], [ 401160.122075279767159, 3784293.997965412214398 ], [ 401160.122075279767159, 3784292.77721261465922 ], [ 401160.427263479155954, 3784292.47202441515401 ], [ 401160.427263479155954, 3784292.1668362156488 ], [ 401160.732451678544749, 3784291.86164801614359 ], [ 401161.037639877933543, 3784291.86164801614359 ], [ 401161.648016276711132, 3784291.251271617598832 ], [ 401161.648016276711132, 3784290.946083418093622 ], [ 401162.868769074266311, 3784289.725330620538443 ], [ 401163.173957273655105, 3784289.725330620538443 ], [ 401163.4791454730439, 3784289.420142421033233 ], [ 401164.089521871821489, 3784289.420142421033233 ], [ 401164.394710071210284, 3784289.725330620538443 ], [ 401164.699898270599078, 3784289.725330620538443 ], [ 401165.005086469987873, 3784290.030518820043653 ], [ 401165.310274669376668, 3784290.030518820043653 ], [ 401165.310274669376668, 3784290.640895218588412 ], [ 401165.615462868765462, 3784290.946083418093622 ], [ 401165.615462868765462, 3784291.556459817104042 ], [ 401165.310274669376668, 3784291.86164801614359 ], [ 401165.310274669376668, 3784292.1668362156488 ], [ 401164.394710071210284, 3784293.082400813698769 ], [ 401164.394710071210284, 3784293.387589013203979 ], [ 401163.784333672432695, 3784293.997965412214398 ], [ 401163.784333672432695, 3784294.303153611253947 ], [ 401163.173957273655105, 3784294.913530010264367 ], [ 401162.868769074266311, 3784294.913530010264367 ], [ 401162.258392675488722, 3784295.523906408809125 ], [ 401161.953204476099927, 3784295.523906408809125 ], [ 401161.648016276711132, 3784295.829094608314335 ], [ 401160.122075279767159, 3784295.829094608314335 ] ] ] } },
{ "type": "Feature", "properties": { "confidence": 0.4956260621547699, "class": 1 }, "geometry": { "type": "Polygon", "coordinates": [ [ [ 401160.122075279767159, 3784295.829094608314335 ], [ 401160.122075279767159, 3784295.523906408809125 ], [ 401159.816887080378365, 3784295.218718209769577 ], [ 401159.816887080378365, 3784292.47202441515401 ], [ 401163.784333672432695, 3784292.47202441515401 ], [ 401163.784333672432695, 3784294.303153611253947 ], [ 401163.4791454730439, 3784294.303153611253947 ], [ 401161.953204476099927, 3784295.829094608314335 ], [ 401160.122075279767159, 3784295.829094608314335 ] ] ] } },
{ "type": "Feature", "properties": { "confidence": 0.45933401584625244, "class": 1 }, "geometry": { "type": "Polygon", "coordinates": [ [ [ 400811.291963377443608, 3784416.988809766247869 ], [ 400810.986775178054813, 3784416.683621566742659 ], [ 400810.681586978607811, 3784416.683621566742659 ], [ 400810.376398779219016, 3784416.378433367237449 ], [ 400810.376398779219016, 3784415.76805696869269 ], [ 400810.071210579830222, 3784415.46286876918748 ], [ 400810.376398779219016, 3784415.15768056968227 ], [ 400810.376398779219016, 3784412.716174974571913 ], [ 400810.681586978607811, 3784412.410986775066704 ], [ 400811.902339776221197, 3784412.410986775066704 ], [ 400812.207527975609992, 3784412.716174974571913 ], [ 400812.512716174998786, 3784412.716174974571913 ], [ 400813.733468972553965, 3784413.936927772127092 ], [ 400813.733468972553965, 3784415.76805696869269 ], [ 400813.123092573776376, 3784416.378433367237449 ], [ 400813.123092573776376, 3784416.683621566742659 ], [ 400812.817904374387581, 3784416.988809766247869 ], [ 400811.291963377443608, 3784416.988809766247869 ] ] ] } },
{ "type": "Feature", "properties": { "confidence": 0.40098088979721069, "class": 1 }, "geometry": { "type": "Polygon", "coordinates": [ [ [ 400820.447609359107446, 3784426.754832146689296 ], [ 400820.142421159718651, 3784426.449643947184086 ], [ 400819.837232960329857, 3784426.449643947184086 ], [ 400818.616480162774678, 3784425.228891149628907 ], [ 400818.616480162774678, 3784424.923702950123698 ], [ 400818.006103763997089, 3784424.313326551578939 ], [ 400818.006103763997089, 3784424.008138352073729 ], [ 400817.3957273652195, 3784423.397761953063309 ], [ 400817.3957273652195, 3784422.482197355013341 ], [ 400817.090539165830705, 3784422.177009155508131 ], [ 400817.090539165830705, 3784420.040691759902984 ], [ 400816.785350966441911, 3784419.735503560397774 ], [ 400816.785350966441911, 3784418.514750762842596 ], [ 400817.090539165830705, 3784418.209562563803047 ], [ 400817.090539165830705, 3784417.904374364297837 ], [ 400817.3957273652195, 3784417.599186164792627 ], [ 400818.921668362163473, 3784417.599186164792627 ], [ 400819.226856561552268, 3784417.293997965287417 ], [ 400820.752797558496241, 3784417.293997965287417 ], [ 400821.36317395727383, 3784417.904374364297837 ], [ 400821.36317395727383, 3784418.209562563803047 ], [ 400821.668362156662624, 3784418.514750762842596 ], [ 400821.668362156662624, 3784418.819938962347806 ], [ 400821.973550356051419, 3784419.125127161853015 ], [ 400822.278738555440214, 3784419.125127161853015 ], [ 400822.583926754829008, 3784419.430315361358225 ], [ 400822.889114954217803, 3784419.430315361358225 ], [ 400823.194303153606597, 3784419.735503560397774 ], [ 400823.499491352995392, 3784419.735503560397774 ], [ 400823.499491352995392, 3784420.040691759902984 ], [ 400823.804679552384187, 3784420.345879959408194 ], [ 400823.804679552384187, 3784423.092573754023761 ], [ 400823.499491352995392, 3784423.397761953063309 ], [ 400823.499491352995392, 3784423.702950152568519 ], [ 400823.194303153606597, 3784424.008138352073729 ], [ 400823.194303153606597, 3784424.313326551578939 ], [ 400821.973550356051419, 3784425.534079349134117 ], [ 400821.973550356051419, 3784426.144455747678876 ], [ 400821.668362156662624, 3784426.449643947184086 ], [ 400821.36317395727383, 3784426.449643947184086 ], [ 400821.057985757885035, 3784426.754832146689296 ], [ 400820.447609359107446, 3784426.754832146689296 ] ] ] } },
{ "type": "Feature", "properties": { "confidence": 0.35077095031738281, "class": 1 }, "geometry": { "type": "Polygon", "coordinates": [ [ [ 400919.63377416075673, 3784270.193285859655589 ], [ 400919.328585961367935, 3784269.888097660150379 ], [ 400918.718209562590346, 3784269.888097660150379 ], [ 400918.107833163812757, 3784269.27772126160562 ], [ 400918.107833163812757, 3784266.531027466990054 ], [ 400918.413021363201551, 3784266.225839267484844 ], [ 400918.413021363201551, 3784265.310274669434875 ], [ 400918.718209562590346, 3784265.005086469929665 ], [ 400919.02339776197914, 3784265.005086469929665 ], [ 400919.328585961367935, 3784264.699898270424455 ], [ 400921.159715157700703, 3784264.699898270424455 ], [ 400921.464903357089497, 3784265.005086469929665 ], [ 400922.075279755867086, 3784265.005086469929665 ], [ 400922.380467955255881, 3784265.310274669434875 ], [ 400922.380467955255881, 3784269.888097660150379 ], [ 400922.075279755867086, 3784269.888097660150379 ], [ 400921.770091556478292, 3784270.193285859655589 ], [ 400919.63377416075673, 3784270.193285859655589 ] ] ] } },
{ "type": "Feature", "properties": { "confidence": 0.35003238916397095, "class": 1 }, "geometry": { "type": "Polygon", "coordinates": [ [ [ 401002.950152594072279, 3784294.303153611253947 ], [ 401002.644964394683484, 3784293.997965412214398 ], [ 401002.644964394683484, 3784293.692777212709188 ], [ 401002.339776195294689, 3784293.387589013203979 ], [ 401002.339776195294689, 3784292.47202441515401 ], [ 401009.053916581906378, 3784292.47202441515401 ], [ 401009.053916581906378, 3784292.77721261465922 ], [ 401008.748728382517584, 3784293.082400813698769 ], [ 401008.443540183128789, 3784293.082400813698769 ], [ 401007.8331637843512, 3784293.692777212709188 ], [ 401007.527975584962405, 3784293.692777212709188 ], [ 401007.222787385573611, 3784293.997965412214398 ], [ 401006.307222787407227, 3784293.997965412214398 ], [ 401006.002034588018432, 3784294.303153611253947 ], [ 401002.950152594072279, 3784294.303153611253947 ] ] ] } },
{ "type": "Feature", "properties": { "confidence": 0.32394886016845703, "class": 1 }, "geometry": { "type": "Polygon", "coordinates": [ [ [ 401133.875890132272616, 3784649.542217700742185 ], [ 401133.265513733495027, 3784648.931841302197427 ], [ 401132.960325534106232, 3784648.931841302197427 ], [ 401132.960325534106232, 3784648.321464903187007 ], [ 401132.655137334717438, 3784648.016276704147458 ], [ 401132.655137334717438, 3784646.79552390659228 ], [ 401132.960325534106232, 3784646.49033570708707 ], [ 401132.960325534106232, 3784644.964394710026681 ], [ 401133.265513733495027, 3784644.659206510521472 ], [ 401139.979654120048508, 3784644.659206510521472 ], [ 401139.979654120048508, 3784645.269582909531891 ], [ 401140.284842319437303, 3784645.574771109037101 ], [ 401139.979654120048508, 3784645.87995930807665 ], [ 401139.979654120048508, 3784647.405900305137038 ], [ 401139.064089521882124, 3784648.321464903187007 ], [ 401138.75890132249333, 3784648.321464903187007 ], [ 401138.453713123104535, 3784648.626653102692217 ], [ 401138.14852492371574, 3784648.626653102692217 ], [ 401137.843336724326946, 3784648.931841302197427 ], [ 401137.538148524938151, 3784648.931841302197427 ], [ 401137.232960325549357, 3784649.237029501702636 ], [ 401136.622583926771767, 3784649.237029501702636 ], [ 401136.317395727382973, 3784649.542217700742185 ], [ 401133.875890132272616, 3784649.542217700742185 ] ] ] } },
{ "type": "Feature", "properties": { "confidence": 0.32144823670387268, "class": 1 }, "geometry": { "type": "Polygon", "coordinates": [ [ [ 400957.782299084414262, 3784257.070193286053836 ], [ 400957.477110885025468, 3784256.765005086548626 ], [ 400956.866734486247879, 3784256.765005086548626 ], [ 400956.256358087470289, 3784256.154628687538207 ], [ 400956.256358087470289, 3784255.849440488498658 ], [ 400955.951169888081495, 3784255.544252288993448 ], [ 400955.951169888081495, 3784254.933875889983028 ], [ 400955.6459816886927, 3784254.62868769094348 ], [ 400955.6459816886927, 3784253.102746693883091 ], [ 400955.951169888081495, 3784252.797558494377881 ], [ 400955.951169888081495, 3784250.966429298277944 ], [ 400956.256358087470289, 3784250.661241098772734 ], [ 400956.256358087470289, 3784250.050864699762315 ], [ 400956.866734486247879, 3784249.440488301217556 ], [ 400958.392675483191852, 3784249.440488301217556 ], [ 400958.697863682580646, 3784249.135300101712346 ], [ 400959.61342828074703, 3784249.135300101712346 ], [ 400959.918616480135825, 3784249.440488301217556 ], [ 400961.7497456765268, 3784249.440488301217556 ], [ 400962.054933875915594, 3784249.745676500722766 ], [ 400962.054933875915594, 3784250.966429298277944 ], [ 400961.7497456765268, 3784251.271617497317493 ], [ 400961.7497456765268, 3784254.62868769094348 ], [ 400961.444557477138005, 3784254.933875889983028 ], [ 400961.444557477138005, 3784255.239064089488238 ], [ 400961.139369277749211, 3784255.544252288993448 ], [ 400961.139369277749211, 3784255.849440488498658 ], [ 400960.834181078360416, 3784256.154628687538207 ], [ 400960.834181078360416, 3784256.765005086548626 ], [ 400960.528992878913414, 3784257.070193286053836 ], [ 400957.782299084414262, 3784257.070193286053836 ] ] ] } },
{ "type": "Feature", "properties": { "confidence": 0.30928590893745422, "class": 1 }, "geometry": { "type": "Polygon", "coordinates": [ [ [ 401370.701932858617511, 3784411.800610376521945 ], [ 401370.396744659228716, 3784411.495422177016735 ], [ 401368.870803662284743, 3784411.495422177016735 ], [ 401368.565615462895948, 3784411.190233977511525 ], [ 401368.565615462895948, 3784410.885045778006315 ], [ 401368.260427263507154, 3784410.579857578966767 ], [ 401368.260427263507154, 3784409.664292980451137 ], [ 401377.110885045782197, 3784409.664292980451137 ], [ 401377.110885045782197, 3784410.274669379461557 ], [ 401376.500508647004608, 3784410.885045778006315 ], [ 401376.195320447615813, 3784410.885045778006315 ], [ 401375.890132248227019, 3784411.190233977511525 ], [ 401375.27975584944943, 3784411.190233977511525 ], [ 401374.974567650060635, 3784411.495422177016735 ], [ 401374.66937945067184, 3784411.495422177016735 ], [ 401374.364191251283046, 3784411.800610376521945 ], [ 401370.701932858617511, 3784411.800610376521945 ] ] ] } },
{ "type": "Feature", "properties": { "confidence": 0.30515721440315247, "class": 1 }, "geometry": { "type": "Polygon", "coordinates": [ [ [ 400836.927772126160562, 3784408.13835198385641 ], [ 400836.622583926771767, 3784407.8331637843512 ], [ 400836.317395727382973, 3784407.8331637843512 ], [ 400836.317395727382973, 3784407.52797558484599 ], [ 400835.707019328605384, 3784406.917599186301231 ], [ 400832.960325534106232, 3784406.917599186301231 ], [ 400832.655137334717438, 3784406.612410986796021 ], [ 400832.349949135328643, 3784406.612410986796021 ], [ 400832.349949135328643, 3784405.696846388746053 ], [ 400832.044760935881641, 3784405.391658189240843 ], [ 400832.044760935881641, 3784402.034587996080518 ], [ 400832.349949135328643, 3784401.729399796575308 ], [ 400837.232960325549357, 3784401.729399796575308 ], [ 400837.538148524938151, 3784402.034587996080518 ], [ 400837.538148524938151, 3784402.644964394625276 ], [ 400838.14852492371574, 3784403.255340793635696 ], [ 400838.14852492371574, 3784403.560528992675245 ], [ 400838.453713123104535, 3784403.865717192180455 ], [ 400838.453713123104535, 3784404.170905391685665 ], [ 400838.75890132249333, 3784404.476093591190875 ], [ 400838.75890132249333, 3784404.781281790230423 ], [ 400839.064089521882124, 3784405.086469989735633 ], [ 400839.064089521882124, 3784405.391658189240843 ], [ 400839.369277721270919, 3784405.696846388746053 ], [ 400839.369277721270919, 3784406.307222787290812 ], [ 400839.674465920659713, 3784406.612410986796021 ], [ 400839.674465920659713, 3784407.52797558484599 ], [ 400839.369277721270919, 3784407.8331637843512 ], [ 400838.14852492371574, 3784407.8331637843512 ], [ 400837.843336724326946, 3784408.13835198385641 ], [ 400836.927772126160562, 3784408.13835198385641 ] ] ] } },
{ "type": "Feature", "properties": { "confidence": 0.30148124694824219, "class": 1 }, "geometry": { "type": "Polygon", "coordinates": [ [ [ 401369.481180061062332, 3784411.495422177016735 ], [ 401369.175991861673538, 3784411.190233977511525 ], [ 401369.175991861673538, 3784409.053916581906378 ], [ 401369.481180061062332, 3784408.748728382401168 ], [ 401369.481180061062332, 3784408.443540182895958 ], [ 401369.786368260451127, 3784408.443540182895958 ], [ 401370.396744659228716, 3784407.8331637843512 ], [ 401371.007121058006305, 3784407.8331637843512 ], [ 401371.3123092573951, 3784407.52797558484599 ], [ 401371.617497456783894, 3784407.52797558484599 ], [ 401372.227873855561484, 3784406.917599186301231 ], [ 401375.27975584944943, 3784406.917599186301231 ], [ 401375.584944048838224, 3784407.22278738534078 ], [ 401375.584944048838224, 3784407.8331637843512 ], [ 401375.890132248227019, 3784408.13835198385641 ], [ 401375.890132248227019, 3784408.443540182895958 ], [ 401376.195320447615813, 3784408.748728382401168 ], [ 401376.195320447615813, 3784409.359104781411588 ], [ 401375.890132248227019, 3784409.664292980451137 ], [ 401375.890132248227019, 3784409.969481179956347 ], [ 401375.27975584944943, 3784410.579857578966767 ], [ 401374.364191251283046, 3784410.579857578966767 ], [ 401374.059003051894251, 3784410.885045778006315 ], [ 401372.838250254339073, 3784410.885045778006315 ], [ 401372.533062054950278, 3784411.190233977511525 ], [ 401372.227873855561484, 3784411.190233977511525 ], [ 401371.922685656172689, 3784411.495422177016735 ], [ 401369.481180061062332, 3784411.495422177016735 ] ] ] } },
{ "type": "Feature", "properties": { "confidence": 0.27765655517578125, "class": 1 }, "geometry": { "type": "Polygon", "coordinates": [ [ [ 400891.251271617482416, 3784275.991861647926271 ], [ 400890.946083418093622, 3784275.686673448421061 ], [ 400890.640895218704827, 3784275.686673448421061 ], [ 400890.030518819927238, 3784275.076297049876302 ], [ 400890.030518819927238, 3784271.719226856715977 ], [ 400890.335707019316033, 3784271.414038657210767 ], [ 400890.640895218704827, 3784271.414038657210767 ], [ 400891.556459816871211, 3784270.498474059160799 ], [ 400891.861648016260006, 3784270.498474059160799 ], [ 400892.472024415037595, 3784269.888097660150379 ], [ 400893.387589013203979, 3784269.888097660150379 ], [ 400893.692777212592773, 3784269.582909460645169 ], [ 400893.997965411981568, 3784269.582909460645169 ], [ 400894.303153611370362, 3784269.888097660150379 ], [ 400894.303153611370362, 3784270.498474059160799 ], [ 400894.608341810759157, 3784270.803662258200347 ], [ 400894.608341810759157, 3784273.855544252321124 ], [ 400894.303153611370362, 3784274.160732451826334 ], [ 400894.303153611370362, 3784274.465920650865883 ], [ 400893.692777212592773, 3784275.076297049876302 ], [ 400893.692777212592773, 3784275.381485249381512 ], [ 400893.082400813815184, 3784275.991861647926271 ], [ 400891.251271617482416, 3784275.991861647926271 ] ] ] } }
]
}
