{
"type": "FeatureCollection",
"name": "cell_00145_pre",
"crs": { "type": "name", "properties": { "name": "urn:ogc:def:crs:EPSG::32611" } },
"features": [
{ "type": "Feature", "properties": { "confidence": 0.70625025033950806, "class": 1 }, "geometry": { "type": "Polygon", "coordinates": [ [ [ 354750.152594099694397, 3770080.773143438622355 ], [ 354749.847405900305603, 3770080.467955239117146 ], [ 354748.931841302139219, 3770080.467955239117146 ], [ 354748.626653102750424, 3770080.162767039611936 ], [ 354748.626653102750424, 3770079.857578840106726 ], [ 354748.32146490336163, 3770079.552390641067177 ], [ 354748.32146490336163, 3770079.247202441561967 ], [ 354747.405900305195246, 3770078.331637843511999 ], [ 354747.405900305195246, 3770076.5005086469464 ], [ 354747.71108850458404, 3770076.19532044744119 ], [ 354748.32146490336163, 3770076.19532044744119 ], [ 354748.626653102750424, 3770075.890132248401642 ], [ 354748.931841302139219, 3770075.890132248401642 ], [ 354749.237029501528013, 3770075.584944048896432 ], [ 354749.542217700916808, 3770075.584944048896432 ], [ 354749.847405900305603, 3770075.279755849391222 ], [ 354750.457782299083192, 3770075.279755849391222 ], [ 354751.068158697860781, 3770074.669379450846463 ], [ 354751.373346897249576, 3770074.669379450846463 ], [ 354751.67853509663837, 3770074.364191251341254 ], [ 354752.594099694804754, 3770074.364191251341254 ], [ 354752.899287894193549, 3770074.059003051836044 ], [ 354754.120040691748727, 3770074.059003051836044 ], [ 354754.425228891137522, 3770074.364191251341254 ], [ 354754.425228891137522, 3770075.890132248401642 ], [ 354754.730417090526316, 3770076.19532044744119 ], [ 354754.730417090526316, 3770076.5005086469464 ], [ 354755.035605289915111, 3770076.80569684645161 ], [ 354755.035605289915111, 3770078.026449644006789 ], [ 354755.340793489303906, 3770078.331637843511999 ], [ 354755.340793489303906, 3770079.857578840106726 ], [ 354755.035605289915111, 3770080.162767039611936 ], [ 354754.120040691748727, 3770080.162767039611936 ], [ 354753.814852492359933, 3770080.467955239117146 ], [ 354752.28891149541596, 3770080.467955239117146 ], [ 354751.983723296027165, 3770080.773143438622355 ], [ 354750.152594099694397, 3770080.773143438622355 ] ] ] } },
{ "type": "Feature", "properties": { "confidence": 0.32243028283119202, "class": 1 }, "geometry": { "type": "Polygon", "coordinates": [ [ [ 355044.964394710084889, 3770129.603255340829492 ], [ 355044.659206510696094, 3770129.298067141324282 ], [ 355044.3540183113073, 3770129.298067141324282 ], [ 355044.3540183113073, 3770126.856561546213925 ], [ 355049.237029501528013, 3770126.856561546213925 ], [ 355049.237029501528013, 3770128.687690742779523 ], [ 355048.626653102750424, 3770129.298067141324282 ], [ 355048.32146490336163, 3770129.298067141324282 ], [ 355048.016276703972835, 3770129.603255340829492 ], [ 355044.964394710084889, 3770129.603255340829492 ] ] ] } },
{ "type": "Feature", "properties": { "confidence": 0.29350221157073975, "class": 1 }, "geometry": { "type": "Polygon", "coordinates": [ [ [ 354965.005086469987873, 3770367.039674466010183 ], [ 354964.699898270599078, 3770366.734486266504973 ], [ 354964.699898270599078, 3770365.208545269444585 ], [ 354964.394710071210284, 3770364.903357070405036 ], [ 354964.394710071210284, 3770362.461851475294679 ], [ 354967.44659206509823, 3770362.461851475294679 ], [ 354968.667344862653408, 3770363.682604272849858 ], [ 354968.667344862653408, 3770363.987792471889406 ], [ 354968.972533062042203, 3770364.292980671394616 ], [ 354968.972533062042203, 3770365.208545269444585 ], [ 354968.667344862653408, 3770365.513733468949795 ], [ 354968.667344862653408, 3770365.818921668455005 ], [ 354968.362156663264614, 3770366.124109867960215 ], [ 354968.056968463875819, 3770366.124109867960215 ], [ 354967.44659206509823, 3770366.734486266504973 ], [ 354966.531027466931846, 3770366.734486266504973 ], [ 354966.225839267543051, 3770367.039674466010183 ], [ 354965.005086469987873, 3770367.039674466010183 ] ] ] } }
]
}
