{
"type": "FeatureCollection",
"name": "cell_00362_pre",
"crs": { "type": "name", "properties": { "name": "urn:ogc:def:crs:EPSG::32611" } },
"features": [
{ "type": "Feature", "properties": { "confidence": 0.97971558570861816, "class": 1 }, "geometry": { "type": "Polygon", "coordinates": [ [ [ 394935.198372329585254, 3787048.931841302197427 ], [ 394934.89318413019646, 3787048.626653102692217 ], [ 394934.28280773141887, 3787048.626653102692217 ], [ 394934.28280773141887, 3787048.321464903187007 ], [ 394933.977619532030076, 3787048.016276704147458 ], [ 394933.977619532030076, 3787044.964394710026681 ], [ 394934.28280773141887, 3787044.659206510521472 ], [ 394934.28280773141887, 3787044.048830111976713 ], [ 394934.587995930807665, 3787043.743641912471503 ], [ 394934.587995930807665, 3787043.438453712966293 ], [ 394935.198372329585254, 3787042.828077314421535 ], [ 394935.198372329585254, 3787042.522889114916325 ], [ 394935.503560528974049, 3787042.217700915411115 ], [ 394935.503560528974049, 3787041.912512716371566 ], [ 394935.808748728362843, 3787041.607324516866356 ], [ 394935.808748728362843, 3787040.996948117855936 ], [ 394936.113936927751638, 3787040.691759918816388 ], [ 394936.113936927751638, 3787040.386571719311178 ], [ 394936.419125127140433, 3787040.081383519805968 ], [ 394937.945066124084406, 3787040.081383519805968 ], [ 394938.555442522861995, 3787040.691759918816388 ], [ 394938.860630722250789, 3787040.691759918816388 ], [ 394939.165818921639584, 3787040.996948117855936 ], [ 394939.165818921639584, 3787041.302136317361146 ], [ 394939.471007121086586, 3787041.607324516866356 ], [ 394939.776195320475381, 3787041.607324516866356 ], [ 394939.776195320475381, 3787041.912512716371566 ], [ 394940.081383519864175, 3787042.217700915411115 ], [ 394940.081383519864175, 3787043.438453712966293 ], [ 394939.776195320475381, 3787043.743641912471503 ], [ 394939.776195320475381, 3787044.354018311481923 ], [ 394939.165818921639584, 3787044.964394710026681 ], [ 394939.165818921639584, 3787045.574771109037101 ], [ 394938.860630722250789, 3787045.87995930807665 ], [ 394938.860630722250789, 3787046.18514750758186 ], [ 394938.555442522861995, 3787046.49033570708707 ], [ 394938.555442522861995, 3787047.100712105631828 ], [ 394938.2502543234732, 3787047.405900305137038 ], [ 394938.2502543234732, 3787047.711088504642248 ], [ 394937.945066124084406, 3787047.711088504642248 ], [ 394937.334689725306816, 3787048.321464903187007 ], [ 394937.029501525918022, 3787048.321464903187007 ], [ 394936.724313326529227, 3787048.626653102692217 ], [ 394936.113936927751638, 3787048.626653102692217 ], [ 394935.808748728362843, 3787048.931841302197427 ], [ 394935.198372329585254, 3787048.931841302197427 ] ] ] } },
{ "type": "Feature", "properties": { "confidence": 0.97184586524963379, "class": 1 }, "geometry": { "type": "Polygon", "coordinates": [ [ [ 395269.379450661246665, 3786936.927772126160562 ], [ 395269.07426246185787, 3786936.622583926655352 ], [ 395268.769074262469076, 3786936.622583926655352 ], [ 395268.769074262469076, 3786932.044760935939848 ], [ 395269.07426246185787, 3786932.044760935939848 ], [ 395269.379450661246665, 3786931.739572736434639 ], [ 395269.379450661246665, 3786931.434384536929429 ], [ 395269.684638860635459, 3786931.12919633788988 ], [ 395269.684638860635459, 3786929.603255340829492 ], [ 395270.295015259413049, 3786929.603255340829492 ], [ 395271.515768056968227, 3786928.382502543274313 ], [ 395271.515768056968227, 3786928.077314343769103 ], [ 395272.126144455745816, 3786927.466937945224345 ], [ 395273.0417090539122, 3786927.466937945224345 ], [ 395273.346897253300995, 3786927.161749745719135 ], [ 395273.346897253300995, 3786926.856561546213925 ], [ 395275.483214649022557, 3786926.856561546213925 ], [ 395275.483214649022557, 3786927.161749745719135 ], [ 395275.788402848411351, 3786927.466937945224345 ], [ 395276.093591047800146, 3786927.466937945224345 ], [ 395276.093591047800146, 3786928.687690742779523 ], [ 395275.788402848411351, 3786928.992878941819072 ], [ 395275.788402848411351, 3786929.298067141324282 ], [ 395275.483214649022557, 3786929.603255340829492 ], [ 395275.483214649022557, 3786930.21363173937425 ], [ 395275.178026449633762, 3786930.51881993887946 ], [ 395275.178026449633762, 3786930.82400813838467 ], [ 395274.872838250244968, 3786931.12919633788988 ], [ 395274.872838250244968, 3786931.739572736434639 ], [ 395271.820956256357022, 3786934.791454730555415 ], [ 395271.820956256357022, 3786935.096642929594964 ], [ 395270.295015259413049, 3786936.622583926655352 ], [ 395269.989827060024254, 3786936.622583926655352 ], [ 395269.684638860635459, 3786936.927772126160562 ], [ 395269.379450661246665, 3786936.927772126160562 ] ] ] } },
{ "type": "Feature", "properties": { "confidence": 0.84895133972167969, "class": 1 }, "geometry": { "type": "Polygon", "coordinates": [ [ [ 394918.718209562590346, 3786833.163784333504736 ], [ 394918.413021363201551, 3786832.858596134465188 ], [ 394918.107833163812757, 3786832.858596134465188 ], [ 394918.107833163812757, 3786826.144455747678876 ], [ 394917.802644964365754, 3786825.839267548173666 ], [ 394918.107833163812757, 3786825.534079349134117 ], [ 394918.107833163812757, 3786824.618514750618488 ], [ 394918.718209562590346, 3786824.008138352073729 ], [ 394919.02339776197914, 3786824.008138352073729 ], [ 394919.328585961367935, 3786823.702950152568519 ], [ 394919.63377416075673, 3786823.702950152568519 ], [ 394919.938962360145524, 3786823.397761953063309 ], [ 394920.244150559534319, 3786823.397761953063309 ], [ 394920.549338758923113, 3786823.092573754023761 ], [ 394923.601220752811059, 3786823.092573754023761 ], [ 394923.906408952199854, 3786823.397761953063309 ], [ 394924.211597151588649, 3786823.397761953063309 ], [ 394924.516785350977443, 3786823.702950152568519 ], [ 394924.516785350977443, 3786824.008138352073729 ], [ 394924.821973550366238, 3786824.313326551578939 ], [ 394924.821973550366238, 3786824.618514750618488 ], [ 394925.127161749755032, 3786824.923702950123698 ], [ 394925.127161749755032, 3786826.449643947184086 ], [ 394923.601220752811059, 3786827.975584944244474 ], [ 394923.601220752811059, 3786828.280773143284023 ], [ 394923.296032553422265, 3786828.585961342789233 ], [ 394923.296032553422265, 3786829.501525940839201 ], [ 394922.99084435403347, 3786829.806714140344411 ], [ 394922.99084435403347, 3786830.417090539354831 ], [ 394922.685656154644676, 3786830.72227873839438 ], [ 394922.685656154644676, 3786831.02746693789959 ], [ 394922.380467955255881, 3786831.332655137404799 ], [ 394922.380467955255881, 3786831.637843336910009 ], [ 394922.075279755867086, 3786831.943031535949558 ], [ 394921.770091556478292, 3786831.943031535949558 ], [ 394921.464903357089497, 3786832.248219735454768 ], [ 394921.159715157700703, 3786832.248219735454768 ], [ 394920.854526958311908, 3786832.553407934959978 ], [ 394920.244150559534319, 3786832.553407934959978 ], [ 394919.938962360145524, 3786832.858596134465188 ], [ 394919.328585961367935, 3786832.858596134465188 ], [ 394919.02339776197914, 3786833.163784333504736 ], [ 394918.718209562590346, 3786833.163784333504736 ] ] ] } },
{ "type": "Feature", "properties": { "confidence": 0.80027323961257935, "class": 1 }, "geometry": { "type": "Polygon", "coordinates": [ [ [ 395121.36317395727383, 3787048.626653102692217 ], [ 395121.057985757885035, 3787048.321464903187007 ], [ 395120.752797558496241, 3787048.321464903187007 ], [ 395120.447609359107446, 3787048.016276704147458 ], [ 395120.447609359107446, 3787047.100712105631828 ], [ 395120.142421159718651, 3787046.79552390659228 ], [ 395120.142421159718651, 3787046.49033570708707 ], [ 395119.837232960329857, 3787046.18514750758186 ], [ 395119.837232960329857, 3787045.87995930807665 ], [ 395119.532044760941062, 3787045.574771109037101 ], [ 395119.532044760941062, 3787044.659206510521472 ], [ 395125.940996948105749, 3787044.659206510521472 ], [ 395125.940996948105749, 3787046.49033570708707 ], [ 395125.635808748716954, 3787046.79552390659228 ], [ 395125.635808748716954, 3787047.100712105631828 ], [ 395125.33062054932816, 3787047.100712105631828 ], [ 395125.025432349939365, 3787047.405900305137038 ], [ 395125.025432349939365, 3787047.711088504642248 ], [ 395124.415055951161776, 3787047.711088504642248 ], [ 395124.109867751772981, 3787048.016276704147458 ], [ 395123.499491352995392, 3787048.016276704147458 ], [ 395123.194303153606597, 3787048.321464903187007 ], [ 395122.583926754829008, 3787048.321464903187007 ], [ 395122.278738555440214, 3787048.626653102692217 ], [ 395121.36317395727383, 3787048.626653102692217 ] ] ] } },
{ "type": "Feature", "properties": { "confidence": 0.78171426057815552, "class": 1 }, "geometry": { "type": "Polygon", "coordinates": [ [ [ 395280.36622583924327, 3786935.707019328605384 ], [ 395280.061037639854476, 3786935.401831129100174 ], [ 395280.061037639854476, 3786932.960325533989817 ], [ 395280.36622583924327, 3786932.960325533989817 ], [ 395280.671414038632065, 3786932.655137334484607 ], [ 395280.671414038632065, 3786930.21363173937425 ], [ 395280.36622583924327, 3786929.908443540334702 ], [ 395280.36622583924327, 3786929.298067141324282 ], [ 395280.061037639854476, 3786928.992878941819072 ], [ 395280.061037639854476, 3786927.466937945224345 ], [ 395280.97660223802086, 3786927.466937945224345 ], [ 395281.281790437409654, 3786927.161749745719135 ], [ 395281.281790437409654, 3786926.856561546213925 ], [ 395284.333672431355808, 3786926.856561546213925 ], [ 395284.333672431355808, 3786927.161749745719135 ], [ 395284.944048830133397, 3786927.772126144263893 ], [ 395284.944048830133397, 3786928.382502543274313 ], [ 395285.249237029522192, 3786928.687690742779523 ], [ 395285.249237029522192, 3786930.21363173937425 ], [ 395285.554425228910986, 3786930.51881993887946 ], [ 395285.249237029522192, 3786930.82400813838467 ], [ 395285.249237029522192, 3786931.434384536929429 ], [ 395285.554425228910986, 3786931.739572736434639 ], [ 395285.249237029522192, 3786932.044760935939848 ], [ 395285.249237029522192, 3786932.960325533989817 ], [ 395284.638860630744603, 3786933.570701933000237 ], [ 395284.638860630744603, 3786933.875890132039785 ], [ 395283.418107833189424, 3786935.096642929594964 ], [ 395283.11291963380063, 3786935.096642929594964 ], [ 395282.807731434411835, 3786935.401831129100174 ], [ 395282.50254323502304, 3786935.401831129100174 ], [ 395282.197355035634246, 3786935.707019328605384 ], [ 395280.36622583924327, 3786935.707019328605384 ] ] ] } },
{ "type": "Feature", "properties": { "confidence": 0.70158290863037109, "class": 1 }, "geometry": { "type": "Polygon", "coordinates": [ [ [ 395130.824008138326462, 3787046.79552390659228 ], [ 395130.518819938937668, 3787046.49033570708707 ], [ 395130.518819938937668, 3787046.18514750758186 ], [ 395130.213631739548873, 3787045.87995930807665 ], [ 395130.213631739548873, 3787045.269582909531891 ], [ 395129.908443540160079, 3787044.964394710026681 ], [ 395129.908443540160079, 3787044.048830111976713 ], [ 395136.927772126160562, 3787044.048830111976713 ], [ 395136.927772126160562, 3787044.659206510521472 ], [ 395136.317395727382973, 3787045.269582909531891 ], [ 395136.012207527994178, 3787045.269582909531891 ], [ 395135.707019328605384, 3787045.574771109037101 ], [ 395135.401831129216589, 3787045.574771109037101 ], [ 395134.791454730439, 3787046.18514750758186 ], [ 395134.486266531050205, 3787046.18514750758186 ], [ 395134.181078331661411, 3787046.49033570708707 ], [ 395133.265513733495027, 3787046.49033570708707 ], [ 395132.960325534106232, 3787046.79552390659228 ], [ 395130.824008138326462, 3787046.79552390659228 ] ] ] } },
{ "type": "Feature", "properties": { "confidence": 0.69870650768280029, "class": 1 }, "geometry": { "type": "Polygon", "coordinates": [ [ [ 394929.399796541198157, 3786849.033570701722056 ], [ 394929.094608341809362, 3786848.728382502682507 ], [ 394928.789420142420568, 3786848.728382502682507 ], [ 394927.263479145476595, 3786847.202441505622119 ], [ 394927.263479145476595, 3786846.28687690757215 ], [ 394926.9582909460878, 3786845.98168870806694 ], [ 394926.9582909460878, 3786845.37131230905652 ], [ 394926.653102746699005, 3786845.066124110016972 ], [ 394926.653102746699005, 3786844.455747711006552 ], [ 394926.347914547310211, 3786844.150559511501342 ], [ 394926.347914547310211, 3786842.624618514906615 ], [ 394926.042726347921416, 3786842.319430315401405 ], [ 394926.042726347921416, 3786841.403865717351437 ], [ 394925.737538148532622, 3786841.098677517846227 ], [ 394925.737538148532622, 3786839.572736520785838 ], [ 394926.347914547310211, 3786839.572736520785838 ], [ 394926.653102746699005, 3786839.267548321280628 ], [ 394927.263479145476595, 3786839.267548321280628 ], [ 394927.263479145476595, 3786839.572736520785838 ], [ 394928.484231943031773, 3786840.793489318341017 ], [ 394929.399796541198157, 3786840.793489318341017 ], [ 394929.704984740586951, 3786841.098677517846227 ], [ 394930.010172939975746, 3786841.098677517846227 ], [ 394930.315361139364541, 3786841.403865717351437 ], [ 394930.92573753814213, 3786841.403865717351437 ], [ 394931.841302136308514, 3786842.319430315401405 ], [ 394932.146490335697308, 3786842.319430315401405 ], [ 394933.062054933863692, 3786843.234994913451374 ], [ 394933.062054933863692, 3786847.202441505622119 ], [ 394932.756866734474897, 3786847.507629705127329 ], [ 394932.756866734474897, 3786848.118006103672087 ], [ 394932.451678535086103, 3786848.423194303177297 ], [ 394932.146490335697308, 3786848.423194303177297 ], [ 394931.841302136308514, 3786848.728382502682507 ], [ 394931.230925737530924, 3786848.728382502682507 ], [ 394930.92573753814213, 3786849.033570701722056 ], [ 394929.399796541198157, 3786849.033570701722056 ] ] ] } },
{ "type": "Feature", "properties": { "confidence": 0.69539183378219604, "class": 1 }, "geometry": { "type": "Polygon", "coordinates": [ [ [ 395310.579857578850351, 3786959.206510681658983 ], [ 395310.274669379461557, 3786958.901322482153773 ], [ 395309.969481180072762, 3786958.901322482153773 ], [ 395309.969481180072762, 3786955.239064089488238 ], [ 395310.274669379461557, 3786954.933875889983028 ], [ 395310.274669379461557, 3786954.01831129193306 ], [ 395310.579857578850351, 3786953.71312309242785 ], [ 395310.579857578850351, 3786953.102746693883091 ], [ 395310.885045778239146, 3786952.797558494377881 ], [ 395311.19023397762794, 3786952.797558494377881 ], [ 395311.495422177016735, 3786952.492370294872671 ], [ 395311.495422177016735, 3786951.576805696822703 ], [ 395311.80061037640553, 3786951.271617497317493 ], [ 395311.80061037640553, 3786950.050864699762315 ], [ 395311.495422177016735, 3786949.745676500722766 ], [ 395311.495422177016735, 3786948.830111902207136 ], [ 395311.19023397762794, 3786948.524923703167588 ], [ 395311.495422177016735, 3786948.219735503662378 ], [ 395311.495422177016735, 3786947.914547304157168 ], [ 395312.410986775183119, 3786946.998982706107199 ], [ 395314.852492370293476, 3786946.998982706107199 ], [ 395315.15768056968227, 3786947.304170905612409 ], [ 395315.15768056968227, 3786949.440488301217556 ], [ 395315.462868769071065, 3786949.745676500722766 ], [ 395315.462868769071065, 3786950.356052899267524 ], [ 395315.768056968459859, 3786950.661241098772734 ], [ 395315.768056968459859, 3786952.492370294872671 ], [ 395315.462868769071065, 3786952.797558494377881 ], [ 395315.462868769071065, 3786953.71312309242785 ], [ 395315.15768056968227, 3786954.01831129193306 ], [ 395315.15768056968227, 3786957.375381485093385 ], [ 395314.852492370293476, 3786957.680569684598595 ], [ 395314.852492370293476, 3786958.290946083609015 ], [ 395314.547304170904681, 3786958.596134282648563 ], [ 395314.242115971515886, 3786958.596134282648563 ], [ 395313.631739572738297, 3786959.206510681658983 ], [ 395310.579857578850351, 3786959.206510681658983 ] ] ] } },
{ "type": "Feature", "properties": { "confidence": 0.65756332874298096, "class": 1 }, "geometry": { "type": "Polygon", "coordinates": [ [ [ 394948.32146490336163, 3787052.899287894368172 ], [ 394948.016276703972835, 3787052.594099694862962 ], [ 394947.100712105806451, 3787052.594099694862962 ], [ 394946.795523906417657, 3787052.288911495357752 ], [ 394946.490335707028862, 3787052.288911495357752 ], [ 394945.879959308251273, 3787051.678535096812993 ], [ 394945.879959308251273, 3787051.373346897307783 ], [ 394945.574771108862478, 3787051.068158697802573 ], [ 394945.574771108862478, 3787050.762970498297364 ], [ 394945.269582909473684, 3787050.457782299257815 ], [ 394945.269582909473684, 3787050.152594099752605 ], [ 394944.659206510696094, 3787049.542217700742185 ], [ 394944.659206510696094, 3787047.711088504642248 ], [ 394944.964394710084889, 3787047.405900305137038 ], [ 394944.964394710084889, 3787047.100712105631828 ], [ 394945.269582909473684, 3787046.79552390659228 ], [ 394945.879959308251273, 3787046.79552390659228 ], [ 394946.185147507640067, 3787046.49033570708707 ], [ 394947.405900305195246, 3787046.49033570708707 ], [ 394947.71108850458404, 3787046.18514750758186 ], [ 394948.626653102750424, 3787046.18514750758186 ], [ 394948.931841302139219, 3787046.49033570708707 ], [ 394949.237029501528013, 3787046.49033570708707 ], [ 394949.542217700916808, 3787046.79552390659228 ], [ 394949.542217700916808, 3787047.100712105631828 ], [ 394950.457782299083192, 3787048.016276704147458 ], [ 394950.762970498471987, 3787048.016276704147458 ], [ 394951.068158697860781, 3787048.321464903187007 ], [ 394951.373346897249576, 3787048.321464903187007 ], [ 394951.67853509663837, 3787048.626653102692217 ], [ 394951.67853509663837, 3787049.847405900247395 ], [ 394950.152594099694397, 3787051.373346897307783 ], [ 394950.152594099694397, 3787051.678535096812993 ], [ 394949.847405900305603, 3787051.983723295852542 ], [ 394949.847405900305603, 3787052.288911495357752 ], [ 394949.542217700916808, 3787052.288911495357752 ], [ 394948.931841302139219, 3787052.899287894368172 ], [ 394948.32146490336163, 3787052.899287894368172 ] ] ] } },
{ "type": "Feature", "properties": { "confidence": 0.43354195356369019, "class": 1 }, "geometry": { "type": "Polygon", "coordinates": [ [ [ 395294.099694811797235, 3786961.95320447627455 ], [ 395293.794506612408441, 3786961.64801627676934 ], [ 395293.184130213630851, 3786961.64801627676934 ], [ 395292.573753814853262, 3786961.03763987775892 ], [ 395292.573753814853262, 3786960.122075279708952 ], [ 395292.268565615464468, 3786959.816887080203742 ], [ 395292.268565615464468, 3786957.680569684598595 ], [ 395291.963377416075673, 3786957.375381485093385 ], [ 395291.963377416075673, 3786956.765005086548626 ], [ 395291.658189216686878, 3786956.459816887043417 ], [ 395291.658189216686878, 3786953.102746693883091 ], [ 395292.268565615464468, 3786952.492370294872671 ], [ 395292.573753814853262, 3786952.492370294872671 ], [ 395292.878942014242057, 3786952.187182095833123 ], [ 395293.184130213630851, 3786952.187182095833123 ], [ 395293.489318413019646, 3786951.881993896327913 ], [ 395295.930824008130003, 3786951.881993896327913 ], [ 395296.541200406907592, 3786952.492370294872671 ], [ 395296.846388606296387, 3786952.492370294872671 ], [ 395296.846388606296387, 3786952.797558494377881 ], [ 395297.76195320446277, 3786953.71312309242785 ], [ 395298.067141403851565, 3786953.71312309242785 ], [ 395298.067141403851565, 3786955.239064089488238 ], [ 395297.76195320446277, 3786955.544252288993448 ], [ 395297.76195320446277, 3786957.070193286053836 ], [ 395297.151576805685181, 3786957.680569684598595 ], [ 395297.151576805685181, 3786957.985757884103805 ], [ 395296.541200406907592, 3786958.596134282648563 ], [ 395296.541200406907592, 3786958.901322482153773 ], [ 395295.930824008130003, 3786959.511698881164193 ], [ 395295.930824008130003, 3786961.34282807726413 ], [ 395295.625635808741208, 3786961.64801627676934 ], [ 395295.015259409963619, 3786961.64801627676934 ], [ 395294.710071210574824, 3786961.95320447627455 ], [ 395294.099694811797235, 3786961.95320447627455 ] ] ] } },
{ "type": "Feature", "properties": { "confidence": 0.41153913736343384, "class": 1 }, "geometry": { "type": "Polygon", "coordinates": [ [ [ 395341.709053916565608, 3786921.973550355993211 ], [ 395341.403865717176814, 3786921.668362156488001 ], [ 395341.098677517788019, 3786921.668362156488001 ], [ 395341.098677517788019, 3786921.363173957448453 ], [ 395340.793489318399224, 3786921.057985757943243 ], [ 395340.793489318399224, 3786920.142421159893274 ], [ 395340.48830111901043, 3786919.837232960388064 ], [ 395340.793489318399224, 3786919.532044760882854 ], [ 395340.793489318399224, 3786918.311291963327676 ], [ 395341.403865717176814, 3786917.700915564782917 ], [ 395341.403865717176814, 3786917.395727365277708 ], [ 395341.709053916565608, 3786917.090539165772498 ], [ 395341.709053916565608, 3786916.480162767227739 ], [ 395341.403865717176814, 3786916.174974567722529 ], [ 395341.403865717176814, 3786913.123092573601753 ], [ 395341.709053916565608, 3786913.123092573601753 ], [ 395342.014242115954403, 3786912.817904374562204 ], [ 395342.319430315343197, 3786912.817904374562204 ], [ 395342.624618514731992, 3786912.512716175056994 ], [ 395342.929806714120787, 3786912.817904374562204 ], [ 395344.150559511675965, 3786912.817904374562204 ], [ 395344.45574771106476, 3786913.123092573601753 ], [ 395344.760935910453554, 3786913.123092573601753 ], [ 395345.066124109842349, 3786913.428280773106962 ], [ 395347.507629705010913, 3786913.428280773106962 ], [ 395347.812817904399708, 3786913.733468972612172 ], [ 395347.507629705010913, 3786913.733468972612172 ], [ 395347.202441505622119, 3786914.038657172117382 ], [ 395347.202441505622119, 3786915.564598168712109 ], [ 395347.507629705010913, 3786915.869786368217319 ], [ 395347.202441505622119, 3786916.174974567722529 ], [ 395347.202441505622119, 3786919.226856561377645 ], [ 395346.897253306233324, 3786919.532044760882854 ], [ 395346.897253306233324, 3786919.837232960388064 ], [ 395346.59206510684453, 3786920.142421159893274 ], [ 395346.59206510684453, 3786920.447609358932823 ], [ 395345.676500508619938, 3786921.363173957448453 ], [ 395344.760935910453554, 3786921.363173957448453 ], [ 395344.45574771106476, 3786921.668362156488001 ], [ 395343.540183112898376, 3786921.668362156488001 ], [ 395343.234994913509581, 3786921.973550355993211 ], [ 395341.709053916565608, 3786921.973550355993211 ] ] ] } },
{ "type": "Feature", "properties": { "confidence": 0.40912717580795288, "class": 1 }, "geometry": { "type": "Polygon", "coordinates": [ [ [ 394866.531027466931846, 3786796.846388606354594 ], [ 394865.920651068154257, 3786796.236012207344174 ], [ 394865.615462868765462, 3786796.236012207344174 ], [ 394865.615462868765462, 3786795.930824008304626 ], [ 394865.310274669376668, 3786795.625635808799416 ], [ 394865.310274669376668, 3786795.015259409788996 ], [ 394865.005086469987873, 3786794.710071210749447 ], [ 394865.005086469987873, 3786793.794506612233818 ], [ 394865.310274669376668, 3786793.489318413194269 ], [ 394865.310274669376668, 3786792.878942014183849 ], [ 394865.615462868765462, 3786792.573753814678639 ], [ 394865.615462868765462, 3786792.268565615639091 ], [ 394866.225839267543051, 3786791.658189216628671 ], [ 394866.225839267543051, 3786791.047812818083912 ], [ 394867.44659206509823, 3786789.827060020528734 ], [ 394867.44659206509823, 3786788.911495422013104 ], [ 394867.751780264487024, 3786788.606307222973555 ], [ 394868.362156663264614, 3786788.606307222973555 ], [ 394868.667344862653408, 3786788.911495422013104 ], [ 394868.972533062042203, 3786788.911495422013104 ], [ 394869.277721261430997, 3786789.216683621518314 ], [ 394869.888097660208587, 3786789.216683621518314 ], [ 394870.193285859597381, 3786789.521871821023524 ], [ 394870.80366225837497, 3786789.521871821023524 ], [ 394871.41403865715256, 3786790.132248219568282 ], [ 394871.719226856541354, 3786790.132248219568282 ], [ 394872.634791454707738, 3786791.047812818083912 ], [ 394872.634791454707738, 3786791.658189216628671 ], [ 394872.329603255318943, 3786791.963377416133881 ], [ 394872.329603255318943, 3786793.489318413194269 ], [ 394871.719226856541354, 3786794.099694811739028 ], [ 394871.719226856541354, 3786794.710071210749447 ], [ 394870.498474058986176, 3786795.930824008304626 ], [ 394869.582909460819792, 3786795.930824008304626 ], [ 394869.277721261430997, 3786796.236012207344174 ], [ 394868.972533062042203, 3786796.236012207344174 ], [ 394868.667344862653408, 3786796.541200406849384 ], [ 394868.362156663264614, 3786796.541200406849384 ], [ 394868.056968463875819, 3786796.846388606354594 ], [ 394866.531027466931846, 3786796.846388606354594 ] ] ] } },
{ "type": "Feature", "properties": { "confidence": 0.39666980504989624, "class": 1 }, "geometry": { "type": "Polygon", "coordinates": [ [ [ 395085.656154628668446, 3786947.609359104651958 ], [ 395085.350966429279651, 3786947.304170905612409 ], [ 395085.045778229890857, 3786947.304170905612409 ], [ 395085.045778229890857, 3786946.998982706107199 ], [ 395084.740590030502062, 3786946.693794506601989 ], [ 395084.740590030502062, 3786945.778229908552021 ], [ 395085.045778229890857, 3786945.473041709046811 ], [ 395085.045778229890857, 3786945.167853509541601 ], [ 395086.57171922683483, 3786943.641912512946874 ], [ 395086.876907426223624, 3786943.641912512946874 ], [ 395087.182095625612419, 3786943.336724313441664 ], [ 395089.013224821945187, 3786943.336724313441664 ], [ 395089.318413021392189, 3786943.641912512946874 ], [ 395089.318413021392189, 3786943.947100711986423 ], [ 395089.623601220780984, 3786944.252288911491632 ], [ 395089.318413021392189, 3786944.557477110996842 ], [ 395089.318413021392189, 3786944.862665310502052 ], [ 395088.708036622556392, 3786945.473041709046811 ], [ 395088.708036622556392, 3786945.778229908552021 ], [ 395087.792472024390008, 3786946.693794506601989 ], [ 395087.792472024390008, 3786946.998982706107199 ], [ 395087.487283825001214, 3786947.304170905612409 ], [ 395087.182095625612419, 3786947.304170905612409 ], [ 395086.876907426223624, 3786947.609359104651958 ], [ 395085.656154628668446, 3786947.609359104651958 ] ] ] } },
{ "type": "Feature", "properties": { "confidence": 0.39463958144187927, "class": 1 }, "geometry": { "type": "Polygon", "coordinates": [ [ [ 394949.847405900305603, 3787001.627670396585017 ], [ 394948.931841302139219, 3787000.712105798535049 ], [ 394948.931841302139219, 3787000.10172939999029 ], [ 394947.71108850458404, 3786998.880976602435112 ], [ 394947.71108850458404, 3786997.660223804879934 ], [ 394948.626653102750424, 3786996.744659206364304 ], [ 394948.931841302139219, 3786996.744659206364304 ], [ 394949.542217700916808, 3786996.134282807819545 ], [ 394950.457782299083192, 3786996.134282807819545 ], [ 394951.068158697860781, 3786996.744659206364304 ], [ 394951.373346897249576, 3786996.744659206364304 ], [ 394951.67853509663837, 3786997.049847405869514 ], [ 394951.983723296027165, 3786997.049847405869514 ], [ 394952.28891149541596, 3786997.355035605374724 ], [ 394952.28891149541596, 3786997.965412003919482 ], [ 394952.594099694804754, 3786998.270600203424692 ], [ 394952.594099694804754, 3787001.322482197545469 ], [ 394952.28891149541596, 3787001.322482197545469 ], [ 394951.983723296027165, 3787001.627670396585017 ], [ 394949.847405900305603, 3787001.627670396585017 ] ] ] } },
{ "type": "Feature", "properties": { "confidence": 0.3675609827041626, "class": 1 }, "geometry": { "type": "Polygon", "coordinates": [ [ [ 394871.719226856541354, 3786694.608341810759157 ], [ 394871.41403865715256, 3786694.303153611253947 ], [ 394869.277721261430997, 3786694.303153611253947 ], [ 394868.972533062042203, 3786693.997965412214398 ], [ 394868.667344862653408, 3786693.997965412214398 ], [ 394868.667344862653408, 3786693.692777212709188 ], [ 394868.056968463875819, 3786693.082400813698769 ], [ 394868.056968463875819, 3786692.47202441515401 ], [ 394876.90742624620907, 3786692.47202441515401 ], [ 394876.90742624620907, 3786692.77721261465922 ], [ 394876.602238046820275, 3786693.082400813698769 ], [ 394876.602238046820275, 3786693.387589013203979 ], [ 394876.297049847431481, 3786693.692777212709188 ], [ 394875.991861648042686, 3786693.692777212709188 ], [ 394875.686673448653892, 3786693.997965412214398 ], [ 394875.381485249265097, 3786693.997965412214398 ], [ 394875.076297049876302, 3786694.303153611253947 ], [ 394874.465920651040506, 3786694.303153611253947 ], [ 394874.160732451651711, 3786694.608341810759157 ], [ 394871.719226856541354, 3786694.608341810759157 ] ] ] } },
{ "type": "Feature", "properties": { "confidence": 0.34610965847969055, "class": 1 }, "geometry": { "type": "Polygon", "coordinates": [ [ [ 395260.834181078360416, 3786933.570701933000237 ], [ 395260.528992878913414, 3786933.265513733495027 ], [ 395260.223804679524619, 3786933.265513733495027 ], [ 395259.61342828074703, 3786932.655137334484607 ], [ 395259.61342828074703, 3786930.82400813838467 ], [ 395259.918616480135825, 3786930.51881993887946 ], [ 395259.918616480135825, 3786929.908443540334702 ], [ 395260.223804679524619, 3786929.603255340829492 ], [ 395260.223804679524619, 3786928.992878941819072 ], [ 395259.918616480135825, 3786928.687690742779523 ], [ 395259.918616480135825, 3786928.382502543274313 ], [ 395260.223804679524619, 3786928.077314343769103 ], [ 395260.223804679524619, 3786927.772126144263893 ], [ 395260.528992878913414, 3786927.466937945224345 ], [ 395265.412004069192335, 3786927.466937945224345 ], [ 395265.412004069192335, 3786928.992878941819072 ], [ 395265.71719226858113, 3786929.298067141324282 ], [ 395265.71719226858113, 3786930.51881993887946 ], [ 395265.412004069192335, 3786930.82400813838467 ], [ 395265.412004069192335, 3786931.12919633788988 ], [ 395264.496439471025951, 3786932.044760935939848 ], [ 395264.496439471025951, 3786932.349949135445058 ], [ 395264.191251271637157, 3786932.655137334484607 ], [ 395263.886063072248362, 3786932.655137334484607 ], [ 395263.580874872859567, 3786932.960325533989817 ], [ 395263.275686673470773, 3786932.960325533989817 ], [ 395262.970498474081978, 3786933.265513733495027 ], [ 395262.665310274693184, 3786933.265513733495027 ], [ 395262.360122075304389, 3786933.570701933000237 ], [ 395260.834181078360416, 3786933.570701933000237 ] ] ] } },
{ "type": "Feature", "properties": { "confidence": 0.32514283061027527, "class": 1 }, "geometry": { "type": "Polygon", "coordinates": [ [ [ 395333.163784333679359, 3786626.551373346708715 ], [ 395332.858596134290565, 3786626.246185147669166 ], [ 395332.55340793490177, 3786626.246185147669166 ], [ 395332.248219735512976, 3786625.940996948163956 ], [ 395332.248219735512976, 3786624.109867751598358 ], [ 395332.55340793490177, 3786623.80467955255881 ], [ 395332.55340793490177, 3786621.363173957448453 ], [ 395332.858596134290565, 3786621.057985757943243 ], [ 395338.351983723288868, 3786621.057985757943243 ], [ 395338.657171922677662, 3786620.752797558438033 ], [ 395340.48830111901043, 3786620.752797558438033 ], [ 395340.48830111901043, 3786621.363173957448453 ], [ 395340.793489318399224, 3786621.668362156488001 ], [ 395340.793489318399224, 3786621.973550355993211 ], [ 395340.48830111901043, 3786622.278738555498421 ], [ 395340.48830111901043, 3786624.720244150608778 ], [ 395339.572736520844046, 3786625.635808748658746 ], [ 395339.267548321455251, 3786625.635808748658746 ], [ 395338.962360122066457, 3786625.940996948163956 ], [ 395338.657171922677662, 3786625.940996948163956 ], [ 395338.351983723288868, 3786626.246185147669166 ], [ 395337.741607324511278, 3786626.246185147669166 ], [ 395337.436419125122484, 3786626.551373346708715 ], [ 395333.163784333679359, 3786626.551373346708715 ] ] ] } },
{ "type": "Feature", "properties": { "confidence": 0.31083172559738159, "class": 1 }, "geometry": { "type": "Polygon", "coordinates": [ [ [ 395304.781281790463254, 3786903.967446592170745 ], [ 395304.476093591074459, 3786903.662258392665535 ], [ 395304.476093591074459, 3786903.357070193160325 ], [ 395304.170905391685665, 3786903.051881994120777 ], [ 395304.170905391685665, 3786902.746693794615567 ], [ 395303.86571719229687, 3786902.441505595110357 ], [ 395303.86571719229687, 3786900.0 ], [ 395303.560528992908075, 3786899.69481180049479 ], [ 395303.86571719229687, 3786899.38962360098958 ], [ 395303.86571719229687, 3786897.558494404889643 ], [ 395304.170905391685665, 3786897.253306205384433 ], [ 395304.170905391685665, 3786896.948118005879223 ], [ 395304.781281790463254, 3786896.337741607334465 ], [ 395306.002034588018432, 3786896.337741607334465 ], [ 395306.307222787407227, 3786896.032553407829255 ], [ 395306.307222787407227, 3786896.337741607334465 ], [ 395306.612410986796021, 3786896.642929806839675 ], [ 395306.612410986796021, 3786901.525940997060388 ], [ 395306.307222787407227, 3786901.831129196565598 ], [ 395306.307222787407227, 3786903.051881994120777 ], [ 395305.391658189240843, 3786903.967446592170745 ], [ 395304.781281790463254, 3786903.967446592170745 ] ] ] } },
{ "type": "Feature", "properties": { "confidence": 0.3018527626991272, "class": 1 }, "geometry": { "type": "Polygon", "coordinates": [ [ [ 394915.971515768032987, 3787046.49033570708707 ], [ 394915.666327568644192, 3787046.18514750758186 ], [ 394915.055951169866603, 3787046.18514750758186 ], [ 394914.750762970477808, 3787045.87995930807665 ], [ 394914.140386571700219, 3787045.87995930807665 ], [ 394913.835198372311424, 3787045.574771109037101 ], [ 394913.835198372311424, 3787045.269582909531891 ], [ 394913.53001017292263, 3787044.964394710026681 ], [ 394913.53001017292263, 3787044.048830111976713 ], [ 394920.854526958311908, 3787044.048830111976713 ], [ 394920.854526958311908, 3787046.18514750758186 ], [ 394919.63377416075673, 3787046.18514750758186 ], [ 394919.328585961367935, 3787046.49033570708707 ], [ 394918.413021363201551, 3787046.49033570708707 ], [ 394918.107833163812757, 3787046.18514750758186 ], [ 394917.49745676497696, 3787046.18514750758186 ], [ 394917.192268565588165, 3787046.49033570708707 ], [ 394915.971515768032987, 3787046.49033570708707 ] ] ] } },
{ "type": "Feature", "properties": { "confidence": 0.29962760210037231, "class": 1 }, "geometry": { "type": "Polygon", "coordinates": [ [ [ 394917.192268565588165, 3786935.707019328605384 ], [ 394917.192268565588165, 3786928.382502543274313 ], [ 394917.49745676497696, 3786928.382502543274313 ], [ 394917.802644964365754, 3786928.077314343769103 ], [ 394917.802644964365754, 3786927.466937945224345 ], [ 394918.107833163812757, 3786927.161749745719135 ], [ 394918.107833163812757, 3786926.856561546213925 ], [ 394919.328585961367935, 3786926.856561546213925 ], [ 394919.328585961367935, 3786932.960325533989817 ], [ 394919.02339776197914, 3786933.265513733495027 ], [ 394919.02339776197914, 3786934.791454730555415 ], [ 394918.718209562590346, 3786934.791454730555415 ], [ 394918.413021363201551, 3786935.096642929594964 ], [ 394917.802644964365754, 3786935.096642929594964 ], [ 394917.49745676497696, 3786935.401831129100174 ], [ 394917.49745676497696, 3786935.707019328605384 ], [ 394917.192268565588165, 3786935.707019328605384 ] ] ] } },
{ "type": "Feature", "properties": { "confidence": 0.2968762218952179, "class": 1 }, "geometry": { "type": "Polygon", "coordinates": [ [ [ 395006.917599186184816, 3786852.695829094387591 ], [ 395006.307222787407227, 3786852.085452695842832 ], [ 395006.307222787407227, 3786851.475076296832412 ], [ 395006.612410986796021, 3786851.169888097792864 ], [ 395006.612410986796021, 3786847.812817904166877 ], [ 395008.443540183128789, 3786845.98168870806694 ], [ 395008.443540183128789, 3786845.67650050856173 ], [ 395009.053916581906378, 3786845.67650050856173 ], [ 395009.359104781295173, 3786845.37131230905652 ], [ 395010.579857578850351, 3786845.37131230905652 ], [ 395010.885045778239146, 3786845.67650050856173 ], [ 395010.885045778239146, 3786846.28687690757215 ], [ 395010.579857578850351, 3786846.592065106611699 ], [ 395010.579857578850351, 3786847.202441505622119 ], [ 395010.274669379461557, 3786847.507629705127329 ], [ 395010.274669379461557, 3786851.475076296832412 ], [ 395009.969481180072762, 3786851.475076296832412 ], [ 395009.053916581906378, 3786852.390640895348042 ], [ 395008.748728382517584, 3786852.390640895348042 ], [ 395008.443540183128789, 3786852.695829094387591 ], [ 395006.917599186184816, 3786852.695829094387591 ] ] ] } },
{ "type": "Feature", "properties": { "confidence": 0.26024827361106873, "class": 1 }, "geometry": { "type": "Polygon", "coordinates": [ [ [ 394913.53001017292263, 3786936.012207528110594 ], [ 394913.224821973533835, 3786935.707019328605384 ], [ 394912.614445574756246, 3786935.707019328605384 ], [ 394912.004069175978657, 3786935.096642929594964 ], [ 394912.004069175978657, 3786934.181078331544995 ], [ 394911.698880976589862, 3786933.875890132039785 ], [ 394911.698880976589862, 3786933.265513733495027 ], [ 394912.004069175978657, 3786932.960325533989817 ], [ 394912.004069175978657, 3786929.908443540334702 ], [ 394912.309257375367451, 3786929.603255340829492 ], [ 394912.309257375367451, 3786928.077314343769103 ], [ 394913.224821973533835, 3786928.077314343769103 ], [ 394913.53001017292263, 3786927.772126144263893 ], [ 394917.802644964365754, 3786927.772126144263893 ], [ 394918.413021363201551, 3786928.382502543274313 ], [ 394918.413021363201551, 3786928.992878941819072 ], [ 394918.718209562590346, 3786929.298067141324282 ], [ 394918.718209562590346, 3786929.603255340829492 ], [ 394919.02339776197914, 3786929.908443540334702 ], [ 394919.02339776197914, 3786933.570701933000237 ], [ 394918.718209562590346, 3786933.875890132039785 ], [ 394918.718209562590346, 3786934.181078331544995 ], [ 394918.413021363201551, 3786934.486266531050205 ], [ 394918.413021363201551, 3786934.791454730555415 ], [ 394917.802644964365754, 3786935.401831129100174 ], [ 394917.49745676497696, 3786935.401831129100174 ], [ 394917.192268565588165, 3786935.707019328605384 ], [ 394916.88708036619937, 3786935.707019328605384 ], [ 394916.581892166810576, 3786936.012207528110594 ], [ 394913.53001017292263, 3786936.012207528110594 ] ] ] } },
{ "type": "Feature", "properties": { "confidence": 0.26014384627342224, "class": 1 }, "geometry": { "type": "Polygon", "coordinates": [ [ [ 395306.307222787407227, 3786903.662258392665535 ], [ 395306.002034588018432, 3786903.357070193160325 ], [ 395306.002034588018432, 3786902.441505595110357 ], [ 395305.696846388629638, 3786902.136317395605147 ], [ 395305.696846388629638, 3786899.084435401950032 ], [ 395306.002034588018432, 3786898.779247202444822 ], [ 395306.002034588018432, 3786896.948118005879223 ], [ 395306.307222787407227, 3786896.642929806839675 ], [ 395306.307222787407227, 3786895.727365208324045 ], [ 395307.527975584962405, 3786895.727365208324045 ], [ 395307.527975584962405, 3786903.357070193160325 ], [ 395306.612410986796021, 3786903.357070193160325 ], [ 395306.307222787407227, 3786903.662258392665535 ] ] ] } }
]
}
