{
"type": "FeatureCollection",
"name": "cell_00058_pre",
"crs": { "type": "name", "properties": { "name": "urn:ogc:def:crs:EPSG::32611" } },
"features": [
{ "type": "Feature", "properties": { "confidence": 0.9991791844367981, "class": 1 }, "geometry": { "type": "Polygon", "coordinates": [ [ [ 349069.989827060024254, 3772304.984740590211004 ], [ 349069.684638860635459, 3772304.679552390705794 ], [ 349069.684638860635459, 3772303.153611393645406 ], [ 349069.379450661246665, 3772302.848423194140196 ], [ 349069.379450661246665, 3772301.322482197545469 ], [ 349069.07426246185787, 3772301.017293998040259 ], [ 349068.769074262469076, 3772301.017293998040259 ], [ 349068.769074262469076, 3772292.47202441515401 ], [ 349072.736520854523405, 3772292.47202441515401 ], [ 349072.736520854523405, 3772293.387589013203979 ], [ 349073.0417090539122, 3772293.692777212709188 ], [ 349073.0417090539122, 3772294.303153611253947 ], [ 349073.346897253300995, 3772294.608341810759157 ], [ 349073.346897253300995, 3772295.218718209769577 ], [ 349073.957273652078584, 3772295.829094608314335 ], [ 349073.957273652078584, 3772296.134282807819545 ], [ 349074.567650050856173, 3772296.744659206364304 ], [ 349074.567650050856173, 3772297.049847405869514 ], [ 349074.872838250244968, 3772297.355035605374724 ], [ 349074.872838250244968, 3772297.660223804879934 ], [ 349075.178026449633762, 3772297.965412003919482 ], [ 349075.178026449633762, 3772298.575788402929902 ], [ 349075.483214649022557, 3772298.880976602435112 ], [ 349075.483214649022557, 3772299.491353000979871 ], [ 349075.788402848411351, 3772299.79654120048508 ], [ 349075.788402848411351, 3772300.406917599029839 ], [ 349076.093591047800146, 3772300.712105798535049 ], [ 349076.093591047800146, 3772303.153611393645406 ], [ 349075.483214649022557, 3772303.763987792655826 ], [ 349074.872838250244968, 3772303.763987792655826 ], [ 349074.567650050856173, 3772304.069175991695374 ], [ 349073.652085452689789, 3772304.069175991695374 ], [ 349073.346897253300995, 3772304.374364191200584 ], [ 349072.126144455745816, 3772304.374364191200584 ], [ 349071.820956256357022, 3772304.679552390705794 ], [ 349071.210579857579432, 3772304.679552390705794 ], [ 349070.905391658190638, 3772304.984740590211004 ], [ 349069.989827060024254, 3772304.984740590211004 ] ] ] } },
{ "type": "Feature", "properties": { "confidence": 0.98379427194595337, "class": 1 }, "geometry": { "type": "Polygon", "coordinates": [ [ [ 348800.203458799573127, 3772647.711088504642248 ], [ 348799.898270600184333, 3772647.405900305137038 ], [ 348799.593082400795538, 3772647.405900305137038 ], [ 348798.982706002017949, 3772646.79552390659228 ], [ 348798.677517802629154, 3772646.79552390659228 ], [ 348798.37232960324036, 3772646.49033570708707 ], [ 348798.067141403851565, 3772646.49033570708707 ], [ 348797.76195320446277, 3772646.18514750758186 ], [ 348797.456765005073976, 3772646.18514750758186 ], [ 348796.541200406907592, 3772645.269582909531891 ], [ 348796.236012207518797, 3772645.269582909531891 ], [ 348795.625635808741208, 3772644.659206510521472 ], [ 348795.320447609352414, 3772644.659206510521472 ], [ 348795.015259409963619, 3772644.354018311481923 ], [ 348794.710071210574824, 3772644.354018311481923 ], [ 348794.710071210574824, 3772644.048830111976713 ], [ 348802.950152594072279, 3772644.048830111976713 ], [ 348802.950152594072279, 3772644.659206510521472 ], [ 348802.644964394683484, 3772644.964394710026681 ], [ 348802.644964394683484, 3772645.87995930807665 ], [ 348802.339776195294689, 3772646.18514750758186 ], [ 348802.339776195294689, 3772646.49033570708707 ], [ 348802.034587995905895, 3772646.79552390659228 ], [ 348801.7293997965171, 3772646.79552390659228 ], [ 348801.424211597128306, 3772647.100712105631828 ], [ 348801.424211597128306, 3772647.405900305137038 ], [ 348801.119023397739511, 3772647.405900305137038 ], [ 348800.813835198350716, 3772647.711088504642248 ], [ 348800.203458799573127, 3772647.711088504642248 ] ] ] } },
{ "type": "Feature", "properties": { "confidence": 0.97626173496246338, "class": 1 }, "geometry": { "type": "Polygon", "coordinates": [ [ [ 349132.248219735512976, 3772250.050864699762315 ], [ 349131.332655137346592, 3772249.135300101712346 ], [ 349131.332655137346592, 3772248.830111902207136 ], [ 349131.027466937957797, 3772248.524923703167588 ], [ 349131.637843336735386, 3772247.914547304157168 ], [ 349131.637843336735386, 3772247.609359104651958 ], [ 349132.248219735512976, 3772246.998982706107199 ], [ 349132.248219735512976, 3772246.693794506601989 ], [ 349133.163784333679359, 3772245.778229908552021 ], [ 349133.163784333679359, 3772245.473041709046811 ], [ 349135.300101729400922, 3772243.336724313441664 ], [ 349135.605289928789716, 3772243.336724313441664 ], [ 349136.215666327567305, 3772242.726347914431244 ], [ 349137.436419125122484, 3772242.726347914431244 ], [ 349137.436419125122484, 3772243.031536113936454 ], [ 349137.741607324511278, 3772243.336724313441664 ], [ 349138.046795523900073, 3772243.336724313441664 ], [ 349138.657171922677662, 3772243.947100711986423 ], [ 349138.657171922677662, 3772244.862665310502052 ], [ 349138.351983723288868, 3772245.167853509541601 ], [ 349138.351983723288868, 3772245.473041709046811 ], [ 349137.131230925733689, 3772246.693794506601989 ], [ 349137.131230925733689, 3772246.998982706107199 ], [ 349136.5208545269561, 3772247.609359104651958 ], [ 349136.5208545269561, 3772247.914547304157168 ], [ 349136.215666327567305, 3772247.914547304157168 ], [ 349135.910478128178511, 3772248.219735503662378 ], [ 349135.910478128178511, 3772248.524923703167588 ], [ 349135.605289928789716, 3772248.524923703167588 ], [ 349134.689725330623332, 3772249.440488301217556 ], [ 349134.384537131234538, 3772249.440488301217556 ], [ 349133.774160732456949, 3772250.050864699762315 ], [ 349132.248219735512976, 3772250.050864699762315 ] ] ] } },
{ "type": "Feature", "properties": { "confidence": 0.96238547563552856, "class": 1 }, "geometry": { "type": "Polygon", "coordinates": [ [ [ 349082.197355035634246, 3772359.918616480194032 ], [ 349082.197355035634246, 3772359.613428280688822 ], [ 349081.892166836187243, 3772359.308240081183612 ], [ 349081.892166836187243, 3772356.256358087528497 ], [ 349081.586978636798449, 3772355.951169888023287 ], [ 349081.586978636798449, 3772355.340793489478528 ], [ 349081.281790437409654, 3772355.035605289973319 ], [ 349081.281790437409654, 3772354.425228890962899 ], [ 349081.586978636798449, 3772354.12004069192335 ], [ 349081.586978636798449, 3772353.81485249241814 ], [ 349082.807731434411835, 3772352.594099694862962 ], [ 349083.11291963380063, 3772352.594099694862962 ], [ 349084.333672431355808, 3772351.373346897307783 ], [ 349084.333672431355808, 3772351.068158697802573 ], [ 349084.638860630744603, 3772351.068158697802573 ], [ 349084.944048830133397, 3772350.762970498297364 ], [ 349085.249237029522192, 3772350.762970498297364 ], [ 349085.859613428299781, 3772350.152594099752605 ], [ 349086.46998982707737, 3772350.152594099752605 ], [ 349086.775178026466165, 3772349.847405900247395 ], [ 349090.132248219742905, 3772349.847405900247395 ], [ 349090.742624618520495, 3772350.457782299257815 ], [ 349090.742624618520495, 3772350.762970498297364 ], [ 349091.047812817909289, 3772351.068158697802573 ], [ 349091.047812817909289, 3772351.983723295852542 ], [ 349091.353001017298084, 3772352.288911495357752 ], [ 349091.353001017298084, 3772352.594099694862962 ], [ 349092.268565615464468, 3772353.50966429291293 ], [ 349092.268565615464468, 3772354.12004069192335 ], [ 349092.878942014242057, 3772354.730417090468109 ], [ 349092.878942014242057, 3772355.340793489478528 ], [ 349093.184130213630851, 3772355.645981688518077 ], [ 349093.184130213630851, 3772357.477110885083675 ], [ 349092.268565615464468, 3772358.392675483133644 ], [ 349091.963377416075673, 3772358.392675483133644 ], [ 349091.658189216686878, 3772358.697863682638854 ], [ 349091.047812817909289, 3772358.697863682638854 ], [ 349090.4374364191317, 3772359.308240081183612 ], [ 349089.827060020354111, 3772359.308240081183612 ], [ 349089.521871820965316, 3772359.613428280688822 ], [ 349086.775178026466165, 3772359.613428280688822 ], [ 349086.46998982707737, 3772359.918616480194032 ], [ 349082.197355035634246, 3772359.918616480194032 ] ] ] } },
{ "type": "Feature", "properties": { "confidence": 0.94515830278396606, "class": 1 }, "geometry": { "type": "Polygon", "coordinates": [ [ [ 348764.496439471025951, 3772650.457782299257815 ], [ 348764.191251271637157, 3772650.152594099752605 ], [ 348763.886063072248362, 3772650.152594099752605 ], [ 348763.275686673470773, 3772649.542217700742185 ], [ 348762.970498474081978, 3772649.542217700742185 ], [ 348761.139369277749211, 3772647.711088504642248 ], [ 348760.834181078360416, 3772647.711088504642248 ], [ 348759.61342828074703, 3772646.49033570708707 ], [ 348759.61342828074703, 3772645.574771109037101 ], [ 348759.918616480135825, 3772645.269582909531891 ], [ 348759.918616480135825, 3772644.048830111976713 ], [ 348762.970498474081978, 3772644.048830111976713 ], [ 348762.970498474081978, 3772644.659206510521472 ], [ 348763.580874872859567, 3772645.269582909531891 ], [ 348763.886063072248362, 3772645.269582909531891 ], [ 348764.496439471025951, 3772645.87995930807665 ], [ 348765.71719226858113, 3772645.87995930807665 ], [ 348766.022380467969924, 3772645.574771109037101 ], [ 348766.022380467969924, 3772645.269582909531891 ], [ 348766.327568667358719, 3772644.964394710026681 ], [ 348766.327568667358719, 3772644.048830111976713 ], [ 348767.548321464913897, 3772644.048830111976713 ], [ 348767.548321464913897, 3772645.574771109037101 ], [ 348767.243133265525103, 3772645.87995930807665 ], [ 348767.243133265525103, 3772646.79552390659228 ], [ 348767.548321464913897, 3772647.100712105631828 ], [ 348767.548321464913897, 3772648.016276704147458 ], [ 348767.243133265525103, 3772648.321464903187007 ], [ 348767.243133265525103, 3772649.542217700742185 ], [ 348766.327568667358719, 3772650.457782299257815 ], [ 348764.496439471025951, 3772650.457782299257815 ] ] ] } },
{ "type": "Feature", "properties": { "confidence": 0.92193043231964111, "class": 1 }, "geometry": { "type": "Polygon", "coordinates": [ [ [ 349175.27975584944943, 3772396.541200406849384 ], [ 349174.974567650060635, 3772396.236012207344174 ], [ 349174.66937945067184, 3772396.236012207344174 ], [ 349174.364191251283046, 3772395.930824008304626 ], [ 349174.364191251283046, 3772395.625635808799416 ], [ 349172.838250254339073, 3772394.099694811739028 ], [ 349172.838250254339073, 3772393.794506612233818 ], [ 349172.533062054950278, 3772393.489318413194269 ], [ 349172.533062054950278, 3772393.184130213689059 ], [ 349172.227873855561484, 3772392.878942014183849 ], [ 349172.227873855561484, 3772391.658189216628671 ], [ 349172.838250254339073, 3772391.047812818083912 ], [ 349174.059003051894251, 3772391.047812818083912 ], [ 349174.364191251283046, 3772391.353001017123461 ], [ 349174.66937945067184, 3772391.353001017123461 ], [ 349175.27975584944943, 3772391.963377416133881 ], [ 349175.890132248227019, 3772391.963377416133881 ], [ 349176.195320447615813, 3772391.658189216628671 ], [ 349176.195320447615813, 3772391.047812818083912 ], [ 349176.500508647004608, 3772390.742624618578702 ], [ 349176.805696846393403, 3772390.742624618578702 ], [ 349177.110885045782197, 3772390.437436419073492 ], [ 349177.110885045782197, 3772389.827060020528734 ], [ 349177.721261444559786, 3772389.216683621518314 ], [ 349177.721261444559786, 3772388.911495422013104 ], [ 349178.331637843337376, 3772388.301119023468345 ], [ 349178.942014242114965, 3772388.301119023468345 ], [ 349179.247202441503759, 3772387.995930823963135 ], [ 349179.552390640892554, 3772388.301119023468345 ], [ 349180.162767039670143, 3772388.301119023468345 ], [ 349180.467955239058938, 3772388.606307222973555 ], [ 349180.467955239058938, 3772391.047812818083912 ], [ 349180.162767039670143, 3772391.353001017123461 ], [ 349180.162767039670143, 3772391.963377416133881 ], [ 349179.857578840281349, 3772392.268565615639091 ], [ 349179.857578840281349, 3772392.573753814678639 ], [ 349178.942014242114965, 3772393.489318413194269 ], [ 349178.942014242114965, 3772393.794506612233818 ], [ 349178.331637843337376, 3772394.404883011244237 ], [ 349178.331637843337376, 3772394.710071210749447 ], [ 349178.026449643948581, 3772394.710071210749447 ], [ 349177.721261444559786, 3772395.015259409788996 ], [ 349177.721261444559786, 3772395.320447609294206 ], [ 349177.416073245170992, 3772395.320447609294206 ], [ 349176.805696846393403, 3772395.930824008304626 ], [ 349176.805696846393403, 3772396.236012207344174 ], [ 349176.500508647004608, 3772396.541200406849384 ], [ 349175.27975584944943, 3772396.541200406849384 ] ] ] } },
{ "type": "Feature", "properties": { "confidence": 0.91844195127487183, "class": 1 }, "geometry": { "type": "Polygon", "coordinates": [ [ [ 348799.593082400795538, 3772647.405900305137038 ], [ 348799.287894201406743, 3772647.100712105631828 ], [ 348798.37232960324036, 3772647.100712105631828 ], [ 348798.067141403851565, 3772646.79552390659228 ], [ 348797.76195320446277, 3772646.79552390659228 ], [ 348797.456765005073976, 3772646.49033570708707 ], [ 348797.151576805685181, 3772646.49033570708707 ], [ 348796.846388606296387, 3772646.18514750758186 ], [ 348796.541200406907592, 3772646.18514750758186 ], [ 348794.099694811797235, 3772643.743641912471503 ], [ 348793.794506612408441, 3772643.743641912471503 ], [ 348793.489318413019646, 3772643.438453712966293 ], [ 348793.489318413019646, 3772643.133265513926744 ], [ 348792.878942014242057, 3772642.522889114916325 ], [ 348792.878942014242057, 3772642.217700915411115 ], [ 348792.573753814853262, 3772641.912512716371566 ], [ 348792.573753814853262, 3772641.607324516866356 ], [ 348791.963377416075673, 3772640.996948117855936 ], [ 348791.963377416075673, 3772639.776195320300758 ], [ 348792.268565615464468, 3772639.471007121261209 ], [ 348792.268565615464468, 3772639.165818921755999 ], [ 348792.573753814853262, 3772639.165818921755999 ], [ 348792.878942014242057, 3772638.860630722250789 ], [ 348793.489318413019646, 3772638.860630722250789 ], [ 348795.015259409963619, 3772640.386571719311178 ], [ 348795.320447609352414, 3772640.386571719311178 ], [ 348795.625635808741208, 3772640.691759918816388 ], [ 348795.930824008130003, 3772640.691759918816388 ], [ 348796.541200406907592, 3772641.302136317361146 ], [ 348797.456765005073976, 3772641.302136317361146 ], [ 348797.76195320446277, 3772640.996948117855936 ], [ 348797.76195320446277, 3772640.691759918816388 ], [ 348800.508646998961922, 3772640.691759918816388 ], [ 348800.508646998961922, 3772640.996948117855936 ], [ 348800.813835198350716, 3772641.302136317361146 ], [ 348800.813835198350716, 3772642.217700915411115 ], [ 348801.119023397739511, 3772642.522889114916325 ], [ 348801.119023397739511, 3772643.438453712966293 ], [ 348801.424211597128306, 3772643.743641912471503 ], [ 348801.424211597128306, 3772644.659206510521472 ], [ 348802.034587995905895, 3772645.269582909531891 ], [ 348802.034587995905895, 3772645.574771109037101 ], [ 348802.339776195294689, 3772645.87995930807665 ], [ 348802.339776195294689, 3772646.49033570708707 ], [ 348802.034587995905895, 3772646.79552390659228 ], [ 348801.7293997965171, 3772646.79552390659228 ], [ 348801.119023397739511, 3772647.405900305137038 ], [ 348799.593082400795538, 3772647.405900305137038 ] ] ] } },
{ "type": "Feature", "properties": { "confidence": 0.90541762113571167, "class": 1 }, "geometry": { "type": "Polygon", "coordinates": [ [ [ 348852.085452695842832, 3772674.262461851350963 ], [ 348851.780264496454038, 3772673.957273652311414 ], [ 348851.169888097676449, 3772673.957273652311414 ], [ 348850.864699898287654, 3772673.652085452806205 ], [ 348850.864699898287654, 3772673.041709053795785 ], [ 348850.559511698898859, 3772672.736520854756236 ], [ 348850.559511698898859, 3772671.210579857695848 ], [ 348850.864699898287654, 3772670.905391658190638 ], [ 348850.864699898287654, 3772668.463886063080281 ], [ 348851.169888097676449, 3772668.158697863575071 ], [ 348851.169888097676449, 3772667.243133265525103 ], [ 348851.475076297065243, 3772666.937945066019893 ], [ 348851.475076297065243, 3772666.632756866514683 ], [ 348851.780264496454038, 3772666.632756866514683 ], [ 348852.085452695842832, 3772666.327568667475134 ], [ 348852.390640895231627, 3772666.327568667475134 ], [ 348852.695829094620422, 3772666.022380467969924 ], [ 348853.306205493398011, 3772666.022380467969924 ], [ 348853.9165818921756, 3772665.412004068959504 ], [ 348854.221770091564395, 3772665.412004068959504 ], [ 348854.526958290953189, 3772665.106815869919956 ], [ 348855.137334689730778, 3772665.106815869919956 ], [ 348855.442522889119573, 3772664.801627670414746 ], [ 348856.358087487285957, 3772664.801627670414746 ], [ 348856.663275686674751, 3772664.496439470909536 ], [ 348858.494404883007519, 3772664.496439470909536 ], [ 348858.799593082396314, 3772664.801627670414746 ], [ 348858.799593082396314, 3772672.431332655251026 ], [ 348858.189216683618724, 3772673.041709053795785 ], [ 348857.578840284841135, 3772673.041709053795785 ], [ 348857.273652085452341, 3772673.346897253300995 ], [ 348856.968463886063546, 3772673.346897253300995 ], [ 348856.663275686674751, 3772673.652085452806205 ], [ 348856.052899287897162, 3772673.652085452806205 ], [ 348855.747711088508368, 3772673.957273652311414 ], [ 348855.442522889119573, 3772673.957273652311414 ], [ 348855.137334689730778, 3772674.262461851350963 ], [ 348852.085452695842832, 3772674.262461851350963 ] ] ] } },
{ "type": "Feature", "properties": { "confidence": 0.86419659852981567, "class": 1 }, "geometry": { "type": "Polygon", "coordinates": [ [ [ 348753.509664292971138, 3772644.964394710026681 ], [ 348753.204476093582343, 3772644.659206510521472 ], [ 348752.594099694804754, 3772644.659206510521472 ], [ 348752.28891149541596, 3772644.354018311481923 ], [ 348751.67853509663837, 3772644.354018311481923 ], [ 348751.373346897249576, 3772644.048830111976713 ], [ 348751.373346897249576, 3772643.743641912471503 ], [ 348751.068158697860781, 3772643.438453712966293 ], [ 348751.068158697860781, 3772642.522889114916325 ], [ 348750.762970498471987, 3772642.217700915411115 ], [ 348750.762970498471987, 3772640.996948117855936 ], [ 348750.457782299083192, 3772640.691759918816388 ], [ 348750.457782299083192, 3772635.808748728595674 ], [ 348750.762970498471987, 3772635.503560529090464 ], [ 348750.762970498471987, 3772633.367243133485317 ], [ 348751.068158697860781, 3772633.062054933980107 ], [ 348751.068158697860781, 3772632.451678534969687 ], [ 348751.67853509663837, 3772631.841302136424929 ], [ 348751.983723296027165, 3772631.841302136424929 ], [ 348752.28891149541596, 3772632.146490335930139 ], [ 348752.899287894193549, 3772632.146490335930139 ], [ 348753.204476093582343, 3772632.451678534969687 ], [ 348755.035605289915111, 3772632.451678534969687 ], [ 348755.035605289915111, 3772632.756866734474897 ], [ 348755.340793489303906, 3772633.062054933980107 ], [ 348755.340793489303906, 3772643.438453712966293 ], [ 348754.120040691748727, 3772644.659206510521472 ], [ 348753.814852492359933, 3772644.659206510521472 ], [ 348753.509664292971138, 3772644.964394710026681 ] ] ] } },
{ "type": "Feature", "properties": { "confidence": 0.85334932804107666, "class": 1 }, "geometry": { "type": "Polygon", "coordinates": [ [ [ 349163.682604272617027, 3772290.335707019548863 ], [ 349163.377416073228233, 3772290.030518820043653 ], [ 349163.072227873839438, 3772290.030518820043653 ], [ 349162.767039674450643, 3772289.725330620538443 ], [ 349162.461851475061849, 3772289.725330620538443 ], [ 349161.546286876895465, 3772288.809766022488475 ], [ 349161.24109867750667, 3772288.809766022488475 ], [ 349157.578840284841135, 3772285.14750762982294 ], [ 349157.88402848422993, 3772284.84231943031773 ], [ 349157.88402848422993, 3772283.926754832267761 ], [ 349158.189216683618724, 3772283.621566632762551 ], [ 349158.189216683618724, 3772283.316378433257341 ], [ 349158.494404883007519, 3772283.011190233752131 ], [ 349158.799593082396314, 3772283.011190233752131 ], [ 349159.715157680562697, 3772282.095625635702163 ], [ 349159.715157680562697, 3772281.790437436196953 ], [ 349160.020345879951492, 3772281.790437436196953 ], [ 349160.630722278729081, 3772281.180061037652194 ], [ 349160.630722278729081, 3772280.874872838146985 ], [ 349161.546286876895465, 3772280.874872838146985 ], [ 349162.156663275673054, 3772281.485249237157404 ], [ 349162.461851475061849, 3772281.485249237157404 ], [ 349162.767039674450643, 3772281.790437436196953 ], [ 349163.072227873839438, 3772281.790437436196953 ], [ 349163.072227873839438, 3772282.095625635702163 ], [ 349163.682604272617027, 3772282.706002034712583 ], [ 349163.987792472005822, 3772282.706002034712583 ], [ 349163.987792472005822, 3772283.011190233752131 ], [ 349164.292980671394616, 3772283.316378433257341 ], [ 349164.598168870783411, 3772283.316378433257341 ], [ 349165.208545269561, 3772283.926754832267761 ], [ 349165.818921668338589, 3772283.926754832267761 ], [ 349166.124109867727384, 3772284.23194303130731 ], [ 349166.429298067116179, 3772284.23194303130731 ], [ 349167.039674465893768, 3772284.84231943031773 ], [ 349167.344862665282562, 3772284.84231943031773 ], [ 349167.650050864671357, 3772285.14750762982294 ], [ 349167.650050864671357, 3772286.368260427378118 ], [ 349166.734486266504973, 3772287.283825025428087 ], [ 349166.734486266504973, 3772287.589013224933296 ], [ 349166.124109867727384, 3772288.199389623478055 ], [ 349166.124109867727384, 3772288.809766022488475 ], [ 349165.818921668338589, 3772288.809766022488475 ], [ 349165.513733468949795, 3772289.114954221993685 ], [ 349165.513733468949795, 3772290.030518820043653 ], [ 349165.208545269561, 3772290.030518820043653 ], [ 349164.903357070172206, 3772290.335707019548863 ], [ 349163.682604272617027, 3772290.335707019548863 ] ] ] } },
{ "type": "Feature", "properties": { "confidence": 0.84559476375579834, "class": 1 }, "geometry": { "type": "Polygon", "coordinates": [ [ [ 348855.137334689730778, 3772682.197355035692453 ], [ 348854.832146490341984, 3772681.892166836187243 ], [ 348854.832146490341984, 3772681.281790437642485 ], [ 348854.526958290953189, 3772680.976602238137275 ], [ 348854.526958290953189, 3772680.671414038632065 ], [ 348854.221770091564395, 3772680.366225839126855 ], [ 348854.221770091564395, 3772680.061037640087306 ], [ 348853.9165818921756, 3772679.755849440582097 ], [ 348853.9165818921756, 3772679.450661241076887 ], [ 348853.611393692786805, 3772679.145473041571677 ], [ 348853.611393692786805, 3772678.229908443521708 ], [ 348853.306205493398011, 3772677.924720244016498 ], [ 348853.306205493398011, 3772676.398779247421771 ], [ 348853.611393692786805, 3772676.093591047916561 ], [ 348854.221770091564395, 3772676.093591047916561 ], [ 348854.526958290953189, 3772675.788402848411351 ], [ 348855.137334689730778, 3772675.788402848411351 ], [ 348855.442522889119573, 3772675.483214648906142 ], [ 348856.968463886063546, 3772675.483214648906142 ], [ 348857.273652085452341, 3772675.788402848411351 ], [ 348857.273652085452341, 3772676.093591047916561 ], [ 348858.494404883007519, 3772677.31434384547174 ], [ 348858.494404883007519, 3772677.924720244016498 ], [ 348858.799593082396314, 3772678.229908443521708 ], [ 348858.799593082396314, 3772679.755849440582097 ], [ 348859.104781281785108, 3772680.061037640087306 ], [ 348859.104781281785108, 3772681.586978636682034 ], [ 348858.799593082396314, 3772681.892166836187243 ], [ 348858.189216683618724, 3772681.892166836187243 ], [ 348857.88402848422993, 3772682.197355035692453 ], [ 348855.137334689730778, 3772682.197355035692453 ] ] ] } },
{ "type": "Feature", "properties": { "confidence": 0.82446742057800293, "class": 1 }, "geometry": { "type": "Polygon", "coordinates": [ [ [ 349080.36622583924327, 3772356.256358087528497 ], [ 349080.36622583924327, 3772353.50966429291293 ], [ 349081.281790437409654, 3772352.594099694862962 ], [ 349081.892166836187243, 3772352.594099694862962 ], [ 349082.197355035634246, 3772352.288911495357752 ], [ 349082.807731434411835, 3772352.288911495357752 ], [ 349083.418107833189424, 3772351.678535096812993 ], [ 349083.723296032578219, 3772351.678535096812993 ], [ 349084.028484231967013, 3772351.373346897307783 ], [ 349084.028484231967013, 3772351.068158697802573 ], [ 349084.333672431355808, 3772351.068158697802573 ], [ 349084.638860630744603, 3772350.762970498297364 ], [ 349085.249237029522192, 3772350.762970498297364 ], [ 349085.554425228910986, 3772350.457782299257815 ], [ 349085.859613428299781, 3772350.457782299257815 ], [ 349086.164801627688576, 3772350.152594099752605 ], [ 349086.775178026466165, 3772350.152594099752605 ], [ 349087.080366225854959, 3772349.847405900247395 ], [ 349088.301119023410138, 3772349.847405900247395 ], [ 349088.606307222798932, 3772350.152594099752605 ], [ 349088.911495422187727, 3772350.152594099752605 ], [ 349088.911495422187727, 3772350.457782299257815 ], [ 349089.521871820965316, 3772351.068158697802573 ], [ 349089.521871820965316, 3772351.373346897307783 ], [ 349089.827060020354111, 3772351.678535096812993 ], [ 349089.827060020354111, 3772352.288911495357752 ], [ 349090.132248219742905, 3772352.594099694862962 ], [ 349090.132248219742905, 3772353.20447609340772 ], [ 349089.521871820965316, 3772353.81485249241814 ], [ 349089.521871820965316, 3772354.12004069192335 ], [ 349088.911495422187727, 3772354.12004069192335 ], [ 349087.995930824021343, 3772355.035605289973319 ], [ 349087.385554425243754, 3772355.035605289973319 ], [ 349087.080366225854959, 3772355.340793489478528 ], [ 349086.775178026466165, 3772355.340793489478528 ], [ 349086.46998982707737, 3772355.645981688518077 ], [ 349086.46998982707737, 3772356.256358087528497 ], [ 349080.36622583924327, 3772356.256358087528497 ] ] ] } },
{ "type": "Feature", "properties": { "confidence": 0.80553728342056274, "class": 1 }, "geometry": { "type": "Polygon", "coordinates": [ [ [ 348990.335707019316033, 3772414.547304171137512 ], [ 348990.030518819927238, 3772414.242115971632302 ], [ 348989.725330620538443, 3772414.242115971632302 ], [ 348989.420142421149649, 3772413.936927772127092 ], [ 348989.114954221760854, 3772413.936927772127092 ], [ 348988.80976602237206, 3772413.631739572621882 ], [ 348988.19938962359447, 3772413.631739572621882 ], [ 348988.19938962359447, 3772411.800610376521945 ], [ 348987.894201424205676, 3772411.495422177016735 ], [ 348987.894201424205676, 3772409.664292980451137 ], [ 348990.335707019316033, 3772409.664292980451137 ], [ 348990.335707019316033, 3772414.547304171137512 ] ] ] } },
{ "type": "Feature", "properties": { "confidence": 0.76882702112197876, "class": 1 }, "geometry": { "type": "Polygon", "coordinates": [ [ [ 349160.935910478117876, 3772337.029501526150852 ], [ 349160.630722278729081, 3772336.724313326645643 ], [ 349159.409969481173903, 3772336.724313326645643 ], [ 349158.799593082396314, 3772336.113936927635223 ], [ 349158.799593082396314, 3772335.503560529090464 ], [ 349158.494404883007519, 3772335.198372329585254 ], [ 349158.494404883007519, 3772334.587995931040496 ], [ 349157.88402848422993, 3772333.977619532030076 ], [ 349157.88402848422993, 3772333.062054933980107 ], [ 349157.578840284841135, 3772332.756866734474897 ], [ 349157.578840284841135, 3772326.958290946204215 ], [ 349157.88402848422993, 3772326.653102746699005 ], [ 349157.88402848422993, 3772325.737538148649037 ], [ 349158.189216683618724, 3772325.432349949143827 ], [ 349158.189216683618724, 3772324.821973550133407 ], [ 349157.88402848422993, 3772324.516785351093858 ], [ 349157.88402848422993, 3772323.906408952083439 ], [ 349158.494404883007519, 3772323.29603255353868 ], [ 349159.715157680562697, 3772323.29603255353868 ], [ 349160.020345879951492, 3772322.99084435403347 ], [ 349162.767039674450643, 3772322.99084435403347 ], [ 349163.987792472005822, 3772324.211597151588649 ], [ 349163.987792472005822, 3772325.127161749638617 ], [ 349164.292980671394616, 3772325.432349949143827 ], [ 349163.987792472005822, 3772325.737538148649037 ], [ 349163.987792472005822, 3772327.873855544254184 ], [ 349163.682604272617027, 3772328.179043743759394 ], [ 349163.682604272617027, 3772329.094608341809362 ], [ 349163.072227873839438, 3772329.704984740819782 ], [ 349163.072227873839438, 3772331.230925737414509 ], [ 349163.377416073228233, 3772331.536113936919719 ], [ 349163.377416073228233, 3772332.146490335930139 ], [ 349163.682604272617027, 3772332.451678534969687 ], [ 349163.682604272617027, 3772335.503560529090464 ], [ 349163.377416073228233, 3772335.808748728595674 ], [ 349163.377416073228233, 3772336.113936927635223 ], [ 349163.072227873839438, 3772336.419125127140433 ], [ 349162.767039674450643, 3772336.419125127140433 ], [ 349162.461851475061849, 3772336.724313326645643 ], [ 349161.24109867750667, 3772336.724313326645643 ], [ 349160.935910478117876, 3772337.029501526150852 ] ] ] } },
{ "type": "Feature", "properties": { "confidence": 0.74240463972091675, "class": 1 }, "geometry": { "type": "Polygon", "coordinates": [ [ [ 349018.413021363201551, 3772415.46286876918748 ], [ 349018.107833163812757, 3772415.15768056968227 ], [ 349018.107833163812757, 3772412.410986775066704 ], [ 349017.802644964365754, 3772412.105798575561494 ], [ 349017.802644964365754, 3772410.274669379461557 ], [ 349017.49745676497696, 3772409.969481179956347 ], [ 349017.49745676497696, 3772409.664292980451137 ], [ 349024.211597151588649, 3772409.664292980451137 ], [ 349024.211597151588649, 3772409.969481179956347 ], [ 349024.516785350977443, 3772410.274669379461557 ], [ 349024.516785350977443, 3772410.885045778006315 ], [ 349024.211597151588649, 3772411.190233977511525 ], [ 349024.211597151588649, 3772411.800610376521945 ], [ 349023.906408952199854, 3772412.105798575561494 ], [ 349023.906408952199854, 3772412.410986775066704 ], [ 349023.601220752811059, 3772412.410986775066704 ], [ 349023.296032553422265, 3772412.716174974571913 ], [ 349023.296032553422265, 3772413.326551373116672 ], [ 349022.685656154644676, 3772413.936927772127092 ], [ 349022.685656154644676, 3772414.242115971632302 ], [ 349022.380467955255881, 3772414.547304171137512 ], [ 349022.380467955255881, 3772414.85249237017706 ], [ 349022.075279755867086, 3772415.15768056968227 ], [ 349021.464903357089497, 3772415.15768056968227 ], [ 349021.159715157700703, 3772415.46286876918748 ], [ 349018.413021363201551, 3772415.46286876918748 ] ] ] } },
{ "type": "Feature", "properties": { "confidence": 0.62706649303436279, "class": 1 }, "geometry": { "type": "Polygon", "coordinates": [ [ [ 349030.92573753814213, 3772684.3336724312976 ], [ 349030.620549338753335, 3772684.02848423179239 ], [ 349029.094608341809362, 3772684.02848423179239 ], [ 349028.789420142420568, 3772683.723296032752842 ], [ 349028.484231943031773, 3772683.723296032752842 ], [ 349028.484231943031773, 3772682.197355035692453 ], [ 349028.789420142420568, 3772681.892166836187243 ], [ 349028.789420142420568, 3772681.281790437642485 ], [ 349029.094608341809362, 3772680.976602238137275 ], [ 349029.094608341809362, 3772680.671414038632065 ], [ 349030.315361139364541, 3772679.450661241076887 ], [ 349031.536113936919719, 3772679.450661241076887 ], [ 349031.841302136308514, 3772679.755849440582097 ], [ 349032.451678535086103, 3772679.755849440582097 ], [ 349033.062054933863692, 3772680.366225839126855 ], [ 349033.367243133252487, 3772680.366225839126855 ], [ 349033.367243133252487, 3772680.671414038632065 ], [ 349033.672431332641281, 3772680.976602238137275 ], [ 349033.672431332641281, 3772681.281790437642485 ], [ 349033.977619532030076, 3772681.586978636682034 ], [ 349033.977619532030076, 3772683.112919633742422 ], [ 349033.367243133252487, 3772683.723296032752842 ], [ 349032.756866734474897, 3772683.723296032752842 ], [ 349032.451678535086103, 3772684.02848423179239 ], [ 349031.230925737530924, 3772684.02848423179239 ], [ 349030.92573753814213, 3772684.3336724312976 ] ] ] } },
{ "type": "Feature", "properties": { "confidence": 0.61382591724395752, "class": 1 }, "geometry": { "type": "Polygon", "coordinates": [ [ [ 348982.400813835207373, 3772371.820956256240606 ], [ 348982.095625635818578, 3772371.515768057201058 ], [ 348981.790437436429784, 3772371.515768057201058 ], [ 348980.8748728382634, 3772370.600203458685428 ], [ 348980.8748728382634, 3772369.684638860635459 ], [ 348980.569684638874605, 3772369.37945066113025 ], [ 348980.569684638874605, 3772364.191251271404326 ], [ 348980.8748728382634, 3772363.886063072364777 ], [ 348980.8748728382634, 3772362.360122075304389 ], [ 348981.180061037652194, 3772362.054933875799179 ], [ 348981.180061037652194, 3772361.139369277749211 ], [ 348981.485249237040989, 3772360.834181078244001 ], [ 348983.926754832151346, 3772360.834181078244001 ], [ 348984.231943031540141, 3772361.139369277749211 ], [ 348984.84231943031773, 3772361.139369277749211 ], [ 348984.537131230928935, 3772361.444557477254421 ], [ 348984.537131230928935, 3772363.580874872859567 ], [ 348985.147507629706524, 3772364.191251271404326 ], [ 348985.147507629706524, 3772364.801627670414746 ], [ 348985.452695829095319, 3772365.106815869919956 ], [ 348985.452695829095319, 3772365.412004068959504 ], [ 348985.757884028484114, 3772365.717192268464714 ], [ 348985.757884028484114, 3772366.022380467969924 ], [ 348986.063072227872908, 3772366.327568667475134 ], [ 348986.063072227872908, 3772366.632756866514683 ], [ 348986.978636826039292, 3772367.548321465030313 ], [ 348986.978636826039292, 3772368.158697863575071 ], [ 348987.283825025428087, 3772368.463886063080281 ], [ 348987.283825025428087, 3772369.684638860635459 ], [ 348986.978636826039292, 3772369.989827060140669 ], [ 348986.978636826039292, 3772370.600203458685428 ], [ 348986.673448626650497, 3772370.600203458685428 ], [ 348986.063072227872908, 3772371.210579857695848 ], [ 348985.452695829095319, 3772371.210579857695848 ], [ 348985.147507629706524, 3772371.515768057201058 ], [ 348983.926754832151346, 3772371.515768057201058 ], [ 348983.621566632762551, 3772371.820956256240606 ], [ 348982.400813835207373, 3772371.820956256240606 ] ] ] } },
{ "type": "Feature", "properties": { "confidence": 0.60022276639938354, "class": 1 }, "geometry": { "type": "Polygon", "coordinates": [ [ [ 349106.612410986796021, 3772355.340793489478528 ], [ 349106.307222787407227, 3772355.035605289973319 ], [ 349105.391658189240843, 3772355.035605289973319 ], [ 349105.086469989852048, 3772354.730417090468109 ], [ 349104.781281790463254, 3772354.730417090468109 ], [ 349104.476093591074459, 3772354.425228890962899 ], [ 349104.170905391685665, 3772354.425228890962899 ], [ 349103.560528992908075, 3772353.81485249241814 ], [ 349103.255340793461073, 3772353.81485249241814 ], [ 349102.950152594072279, 3772353.50966429291293 ], [ 349102.950152594072279, 3772352.594099694862962 ], [ 349102.644964394683484, 3772352.288911495357752 ], [ 349102.644964394683484, 3772351.068158697802573 ], [ 349102.950152594072279, 3772350.762970498297364 ], [ 349102.950152594072279, 3772348.626653102692217 ], [ 349101.7293997965171, 3772347.405900305137038 ], [ 349101.424211597128306, 3772347.405900305137038 ], [ 349101.424211597128306, 3772346.79552390659228 ], [ 349101.7293997965171, 3772346.49033570708707 ], [ 349101.7293997965171, 3772344.659206510521472 ], [ 349101.424211597128306, 3772344.354018311481923 ], [ 349101.424211597128306, 3772341.912512716371566 ], [ 349101.7293997965171, 3772341.607324516866356 ], [ 349101.7293997965171, 3772341.302136317361146 ], [ 349102.034587995905895, 3772340.996948117855936 ], [ 349102.034587995905895, 3772339.776195320300758 ], [ 349102.339776195294689, 3772339.471007121261209 ], [ 349102.339776195294689, 3772338.860630722250789 ], [ 349105.696846388629638, 3772338.860630722250789 ], [ 349106.307222787407227, 3772339.471007121261209 ], [ 349106.612410986796021, 3772339.471007121261209 ], [ 349107.222787385573611, 3772340.081383519805968 ], [ 349107.527975584962405, 3772340.081383519805968 ], [ 349107.527975584962405, 3772355.340793489478528 ], [ 349106.612410986796021, 3772355.340793489478528 ] ] ] } },
{ "type": "Feature", "properties": { "confidence": 0.59282499551773071, "class": 1 }, "geometry": { "type": "Polygon", "coordinates": [ [ [ 349183.214649033558089, 3772264.394710071384907 ], [ 349182.909460834169295, 3772264.089521871879697 ], [ 349182.6042726347805, 3772264.089521871879697 ], [ 349182.299084435391705, 3772263.784333672374487 ], [ 349182.299084435391705, 3772262.868769074324518 ], [ 349181.993896236002911, 3772262.563580874819309 ], [ 349181.993896236002911, 3772261.64801627676934 ], [ 349181.688708036614116, 3772261.34282807726413 ], [ 349181.688708036614116, 3772261.03763987775892 ], [ 349181.383519837225322, 3772260.732451678719372 ], [ 349181.383519837225322, 3772260.122075279708952 ], [ 349181.078331637836527, 3772259.816887080203742 ], [ 349181.078331637836527, 3772259.206510681658983 ], [ 349182.909460834169295, 3772257.375381485093385 ], [ 349185.656154628668446, 3772257.375381485093385 ], [ 349185.961342828057241, 3772257.680569684598595 ], [ 349187.792472024390008, 3772257.680569684598595 ], [ 349187.792472024390008, 3772257.985757884103805 ], [ 349188.097660223778803, 3772258.290946083609015 ], [ 349188.097660223778803, 3772258.596134282648563 ], [ 349188.402848423167598, 3772258.901322482153773 ], [ 349188.402848423167598, 3772260.732451678719372 ], [ 349188.097660223778803, 3772261.03763987775892 ], [ 349188.097660223778803, 3772262.563580874819309 ], [ 349187.182095625612419, 3772263.479145472869277 ], [ 349186.876907426223624, 3772263.479145472869277 ], [ 349185.961342828057241, 3772264.394710071384907 ], [ 349183.214649033558089, 3772264.394710071384907 ] ] ] } },
{ "type": "Feature", "properties": { "confidence": 0.57553309202194214, "class": 1 }, "geometry": { "type": "Polygon", "coordinates": [ [ [ 349059.003051881969441, 3772309.257375381421298 ], [ 349057.477110885025468, 3772307.731434384360909 ], [ 349057.171922685636673, 3772307.731434384360909 ], [ 349056.866734486247879, 3772307.426246185321361 ], [ 349056.561546286859084, 3772307.426246185321361 ], [ 349055.951169888081495, 3772306.815869786310941 ], [ 349055.951169888081495, 3772306.510681586805731 ], [ 349055.340793489303906, 3772305.900305188260972 ], [ 349055.340793489303906, 3772305.289928789250553 ], [ 349055.035605289915111, 3772304.984740590211004 ], [ 349055.035605289915111, 3772304.679552390705794 ], [ 349055.340793489303906, 3772304.374364191200584 ], [ 349055.340793489303906, 3772303.763987792655826 ], [ 349055.6459816886927, 3772303.458799593150616 ], [ 349055.6459816886927, 3772302.848423194140196 ], [ 349056.256358087470289, 3772302.848423194140196 ], [ 349056.866734486247879, 3772302.238046795595437 ], [ 349056.866734486247879, 3772301.932858596090227 ], [ 349057.477110885025468, 3772301.932858596090227 ], [ 349057.782299084414262, 3772301.627670396585017 ], [ 349058.087487283803057, 3772301.932858596090227 ], [ 349058.392675483191852, 3772301.932858596090227 ], [ 349059.308240081358235, 3772302.848423194140196 ], [ 349059.61342828074703, 3772302.848423194140196 ], [ 349059.918616480135825, 3772303.153611393645406 ], [ 349061.7497456765268, 3772303.153611393645406 ], [ 349062.054933875915594, 3772302.848423194140196 ], [ 349062.360122075304389, 3772303.153611393645406 ], [ 349062.665310274693184, 3772303.153611393645406 ], [ 349062.970498474081978, 3772303.458799593150616 ], [ 349063.580874872859567, 3772303.458799593150616 ], [ 349064.191251271637157, 3772304.069175991695374 ], [ 349064.496439471025951, 3772304.069175991695374 ], [ 349064.801627670414746, 3772304.374364191200584 ], [ 349064.801627670414746, 3772304.679552390705794 ], [ 349065.412004069192335, 3772305.289928789250553 ], [ 349065.10681586980354, 3772305.289928789250553 ], [ 349064.801627670414746, 3772305.595116988755763 ], [ 349064.801627670414746, 3772306.205493387766182 ], [ 349065.412004069192335, 3772306.815869786310941 ], [ 349065.412004069192335, 3772307.121057985816151 ], [ 349064.496439471025951, 3772308.036622583866119 ], [ 349064.191251271637157, 3772308.036622583866119 ], [ 349063.886063072248362, 3772308.341810783371329 ], [ 349062.665310274693184, 3772308.341810783371329 ], [ 349062.360122075304389, 3772308.646998982876539 ], [ 349061.7497456765268, 3772308.646998982876539 ], [ 349061.444557477138005, 3772308.952187181916088 ], [ 349061.139369277749211, 3772308.952187181916088 ], [ 349060.834181078360416, 3772309.257375381421298 ], [ 349059.003051881969441, 3772309.257375381421298 ] ] ] } },
{ "type": "Feature", "properties": { "confidence": 0.5645214319229126, "class": 1 }, "geometry": { "type": "Polygon", "coordinates": [ [ [ 348953.102746693766676, 3772432.858596134465188 ], [ 348952.797558494377881, 3772432.553407934959978 ], [ 348952.492370294989087, 3772432.553407934959978 ], [ 348952.492370294989087, 3772432.248219735454768 ], [ 348952.187182095600292, 3772431.943031535949558 ], [ 348952.187182095600292, 3772431.637843336910009 ], [ 348952.492370294989087, 3772431.332655137404799 ], [ 348952.492370294989087, 3772430.72227873839438 ], [ 348952.797558494377881, 3772430.417090539354831 ], [ 348952.797558494377881, 3772429.806714140344411 ], [ 348953.102746693766676, 3772429.501525940839201 ], [ 348953.102746693766676, 3772428.585961342789233 ], [ 348953.40793489315547, 3772428.280773143284023 ], [ 348953.40793489315547, 3772427.975584944244474 ], [ 348954.018311291991267, 3772427.975584944244474 ], [ 348954.628687690768857, 3772427.365208545234054 ], [ 348955.239064089546446, 3772427.365208545234054 ], [ 348955.849440488324035, 3772426.754832146689296 ], [ 348956.15462868771283, 3772426.754832146689296 ], [ 348956.15462868771283, 3772427.060020345728844 ], [ 348956.459816887101624, 3772427.365208545234054 ], [ 348956.459816887101624, 3772427.670396744739264 ], [ 348957.375381485268008, 3772428.585961342789233 ], [ 348957.375381485268008, 3772429.806714140344411 ], [ 348957.070193285879213, 3772430.111902339849621 ], [ 348957.070193285879213, 3772430.72227873839438 ], [ 348956.765005086490419, 3772431.02746693789959 ], [ 348956.765005086490419, 3772431.332655137404799 ], [ 348956.459816887101624, 3772431.637843336910009 ], [ 348956.459816887101624, 3772431.943031535949558 ], [ 348956.15462868771283, 3772432.248219735454768 ], [ 348955.849440488324035, 3772432.248219735454768 ], [ 348955.54425228893524, 3772432.553407934959978 ], [ 348954.933875890157651, 3772432.553407934959978 ], [ 348954.628687690768857, 3772432.858596134465188 ], [ 348953.102746693766676, 3772432.858596134465188 ] ] ] } },
{ "type": "Feature", "properties": { "confidence": 0.56107890605926514, "class": 1 }, "geometry": { "type": "Polygon", "coordinates": [ [ [ 349044.964394710084889, 3772273.550356052815914 ], [ 349044.3540183113073, 3772272.939979654271156 ], [ 349044.3540183113073, 3772269.582909460645169 ], [ 349044.659206510696094, 3772269.27772126160562 ], [ 349044.659206510696094, 3772268.056968464050442 ], [ 349046.185147507640067, 3772266.531027466990054 ], [ 349046.185147507640067, 3772266.225839267484844 ], [ 349046.795523906417657, 3772265.615462868940085 ], [ 349048.016276703972835, 3772265.615462868940085 ], [ 349048.626653102750424, 3772266.225839267484844 ], [ 349048.626653102750424, 3772268.667344862595201 ], [ 349048.32146490336163, 3772268.97253306210041 ], [ 349048.32146490336163, 3772269.888097660150379 ], [ 349048.016276703972835, 3772270.193285859655589 ], [ 349048.016276703972835, 3772270.498474059160799 ], [ 349047.71108850458404, 3772270.803662258200347 ], [ 349047.71108850458404, 3772271.108850457705557 ], [ 349047.405900305195246, 3772271.414038657210767 ], [ 349047.405900305195246, 3772271.719226856715977 ], [ 349046.185147507640067, 3772272.939979654271156 ], [ 349045.879959308251273, 3772272.939979654271156 ], [ 349045.269582909473684, 3772273.550356052815914 ], [ 349044.964394710084889, 3772273.550356052815914 ] ] ] } },
{ "type": "Feature", "properties": { "confidence": 0.52823406457901001, "class": 1 }, "geometry": { "type": "Polygon", "coordinates": [ [ [ 348756.256358087470289, 3772648.321464903187007 ], [ 348755.951169888081495, 3772648.016276704147458 ], [ 348755.6459816886927, 3772648.016276704147458 ], [ 348755.340793489303906, 3772647.711088504642248 ], [ 348755.035605289915111, 3772647.711088504642248 ], [ 348754.425228891137522, 3772647.100712105631828 ], [ 348754.425228891137522, 3772646.79552390659228 ], [ 348753.814852492359933, 3772646.18514750758186 ], [ 348753.814852492359933, 3772645.87995930807665 ], [ 348753.509664292971138, 3772645.574771109037101 ], [ 348753.509664292971138, 3772645.269582909531891 ], [ 348753.204476093582343, 3772644.964394710026681 ], [ 348753.204476093582343, 3772644.048830111976713 ], [ 348759.918616480135825, 3772644.048830111976713 ], [ 348759.918616480135825, 3772644.659206510521472 ], [ 348759.61342828074703, 3772644.964394710026681 ], [ 348759.61342828074703, 3772645.269582909531891 ], [ 348758.392675483191852, 3772646.49033570708707 ], [ 348758.392675483191852, 3772646.79552390659228 ], [ 348758.087487283803057, 3772647.100712105631828 ], [ 348758.087487283803057, 3772647.711088504642248 ], [ 348757.782299084414262, 3772648.016276704147458 ], [ 348757.171922685636673, 3772648.016276704147458 ], [ 348756.866734486247879, 3772648.321464903187007 ], [ 348756.256358087470289, 3772648.321464903187007 ] ] ] } },
{ "type": "Feature", "properties": { "confidence": 0.49455031752586365, "class": 1 }, "geometry": { "type": "Polygon", "coordinates": [ [ [ 348717.802644964365754, 3772448.423194303177297 ], [ 348717.802644964365754, 3772448.118006103672087 ], [ 348717.49745676497696, 3772447.812817904166877 ], [ 348717.192268565588165, 3772447.812817904166877 ], [ 348717.192268565588165, 3772445.066124110016972 ], [ 348717.49745676497696, 3772445.066124110016972 ], [ 348717.802644964365754, 3772444.760935910511762 ], [ 348719.328585961367935, 3772444.760935910511762 ], [ 348719.63377416075673, 3772444.455747711006552 ], [ 348719.938962360145524, 3772444.760935910511762 ], [ 348720.244150559534319, 3772444.760935910511762 ], [ 348720.549338758923113, 3772445.066124110016972 ], [ 348720.854526958311908, 3772445.066124110016972 ], [ 348721.159715157700703, 3772445.37131230905652 ], [ 348721.464903357089497, 3772445.37131230905652 ], [ 348722.380467955255881, 3772446.28687690757215 ], [ 348722.685656154644676, 3772446.28687690757215 ], [ 348722.685656154644676, 3772446.897253306116909 ], [ 348722.99084435403347, 3772447.202441505622119 ], [ 348722.685656154644676, 3772447.507629705127329 ], [ 348722.685656154644676, 3772448.423194303177297 ], [ 348717.802644964365754, 3772448.423194303177297 ] ] ] } },
{ "type": "Feature", "properties": { "confidence": 0.48596420884132385, "class": 1 }, "geometry": { "type": "Polygon", "coordinates": [ [ [ 349080.36622583924327, 3772496.948118005879223 ], [ 349080.061037639854476, 3772496.642929806839675 ], [ 349079.145473041688092, 3772496.642929806839675 ], [ 349078.840284842299297, 3772496.337741607334465 ], [ 349078.535096642910503, 3772496.337741607334465 ], [ 349078.229908443521708, 3772496.032553407829255 ], [ 349077.924720244132914, 3772496.032553407829255 ], [ 349077.619532044744119, 3772495.727365208324045 ], [ 349077.314343845355324, 3772495.727365208324045 ], [ 349077.00915564596653, 3772495.422177009284496 ], [ 349076.398779247188941, 3772495.422177009284496 ], [ 349076.093591047800146, 3772495.116988809779286 ], [ 349075.788402848411351, 3772495.116988809779286 ], [ 349075.483214649022557, 3772494.811800610274076 ], [ 349075.483214649022557, 3772494.506612410768867 ], [ 349075.178026449633762, 3772494.201424211729318 ], [ 349075.178026449633762, 3772493.591047812718898 ], [ 349074.872838250244968, 3772493.285859613213688 ], [ 349074.872838250244968, 3772492.67548321466893 ], [ 349074.567650050856173, 3772492.37029501516372 ], [ 349074.567650050856173, 3772491.149542217608541 ], [ 349074.262461851467378, 3772490.844354018103331 ], [ 349074.262461851467378, 3772489.318413021508604 ], [ 349074.567650050856173, 3772489.013224822003394 ], [ 349074.567650050856173, 3772488.402848422992975 ], [ 349074.872838250244968, 3772488.402848422992975 ], [ 349075.178026449633762, 3772488.097660223953426 ], [ 349077.00915564596653, 3772488.097660223953426 ], [ 349077.314343845355324, 3772488.402848422992975 ], [ 349078.229908443521708, 3772488.402848422992975 ], [ 349078.535096642910503, 3772488.708036622498184 ], [ 349079.145473041688092, 3772488.708036622498184 ], [ 349080.36622583924327, 3772489.928789420053363 ], [ 349080.36622583924327, 3772490.233977619558573 ], [ 349081.586978636798449, 3772491.454730417113751 ], [ 349081.586978636798449, 3772491.759918616618961 ], [ 349081.892166836187243, 3772492.06510681565851 ], [ 349081.892166836187243, 3772492.980671414174139 ], [ 349082.197355035634246, 3772493.285859613213688 ], [ 349082.197355035634246, 3772493.896236012224108 ], [ 349082.50254323502304, 3772494.201424211729318 ], [ 349082.50254323502304, 3772496.032553407829255 ], [ 349082.197355035634246, 3772496.337741607334465 ], [ 349082.197355035634246, 3772496.642929806839675 ], [ 349081.892166836187243, 3772496.948118005879223 ], [ 349080.36622583924327, 3772496.948118005879223 ] ] ] } },
{ "type": "Feature", "properties": { "confidence": 0.44305825233459473, "class": 1 }, "geometry": { "type": "Polygon", "coordinates": [ [ [ 349106.002034588018432, 3772440.183112919796258 ], [ 349105.696846388629638, 3772439.877924720291048 ], [ 349103.560528992908075, 3772439.877924720291048 ], [ 349103.255340793461073, 3772439.572736520785838 ], [ 349103.255340793461073, 3772435.300101729575545 ], [ 349103.560528992908075, 3772434.994913530070335 ], [ 349103.560528992908075, 3772434.384537131059915 ], [ 349103.86571719229687, 3772434.079348932020366 ], [ 349103.86571719229687, 3772433.774160732515156 ], [ 349105.086469989852048, 3772432.553407934959978 ], [ 349106.002034588018432, 3772432.553407934959978 ], [ 349106.917599186184816, 3772433.468972533009946 ], [ 349106.917599186184816, 3772439.877924720291048 ], [ 349106.612410986796021, 3772440.183112919796258 ], [ 349106.002034588018432, 3772440.183112919796258 ] ] ] } },
{ "type": "Feature", "properties": { "confidence": 0.38626301288604736, "class": 1 }, "geometry": { "type": "Polygon", "coordinates": [ [ [ 349087.995930824021343, 3772296.439471007324755 ], [ 349087.995930824021343, 3772295.829094608314335 ], [ 349087.690742624632549, 3772295.523906408809125 ], [ 349087.690742624632549, 3772295.218718209769577 ], [ 349087.385554425243754, 3772294.913530010264367 ], [ 349087.385554425243754, 3772294.303153611253947 ], [ 349087.080366225854959, 3772293.997965412214398 ], [ 349087.080366225854959, 3772293.387589013203979 ], [ 349087.385554425243754, 3772293.082400813698769 ], [ 349087.385554425243754, 3772292.47202441515401 ], [ 349091.963377416075673, 3772292.47202441515401 ], [ 349091.963377416075673, 3772293.387589013203979 ], [ 349091.658189216686878, 3772293.692777212709188 ], [ 349091.658189216686878, 3772293.997965412214398 ], [ 349091.047812817909289, 3772294.608341810759157 ], [ 349091.047812817909289, 3772294.913530010264367 ], [ 349090.742624618520495, 3772294.913530010264367 ], [ 349090.4374364191317, 3772295.218718209769577 ], [ 349090.132248219742905, 3772295.218718209769577 ], [ 349089.521871820965316, 3772295.829094608314335 ], [ 349089.216683621576522, 3772295.829094608314335 ], [ 349088.911495422187727, 3772296.134282807819545 ], [ 349088.301119023410138, 3772296.134282807819545 ], [ 349087.995930824021343, 3772296.439471007324755 ] ] ] } },
{ "type": "Feature", "properties": { "confidence": 0.37533760070800781, "class": 1 }, "geometry": { "type": "Polygon", "coordinates": [ [ [ 348768.158697863691486, 3772545.778229908552021 ], [ 348767.853509664302692, 3772545.473041709046811 ], [ 348766.937945066136308, 3772545.473041709046811 ], [ 348766.632756866747513, 3772545.167853509541601 ], [ 348766.327568667358719, 3772545.167853509541601 ], [ 348766.327568667358719, 3772544.862665310502052 ], [ 348766.022380467969924, 3772544.557477110996842 ], [ 348766.022380467969924, 3772543.947100711986423 ], [ 348765.71719226858113, 3772543.641912512946874 ], [ 348765.71719226858113, 3772543.336724313441664 ], [ 348765.10681586980354, 3772542.726347914431244 ], [ 348765.10681586980354, 3772542.421159714926034 ], [ 348764.801627670414746, 3772542.115971515886486 ], [ 348764.801627670414746, 3772541.505595116876066 ], [ 348764.496439471025951, 3772541.200406917370856 ], [ 348764.496439471025951, 3772536.622583926655352 ], [ 348764.801627670414746, 3772536.317395727150142 ], [ 348764.801627670414746, 3772536.012207528110594 ], [ 348765.10681586980354, 3772536.012207528110594 ], [ 348765.412004069192335, 3772535.707019328605384 ], [ 348769.989827060024254, 3772535.707019328605384 ], [ 348769.989827060024254, 3772536.012207528110594 ], [ 348770.295015259413049, 3772536.317395727150142 ], [ 348770.295015259413049, 3772536.622583926655352 ], [ 348770.600203458801843, 3772536.927772126160562 ], [ 348770.600203458801843, 3772537.538148524705321 ], [ 348770.905391658190638, 3772537.843336724210531 ], [ 348770.905391658190638, 3772538.14852492371574 ], [ 348771.210579857579432, 3772538.45371312322095 ], [ 348771.210579857579432, 3772539.369277721270919 ], [ 348771.820956256357022, 3772539.979654119815677 ], [ 348771.820956256357022, 3772540.284842319320887 ], [ 348772.126144455745816, 3772540.590030518826097 ], [ 348772.126144455745816, 3772540.895218718331307 ], [ 348772.431332655134611, 3772541.200406917370856 ], [ 348772.431332655134611, 3772543.336724313441664 ], [ 348772.126144455745816, 3772543.641912512946874 ], [ 348772.126144455745816, 3772544.252288911491632 ], [ 348771.820956256357022, 3772544.557477110996842 ], [ 348771.210579857579432, 3772544.557477110996842 ], [ 348770.295015259413049, 3772545.473041709046811 ], [ 348769.684638860635459, 3772545.473041709046811 ], [ 348769.379450661246665, 3772545.778229908552021 ], [ 348768.158697863691486, 3772545.778229908552021 ] ] ] } },
{ "type": "Feature", "properties": { "confidence": 0.35530006885528564, "class": 1 }, "geometry": { "type": "Polygon", "coordinates": [ [ [ 348838.046795523900073, 3772670.600203458685428 ], [ 348837.741607324511278, 3772670.295015259180218 ], [ 348837.436419125122484, 3772670.295015259180218 ], [ 348837.131230925733689, 3772669.989827060140669 ], [ 348836.826042726344895, 3772669.989827060140669 ], [ 348835.910478128178511, 3772669.07426246162504 ], [ 348835.910478128178511, 3772665.717192268464714 ], [ 348835.605289928789716, 3772665.412004068959504 ], [ 348835.300101729400922, 3772665.412004068959504 ], [ 348835.300101729400922, 3772664.496439470909536 ], [ 348834.994913530012127, 3772664.191251271404326 ], [ 348834.384537131234538, 3772664.191251271404326 ], [ 348834.384537131234538, 3772663.580874872859567 ], [ 348834.994913530012127, 3772663.580874872859567 ], [ 348835.300101729400922, 3772663.275686673354357 ], [ 348835.605289928789716, 3772663.275686673354357 ], [ 348835.910478128178511, 3772663.580874872859567 ], [ 348836.215666327567305, 3772663.580874872859567 ], [ 348837.436419125122484, 3772664.801627670414746 ], [ 348837.741607324511278, 3772664.801627670414746 ], [ 348838.046795523900073, 3772665.106815869919956 ], [ 348838.351983723288868, 3772665.106815869919956 ], [ 348838.962360122066457, 3772665.717192268464714 ], [ 348840.183112919621635, 3772665.717192268464714 ], [ 348841.098677517788019, 3772666.632756866514683 ], [ 348841.403865717176814, 3772666.632756866514683 ], [ 348841.403865717176814, 3772667.853509664069861 ], [ 348841.098677517788019, 3772668.158697863575071 ], [ 348841.098677517788019, 3772669.07426246162504 ], [ 348840.793489318399224, 3772669.07426246162504 ], [ 348840.48830111901043, 3772669.37945066113025 ], [ 348840.48830111901043, 3772669.684638860635459 ], [ 348840.183112919621635, 3772669.684638860635459 ], [ 348839.877924720232841, 3772669.989827060140669 ], [ 348839.572736520844046, 3772669.989827060140669 ], [ 348839.267548321455251, 3772670.295015259180218 ], [ 348838.351983723288868, 3772670.295015259180218 ], [ 348838.046795523900073, 3772670.600203458685428 ] ] ] } },
{ "type": "Feature", "properties": { "confidence": 0.30576580762863159, "class": 1 }, "geometry": { "type": "Polygon", "coordinates": [ [ [ 349065.71719226858113, 3772406.307222787290812 ], [ 349065.412004069192335, 3772406.002034587785602 ], [ 349065.10681586980354, 3772406.002034587785602 ], [ 349064.801627670414746, 3772405.696846388746053 ], [ 349063.580874872859567, 3772405.696846388746053 ], [ 349063.275686673470773, 3772405.391658189240843 ], [ 349062.970498474081978, 3772405.391658189240843 ], [ 349062.665310274693184, 3772405.086469989735633 ], [ 349062.360122075304389, 3772405.086469989735633 ], [ 349062.054933875915594, 3772404.781281790230423 ], [ 349061.7497456765268, 3772404.781281790230423 ], [ 349061.444557477138005, 3772404.476093591190875 ], [ 349061.139369277749211, 3772404.476093591190875 ], [ 349060.834181078360416, 3772404.170905391685665 ], [ 349060.528992878913414, 3772404.170905391685665 ], [ 349060.223804679524619, 3772403.865717192180455 ], [ 349060.223804679524619, 3772403.560528992675245 ], [ 349059.918616480135825, 3772403.255340793635696 ], [ 349059.918616480135825, 3772402.034587996080518 ], [ 349060.223804679524619, 3772401.729399796575308 ], [ 349060.223804679524619, 3772399.89827060000971 ], [ 349060.528992878913414, 3772399.593082400970161 ], [ 349060.528992878913414, 3772399.287894201464951 ], [ 349060.834181078360416, 3772398.982706001959741 ], [ 349060.834181078360416, 3772397.456765004899353 ], [ 349061.139369277749211, 3772397.151576805859804 ], [ 349061.139369277749211, 3772396.846388606354594 ], [ 349061.444557477138005, 3772396.541200406849384 ], [ 349062.970498474081978, 3772396.541200406849384 ], [ 349063.275686673470773, 3772396.846388606354594 ], [ 349063.580874872859567, 3772396.846388606354594 ], [ 349063.886063072248362, 3772397.151576805859804 ], [ 349063.886063072248362, 3772397.456765004899353 ], [ 349064.496439471025951, 3772398.067141403909773 ], [ 349064.496439471025951, 3772398.372329603414983 ], [ 349065.71719226858113, 3772399.593082400970161 ], [ 349065.71719226858113, 3772399.89827060000971 ], [ 349066.327568667358719, 3772400.508646999020129 ], [ 349066.327568667358719, 3772400.813835198525339 ], [ 349066.937945066136308, 3772401.424211597070098 ], [ 349066.937945066136308, 3772402.034587996080518 ], [ 349067.243133265525103, 3772402.339776195120066 ], [ 349067.243133265525103, 3772402.950152594130486 ], [ 349067.548321464913897, 3772403.255340793635696 ], [ 349067.548321464913897, 3772403.560528992675245 ], [ 349067.853509664302692, 3772403.865717192180455 ], [ 349067.853509664302692, 3772405.696846388746053 ], [ 349067.243133265525103, 3772406.307222787290812 ], [ 349065.71719226858113, 3772406.307222787290812 ] ] ] } },
{ "type": "Feature", "properties": { "confidence": 0.2929990291595459, "class": 1 }, "geometry": { "type": "Polygon", "coordinates": [ [ [ 349032.756866734474897, 3772459.715157680679113 ], [ 349032.451678535086103, 3772459.409969481173903 ], [ 349032.146490335697308, 3772459.409969481173903 ], [ 349031.841302136308514, 3772459.104781281668693 ], [ 349029.704984740586951, 3772459.104781281668693 ], [ 349029.094608341809362, 3772458.494404883123934 ], [ 349029.094608341809362, 3772456.968463886063546 ], [ 349029.399796541198157, 3772456.663275686558336 ], [ 349029.399796541198157, 3772456.358087487053126 ], [ 349029.704984740586951, 3772456.358087487053126 ], [ 349030.315361139364541, 3772455.747711088508368 ], [ 349033.977619532030076, 3772455.747711088508368 ], [ 349034.28280773141887, 3772456.052899288013577 ], [ 349034.587995930807665, 3772456.052899288013577 ], [ 349034.89318413019646, 3772456.358087487053126 ], [ 349034.89318413019646, 3772458.799593082629144 ], [ 349034.28280773141887, 3772459.409969481173903 ], [ 349033.977619532030076, 3772459.409969481173903 ], [ 349033.672431332641281, 3772459.715157680679113 ], [ 349032.756866734474897, 3772459.715157680679113 ] ] ] } },
{ "type": "Feature", "properties": { "confidence": 0.25542792677879333, "class": 1 }, "geometry": { "type": "Polygon", "coordinates": [ [ [ 348834.994913530012127, 3772682.807731434237212 ], [ 348834.994913530012127, 3772682.502543235197663 ], [ 348834.689725330623332, 3772682.197355035692453 ], [ 348834.384537131234538, 3772682.197355035692453 ], [ 348834.384537131234538, 3772678.840284842532128 ], [ 348834.994913530012127, 3772678.840284842532128 ], [ 348835.300101729400922, 3772678.535096643026918 ], [ 348835.300101729400922, 3772678.229908443521708 ], [ 348837.131230925733689, 3772678.229908443521708 ], [ 348837.436419125122484, 3772678.535096643026918 ], [ 348837.436419125122484, 3772679.450661241076887 ], [ 348837.131230925733689, 3772679.755849440582097 ], [ 348837.131230925733689, 3772680.976602238137275 ], [ 348836.826042726344895, 3772681.281790437642485 ], [ 348836.826042726344895, 3772682.807731434237212 ], [ 348834.994913530012127, 3772682.807731434237212 ] ] ] } }
]
}
