{
"type": "FeatureCollection",
"name": "cell_00437_pre",
"crs": { "type": "name", "properties": { "name": "urn:ogc:def:crs:EPSG::32611" } },
"features": [
{ "type": "Feature", "properties": { "confidence": 0.91332519054412842, "class": 1 }, "geometry": { "type": "Polygon", "coordinates": [ [ [ 399387.894201424205676, 3787047.711088504642248 ], [ 399387.589013224816881, 3787047.405900305137038 ], [ 399387.589013224816881, 3787047.100712105631828 ], [ 399385.452695829095319, 3787044.964394710026681 ], [ 399385.452695829095319, 3787044.659206510521472 ], [ 399385.147507629706524, 3787044.354018311481923 ], [ 399385.147507629706524, 3787044.048830111976713 ], [ 399389.725330620538443, 3787044.048830111976713 ], [ 399389.725330620538443, 3787046.49033570708707 ], [ 399389.420142421149649, 3787046.49033570708707 ], [ 399389.114954221760854, 3787046.79552390659228 ], [ 399388.80976602237206, 3787046.79552390659228 ], [ 399388.504577822983265, 3787047.100712105631828 ], [ 399388.504577822983265, 3787047.711088504642248 ], [ 399387.894201424205676, 3787047.711088504642248 ] ] ] } },
{ "type": "Feature", "properties": { "confidence": 0.90827792882919312, "class": 1 }, "geometry": { "type": "Polygon", "coordinates": [ [ [ 399078.433367243153043, 3787056.866734486073256 ], [ 399078.128179043764248, 3787056.561546287033707 ], [ 399076.602238046820275, 3787056.561546287033707 ], [ 399076.297049847431481, 3787056.256358087528497 ], [ 399075.991861648042686, 3787056.256358087528497 ], [ 399074.160732451651711, 3787054.425228890962899 ], [ 399074.160732451651711, 3787054.12004069192335 ], [ 399073.855544252262916, 3787053.81485249241814 ], [ 399073.855544252262916, 3787052.288911495357752 ], [ 399073.550356052874122, 3787051.983723295852542 ], [ 399073.550356052874122, 3787048.321464903187007 ], [ 399073.855544252262916, 3787048.016276704147458 ], [ 399073.855544252262916, 3787046.49033570708707 ], [ 399074.465920651040506, 3787045.87995930807665 ], [ 399074.7711088504293, 3787045.87995930807665 ], [ 399075.076297049876302, 3787045.574771109037101 ], [ 399075.381485249265097, 3787045.87995930807665 ], [ 399075.686673448653892, 3787045.87995930807665 ], [ 399075.991861648042686, 3787046.18514750758186 ], [ 399076.297049847431481, 3787046.18514750758186 ], [ 399076.602238046820275, 3787046.49033570708707 ], [ 399077.212614445597865, 3787046.49033570708707 ], [ 399077.517802644986659, 3787046.79552390659228 ], [ 399077.822990844375454, 3787046.79552390659228 ], [ 399078.128179043764248, 3787047.100712105631828 ], [ 399078.433367243153043, 3787047.100712105631828 ], [ 399079.043743641930632, 3787047.711088504642248 ], [ 399079.043743641930632, 3787048.321464903187007 ], [ 399079.654120040708221, 3787048.931841302197427 ], [ 399079.654120040708221, 3787049.237029501702636 ], [ 399079.959308240097016, 3787049.542217700742185 ], [ 399079.959308240097016, 3787050.457782299257815 ], [ 399080.264496439485811, 3787050.762970498297364 ], [ 399080.264496439485811, 3787052.288911495357752 ], [ 399080.569684638874605, 3787052.594099694862962 ], [ 399080.569684638874605, 3787052.899287894368172 ], [ 399080.8748728382634, 3787053.20447609340772 ], [ 399080.8748728382634, 3787053.81485249241814 ], [ 399081.180061037652194, 3787054.12004069192335 ], [ 399081.180061037652194, 3787055.951169888023287 ], [ 399080.569684638874605, 3787056.561546287033707 ], [ 399079.959308240097016, 3787056.561546287033707 ], [ 399079.654120040708221, 3787056.866734486073256 ], [ 399078.433367243153043, 3787056.866734486073256 ] ] ] } },
{ "type": "Feature", "properties": { "confidence": 0.90045708417892456, "class": 1 }, "geometry": { "type": "Polygon", "coordinates": [ [ [ 399186.164801627688576, 3786642.421159714926034 ], [ 399185.859613428299781, 3786642.115971515886486 ], [ 399185.859613428299781, 3786641.810783316381276 ], [ 399185.554425228910986, 3786641.505595116876066 ], [ 399185.554425228910986, 3786641.200406917370856 ], [ 399184.944048830133397, 3786640.590030518826097 ], [ 399184.944048830133397, 3786640.284842319320887 ], [ 399184.638860630744603, 3786639.979654119815677 ], [ 399184.638860630744603, 3786639.674465920776129 ], [ 399184.333672431355808, 3786639.369277721270919 ], [ 399184.333672431355808, 3786638.758901322260499 ], [ 399184.638860630744603, 3786638.45371312322095 ], [ 399184.638860630744603, 3786637.538148524705321 ], [ 399184.944048830133397, 3786637.232960325665772 ], [ 399184.944048830133397, 3786636.927772126160562 ], [ 399185.554425228910986, 3786636.317395727150142 ], [ 399185.859613428299781, 3786636.317395727150142 ], [ 399186.164801627688576, 3786636.012207528110594 ], [ 399186.46998982707737, 3786636.012207528110594 ], [ 399186.775178026466165, 3786635.707019328605384 ], [ 399188.301119023410138, 3786635.707019328605384 ], [ 399188.301119023410138, 3786636.012207528110594 ], [ 399188.606307222798932, 3786636.317395727150142 ], [ 399188.911495422187727, 3786636.317395727150142 ], [ 399189.216683621576522, 3786636.622583926655352 ], [ 399189.216683621576522, 3786636.927772126160562 ], [ 399189.521871820965316, 3786637.232960325665772 ], [ 399189.521871820965316, 3786638.45371312322095 ], [ 399189.216683621576522, 3786638.758901322260499 ], [ 399189.216683621576522, 3786639.979654119815677 ], [ 399188.911495422187727, 3786640.284842319320887 ], [ 399188.911495422187727, 3786640.590030518826097 ], [ 399187.995930824021343, 3786641.505595116876066 ], [ 399187.995930824021343, 3786641.810783316381276 ], [ 399187.385554425243754, 3786642.421159714926034 ], [ 399186.164801627688576, 3786642.421159714926034 ] ] ] } },
{ "type": "Feature", "properties": { "confidence": 0.86105078458786011, "class": 1 }, "geometry": { "type": "Polygon", "coordinates": [ [ [ 399058.901322482211981, 3786929.603255340829492 ], [ 399058.901322482211981, 3786929.298067141324282 ], [ 399058.596134282823186, 3786928.992878941819072 ], [ 399058.596134282823186, 3786928.687690742779523 ], [ 399058.290946083434392, 3786928.382502543274313 ], [ 399058.290946083434392, 3786926.856561546213925 ], [ 399064.089521871821489, 3786926.856561546213925 ], [ 399064.089521871821489, 3786927.466937945224345 ], [ 399063.784333672432695, 3786927.772126144263893 ], [ 399063.784333672432695, 3786928.077314343769103 ], [ 399062.563580874877516, 3786929.298067141324282 ], [ 399062.258392675488722, 3786929.298067141324282 ], [ 399061.953204476099927, 3786929.603255340829492 ], [ 399058.901322482211981, 3786929.603255340829492 ] ] ] } },
{ "type": "Feature", "properties": { "confidence": 0.85876595973968506, "class": 1 }, "geometry": { "type": "Polygon", "coordinates": [ [ [ 399161.7497456765268, 3786700.10172939999029 ], [ 399161.444557477138005, 3786699.79654120048508 ], [ 399161.139369277749211, 3786699.79654120048508 ], [ 399160.834181078360416, 3786699.491353000979871 ], [ 399160.223804679524619, 3786699.491353000979871 ], [ 399159.918616480135825, 3786699.186164801474661 ], [ 399159.918616480135825, 3786698.880976602435112 ], [ 399159.308240081358235, 3786698.270600203424692 ], [ 399159.308240081358235, 3786697.355035605374724 ], [ 399159.003051881969441, 3786697.049847405869514 ], [ 399159.003051881969441, 3786696.439471007324755 ], [ 399158.697863682580646, 3786696.134282807819545 ], [ 399158.697863682580646, 3786695.523906408809125 ], [ 399158.392675483191852, 3786695.218718209769577 ], [ 399158.392675483191852, 3786694.608341810759157 ], [ 399158.087487283803057, 3786694.303153611253947 ], [ 399158.087487283803057, 3786692.47202441515401 ], [ 399164.191251271637157, 3786692.47202441515401 ], [ 399164.191251271637157, 3786692.77721261465922 ], [ 399164.496439471025951, 3786693.082400813698769 ], [ 399164.496439471025951, 3786696.134282807819545 ], [ 399164.801627670414746, 3786696.439471007324755 ], [ 399164.801627670414746, 3786698.270600203424692 ], [ 399164.496439471025951, 3786698.575788402929902 ], [ 399164.496439471025951, 3786699.79654120048508 ], [ 399164.191251271637157, 3786700.10172939999029 ], [ 399161.7497456765268, 3786700.10172939999029 ] ] ] } },
{ "type": "Feature", "properties": { "confidence": 0.77544909715652466, "class": 1 }, "geometry": { "type": "Polygon", "coordinates": [ [ [ 399445.574771108862478, 3787114.242115971632302 ], [ 399445.574771108862478, 3787113.936927772127092 ], [ 399444.964394710084889, 3787113.326551373116672 ], [ 399444.964394710084889, 3787113.021363174077123 ], [ 399445.269582909473684, 3787112.716174974571913 ], [ 399445.269582909473684, 3787111.800610376521945 ], [ 399445.574771108862478, 3787111.495422177016735 ], [ 399445.574771108862478, 3787109.664292980451137 ], [ 399445.879959308251273, 3787109.664292980451137 ], [ 399447.100712105806451, 3787108.443540182895958 ], [ 399447.100712105806451, 3787108.13835198385641 ], [ 399447.405900305195246, 3787108.13835198385641 ], [ 399447.71108850458404, 3787107.8331637843512 ], [ 399447.71108850458404, 3787107.52797558484599 ], [ 399448.016276703972835, 3787107.22278738534078 ], [ 399448.016276703972835, 3787106.917599186301231 ], [ 399450.152594099694397, 3787106.917599186301231 ], [ 399450.457782299083192, 3787107.22278738534078 ], [ 399451.67853509663837, 3787107.22278738534078 ], [ 399451.983723296027165, 3787107.52797558484599 ], [ 399452.594099694804754, 3787107.52797558484599 ], [ 399452.899287894193549, 3787107.8331637843512 ], [ 399454.120040691748727, 3787107.8331637843512 ], [ 399454.425228891137522, 3787108.13835198385641 ], [ 399454.730417090526316, 3787108.13835198385641 ], [ 399454.730417090526316, 3787109.969481179956347 ], [ 399454.425228891137522, 3787110.274669379461557 ], [ 399454.425228891137522, 3787110.579857578966767 ], [ 399454.120040691748727, 3787110.885045778006315 ], [ 399453.814852492359933, 3787110.885045778006315 ], [ 399452.899287894193549, 3787111.800610376521945 ], [ 399452.594099694804754, 3787111.800610376521945 ], [ 399451.983723296027165, 3787112.410986775066704 ], [ 399450.762970498471987, 3787112.410986775066704 ], [ 399450.457782299083192, 3787112.716174974571913 ], [ 399450.152594099694397, 3787112.716174974571913 ], [ 399449.847405900305603, 3787113.021363174077123 ], [ 399449.237029501528013, 3787113.021363174077123 ], [ 399448.931841302139219, 3787113.326551373116672 ], [ 399448.626653102750424, 3787113.326551373116672 ], [ 399448.32146490336163, 3787113.631739572621882 ], [ 399448.016276703972835, 3787113.631739572621882 ], [ 399447.71108850458404, 3787113.936927772127092 ], [ 399447.405900305195246, 3787113.936927772127092 ], [ 399447.100712105806451, 3787114.242115971632302 ], [ 399445.574771108862478, 3787114.242115971632302 ] ] ] } },
{ "type": "Feature", "properties": { "confidence": 0.74150466918945312, "class": 1 }, "geometry": { "type": "Polygon", "coordinates": [ [ [ 399132.756866734474897, 3786816.378433367237449 ], [ 399132.146490335697308, 3786815.76805696869269 ], [ 399132.146490335697308, 3786814.242115971632302 ], [ 399132.451678535086103, 3786813.936927772127092 ], [ 399132.451678535086103, 3786813.021363174077123 ], [ 399133.367243133252487, 3786812.105798575561494 ], [ 399133.367243133252487, 3786811.800610376521945 ], [ 399133.672431332641281, 3786811.800610376521945 ], [ 399133.977619532030076, 3786811.495422177016735 ], [ 399135.503560528974049, 3786811.495422177016735 ], [ 399135.808748728362843, 3786811.800610376521945 ], [ 399136.419125127140433, 3786811.800610376521945 ], [ 399136.419125127140433, 3786812.105798575561494 ], [ 399137.029501525918022, 3786812.716174974571913 ], [ 399137.029501525918022, 3786815.15768056968227 ], [ 399136.724313326529227, 3786815.46286876918748 ], [ 399136.724313326529227, 3786815.76805696869269 ], [ 399136.113936927751638, 3786815.76805696869269 ], [ 399135.808748728362843, 3786816.073245167732239 ], [ 399133.977619532030076, 3786816.073245167732239 ], [ 399133.672431332641281, 3786816.378433367237449 ], [ 399132.756866734474897, 3786816.378433367237449 ] ] ] } },
{ "type": "Feature", "properties": { "confidence": 0.68700593709945679, "class": 1 }, "geometry": { "type": "Polygon", "coordinates": [ [ [ 399220.956256358069368, 3786827.975584944244474 ], [ 399220.651068158680573, 3786827.670396744739264 ], [ 399220.040691759902984, 3786827.670396744739264 ], [ 399219.430315361125395, 3786827.060020345728844 ], [ 399219.1251271617366, 3786827.060020345728844 ], [ 399219.1251271617366, 3786826.754832146689296 ], [ 399218.819938962347806, 3786826.449643947184086 ], [ 399218.819938962347806, 3786822.482197355013341 ], [ 399218.514750762959011, 3786822.177009155508131 ], [ 399218.819938962347806, 3786821.871820956468582 ], [ 399218.819938962347806, 3786821.261444557458162 ], [ 399219.1251271617366, 3786820.956256357952952 ], [ 399219.430315361125395, 3786820.956256357952952 ], [ 399220.040691759902984, 3786820.345879959408194 ], [ 399220.345879959291779, 3786820.345879959408194 ], [ 399221.871820956235752, 3786818.819938962347806 ], [ 399224.923702950123698, 3786818.819938962347806 ], [ 399226.144455747737084, 3786820.040691759902984 ], [ 399226.144455747737084, 3786820.651068158913404 ], [ 399226.449643947125878, 3786820.956256357952952 ], [ 399226.449643947125878, 3786821.566632756963372 ], [ 399226.754832146514673, 3786821.871820956468582 ], [ 399226.754832146514673, 3786823.702950152568519 ], [ 399226.449643947125878, 3786824.008138352073729 ], [ 399226.449643947125878, 3786825.228891149628907 ], [ 399225.839267548348289, 3786825.839267548173666 ], [ 399225.839267548348289, 3786826.144455747678876 ], [ 399224.618514750734903, 3786827.365208545234054 ], [ 399223.702950152568519, 3786827.365208545234054 ], [ 399223.397761953179725, 3786827.670396744739264 ], [ 399222.787385554402135, 3786827.670396744739264 ], [ 399222.482197355013341, 3786827.975584944244474 ], [ 399220.956256358069368, 3786827.975584944244474 ] ] ] } },
{ "type": "Feature", "properties": { "confidence": 0.66119474172592163, "class": 1 }, "geometry": { "type": "Polygon", "coordinates": [ [ [ 399254.526958290953189, 3786817.599186164792627 ], [ 399253.9165818921756, 3786816.988809766247869 ], [ 399253.611393692786805, 3786816.988809766247869 ], [ 399253.306205493398011, 3786816.683621566742659 ], [ 399253.306205493398011, 3786816.378433367237449 ], [ 399253.001017294009216, 3786816.073245167732239 ], [ 399253.001017294009216, 3786815.15768056968227 ], [ 399252.695829094620422, 3786814.85249237017706 ], [ 399252.695829094620422, 3786812.716174974571913 ], [ 399253.001017294009216, 3786812.410986775066704 ], [ 399253.001017294009216, 3786810.274669379461557 ], [ 399253.306205493398011, 3786809.969481179956347 ], [ 399253.306205493398011, 3786809.664292980451137 ], [ 399258.494404883007519, 3786809.664292980451137 ], [ 399258.494404883007519, 3786809.969481179956347 ], [ 399258.799593082396314, 3786810.274669379461557 ], [ 399258.799593082396314, 3786811.800610376521945 ], [ 399259.104781281785108, 3786812.105798575561494 ], [ 399259.104781281785108, 3786812.410986775066704 ], [ 399259.409969481173903, 3786812.716174974571913 ], [ 399259.409969481173903, 3786813.936927772127092 ], [ 399259.715157680562697, 3786814.242115971632302 ], [ 399259.715157680562697, 3786815.15768056968227 ], [ 399259.409969481173903, 3786815.46286876918748 ], [ 399259.409969481173903, 3786815.76805696869269 ], [ 399258.189216683618724, 3786816.988809766247869 ], [ 399258.189216683618724, 3786817.293997965287417 ], [ 399257.88402848422993, 3786817.599186164792627 ], [ 399254.526958290953189, 3786817.599186164792627 ] ] ] } },
{ "type": "Feature", "properties": { "confidence": 0.57974457740783691, "class": 1 }, "geometry": { "type": "Polygon", "coordinates": [ [ [ 399125.127161749755032, 3786874.974567649886012 ], [ 399124.211597151588649, 3786874.059003051836044 ], [ 399124.211597151588649, 3786873.448626653291285 ], [ 399123.906408952199854, 3786873.143438453786075 ], [ 399124.211597151588649, 3786872.838250254280865 ], [ 399124.211597151588649, 3786872.533062054775655 ], [ 399124.821973550366238, 3786871.922685656230897 ], [ 399125.127161749755032, 3786871.922685656230897 ], [ 399125.737538148532622, 3786871.312309257220477 ], [ 399125.737538148532622, 3786871.007121058180928 ], [ 399126.653102746699005, 3786870.091556459665298 ], [ 399126.653102746699005, 3786869.48118006112054 ], [ 399127.263479145476595, 3786868.87080366211012 ], [ 399127.568667344865389, 3786868.87080366211012 ], [ 399127.873855544254184, 3786868.565615463070571 ], [ 399128.179043743642978, 3786868.565615463070571 ], [ 399128.484231943031773, 3786868.260427263565361 ], [ 399128.789420142420568, 3786868.260427263565361 ], [ 399129.094608341809362, 3786867.955239064060152 ], [ 399129.399796541198157, 3786867.955239064060152 ], [ 399129.704984740586951, 3786867.650050864554942 ], [ 399130.010172939975746, 3786867.650050864554942 ], [ 399130.620549338753335, 3786867.039674466010183 ], [ 399130.620549338753335, 3786866.429298066999763 ], [ 399130.92573753814213, 3786866.124109867960215 ], [ 399130.92573753814213, 3786865.818921668455005 ], [ 399131.230925737530924, 3786865.818921668455005 ], [ 399131.536113936919719, 3786865.513733468949795 ], [ 399133.672431332641281, 3786865.513733468949795 ], [ 399133.977619532030076, 3786865.818921668455005 ], [ 399134.28280773141887, 3786865.818921668455005 ], [ 399134.28280773141887, 3786866.124109867960215 ], [ 399134.587995930807665, 3786866.429298066999763 ], [ 399134.587995930807665, 3786868.565615463070571 ], [ 399134.28280773141887, 3786868.87080366211012 ], [ 399134.28280773141887, 3786870.396744659170508 ], [ 399133.977619532030076, 3786870.701932858675718 ], [ 399133.977619532030076, 3786871.617497456725687 ], [ 399133.672431332641281, 3786871.922685656230897 ], [ 399133.672431332641281, 3786872.227873855736107 ], [ 399131.841302136308514, 3786874.059003051836044 ], [ 399131.536113936919719, 3786874.059003051836044 ], [ 399131.230925737530924, 3786874.364191251341254 ], [ 399127.568667344865389, 3786874.364191251341254 ], [ 399127.263479145476595, 3786874.669379450846463 ], [ 399126.653102746699005, 3786874.669379450846463 ], [ 399126.347914547310211, 3786874.974567649886012 ], [ 399125.127161749755032, 3786874.974567649886012 ] ] ] } },
{ "type": "Feature", "properties": { "confidence": 0.57720053195953369, "class": 1 }, "geometry": { "type": "Polygon", "coordinates": [ [ [ 399478.535096642910503, 3786812.105798575561494 ], [ 399478.229908443521708, 3786811.800610376521945 ], [ 399478.229908443521708, 3786809.664292980451137 ], [ 399483.11291963380063, 3786809.664292980451137 ], [ 399483.11291963380063, 3786810.579857578966767 ], [ 399482.807731434411835, 3786810.885045778006315 ], [ 399482.807731434411835, 3786811.800610376521945 ], [ 399482.50254323502304, 3786811.800610376521945 ], [ 399482.197355035634246, 3786812.105798575561494 ], [ 399478.535096642910503, 3786812.105798575561494 ] ] ] } },
{ "type": "Feature", "properties": { "confidence": 0.54861414432525635, "class": 1 }, "geometry": { "type": "Polygon", "coordinates": [ [ [ 399387.589013224816881, 3787073.957273652311414 ], [ 399387.283825025428087, 3787073.652085452806205 ], [ 399386.673448626650497, 3787073.652085452806205 ], [ 399386.368260427261703, 3787073.346897253300995 ], [ 399386.368260427261703, 3787068.463886063080281 ], [ 399387.894201424205676, 3787066.937945066019893 ], [ 399390.335707019316033, 3787066.937945066019893 ], [ 399390.335707019316033, 3787073.957273652311414 ], [ 399387.589013224816881, 3787073.957273652311414 ] ] ] } },
{ "type": "Feature", "properties": { "confidence": 0.53109997510910034, "class": 1 }, "geometry": { "type": "Polygon", "coordinates": [ [ [ 399170.905391658190638, 3786696.134282807819545 ], [ 399170.600203458801843, 3786695.829094608314335 ], [ 399169.684638860635459, 3786695.829094608314335 ], [ 399169.07426246185787, 3786695.218718209769577 ], [ 399168.769074262469076, 3786695.218718209769577 ], [ 399168.158697863691486, 3786694.608341810759157 ], [ 399168.158697863691486, 3786693.082400813698769 ], [ 399167.853509664302692, 3786692.77721261465922 ], [ 399167.853509664302692, 3786692.47202441515401 ], [ 399172.736520854523405, 3786692.47202441515401 ], [ 399172.736520854523405, 3786693.997965412214398 ], [ 399172.431332655134611, 3786694.303153611253947 ], [ 399172.431332655134611, 3786695.218718209769577 ], [ 399172.126144455745816, 3786695.523906408809125 ], [ 399172.126144455745816, 3786695.829094608314335 ], [ 399171.210579857579432, 3786695.829094608314335 ], [ 399170.905391658190638, 3786696.134282807819545 ] ] ] } },
{ "type": "Feature", "properties": { "confidence": 0.52905631065368652, "class": 1 }, "geometry": { "type": "Polygon", "coordinates": [ [ [ 399018.311291963385884, 3786926.856561546213925 ], [ 399018.006103763997089, 3786926.551373346708715 ], [ 399017.3957273652195, 3786926.551373346708715 ], [ 399017.3957273652195, 3786925.330620549153537 ], [ 399017.090539165830705, 3786925.025432350113988 ], [ 399017.090539165830705, 3786922.278738555498421 ], [ 399017.3957273652195, 3786921.973550355993211 ], [ 399017.3957273652195, 3786921.668362156488001 ], [ 399017.700915564608295, 3786921.363173957448453 ], [ 399018.006103763997089, 3786921.363173957448453 ], [ 399018.311291963385884, 3786921.057985757943243 ], [ 399018.311291963385884, 3786920.142421159893274 ], [ 399018.616480162774678, 3786920.142421159893274 ], [ 399018.921668362163473, 3786919.837232960388064 ], [ 399018.921668362163473, 3786919.532044760882854 ], [ 399019.532044760941062, 3786919.532044760882854 ], [ 399019.837232960329857, 3786919.226856561377645 ], [ 399022.583926754829008, 3786919.226856561377645 ], [ 399022.583926754829008, 3786919.837232960388064 ], [ 399022.889114954217803, 3786920.142421159893274 ], [ 399022.889114954217803, 3786921.668362156488001 ], [ 399023.499491352995392, 3786922.278738555498421 ], [ 399023.499491352995392, 3786923.4994913530536 ], [ 399023.804679552384187, 3786923.80467955255881 ], [ 399023.804679552384187, 3786925.635808748658746 ], [ 399023.194303153606597, 3786925.635808748658746 ], [ 399022.583926754829008, 3786926.246185147669166 ], [ 399021.973550356051419, 3786926.246185147669166 ], [ 399021.668362156662624, 3786926.551373346708715 ], [ 399021.057985757885035, 3786926.551373346708715 ], [ 399020.752797558496241, 3786926.856561546213925 ], [ 399018.311291963385884, 3786926.856561546213925 ] ] ] } },
{ "type": "Feature", "properties": { "confidence": 0.51816302537918091, "class": 1 }, "geometry": { "type": "Polygon", "coordinates": [ [ [ 399477.924720244132914, 3786803.865717192180455 ], [ 399476.703967446577735, 3786802.644964394625276 ], [ 399476.703967446577735, 3786802.339776195120066 ], [ 399476.398779247188941, 3786802.034587996080518 ], [ 399476.398779247188941, 3786801.424211597070098 ], [ 399476.093591047800146, 3786801.119023397564888 ], [ 399476.093591047800146, 3786800.813835198525339 ], [ 399476.398779247188941, 3786800.508646999020129 ], [ 399476.398779247188941, 3786799.287894201464951 ], [ 399476.703967446577735, 3786798.982706001959741 ], [ 399476.703967446577735, 3786798.677517802454531 ], [ 399477.00915564596653, 3786798.372329603414983 ], [ 399477.00915564596653, 3786798.067141403909773 ], [ 399477.619532044744119, 3786797.456765004899353 ], [ 399477.619532044744119, 3786797.151576805859804 ], [ 399479.145473041688092, 3786795.625635808799416 ], [ 399480.671414038632065, 3786795.625635808799416 ], [ 399481.281790437409654, 3786796.236012207344174 ], [ 399481.586978636798449, 3786796.236012207344174 ], [ 399481.586978636798449, 3786796.846388606354594 ], [ 399481.892166836187243, 3786797.151576805859804 ], [ 399481.892166836187243, 3786799.593082400970161 ], [ 399481.586978636798449, 3786799.89827060000971 ], [ 399481.586978636798449, 3786800.508646999020129 ], [ 399481.281790437409654, 3786800.813835198525339 ], [ 399481.281790437409654, 3786801.424211597070098 ], [ 399480.97660223802086, 3786801.729399796575308 ], [ 399480.97660223802086, 3786802.034587996080518 ], [ 399480.061037639854476, 3786802.950152594130486 ], [ 399479.450661241076887, 3786802.950152594130486 ], [ 399479.145473041688092, 3786803.255340793635696 ], [ 399478.840284842299297, 3786803.255340793635696 ], [ 399478.535096642910503, 3786803.560528992675245 ], [ 399478.229908443521708, 3786803.560528992675245 ], [ 399477.924720244132914, 3786803.865717192180455 ] ] ] } },
{ "type": "Feature", "properties": { "confidence": 0.50450795888900757, "class": 1 }, "geometry": { "type": "Polygon", "coordinates": [ [ [ 399133.367243133252487, 3787045.87995930807665 ], [ 399133.062054933863692, 3787045.574771109037101 ], [ 399132.756866734474897, 3787045.574771109037101 ], [ 399132.451678535086103, 3787045.269582909531891 ], [ 399132.146490335697308, 3787045.269582909531891 ], [ 399132.146490335697308, 3787044.964394710026681 ], [ 399131.536113936919719, 3787044.354018311481923 ], [ 399131.536113936919719, 3787044.048830111976713 ], [ 399138.2502543234732, 3787044.048830111976713 ], [ 399138.2502543234732, 3787044.964394710026681 ], [ 399137.639877924695611, 3787045.574771109037101 ], [ 399137.029501525918022, 3787045.574771109037101 ], [ 399136.724313326529227, 3787045.87995930807665 ], [ 399133.367243133252487, 3787045.87995930807665 ] ] ] } },
{ "type": "Feature", "properties": { "confidence": 0.46973389387130737, "class": 1 }, "geometry": { "type": "Polygon", "coordinates": [ [ [ 399148.32146490336163, 3786719.938962359912694 ], [ 399148.016276703972835, 3786719.633774160873145 ], [ 399146.795523906417657, 3786719.633774160873145 ], [ 399146.490335707028862, 3786719.328585961367935 ], [ 399145.879959308251273, 3786719.328585961367935 ], [ 399145.574771108862478, 3786719.023397761862725 ], [ 399145.574771108862478, 3786718.107833163812757 ], [ 399145.269582909473684, 3786717.802644964307547 ], [ 399145.269582909473684, 3786717.497456764802337 ], [ 399144.964394710084889, 3786717.192268565762788 ], [ 399144.964394710084889, 3786715.97151576820761 ], [ 399144.659206510696094, 3786715.6663275687024 ], [ 399144.659206510696094, 3786714.445574771147221 ], [ 399144.3540183113073, 3786714.140386571642011 ], [ 399144.3540183113073, 3786713.530010173097253 ], [ 399144.048830111918505, 3786713.224821973592043 ], [ 399144.048830111918505, 3786712.614445574581623 ], [ 399143.743641912529711, 3786712.309257375542074 ], [ 399143.743641912529711, 3786711.393692777026445 ], [ 399143.438453713140916, 3786711.088504577986896 ], [ 399143.438453713140916, 3786710.172939979471266 ], [ 399143.743641912529711, 3786709.867751780431718 ], [ 399143.743641912529711, 3786708.952187181916088 ], [ 399144.048830111918505, 3786708.646998982876539 ], [ 399144.048830111918505, 3786708.036622583866119 ], [ 399144.659206510696094, 3786707.426246185321361 ], [ 399144.964394710084889, 3786707.426246185321361 ], [ 399145.574771108862478, 3786706.815869786310941 ], [ 399145.879959308251273, 3786706.815869786310941 ], [ 399146.185147507640067, 3786706.510681586805731 ], [ 399146.795523906417657, 3786706.510681586805731 ], [ 399147.100712105806451, 3786706.205493387766182 ], [ 399147.71108850458404, 3786706.205493387766182 ], [ 399148.32146490336163, 3786706.815869786310941 ], [ 399148.32146490336163, 3786708.646998982876539 ], [ 399148.626653102750424, 3786708.952187181916088 ], [ 399150.457782299083192, 3786708.952187181916088 ], [ 399150.152594099694397, 3786709.257375381421298 ], [ 399150.152594099694397, 3786709.867751780431718 ], [ 399150.457782299083192, 3786710.172939979471266 ], [ 399150.152594099694397, 3786710.478128178976476 ], [ 399150.152594099694397, 3786711.393692777026445 ], [ 399149.847405900305603, 3786711.698880976531655 ], [ 399149.847405900305603, 3786712.614445574581623 ], [ 399149.542217700916808, 3786712.919633774086833 ], [ 399149.542217700916808, 3786714.750762970652431 ], [ 399149.237029501528013, 3786715.05595116969198 ], [ 399149.237029501528013, 3786719.328585961367935 ], [ 399148.626653102750424, 3786719.938962359912694 ], [ 399148.32146490336163, 3786719.938962359912694 ] ] ] } },
{ "type": "Feature", "properties": { "confidence": 0.45792686939239502, "class": 1 }, "geometry": { "type": "Polygon", "coordinates": [ [ [ 399369.582909460819792, 3786816.378433367237449 ], [ 399369.277721261430997, 3786816.073245167732239 ], [ 399368.667344862653408, 3786816.073245167732239 ], [ 399368.362156663264614, 3786815.76805696869269 ], [ 399368.056968463875819, 3786815.76805696869269 ], [ 399367.751780264487024, 3786815.46286876918748 ], [ 399367.751780264487024, 3786815.15768056968227 ], [ 399367.44659206509823, 3786814.85249237017706 ], [ 399367.141403865709435, 3786814.85249237017706 ], [ 399366.225839267543051, 3786813.936927772127092 ], [ 399366.225839267543051, 3786813.021363174077123 ], [ 399365.920651068154257, 3786812.716174974571913 ], [ 399365.920651068154257, 3786812.410986775066704 ], [ 399365.615462868765462, 3786812.105798575561494 ], [ 399365.615462868765462, 3786810.274669379461557 ], [ 399373.550356052874122, 3786810.274669379461557 ], [ 399373.855544252262916, 3786810.579857578966767 ], [ 399373.550356052874122, 3786810.885045778006315 ], [ 399373.550356052874122, 3786811.190233977511525 ], [ 399373.245167853485327, 3786811.495422177016735 ], [ 399373.245167853485327, 3786811.800610376521945 ], [ 399372.939979654096533, 3786812.105798575561494 ], [ 399372.939979654096533, 3786812.716174974571913 ], [ 399372.329603255318943, 3786813.326551373116672 ], [ 399372.024415055930149, 3786813.326551373116672 ], [ 399371.719226856541354, 3786813.631739572621882 ], [ 399371.719226856541354, 3786813.936927772127092 ], [ 399371.41403865715256, 3786814.242115971632302 ], [ 399371.41403865715256, 3786815.46286876918748 ], [ 399370.498474058986176, 3786816.378433367237449 ], [ 399369.582909460819792, 3786816.378433367237449 ] ] ] } },
{ "type": "Feature", "properties": { "confidence": 0.41968423128128052, "class": 1 }, "geometry": { "type": "Polygon", "coordinates": [ [ [ 399110.478128179034684, 3786653.407934893388301 ], [ 399110.172939979645889, 3786653.102746693883091 ], [ 399108.952187182090711, 3786653.102746693883091 ], [ 399108.646998982701916, 3786652.797558494377881 ], [ 399106.205493387591559, 3786652.797558494377881 ], [ 399104.069175991869997, 3786650.661241098772734 ], [ 399103.458799593092408, 3786650.661241098772734 ], [ 399103.458799593092408, 3786650.356052899267524 ], [ 399103.153611393703613, 3786650.050864699762315 ], [ 399103.458799593092408, 3786649.745676500722766 ], [ 399103.458799593092408, 3786649.440488301217556 ], [ 399103.763987792481203, 3786649.135300101712346 ], [ 399104.069175991869997, 3786649.135300101712346 ], [ 399104.374364191258792, 3786648.830111902207136 ], [ 399104.679552390647586, 3786648.830111902207136 ], [ 399104.984740590036381, 3786648.524923703167588 ], [ 399105.900305188202765, 3786648.524923703167588 ], [ 399106.205493387591559, 3786648.219735503662378 ], [ 399106.815869786369149, 3786648.219735503662378 ], [ 399107.121057985757943, 3786647.914547304157168 ], [ 399111.393692777201068, 3786647.914547304157168 ], [ 399111.698880976589862, 3786648.219735503662378 ], [ 399112.004069175978657, 3786648.219735503662378 ], [ 399112.309257375367451, 3786648.524923703167588 ], [ 399112.614445574756246, 3786648.524923703167588 ], [ 399113.224821973533835, 3786649.135300101712346 ], [ 399113.835198372311424, 3786649.135300101712346 ], [ 399113.835198372311424, 3786649.440488301217556 ], [ 399114.140386571700219, 3786649.745676500722766 ], [ 399114.140386571700219, 3786650.661241098772734 ], [ 399113.835198372311424, 3786650.966429298277944 ], [ 399113.835198372311424, 3786651.271617497317493 ], [ 399113.224821973533835, 3786651.881993896327913 ], [ 399112.919633774145041, 3786651.881993896327913 ], [ 399112.614445574756246, 3786652.187182095833123 ], [ 399112.614445574756246, 3786652.492370294872671 ], [ 399112.309257375367451, 3786652.797558494377881 ], [ 399112.004069175978657, 3786652.797558494377881 ], [ 399111.698880976589862, 3786653.102746693883091 ], [ 399111.088504577812273, 3786653.102746693883091 ], [ 399110.783316378423478, 3786653.407934893388301 ], [ 399110.478128179034684, 3786653.407934893388301 ] ] ] } },
{ "type": "Feature", "properties": { "confidence": 0.4107879102230072, "class": 1 }, "geometry": { "type": "Polygon", "coordinates": [ [ [ 399495.015259409963619, 3786676.907426245976239 ], [ 399493.794506612408441, 3786675.686673448421061 ], [ 399493.794506612408441, 3786674.465920650865883 ], [ 399493.489318413019646, 3786674.160732451826334 ], [ 399493.489318413019646, 3786672.634791454765946 ], [ 399493.184130213630851, 3786672.329603255260736 ], [ 399493.184130213630851, 3786671.414038657210767 ], [ 399492.878942014242057, 3786671.108850457705557 ], [ 399492.878942014242057, 3786670.193285859655589 ], [ 399493.184130213630851, 3786669.888097660150379 ], [ 399493.184130213630851, 3786669.582909460645169 ], [ 399493.489318413019646, 3786669.582909460645169 ], [ 399493.794506612408441, 3786669.27772126160562 ], [ 399494.099694811797235, 3786669.27772126160562 ], [ 399494.40488301118603, 3786668.97253306210041 ], [ 399494.710071210574824, 3786668.97253306210041 ], [ 399495.015259409963619, 3786668.667344862595201 ], [ 399498.067141403851565, 3786668.667344862595201 ], [ 399498.37232960324036, 3786668.97253306210041 ], [ 399498.677517802629154, 3786668.97253306210041 ], [ 399499.287894201406743, 3786669.582909460645169 ], [ 399499.593082400795538, 3786669.582909460645169 ], [ 399499.898270600184333, 3786669.888097660150379 ], [ 399500.203458799573127, 3786669.888097660150379 ], [ 399500.508646998961922, 3786670.193285859655589 ], [ 399500.813835198350716, 3786670.193285859655589 ], [ 399500.813835198350716, 3786670.498474059160799 ], [ 399501.119023397739511, 3786670.803662258200347 ], [ 399501.424211597128306, 3786670.803662258200347 ], [ 399501.424211597128306, 3786671.108850457705557 ], [ 399501.7293997965171, 3786671.414038657210767 ], [ 399501.7293997965171, 3786671.719226856715977 ], [ 399502.034587995905895, 3786672.024415055755526 ], [ 399502.034587995905895, 3786674.771108850371093 ], [ 399501.7293997965171, 3786675.076297049876302 ], [ 399501.7293997965171, 3786675.686673448421061 ], [ 399501.424211597128306, 3786675.991861647926271 ], [ 399500.813835198350716, 3786675.991861647926271 ], [ 399500.508646998961922, 3786676.297049847431481 ], [ 399500.203458799573127, 3786676.297049847431481 ], [ 399499.898270600184333, 3786676.602238046936691 ], [ 399499.287894201406743, 3786676.602238046936691 ], [ 399498.982706002017949, 3786676.907426245976239 ], [ 399495.015259409963619, 3786676.907426245976239 ] ] ] } },
{ "type": "Feature", "properties": { "confidence": 0.40777286887168884, "class": 1 }, "geometry": { "type": "Polygon", "coordinates": [ [ [ 399411.088504577812273, 3786876.5005086469464 ], [ 399410.783316378423478, 3786876.19532044744119 ], [ 399410.478128179034684, 3786876.19532044744119 ], [ 399410.172939979645889, 3786875.890132248401642 ], [ 399409.867751780257095, 3786875.890132248401642 ], [ 399408.952187182090711, 3786874.974567649886012 ], [ 399408.646998982701916, 3786874.974567649886012 ], [ 399408.341810783313122, 3786874.669379450846463 ], [ 399408.036622583924327, 3786874.669379450846463 ], [ 399408.036622583924327, 3786874.364191251341254 ], [ 399406.815869786369149, 3786873.143438453786075 ], [ 399406.815869786369149, 3786872.838250254280865 ], [ 399406.510681586980354, 3786872.533062054775655 ], [ 399406.510681586980354, 3786871.922685656230897 ], [ 399406.205493387591559, 3786871.617497456725687 ], [ 399406.205493387591559, 3786871.007121058180928 ], [ 399405.900305188202765, 3786870.701932858675718 ], [ 399405.900305188202765, 3786868.87080366211012 ], [ 399406.205493387591559, 3786868.565615463070571 ], [ 399406.510681586980354, 3786868.565615463070571 ], [ 399406.815869786369149, 3786868.260427263565361 ], [ 399408.341810783313122, 3786868.260427263565361 ], [ 399408.646998982701916, 3786868.565615463070571 ], [ 399408.952187182090711, 3786868.565615463070571 ], [ 399408.952187182090711, 3786868.87080366211012 ], [ 399409.257375381479505, 3786869.17599186161533 ], [ 399409.257375381479505, 3786869.48118006112054 ], [ 399409.5625635808683, 3786869.78636826062575 ], [ 399409.867751780257095, 3786869.78636826062575 ], [ 399410.783316378423478, 3786870.701932858675718 ], [ 399411.088504577812273, 3786870.701932858675718 ], [ 399411.393692777201068, 3786871.007121058180928 ], [ 399411.698880976589862, 3786871.007121058180928 ], [ 399412.919633774145041, 3786872.227873855736107 ], [ 399412.919633774145041, 3786872.533062054775655 ], [ 399413.224821973533835, 3786872.838250254280865 ], [ 399413.224821973533835, 3786873.448626653291285 ], [ 399413.53001017292263, 3786873.753814852330834 ], [ 399413.53001017292263, 3786875.279755849391222 ], [ 399412.919633774145041, 3786875.890132248401642 ], [ 399412.919633774145041, 3786876.19532044744119 ], [ 399412.614445574756246, 3786876.5005086469464 ], [ 399411.088504577812273, 3786876.5005086469464 ] ] ] } },
{ "type": "Feature", "properties": { "confidence": 0.40771716833114624, "class": 1 }, "geometry": { "type": "Polygon", "coordinates": [ [ [ 399274.059003051894251, 3786696.744659206364304 ], [ 399273.753814852505457, 3786696.439471007324755 ], [ 399273.143438453727867, 3786696.439471007324755 ], [ 399273.143438453727867, 3786696.134282807819545 ], [ 399272.838250254339073, 3786695.829094608314335 ], [ 399272.838250254339073, 3786693.082400813698769 ], [ 399273.143438453727867, 3786692.77721261465922 ], [ 399273.143438453727867, 3786692.47202441515401 ], [ 399274.66937945067184, 3786690.946083418093622 ], [ 399274.66937945067184, 3786690.640895218588412 ], [ 399275.890132248227019, 3786689.420142421033233 ], [ 399277.416073245170992, 3786689.420142421033233 ], [ 399277.721261444559786, 3786689.725330620538443 ], [ 399277.721261444559786, 3786691.86164801614359 ], [ 399277.416073245170992, 3786692.1668362156488 ], [ 399277.416073245170992, 3786692.77721261465922 ], [ 399277.110885045782197, 3786693.082400813698769 ], [ 399277.110885045782197, 3786693.387589013203979 ], [ 399276.805696846393403, 3786693.692777212709188 ], [ 399276.805696846393403, 3786693.997965412214398 ], [ 399276.500508647004608, 3786694.303153611253947 ], [ 399276.500508647004608, 3786695.218718209769577 ], [ 399276.195320447615813, 3786695.523906408809125 ], [ 399276.195320447615813, 3786696.134282807819545 ], [ 399275.890132248227019, 3786696.134282807819545 ], [ 399275.584944048838224, 3786696.439471007324755 ], [ 399274.66937945067184, 3786696.439471007324755 ], [ 399274.364191251283046, 3786696.744659206364304 ], [ 399274.059003051894251, 3786696.744659206364304 ] ] ] } },
{ "type": "Feature", "properties": { "confidence": 0.37425994873046875, "class": 1 }, "geometry": { "type": "Polygon", "coordinates": [ [ [ 399125.737538148532622, 3786813.021363174077123 ], [ 399125.432349949143827, 3786812.716174974571913 ], [ 399125.127161749755032, 3786812.716174974571913 ], [ 399124.516785350977443, 3786812.105798575561494 ], [ 399124.211597151588649, 3786812.105798575561494 ], [ 399124.211597151588649, 3786811.800610376521945 ], [ 399123.906408952199854, 3786811.495422177016735 ], [ 399123.906408952199854, 3786809.664292980451137 ], [ 399128.789420142420568, 3786809.664292980451137 ], [ 399128.789420142420568, 3786809.969481179956347 ], [ 399128.484231943031773, 3786810.274669379461557 ], [ 399128.484231943031773, 3786811.495422177016735 ], [ 399127.263479145476595, 3786812.716174974571913 ], [ 399126.347914547310211, 3786812.716174974571913 ], [ 399126.042726347921416, 3786813.021363174077123 ], [ 399125.737538148532622, 3786813.021363174077123 ] ] ] } },
{ "type": "Feature", "properties": { "confidence": 0.36981064081192017, "class": 1 }, "geometry": { "type": "Polygon", "coordinates": [ [ [ 399081.790437436429784, 3786824.008138352073729 ], [ 399081.485249237040989, 3786823.702950152568519 ], [ 399081.180061037652194, 3786823.702950152568519 ], [ 399080.8748728382634, 3786823.397761953063309 ], [ 399080.569684638874605, 3786823.397761953063309 ], [ 399080.264496439485811, 3786823.092573754023761 ], [ 399079.959308240097016, 3786823.092573754023761 ], [ 399079.654120040708221, 3786822.787385554518551 ], [ 399079.348931841319427, 3786822.787385554518551 ], [ 399079.043743641930632, 3786822.482197355013341 ], [ 399078.433367243153043, 3786822.482197355013341 ], [ 399077.822990844375454, 3786821.871820956468582 ], [ 399077.212614445597865, 3786821.871820956468582 ], [ 399077.212614445597865, 3786821.566632756963372 ], [ 399076.90742624620907, 3786821.261444557458162 ], [ 399076.602238046820275, 3786821.261444557458162 ], [ 399076.602238046820275, 3786819.735503560397774 ], [ 399076.297049847431481, 3786819.430315361358225 ], [ 399075.991861648042686, 3786819.430315361358225 ], [ 399075.991861648042686, 3786818.819938962347806 ], [ 399076.297049847431481, 3786818.514750762842596 ], [ 399076.297049847431481, 3786818.209562563803047 ], [ 399076.90742624620907, 3786817.599186164792627 ], [ 399077.212614445597865, 3786817.599186164792627 ], [ 399077.517802644986659, 3786817.293997965287417 ], [ 399077.822990844375454, 3786817.293997965287417 ], [ 399078.128179043764248, 3786816.988809766247869 ], [ 399081.790437436429784, 3786816.988809766247869 ], [ 399082.400813835207373, 3786817.599186164792627 ], [ 399082.706002034596168, 3786817.599186164792627 ], [ 399082.706002034596168, 3786818.514750762842596 ], [ 399083.011190233984962, 3786818.819938962347806 ], [ 399083.011190233984962, 3786819.735503560397774 ], [ 399083.316378433373757, 3786820.040691759902984 ], [ 399083.316378433373757, 3786820.651068158913404 ], [ 399083.621566632762551, 3786820.956256357952952 ], [ 399083.621566632762551, 3786823.397761953063309 ], [ 399083.316378433373757, 3786823.702950152568519 ], [ 399082.706002034596168, 3786823.702950152568519 ], [ 399082.400813835207373, 3786824.008138352073729 ], [ 399081.790437436429784, 3786824.008138352073729 ] ] ] } },
{ "type": "Feature", "properties": { "confidence": 0.34701740741729736, "class": 1 }, "geometry": { "type": "Polygon", "coordinates": [ [ [ 399218.209562563570216, 3786790.437436419073492 ], [ 399217.904374364181422, 3786790.132248219568282 ], [ 399217.293997965403832, 3786790.132248219568282 ], [ 399217.293997965403832, 3786786.469989826902747 ], [ 399217.599186164792627, 3786786.164801627863199 ], [ 399217.599186164792627, 3786785.554425228852779 ], [ 399217.904374364181422, 3786785.249237029347569 ], [ 399218.209562563570216, 3786785.249237029347569 ], [ 399218.514750762959011, 3786784.94404883030802 ], [ 399221.871820956235752, 3786784.94404883030802 ], [ 399222.482197355013341, 3786784.3336724312976 ], [ 399223.09257375379093, 3786784.3336724312976 ], [ 399223.702950152568519, 3786783.723296032752842 ], [ 399225.2288911495707, 3786783.723296032752842 ], [ 399225.2288911495707, 3786784.3336724312976 ], [ 399224.923702950123698, 3786784.63886063080281 ], [ 399224.923702950123698, 3786785.249237029347569 ], [ 399224.313326551346108, 3786785.859613428357989 ], [ 399224.313326551346108, 3786786.164801627863199 ], [ 399224.008138351957314, 3786786.164801627863199 ], [ 399223.702950152568519, 3786786.469989826902747 ], [ 399223.702950152568519, 3786786.775178026407957 ], [ 399222.177009155624546, 3786788.301119023468345 ], [ 399221.871820956235752, 3786788.301119023468345 ], [ 399220.345879959291779, 3786789.827060020528734 ], [ 399219.735503560514189, 3786789.827060020528734 ], [ 399219.430315361125395, 3786790.132248219568282 ], [ 399219.1251271617366, 3786790.132248219568282 ], [ 399218.819938962347806, 3786790.437436419073492 ], [ 399218.209562563570216, 3786790.437436419073492 ] ] ] } },
{ "type": "Feature", "properties": { "confidence": 0.3091677725315094, "class": 1 }, "geometry": { "type": "Polygon", "coordinates": [ [ [ 399256.358087487285957, 3786726.347914547193795 ], [ 399255.747711088508368, 3786725.737538148649037 ], [ 399255.442522889119573, 3786725.737538148649037 ], [ 399255.442522889119573, 3786725.432349949143827 ], [ 399255.137334689730778, 3786725.127161749638617 ], [ 399255.137334689730778, 3786724.821973550133407 ], [ 399254.832146490341984, 3786724.516785351093858 ], [ 399254.832146490341984, 3786722.99084435403347 ], [ 399254.526958290953189, 3786722.68565615452826 ], [ 399254.526958290953189, 3786721.159715157467872 ], [ 399254.832146490341984, 3786720.854526958428323 ], [ 399254.832146490341984, 3786720.549338758923113 ], [ 399255.137334689730778, 3786720.244150559417903 ], [ 399255.442522889119573, 3786720.244150559417903 ], [ 399256.052899287897162, 3786719.633774160873145 ], [ 399256.052899287897162, 3786718.413021363317966 ], [ 399256.358087487285957, 3786718.413021363317966 ], [ 399256.663275686674751, 3786718.107833163812757 ], [ 399256.968463886063546, 3786718.107833163812757 ], [ 399257.273652085452341, 3786717.802644964307547 ], [ 399258.494404883007519, 3786717.802644964307547 ], [ 399258.799593082396314, 3786718.107833163812757 ], [ 399259.104781281785108, 3786718.107833163812757 ], [ 399260.630722278729081, 3786719.633774160873145 ], [ 399260.935910478117876, 3786719.633774160873145 ], [ 399261.24109867750667, 3786719.938962359912694 ], [ 399261.546286876895465, 3786719.938962359912694 ], [ 399261.85147507628426, 3786720.244150559417903 ], [ 399262.461851475061849, 3786720.244150559417903 ], [ 399263.072227873839438, 3786720.854526958428323 ], [ 399263.072227873839438, 3786721.464903356973082 ], [ 399262.767039674450643, 3786721.770091556478292 ], [ 399262.767039674450643, 3786722.68565615452826 ], [ 399262.461851475061849, 3786722.99084435403347 ], [ 399262.461851475061849, 3786723.29603255353868 ], [ 399261.85147507628426, 3786723.906408952083439 ], [ 399261.546286876895465, 3786723.906408952083439 ], [ 399260.325534079340287, 3786725.127161749638617 ], [ 399260.020345879951492, 3786725.127161749638617 ], [ 399258.799593082396314, 3786726.347914547193795 ], [ 399256.358087487285957, 3786726.347914547193795 ] ] ] } },
{ "type": "Feature", "properties": { "confidence": 0.29566439986228943, "class": 1 }, "geometry": { "type": "Polygon", "coordinates": [ [ [ 399162.360122075304389, 3786668.667344862595201 ], [ 399162.054933875915594, 3786668.362156663089991 ], [ 399161.444557477138005, 3786668.362156663089991 ], [ 399161.139369277749211, 3786668.056968464050442 ], [ 399160.834181078360416, 3786668.056968464050442 ], [ 399160.223804679524619, 3786667.446592065040022 ], [ 399160.223804679524619, 3786667.141403865534812 ], [ 399159.61342828074703, 3786666.531027466990054 ], [ 399159.61342828074703, 3786665.310274669434875 ], [ 399159.308240081358235, 3786665.005086469929665 ], [ 399159.308240081358235, 3786663.479145472869277 ], [ 399159.61342828074703, 3786663.173957273829728 ], [ 399163.275686673470773, 3786663.173957273829728 ], [ 399163.580874872859567, 3786663.479145472869277 ], [ 399163.580874872859567, 3786663.784333672374487 ], [ 399164.496439471025951, 3786664.699898270424455 ], [ 399164.496439471025951, 3786665.920651067979634 ], [ 399164.801627670414746, 3786666.225839267484844 ], [ 399164.801627670414746, 3786666.836215666495264 ], [ 399164.496439471025951, 3786667.141403865534812 ], [ 399164.496439471025951, 3786667.751780264545232 ], [ 399163.886063072248362, 3786668.362156663089991 ], [ 399163.580874872859567, 3786668.362156663089991 ], [ 399163.275686673470773, 3786668.667344862595201 ], [ 399162.360122075304389, 3786668.667344862595201 ] ] ] } },
{ "type": "Feature", "properties": { "confidence": 0.28912949562072754, "class": 1 }, "geometry": { "type": "Polygon", "coordinates": [ [ [ 399273.753814852505457, 3786696.134282807819545 ], [ 399273.448626653116662, 3786695.829094608314335 ], [ 399273.448626653116662, 3786695.523906408809125 ], [ 399273.143438453727867, 3786695.218718209769577 ], [ 399273.143438453727867, 3786694.913530010264367 ], [ 399272.838250254339073, 3786694.608341810759157 ], [ 399272.838250254339073, 3786694.303153611253947 ], [ 399272.533062054950278, 3786693.997965412214398 ], [ 399272.533062054950278, 3786693.082400813698769 ], [ 399272.227873855561484, 3786692.77721261465922 ], [ 399272.227873855561484, 3786692.47202441515401 ], [ 399278.026449643948581, 3786692.47202441515401 ], [ 399278.026449643948581, 3786693.387589013203979 ], [ 399277.721261444559786, 3786693.692777212709188 ], [ 399277.721261444559786, 3786693.997965412214398 ], [ 399276.500508647004608, 3786695.218718209769577 ], [ 399276.500508647004608, 3786695.523906408809125 ], [ 399276.195320447615813, 3786695.829094608314335 ], [ 399276.195320447615813, 3786696.134282807819545 ], [ 399273.753814852505457, 3786696.134282807819545 ] ] ] } },
{ "type": "Feature", "properties": { "confidence": 0.27571412920951843, "class": 1 }, "geometry": { "type": "Polygon", "coordinates": [ [ [ 399211.80061037640553, 3786697.355035605374724 ], [ 399211.495422177016735, 3786697.049847405869514 ], [ 399210.579857578850351, 3786697.049847405869514 ], [ 399209.969481180072762, 3786696.439471007324755 ], [ 399209.969481180072762, 3786694.913530010264367 ], [ 399209.664292980683967, 3786694.608341810759157 ], [ 399209.664292980683967, 3786692.77721261465922 ], [ 399209.053916581906378, 3786692.1668362156488 ], [ 399209.053916581906378, 3786691.86164801614359 ], [ 399208.748728382517584, 3786691.556459817104042 ], [ 399208.748728382517584, 3786690.030518820043653 ], [ 399209.053916581906378, 3786689.725330620538443 ], [ 399209.053916581906378, 3786689.420142421033233 ], [ 399209.969481180072762, 3786688.504577822983265 ], [ 399210.274669379461557, 3786688.504577822983265 ], [ 399210.579857578850351, 3786688.199389623478055 ], [ 399213.631739572738297, 3786688.199389623478055 ], [ 399213.936927772127092, 3786688.504577822983265 ], [ 399213.936927772127092, 3786689.420142421033233 ], [ 399214.242115971515886, 3786689.725330620538443 ], [ 399214.242115971515886, 3786690.335707019548863 ], [ 399214.547304170904681, 3786690.640895218588412 ], [ 399214.547304170904681, 3786691.251271617598832 ], [ 399214.852492370293476, 3786691.556459817104042 ], [ 399214.852492370293476, 3786691.86164801614359 ], [ 399215.15768056968227, 3786692.1668362156488 ], [ 399215.15768056968227, 3786692.77721261465922 ], [ 399215.462868769071065, 3786693.082400813698769 ], [ 399215.462868769071065, 3786694.913530010264367 ], [ 399214.852492370293476, 3786695.523906408809125 ], [ 399214.852492370293476, 3786695.829094608314335 ], [ 399214.547304170904681, 3786696.134282807819545 ], [ 399214.547304170904681, 3786696.744659206364304 ], [ 399213.936927772127092, 3786697.355035605374724 ], [ 399211.80061037640553, 3786697.355035605374724 ] ] ] } }
]
}
