{
"type": "FeatureCollection",
"name": "cell_00207_pre",
"crs": { "type": "name", "properties": { "name": "urn:ogc:def:crs:EPSG::32611" } },
"features": [
{ "type": "Feature", "properties": { "confidence": 0.91709136962890625, "class": 1 }, "geometry": { "type": "Polygon", "coordinates": [ [ [ 357170.600203458801843, 3774212.105798575561494 ], [ 357170.600203458801843, 3774211.495422177016735 ], [ 357170.905391658190638, 3774211.190233977511525 ], [ 357170.905391658190638, 3774210.885045778006315 ], [ 357171.210579857579432, 3774210.579857578966767 ], [ 357171.210579857579432, 3774210.274669379461557 ], [ 357171.515768056968227, 3774209.969481179956347 ], [ 357171.515768056968227, 3774209.664292980451137 ], [ 357177.619532044744119, 3774209.664292980451137 ], [ 357177.619532044744119, 3774211.495422177016735 ], [ 357177.314343845355324, 3774211.495422177016735 ], [ 357177.00915564596653, 3774211.800610376521945 ], [ 357176.093591047800146, 3774211.800610376521945 ], [ 357175.788402848411351, 3774212.105798575561494 ], [ 357170.600203458801843, 3774212.105798575561494 ] ] ] } },
{ "type": "Feature", "properties": { "confidence": 0.61032605171203613, "class": 1 }, "geometry": { "type": "Polygon", "coordinates": [ [ [ 357149.542217700916808, 3774219.125127161853015 ], [ 357149.237029501528013, 3774218.819938962347806 ], [ 357148.626653102750424, 3774218.819938962347806 ], [ 357148.32146490336163, 3774218.514750762842596 ], [ 357148.016276703972835, 3774218.514750762842596 ], [ 357147.71108850458404, 3774218.209562563803047 ], [ 357147.405900305195246, 3774218.209562563803047 ], [ 357147.100712105806451, 3774217.904374364297837 ], [ 357146.795523906417657, 3774217.904374364297837 ], [ 357146.490335707028862, 3774217.599186164792627 ], [ 357146.185147507640067, 3774217.599186164792627 ], [ 357145.574771108862478, 3774216.988809766247869 ], [ 357144.964394710084889, 3774216.988809766247869 ], [ 357144.048830111918505, 3774216.073245167732239 ], [ 357144.048830111918505, 3774215.46286876918748 ], [ 357143.743641912529711, 3774215.15768056968227 ], [ 357143.743641912529711, 3774214.85249237017706 ], [ 357143.438453713140916, 3774214.547304171137512 ], [ 357143.438453713140916, 3774213.021363174077123 ], [ 357143.133265513752121, 3774212.716174974571913 ], [ 357143.133265513752121, 3774211.495422177016735 ], [ 357142.828077314363327, 3774211.190233977511525 ], [ 357142.828077314363327, 3774210.274669379461557 ], [ 357144.3540183113073, 3774210.274669379461557 ], [ 357144.659206510696094, 3774209.969481179956347 ], [ 357144.659206510696094, 3774209.664292980451137 ], [ 357149.237029501528013, 3774209.664292980451137 ], [ 357149.237029501528013, 3774209.969481179956347 ], [ 357149.542217700916808, 3774210.274669379461557 ], [ 357152.899287894193549, 3774210.274669379461557 ], [ 357152.899287894193549, 3774211.190233977511525 ], [ 357153.204476093582343, 3774211.495422177016735 ], [ 357153.204476093582343, 3774212.105798575561494 ], [ 357153.509664292971138, 3774212.410986775066704 ], [ 357153.509664292971138, 3774213.326551373116672 ], [ 357153.814852492359933, 3774213.631739572621882 ], [ 357153.814852492359933, 3774218.209562563803047 ], [ 357153.204476093582343, 3774218.819938962347806 ], [ 357152.594099694804754, 3774218.819938962347806 ], [ 357152.28891149541596, 3774219.125127161853015 ], [ 357149.542217700916808, 3774219.125127161853015 ] ] ] } },
{ "type": "Feature", "properties": { "confidence": 0.30845808982849121, "class": 1 }, "geometry": { "type": "Polygon", "coordinates": [ [ [ 357465.10681586980354, 3774445.574771109037101 ], [ 357465.10681586980354, 3774445.269582909531891 ], [ 357464.801627670414746, 3774444.964394710026681 ], [ 357464.496439471025951, 3774444.964394710026681 ], [ 357464.191251271637157, 3774444.659206510521472 ], [ 357464.191251271637157, 3774444.048830111976713 ], [ 357472.126144455745816, 3774444.048830111976713 ], [ 357472.126144455745816, 3774444.354018311481923 ], [ 357471.820956256357022, 3774444.659206510521472 ], [ 357471.820956256357022, 3774445.269582909531891 ], [ 357471.515768056968227, 3774445.269582909531891 ], [ 357471.210579857579432, 3774445.574771109037101 ], [ 357465.10681586980354, 3774445.574771109037101 ] ] ] } },
{ "type": "Feature", "properties": { "confidence": 0.26417389512062073, "class": 1 }, "geometry": { "type": "Polygon", "coordinates": [ [ [ 357461.139369277749211, 3774332.044760935939848 ], [ 357460.834181078360416, 3774331.739572736434639 ], [ 357460.528992878913414, 3774331.739572736434639 ], [ 357460.223804679524619, 3774331.434384536929429 ], [ 357460.223804679524619, 3774329.603255340829492 ], [ 357459.61342828074703, 3774328.992878941819072 ], [ 357459.61342828074703, 3774327.772126144263893 ], [ 357459.308240081358235, 3774327.466937945224345 ], [ 357466.632756866747513, 3774327.466937945224345 ], [ 357466.327568667358719, 3774327.772126144263893 ], [ 357466.327568667358719, 3774328.992878941819072 ], [ 357464.801627670414746, 3774330.51881993887946 ], [ 357464.801627670414746, 3774330.82400813838467 ], [ 357464.496439471025951, 3774331.12919633788988 ], [ 357464.496439471025951, 3774331.434384536929429 ], [ 357463.886063072248362, 3774332.044760935939848 ], [ 357461.139369277749211, 3774332.044760935939848 ] ] ] } }
]
}
