{
"type": "FeatureCollection",
"name": "cell_00515_pre",
"crs": { "type": "name", "properties": { "name": "urn:ogc:def:crs:EPSG::32611" } },
"features": [
{ "type": "Feature", "properties": { "confidence": 0.95760166645050049, "class": 1 }, "geometry": { "type": "Polygon", "coordinates": [ [ [ 402897.863682604278438, 3786220.345879959408194 ], [ 402897.558494404889643, 3786220.040691759902984 ], [ 402896.948118006112054, 3786220.040691759902984 ], [ 402896.642929806723259, 3786219.735503560397774 ], [ 402896.337741607334465, 3786219.735503560397774 ], [ 402896.03255340794567, 3786219.430315361358225 ], [ 402895.727365208556876, 3786219.430315361358225 ], [ 402894.811800610390492, 3786218.514750762842596 ], [ 402894.506612411001697, 3786218.514750762842596 ], [ 402894.201424211612903, 3786218.209562563803047 ], [ 402894.201424211612903, 3786216.988809766247869 ], [ 402894.506612411001697, 3786216.683621566742659 ], [ 402894.506612411001697, 3786212.716174974571913 ], [ 402895.116988809779286, 3786212.105798575561494 ], [ 402895.116988809779286, 3786211.800610376521945 ], [ 402895.422177009168081, 3786211.800610376521945 ], [ 402895.727365208556876, 3786211.495422177016735 ], [ 402895.727365208556876, 3786210.885045778006315 ], [ 402896.03255340794567, 3786210.579857578966767 ], [ 402896.03255340794567, 3786210.274669379461557 ], [ 402897.253306205500849, 3786210.274669379461557 ], [ 402897.558494404889643, 3786209.969481179956347 ], [ 402897.558494404889643, 3786209.664292980451137 ], [ 402902.746693794499151, 3786209.664292980451137 ], [ 402902.746693794499151, 3786209.969481179956347 ], [ 402903.051881993887946, 3786210.274669379461557 ], [ 402903.662258392665535, 3786210.274669379461557 ], [ 402903.662258392665535, 3786211.495422177016735 ], [ 402903.96744659205433, 3786211.800610376521945 ], [ 402903.96744659205433, 3786212.716174974571913 ], [ 402904.272634791443124, 3786213.021363174077123 ], [ 402904.272634791443124, 3786213.936927772127092 ], [ 402904.577822990831919, 3786214.242115971632302 ], [ 402904.577822990831919, 3786218.819938962347806 ], [ 402904.272634791443124, 3786219.125127161853015 ], [ 402903.357070193276741, 3786219.125127161853015 ], [ 402903.051881993887946, 3786219.430315361358225 ], [ 402902.441505595110357, 3786219.430315361358225 ], [ 402901.831129196332768, 3786220.040691759902984 ], [ 402901.525940996943973, 3786220.040691759902984 ], [ 402901.220752797555178, 3786220.345879959408194 ], [ 402897.863682604278438, 3786220.345879959408194 ] ] ] } },
{ "type": "Feature", "properties": { "confidence": 0.91848701238632202, "class": 1 }, "geometry": { "type": "Polygon", "coordinates": [ [ [ 402889.013224821945187, 3786146.49033570708707 ], [ 402888.708036622556392, 3786146.18514750758186 ], [ 402888.097660223778803, 3786146.18514750758186 ], [ 402887.792472024390008, 3786145.87995930807665 ], [ 402887.487283825001214, 3786145.87995930807665 ], [ 402887.182095625612419, 3786145.574771109037101 ], [ 402886.876907426223624, 3786145.574771109037101 ], [ 402886.266531027446035, 3786144.964394710026681 ], [ 402886.266531027446035, 3786144.659206510521472 ], [ 402885.961342828057241, 3786144.354018311481923 ], [ 402885.961342828057241, 3786142.828077314421535 ], [ 402886.266531027446035, 3786142.522889114916325 ], [ 402886.266531027446035, 3786142.217700915411115 ], [ 402886.57171922683483, 3786141.912512716371566 ], [ 402886.57171922683483, 3786141.607324516866356 ], [ 402889.623601220780984, 3786138.555442522745579 ], [ 402889.623601220780984, 3786136.419125127140433 ], [ 402889.928789420169778, 3786136.113936927635223 ], [ 402889.928789420169778, 3786135.808748728595674 ], [ 402892.370295015280135, 3786133.367243133485317 ], [ 402893.285859613446519, 3786133.367243133485317 ], [ 402893.591047812835313, 3786133.062054933980107 ], [ 402893.896236012224108, 3786133.367243133485317 ], [ 402894.201424211612903, 3786133.367243133485317 ], [ 402894.201424211612903, 3786133.672431332524866 ], [ 402894.506612411001697, 3786133.977619532030076 ], [ 402894.506612411001697, 3786137.945066124200821 ], [ 402894.201424211612903, 3786138.250254323706031 ], [ 402894.201424211612903, 3786139.776195320300758 ], [ 402893.896236012224108, 3786140.081383519805968 ], [ 402893.896236012224108, 3786140.386571719311178 ], [ 402893.591047812835313, 3786140.691759918816388 ], [ 402893.591047812835313, 3786140.996948117855936 ], [ 402893.285859613446519, 3786141.302136317361146 ], [ 402893.285859613446519, 3786141.912512716371566 ], [ 402892.980671414057724, 3786142.217700915411115 ], [ 402892.980671414057724, 3786142.522889114916325 ], [ 402892.67548321466893, 3786142.828077314421535 ], [ 402892.67548321466893, 3786143.133265513926744 ], [ 402892.370295015280135, 3786143.438453712966293 ], [ 402892.370295015280135, 3786144.048830111976713 ], [ 402892.06510681589134, 3786144.354018311481923 ], [ 402892.06510681589134, 3786144.964394710026681 ], [ 402891.759918616502546, 3786145.269582909531891 ], [ 402891.759918616502546, 3786145.574771109037101 ], [ 402891.454730417113751, 3786145.574771109037101 ], [ 402890.844354018336162, 3786146.18514750758186 ], [ 402890.539165818947367, 3786146.18514750758186 ], [ 402890.233977619558573, 3786146.49033570708707 ], [ 402889.013224821945187, 3786146.49033570708707 ] ] ] } },
{ "type": "Feature", "properties": { "confidence": 0.90755826234817505, "class": 1 }, "geometry": { "type": "Polygon", "coordinates": [ [ [ 403051.983723296027165, 3786101.627670396585017 ], [ 403051.67853509663837, 3786101.322482197545469 ], [ 403049.237029501528013, 3786101.322482197545469 ], [ 403048.626653102750424, 3786100.712105798535049 ], [ 403048.626653102750424, 3786100.406917599029839 ], [ 403048.931841302139219, 3786100.10172939999029 ], [ 403048.931841302139219, 3786095.523906408809125 ], [ 403049.237029501528013, 3786095.218718209769577 ], [ 403049.237029501528013, 3786094.913530010264367 ], [ 403051.983723296027165, 3786094.913530010264367 ], [ 403052.28891149541596, 3786094.608341810759157 ], [ 403052.28891149541596, 3786094.303153611253947 ], [ 403052.899287894193549, 3786094.303153611253947 ], [ 403053.509664292971138, 3786093.692777212709188 ], [ 403053.509664292971138, 3786093.387589013203979 ], [ 403054.120040691748727, 3786093.387589013203979 ], [ 403054.425228891137522, 3786093.082400813698769 ], [ 403059.61342828074703, 3786093.082400813698769 ], [ 403059.918616480135825, 3786093.387589013203979 ], [ 403059.918616480135825, 3786093.692777212709188 ], [ 403060.223804679524619, 3786093.997965412214398 ], [ 403060.223804679524619, 3786094.303153611253947 ], [ 403060.528992878913414, 3786094.608341810759157 ], [ 403060.528992878913414, 3786097.049847405869514 ], [ 403060.223804679524619, 3786097.355035605374724 ], [ 403060.223804679524619, 3786097.965412003919482 ], [ 403059.918616480135825, 3786098.270600203424692 ], [ 403059.918616480135825, 3786098.575788402929902 ], [ 403059.308240081358235, 3786099.186164801474661 ], [ 403059.308240081358235, 3786099.491353000979871 ], [ 403059.003051881969441, 3786099.491353000979871 ], [ 403058.697863682580646, 3786099.79654120048508 ], [ 403058.697863682580646, 3786100.10172939999029 ], [ 403058.392675483191852, 3786100.10172939999029 ], [ 403057.171922685636673, 3786101.322482197545469 ], [ 403056.561546286859084, 3786101.322482197545469 ], [ 403056.256358087470289, 3786101.627670396585017 ], [ 403051.983723296027165, 3786101.627670396585017 ] ] ] } },
{ "type": "Feature", "properties": { "confidence": 0.85522973537445068, "class": 1 }, "geometry": { "type": "Polygon", "coordinates": [ [ [ 402738.2502543234732, 3786096.439471007324755 ], [ 402737.945066124084406, 3786096.134282807819545 ], [ 402737.945066124084406, 3786094.608341810759157 ], [ 402737.639877924695611, 3786094.303153611253947 ], [ 402737.639877924695611, 3786093.692777212709188 ], [ 402737.334689725306816, 3786093.387589013203979 ], [ 402737.334689725306816, 3786092.47202441515401 ], [ 402743.743641912529711, 3786092.47202441515401 ], [ 402743.438453713140916, 3786092.77721261465922 ], [ 402743.438453713140916, 3786093.692777212709188 ], [ 402743.133265513752121, 3786093.997965412214398 ], [ 402743.133265513752121, 3786094.608341810759157 ], [ 402742.828077314363327, 3786094.913530010264367 ], [ 402742.828077314363327, 3786095.218718209769577 ], [ 402741.912512716196943, 3786096.134282807819545 ], [ 402741.607324516808148, 3786096.134282807819545 ], [ 402741.302136317419354, 3786096.439471007324755 ], [ 402738.2502543234732, 3786096.439471007324755 ] ] ] } },
{ "type": "Feature", "properties": { "confidence": 0.81779217720031738, "class": 1 }, "geometry": { "type": "Polygon", "coordinates": [ [ [ 403075.178026449633762, 3786124.821973550133407 ], [ 403074.872838250244968, 3786124.516785351093858 ], [ 403074.872838250244968, 3786123.906408952083439 ], [ 403074.567650050856173, 3786123.601220752578229 ], [ 403074.567650050856173, 3786122.99084435403347 ], [ 403074.262461851467378, 3786122.68565615452826 ], [ 403074.262461851467378, 3786122.38046795502305 ], [ 403073.957273652078584, 3786122.075279755983502 ], [ 403073.957273652078584, 3786120.549338758923113 ], [ 403073.652085452689789, 3786120.244150559417903 ], [ 403073.652085452689789, 3786118.107833163812757 ], [ 403073.957273652078584, 3786117.802644964307547 ], [ 403074.262461851467378, 3786117.802644964307547 ], [ 403074.567650050856173, 3786117.497456764802337 ], [ 403076.398779247188941, 3786117.497456764802337 ], [ 403076.703967446577735, 3786117.802644964307547 ], [ 403077.00915564596653, 3786117.802644964307547 ], [ 403077.314343845355324, 3786118.107833163812757 ], [ 403078.229908443521708, 3786118.107833163812757 ], [ 403078.535096642910503, 3786118.413021363317966 ], [ 403078.535096642910503, 3786121.159715157467872 ], [ 403078.229908443521708, 3786121.464903356973082 ], [ 403078.229908443521708, 3786122.075279755983502 ], [ 403077.619532044744119, 3786122.68565615452826 ], [ 403077.619532044744119, 3786122.99084435403347 ], [ 403077.314343845355324, 3786123.29603255353868 ], [ 403077.314343845355324, 3786123.601220752578229 ], [ 403076.703967446577735, 3786124.211597151588649 ], [ 403076.398779247188941, 3786124.211597151588649 ], [ 403075.788402848411351, 3786124.821973550133407 ], [ 403075.178026449633762, 3786124.821973550133407 ] ] ] } },
{ "type": "Feature", "properties": { "confidence": 0.77024275064468384, "class": 1 }, "geometry": { "type": "Polygon", "coordinates": [ [ [ 403086.775178026466165, 3786176.093591047916561 ], [ 403086.46998982707737, 3786175.788402848411351 ], [ 403086.46998982707737, 3786173.652085452806205 ], [ 403087.080366225854959, 3786173.041709053795785 ], [ 403087.080366225854959, 3786172.736520854756236 ], [ 403087.385554425243754, 3786172.431332655251026 ], [ 403087.385554425243754, 3786172.126144455745816 ], [ 403087.690742624632549, 3786171.820956256240606 ], [ 403087.690742624632549, 3786171.515768057201058 ], [ 403088.301119023410138, 3786170.905391658190638 ], [ 403088.301119023410138, 3786170.600203458685428 ], [ 403089.216683621576522, 3786169.684638860635459 ], [ 403089.521871820965316, 3786169.684638860635459 ], [ 403089.827060020354111, 3786169.37945066113025 ], [ 403089.827060020354111, 3786168.769074262585491 ], [ 403090.4374364191317, 3786168.158697863575071 ], [ 403092.268565615464468, 3786168.158697863575071 ], [ 403092.573753814853262, 3786168.463886063080281 ], [ 403093.184130213630851, 3786168.463886063080281 ], [ 403093.794506612408441, 3786169.07426246162504 ], [ 403093.794506612408441, 3786172.431332655251026 ], [ 403093.489318413019646, 3786172.736520854756236 ], [ 403093.489318413019646, 3786173.346897253300995 ], [ 403092.573753814853262, 3786174.262461851350963 ], [ 403092.573753814853262, 3786174.567650050856173 ], [ 403092.268565615464468, 3786174.872838250361383 ], [ 403091.963377416075673, 3786174.872838250361383 ], [ 403091.658189216686878, 3786175.178026449866593 ], [ 403088.911495422187727, 3786175.178026449866593 ], [ 403088.606307222798932, 3786175.483214648906142 ], [ 403087.995930824021343, 3786175.483214648906142 ], [ 403087.690742624632549, 3786175.788402848411351 ], [ 403087.080366225854959, 3786175.788402848411351 ], [ 403086.775178026466165, 3786176.093591047916561 ] ] ] } },
{ "type": "Feature", "properties": { "confidence": 0.76205211877822876, "class": 1 }, "geometry": { "type": "Polygon", "coordinates": [ [ [ 403147.507629705010913, 3786159.613428280688822 ], [ 403146.59206510684453, 3786158.697863682638854 ], [ 403146.286876907397527, 3786158.697863682638854 ], [ 403145.066124109842349, 3786157.477110885083675 ], [ 403145.066124109842349, 3786155.645981688518077 ], [ 403145.371312309231143, 3786155.340793489478528 ], [ 403145.371312309231143, 3786155.035605289973319 ], [ 403146.286876907397527, 3786154.12004069192335 ], [ 403146.59206510684453, 3786154.12004069192335 ], [ 403146.897253306233324, 3786153.81485249241814 ], [ 403147.202441505622119, 3786153.81485249241814 ], [ 403147.507629705010913, 3786153.50966429291293 ], [ 403147.812817904399708, 3786153.50966429291293 ], [ 403148.118006103788503, 3786153.20447609340772 ], [ 403148.423194303177297, 3786153.20447609340772 ], [ 403149.033570701954886, 3786152.594099694862962 ], [ 403149.643947100732476, 3786152.594099694862962 ], [ 403149.94913530012127, 3786152.288911495357752 ], [ 403150.254323499510065, 3786152.594099694862962 ], [ 403150.559511698898859, 3786152.594099694862962 ], [ 403150.559511698898859, 3786152.899287894368172 ], [ 403150.864699898287654, 3786153.20447609340772 ], [ 403152.695829094620422, 3786153.20447609340772 ], [ 403153.001017294009216, 3786153.50966429291293 ], [ 403153.001017294009216, 3786154.425228890962899 ], [ 403153.306205493398011, 3786154.730417090468109 ], [ 403153.001017294009216, 3786155.035605289973319 ], [ 403153.001017294009216, 3786155.951169888023287 ], [ 403151.475076297065243, 3786157.477110885083675 ], [ 403151.169888097676449, 3786157.477110885083675 ], [ 403150.864699898287654, 3786157.782299084588885 ], [ 403150.254323499510065, 3786157.782299084588885 ], [ 403149.94913530012127, 3786158.087487283628434 ], [ 403149.643947100732476, 3786158.087487283628434 ], [ 403148.118006103788503, 3786159.613428280688822 ], [ 403147.507629705010913, 3786159.613428280688822 ] ] ] } },
{ "type": "Feature", "properties": { "confidence": 0.72911286354064941, "class": 1 }, "geometry": { "type": "Polygon", "coordinates": [ [ [ 402726.042726347921416, 3786099.491353000979871 ], [ 402726.042726347921416, 3786098.880976602435112 ], [ 402724.821973550366238, 3786097.660223804879934 ], [ 402724.516785350977443, 3786097.660223804879934 ], [ 402723.906408952199854, 3786097.049847405869514 ], [ 402723.906408952199854, 3786096.439471007324755 ], [ 402723.601220752811059, 3786096.134282807819545 ], [ 402723.601220752811059, 3786095.523906408809125 ], [ 402723.296032553422265, 3786095.218718209769577 ], [ 402722.99084435403347, 3786095.218718209769577 ], [ 402722.99084435403347, 3786094.913530010264367 ], [ 402722.685656154644676, 3786094.608341810759157 ], [ 402722.685656154644676, 3786093.387589013203979 ], [ 402722.99084435403347, 3786093.082400813698769 ], [ 402732.146490335697308, 3786093.082400813698769 ], [ 402732.451678535086103, 3786093.387589013203979 ], [ 402733.367243133252487, 3786093.387589013203979 ], [ 402733.367243133252487, 3786093.997965412214398 ], [ 402733.672431332641281, 3786094.303153611253947 ], [ 402733.367243133252487, 3786094.608341810759157 ], [ 402733.367243133252487, 3786095.218718209769577 ], [ 402733.672431332641281, 3786095.523906408809125 ], [ 402733.672431332641281, 3786096.439471007324755 ], [ 402733.367243133252487, 3786096.439471007324755 ], [ 402733.062054933863692, 3786096.744659206364304 ], [ 402732.451678535086103, 3786096.744659206364304 ], [ 402732.146490335697308, 3786097.049847405869514 ], [ 402731.841302136308514, 3786097.049847405869514 ], [ 402730.315361139364541, 3786098.575788402929902 ], [ 402730.010172939975746, 3786098.575788402929902 ], [ 402729.704984740586951, 3786098.880976602435112 ], [ 402728.179043743642978, 3786098.880976602435112 ], [ 402727.873855544254184, 3786099.186164801474661 ], [ 402726.347914547310211, 3786099.186164801474661 ], [ 402726.042726347921416, 3786099.491353000979871 ] ] ] } },
{ "type": "Feature", "properties": { "confidence": 0.70624566078186035, "class": 1 }, "geometry": { "type": "Polygon", "coordinates": [ [ [ 402953.40793489315547, 3786317.090539165772498 ], [ 402953.102746693766676, 3786316.785350966267288 ], [ 402952.797558494377881, 3786316.785350966267288 ], [ 402952.187182095600292, 3786316.174974567722529 ], [ 402952.187182095600292, 3786313.428280773106962 ], [ 402952.492370294989087, 3786313.123092573601753 ], [ 402952.492370294989087, 3786312.207527975551784 ], [ 402953.102746693766676, 3786311.597151577007025 ], [ 402953.40793489315547, 3786311.597151577007025 ], [ 402953.713123092602473, 3786311.291963377501816 ], [ 402954.323499491380062, 3786311.291963377501816 ], [ 402954.628687690768857, 3786310.986775177996606 ], [ 402954.933875890157651, 3786311.291963377501816 ], [ 402955.239064089546446, 3786311.291963377501816 ], [ 402955.54425228893524, 3786311.597151577007025 ], [ 402956.15462868771283, 3786311.597151577007025 ], [ 402956.459816887101624, 3786311.902339776046574 ], [ 402956.765005086490419, 3786311.902339776046574 ], [ 402957.070193285879213, 3786312.207527975551784 ], [ 402957.375381485268008, 3786312.207527975551784 ], [ 402957.375381485268008, 3786314.038657172117382 ], [ 402957.070193285879213, 3786314.343845371156931 ], [ 402957.070193285879213, 3786314.649033570662141 ], [ 402956.459816887101624, 3786315.259409969672561 ], [ 402956.459816887101624, 3786315.564598168712109 ], [ 402956.15462868771283, 3786315.869786368217319 ], [ 402956.15462868771283, 3786316.174974567722529 ], [ 402955.849440488324035, 3786316.480162767227739 ], [ 402955.54425228893524, 3786316.480162767227739 ], [ 402955.239064089546446, 3786316.785350966267288 ], [ 402954.628687690768857, 3786316.785350966267288 ], [ 402954.323499491380062, 3786317.090539165772498 ], [ 402953.40793489315547, 3786317.090539165772498 ] ] ] } },
{ "type": "Feature", "properties": { "confidence": 0.70199179649353027, "class": 1 }, "geometry": { "type": "Polygon", "coordinates": [ [ [ 403139.877924720232841, 3786213.326551373116672 ], [ 403139.572736520844046, 3786213.021363174077123 ], [ 403139.572736520844046, 3786212.105798575561494 ], [ 403139.267548321455251, 3786211.800610376521945 ], [ 403139.267548321455251, 3786206.612410986796021 ], [ 403139.572736520844046, 3786206.307222787290812 ], [ 403139.572736520844046, 3786205.696846388746053 ], [ 403139.267548321455251, 3786205.391658189240843 ], [ 403139.572736520844046, 3786205.086469989735633 ], [ 403139.572736520844046, 3786202.339776195120066 ], [ 403139.877924720232841, 3786202.034587996080518 ], [ 403139.877924720232841, 3786201.424211597070098 ], [ 403140.48830111901043, 3786200.813835198525339 ], [ 403140.48830111901043, 3786200.508646999020129 ], [ 403141.098677517788019, 3786199.89827060000971 ], [ 403141.098677517788019, 3786199.287894201464951 ], [ 403142.319430315343197, 3786198.067141403909773 ], [ 403143.84537131228717, 3786198.067141403909773 ], [ 403144.150559511675965, 3786197.761953204404563 ], [ 403145.066124109842349, 3786197.761953204404563 ], [ 403145.676500508619938, 3786198.372329603414983 ], [ 403145.676500508619938, 3786201.119023397564888 ], [ 403145.371312309231143, 3786201.424211597070098 ], [ 403145.371312309231143, 3786204.476093591190875 ], [ 403145.066124109842349, 3786204.781281790230423 ], [ 403145.066124109842349, 3786206.002034587785602 ], [ 403144.45574771106476, 3786206.612410986796021 ], [ 403144.45574771106476, 3786206.917599186301231 ], [ 403144.150559511675965, 3786207.22278738534078 ], [ 403144.150559511675965, 3786207.8331637843512 ], [ 403143.84537131228717, 3786208.13835198385641 ], [ 403143.84537131228717, 3786209.969481179956347 ], [ 403143.234994913509581, 3786210.579857578966767 ], [ 403143.234994913509581, 3786211.190233977511525 ], [ 403142.624618514731992, 3786211.800610376521945 ], [ 403142.624618514731992, 3786212.105798575561494 ], [ 403141.709053916565608, 3786213.021363174077123 ], [ 403141.403865717176814, 3786213.021363174077123 ], [ 403141.098677517788019, 3786213.326551373116672 ], [ 403139.877924720232841, 3786213.326551373116672 ] ] ] } },
{ "type": "Feature", "properties": { "confidence": 0.68156242370605469, "class": 1 }, "geometry": { "type": "Polygon", "coordinates": [ [ [ 402986.673448626650497, 3786365.615462868940085 ], [ 402986.673448626650497, 3786365.310274669434875 ], [ 402986.978636826039292, 3786365.005086469929665 ], [ 402986.978636826039292, 3786364.394710071384907 ], [ 402986.673448626650497, 3786364.089521871879697 ], [ 402986.368260427261703, 3786364.089521871879697 ], [ 402986.063072227872908, 3786363.784333672374487 ], [ 402986.063072227872908, 3786362.563580874819309 ], [ 402986.673448626650497, 3786362.563580874819309 ], [ 402986.978636826039292, 3786362.258392675314099 ], [ 402986.978636826039292, 3786361.95320447627455 ], [ 402987.589013224816881, 3786361.95320447627455 ], [ 402988.504577822983265, 3786362.868769074324518 ], [ 402989.114954221760854, 3786362.868769074324518 ], [ 402989.420142421149649, 3786362.563580874819309 ], [ 402990.335707019316033, 3786362.563580874819309 ], [ 402990.335707019316033, 3786365.615462868940085 ], [ 402986.673448626650497, 3786365.615462868940085 ] ] ] } },
{ "type": "Feature", "properties": { "confidence": 0.64032280445098877, "class": 1 }, "geometry": { "type": "Polygon", "coordinates": [ [ [ 402838.657171922677662, 3786211.495422177016735 ], [ 402838.351983723288868, 3786211.190233977511525 ], [ 402838.046795523900073, 3786211.190233977511525 ], [ 402838.046795523900073, 3786210.885045778006315 ], [ 402837.741607324511278, 3786210.579857578966767 ], [ 402837.741607324511278, 3786209.053916581906378 ], [ 402838.046795523900073, 3786208.748728382401168 ], [ 402838.046795523900073, 3786208.13835198385641 ], [ 402838.351983723288868, 3786207.8331637843512 ], [ 402838.351983723288868, 3786207.22278738534078 ], [ 402838.657171922677662, 3786206.917599186301231 ], [ 402838.657171922677662, 3786206.612410986796021 ], [ 402838.962360122066457, 3786206.307222787290812 ], [ 402838.962360122066457, 3786202.644964394625276 ], [ 402839.877924720232841, 3786201.729399796575308 ], [ 402841.709053916565608, 3786201.729399796575308 ], [ 402842.014242115954403, 3786201.424211597070098 ], [ 402842.319430315343197, 3786201.729399796575308 ], [ 402842.929806714120787, 3786201.729399796575308 ], [ 402842.929806714120787, 3786202.644964394625276 ], [ 402843.234994913509581, 3786202.950152594130486 ], [ 402843.234994913509581, 3786205.086469989735633 ], [ 402842.929806714120787, 3786205.391658189240843 ], [ 402842.929806714120787, 3786206.307222787290812 ], [ 402842.624618514731992, 3786206.612410986796021 ], [ 402842.624618514731992, 3786207.8331637843512 ], [ 402842.319430315343197, 3786208.13835198385641 ], [ 402842.319430315343197, 3786208.748728382401168 ], [ 402842.014242115954403, 3786209.053916581906378 ], [ 402842.014242115954403, 3786209.664292980451137 ], [ 402841.403865717176814, 3786210.274669379461557 ], [ 402841.098677517788019, 3786210.274669379461557 ], [ 402840.183112919621635, 3786211.190233977511525 ], [ 402839.877924720232841, 3786211.190233977511525 ], [ 402839.572736520844046, 3786211.495422177016735 ], [ 402838.657171922677662, 3786211.495422177016735 ] ] ] } },
{ "type": "Feature", "properties": { "confidence": 0.63607960939407349, "class": 1 }, "geometry": { "type": "Polygon", "coordinates": [ [ [ 402892.980671414057724, 3786049.745676500722766 ], [ 402892.370295015280135, 3786049.135300101712346 ], [ 402892.370295015280135, 3786048.219735503662378 ], [ 402892.06510681589134, 3786047.914547304157168 ], [ 402892.06510681589134, 3786046.693794506601989 ], [ 402891.759918616502546, 3786046.388606307096779 ], [ 402891.759918616502546, 3786044.862665310502052 ], [ 402892.06510681589134, 3786044.557477110996842 ], [ 402896.337741607334465, 3786044.557477110996842 ], [ 402896.642929806723259, 3786044.862665310502052 ], [ 402896.948118006112054, 3786044.862665310502052 ], [ 402897.253306205500849, 3786045.167853509541601 ], [ 402897.253306205500849, 3786049.135300101712346 ], [ 402896.642929806723259, 3786049.745676500722766 ], [ 402892.980671414057724, 3786049.745676500722766 ] ] ] } },
{ "type": "Feature", "properties": { "confidence": 0.60546183586120605, "class": 1 }, "geometry": { "type": "Polygon", "coordinates": [ [ [ 402753.509664292971138, 3786100.406917599029839 ], [ 402752.899287894193549, 3786099.79654120048508 ], [ 402752.899287894193549, 3786097.660223804879934 ], [ 402753.204476093582343, 3786097.355035605374724 ], [ 402753.204476093582343, 3786096.744659206364304 ], [ 402753.509664292971138, 3786096.439471007324755 ], [ 402753.509664292971138, 3786096.134282807819545 ], [ 402753.814852492359933, 3786095.829094608314335 ], [ 402753.814852492359933, 3786095.523906408809125 ], [ 402754.120040691748727, 3786095.218718209769577 ], [ 402754.425228891137522, 3786095.218718209769577 ], [ 402754.730417090526316, 3786094.913530010264367 ], [ 402754.730417090526316, 3786094.608341810759157 ], [ 402755.035605289915111, 3786094.303153611253947 ], [ 402755.035605289915111, 3786093.997965412214398 ], [ 402755.340793489303906, 3786093.692777212709188 ], [ 402755.340793489303906, 3786093.082400813698769 ], [ 402755.951169888081495, 3786093.082400813698769 ], [ 402755.951169888081495, 3786100.406917599029839 ], [ 402753.509664292971138, 3786100.406917599029839 ] ] ] } },
{ "type": "Feature", "properties": { "confidence": 0.59080111980438232, "class": 1 }, "geometry": { "type": "Polygon", "coordinates": [ [ [ 402731.536113936919719, 3786212.410986775066704 ], [ 402731.230925737530924, 3786212.105798575561494 ], [ 402730.315361139364541, 3786212.105798575561494 ], [ 402730.010172939975746, 3786211.800610376521945 ], [ 402729.704984740586951, 3786211.800610376521945 ], [ 402728.484231943031773, 3786210.579857578966767 ], [ 402728.484231943031773, 3786209.664292980451137 ], [ 402737.945066124084406, 3786209.664292980451137 ], [ 402737.945066124084406, 3786209.969481179956347 ], [ 402737.639877924695611, 3786210.274669379461557 ], [ 402737.334689725306816, 3786210.274669379461557 ], [ 402737.029501525918022, 3786210.579857578966767 ], [ 402736.724313326529227, 3786210.579857578966767 ], [ 402735.808748728362843, 3786211.495422177016735 ], [ 402735.503560528974049, 3786211.495422177016735 ], [ 402735.198372329585254, 3786211.800610376521945 ], [ 402733.062054933863692, 3786211.800610376521945 ], [ 402732.756866734474897, 3786212.105798575561494 ], [ 402732.451678535086103, 3786212.105798575561494 ], [ 402732.146490335697308, 3786212.410986775066704 ], [ 402731.536113936919719, 3786212.410986775066704 ] ] ] } },
{ "type": "Feature", "properties": { "confidence": 0.59008371829986572, "class": 1 }, "geometry": { "type": "Polygon", "coordinates": [ [ [ 402834.994913530012127, 3786074.160732451826334 ], [ 402834.689725330623332, 3786073.855544252321124 ], [ 402834.384537131234538, 3786073.855544252321124 ], [ 402834.079348931845743, 3786073.550356052815914 ], [ 402833.774160732456949, 3786073.550356052815914 ], [ 402832.858596134290565, 3786072.634791454765946 ], [ 402832.858596134290565, 3786072.329603255260736 ], [ 402832.55340793490177, 3786072.024415055755526 ], [ 402832.55340793490177, 3786071.719226856715977 ], [ 402831.943031536124181, 3786071.108850457705557 ], [ 402831.943031536124181, 3786070.803662258200347 ], [ 402831.637843336735386, 3786070.498474059160799 ], [ 402831.637843336735386, 3786067.446592065040022 ], [ 402831.943031536124181, 3786067.141403865534812 ], [ 402831.943031536124181, 3786066.836215666495264 ], [ 402832.55340793490177, 3786066.225839267484844 ], [ 402832.55340793490177, 3786065.920651067979634 ], [ 402833.774160732456949, 3786064.699898270424455 ], [ 402834.689725330623332, 3786064.699898270424455 ], [ 402834.994913530012127, 3786064.394710071384907 ], [ 402836.215666327567305, 3786064.394710071384907 ], [ 402836.5208545269561, 3786064.699898270424455 ], [ 402836.5208545269561, 3786071.108850457705557 ], [ 402836.215666327567305, 3786071.414038657210767 ], [ 402836.215666327567305, 3786072.634791454765946 ], [ 402835.910478128178511, 3786072.939979654271156 ], [ 402835.910478128178511, 3786073.550356052815914 ], [ 402835.605289928789716, 3786073.855544252321124 ], [ 402835.605289928789716, 3786074.160732451826334 ], [ 402834.994913530012127, 3786074.160732451826334 ] ] ] } },
{ "type": "Feature", "properties": { "confidence": 0.52374565601348877, "class": 1 }, "geometry": { "type": "Polygon", "coordinates": [ [ [ 402724.821973550366238, 3786336.622583926655352 ], [ 402724.821973550366238, 3786336.317395727150142 ], [ 402724.516785350977443, 3786336.012207528110594 ], [ 402724.516785350977443, 3786333.265513733495027 ], [ 402724.821973550366238, 3786332.960325533989817 ], [ 402724.821973550366238, 3786332.655137334484607 ], [ 402725.737538148532622, 3786332.655137334484607 ], [ 402726.042726347921416, 3786332.349949135445058 ], [ 402726.347914547310211, 3786332.349949135445058 ], [ 402726.653102746699005, 3786332.044760935939848 ], [ 402726.9582909460878, 3786332.044760935939848 ], [ 402727.568667344865389, 3786331.434384536929429 ], [ 402727.568667344865389, 3786331.12919633788988 ], [ 402727.873855544254184, 3786330.82400813838467 ], [ 402728.179043743642978, 3786330.82400813838467 ], [ 402728.484231943031773, 3786330.51881993887946 ], [ 402730.315361139364541, 3786330.51881993887946 ], [ 402730.315361139364541, 3786331.739572736434639 ], [ 402730.620549338753335, 3786332.044760935939848 ], [ 402730.620549338753335, 3786334.181078331544995 ], [ 402730.315361139364541, 3786334.486266531050205 ], [ 402730.010172939975746, 3786334.486266531050205 ], [ 402729.704984740586951, 3786334.791454730555415 ], [ 402729.094608341809362, 3786334.791454730555415 ], [ 402728.789420142420568, 3786335.096642929594964 ], [ 402728.484231943031773, 3786335.096642929594964 ], [ 402727.873855544254184, 3786335.707019328605384 ], [ 402727.568667344865389, 3786335.707019328605384 ], [ 402727.263479145476595, 3786336.012207528110594 ], [ 402726.9582909460878, 3786336.012207528110594 ], [ 402726.653102746699005, 3786336.317395727150142 ], [ 402726.042726347921416, 3786336.317395727150142 ], [ 402725.737538148532622, 3786336.622583926655352 ], [ 402724.821973550366238, 3786336.622583926655352 ] ] ] } },
{ "type": "Feature", "properties": { "confidence": 0.51981496810913086, "class": 1 }, "geometry": { "type": "Polygon", "coordinates": [ [ [ 403163.377416073228233, 3786056.459816887043417 ], [ 403162.461851475061849, 3786055.544252288993448 ], [ 403162.461851475061849, 3786054.933875889983028 ], [ 403162.156663275673054, 3786054.62868769094348 ], [ 403162.156663275673054, 3786054.32349949143827 ], [ 403161.85147507628426, 3786054.01831129193306 ], [ 403161.85147507628426, 3786053.102746693883091 ], [ 403161.546286876895465, 3786052.797558494377881 ], [ 403161.546286876895465, 3786049.440488301217556 ], [ 403161.85147507628426, 3786049.135300101712346 ], [ 403161.85147507628426, 3786048.219735503662378 ], [ 403162.156663275673054, 3786047.914547304157168 ], [ 403162.156663275673054, 3786046.083418108057231 ], [ 403162.461851475061849, 3786045.778229908552021 ], [ 403162.461851475061849, 3786044.252288911491632 ], [ 403162.767039674450643, 3786043.947100711986423 ], [ 403162.767039674450643, 3786043.641912512946874 ], [ 403163.377416073228233, 3786043.031536113936454 ], [ 403164.598168870783411, 3786043.031536113936454 ], [ 403164.903357070172206, 3786042.726347914431244 ], [ 403166.124109867727384, 3786042.726347914431244 ], [ 403166.429298067116179, 3786043.031536113936454 ], [ 403167.344862665282562, 3786043.031536113936454 ], [ 403167.955239064118359, 3786043.641912512946874 ], [ 403167.955239064118359, 3786043.947100711986423 ], [ 403168.260427263507154, 3786044.252288911491632 ], [ 403168.260427263507154, 3786045.167853509541601 ], [ 403168.565615462895948, 3786045.473041709046811 ], [ 403168.565615462895948, 3786046.083418108057231 ], [ 403168.870803662284743, 3786046.388606307096779 ], [ 403168.870803662284743, 3786046.998982706107199 ], [ 403169.175991861673538, 3786047.304170905612409 ], [ 403169.175991861673538, 3786049.135300101712346 ], [ 403169.481180061062332, 3786049.440488301217556 ], [ 403169.481180061062332, 3786052.187182095833123 ], [ 403168.565615462895948, 3786053.102746693883091 ], [ 403167.955239064118359, 3786053.102746693883091 ], [ 403167.344862665282562, 3786053.71312309242785 ], [ 403167.039674465893768, 3786053.71312309242785 ], [ 403166.734486266504973, 3786054.01831129193306 ], [ 403166.429298067116179, 3786054.01831129193306 ], [ 403166.124109867727384, 3786054.32349949143827 ], [ 403166.124109867727384, 3786054.62868769094348 ], [ 403165.818921668338589, 3786054.933875889983028 ], [ 403165.818921668338589, 3786055.239064089488238 ], [ 403165.208545269561, 3786055.849440488498658 ], [ 403165.208545269561, 3786056.154628687538207 ], [ 403164.903357070172206, 3786056.459816887043417 ], [ 403163.377416073228233, 3786056.459816887043417 ] ] ] } },
{ "type": "Feature", "properties": { "confidence": 0.437366783618927, "class": 1 }, "geometry": { "type": "Polygon", "coordinates": [ [ [ 403133.774160732456949, 3786018.616480162832886 ], [ 403133.163784333679359, 3786018.006103763822466 ], [ 403132.55340793490177, 3786018.006103763822466 ], [ 403131.027466937957797, 3786016.480162767227739 ], [ 403131.027466937957797, 3786015.869786368217319 ], [ 403130.722278738569003, 3786015.564598168712109 ], [ 403130.722278738569003, 3786015.259409969672561 ], [ 403130.417090539180208, 3786014.954221770167351 ], [ 403130.417090539180208, 3786014.649033570662141 ], [ 403129.806714140402619, 3786014.038657172117382 ], [ 403129.806714140402619, 3786012.817904374562204 ], [ 403129.501525941013824, 3786012.512716175056994 ], [ 403129.501525941013824, 3786011.902339776046574 ], [ 403129.19633774162503, 3786011.597151577007025 ], [ 403129.19633774162503, 3786010.681586978491396 ], [ 403130.111902339791413, 3786009.766022380441427 ], [ 403131.637843336735386, 3786009.766022380441427 ], [ 403131.943031536124181, 3786010.071210579946637 ], [ 403132.55340793490177, 3786010.071210579946637 ], [ 403132.858596134290565, 3786010.376398779451847 ], [ 403133.468972533068154, 3786010.376398779451847 ], [ 403133.774160732456949, 3786010.071210579946637 ], [ 403134.994913530012127, 3786010.071210579946637 ], [ 403135.605289928789716, 3786009.460834180936217 ], [ 403135.910478128178511, 3786009.460834180936217 ], [ 403136.215666327567305, 3786009.155645981896669 ], [ 403136.5208545269561, 3786009.155645981896669 ], [ 403136.826042726344895, 3786008.850457782391459 ], [ 403137.131230925733689, 3786008.850457782391459 ], [ 403137.436419125122484, 3786008.545269582886249 ], [ 403140.183112919621635, 3786008.545269582886249 ], [ 403140.793489318399224, 3786009.155645981896669 ], [ 403140.793489318399224, 3786010.376398779451847 ], [ 403141.098677517788019, 3786010.681586978491396 ], [ 403141.098677517788019, 3786011.291963377501816 ], [ 403141.403865717176814, 3786011.597151577007025 ], [ 403141.403865717176814, 3786013.733468972612172 ], [ 403141.709053916565608, 3786014.038657172117382 ], [ 403141.709053916565608, 3786015.869786368217319 ], [ 403141.098677517788019, 3786016.480162767227739 ], [ 403140.793489318399224, 3786016.480162767227739 ], [ 403140.48830111901043, 3786016.785350966267288 ], [ 403139.877924720232841, 3786016.785350966267288 ], [ 403138.962360122066457, 3786017.700915564782917 ], [ 403138.657171922677662, 3786017.700915564782917 ], [ 403138.351983723288868, 3786018.006103763822466 ], [ 403138.046795523900073, 3786018.006103763822466 ], [ 403137.741607324511278, 3786018.311291963327676 ], [ 403136.5208545269561, 3786018.311291963327676 ], [ 403136.215666327567305, 3786018.616480162832886 ], [ 403133.774160732456949, 3786018.616480162832886 ] ] ] } },
{ "type": "Feature", "properties": { "confidence": 0.39512166380882263, "class": 1 }, "geometry": { "type": "Polygon", "coordinates": [ [ [ 402784.944048830133397, 3786315.259409969672561 ], [ 402784.638860630744603, 3786314.954221770167351 ], [ 402784.638860630744603, 3786314.649033570662141 ], [ 402784.333672431355808, 3786314.343845371156931 ], [ 402784.333672431355808, 3786310.376398779451847 ], [ 402784.638860630744603, 3786310.071210579946637 ], [ 402784.944048830133397, 3786310.071210579946637 ], [ 402785.249237029522192, 3786309.766022380441427 ], [ 402785.554425228910986, 3786309.766022380441427 ], [ 402785.859613428299781, 3786309.460834180936217 ], [ 402786.164801627688576, 3786309.460834180936217 ], [ 402786.46998982707737, 3786309.155645981896669 ], [ 402786.775178026466165, 3786309.155645981896669 ], [ 402787.385554425243754, 3786309.766022380441427 ], [ 402787.385554425243754, 3786310.376398779451847 ], [ 402787.690742624632549, 3786310.681586978491396 ], [ 402787.995930824021343, 3786310.681586978491396 ], [ 402788.301119023410138, 3786310.986775177996606 ], [ 402788.606307222798932, 3786310.986775177996606 ], [ 402788.606307222798932, 3786311.902339776046574 ], [ 402788.301119023410138, 3786312.207527975551784 ], [ 402788.301119023410138, 3786312.512716175056994 ], [ 402787.995930824021343, 3786312.817904374562204 ], [ 402787.995930824021343, 3786313.123092573601753 ], [ 402787.690742624632549, 3786313.428280773106962 ], [ 402787.690742624632549, 3786313.733468972612172 ], [ 402787.385554425243754, 3786313.733468972612172 ], [ 402786.164801627688576, 3786314.954221770167351 ], [ 402785.859613428299781, 3786314.954221770167351 ], [ 402785.554425228910986, 3786315.259409969672561 ], [ 402784.944048830133397, 3786315.259409969672561 ] ] ] } },
{ "type": "Feature", "properties": { "confidence": 0.38626423478126526, "class": 1 }, "geometry": { "type": "Polygon", "coordinates": [ [ [ 402737.334689725306816, 3786092.47202441515401 ], [ 402736.724313326529227, 3786091.86164801614359 ], [ 402736.724313326529227, 3786088.199389623478055 ], [ 402736.419125127140433, 3786087.894201424438506 ], [ 402736.724313326529227, 3786087.589013224933296 ], [ 402736.724313326529227, 3786086.368260427378118 ], [ 402737.029501525918022, 3786086.063072227872908 ], [ 402738.2502543234732, 3786086.063072227872908 ], [ 402738.555442522861995, 3786085.757884028367698 ], [ 402740.38657171925297, 3786085.757884028367698 ], [ 402740.996948118030559, 3786086.368260427378118 ], [ 402740.996948118030559, 3786088.199389623478055 ], [ 402740.691759918641765, 3786088.504577822983265 ], [ 402740.691759918641765, 3786089.420142421033233 ], [ 402740.38657171925297, 3786089.725330620538443 ], [ 402740.38657171925297, 3786090.335707019548863 ], [ 402740.081383519864175, 3786090.640895218588412 ], [ 402740.081383519864175, 3786091.251271617598832 ], [ 402739.776195320475381, 3786091.556459817104042 ], [ 402739.776195320475381, 3786091.86164801614359 ], [ 402739.471007121086586, 3786092.1668362156488 ], [ 402739.165818921639584, 3786092.1668362156488 ], [ 402738.860630722250789, 3786092.47202441515401 ], [ 402737.334689725306816, 3786092.47202441515401 ] ] ] } },
{ "type": "Feature", "properties": { "confidence": 0.37763723731040955, "class": 1 }, "geometry": { "type": "Polygon", "coordinates": [ [ [ 402773.957273652078584, 3786255.137334689497948 ], [ 402773.346897253300995, 3786254.526958290953189 ], [ 402773.346897253300995, 3786253.001017293892801 ], [ 402773.652085452689789, 3786252.695829094387591 ], [ 402773.652085452689789, 3786250.559511698782444 ], [ 402773.957273652078584, 3786250.254323499277234 ], [ 402773.957273652078584, 3786249.338758901227266 ], [ 402774.262461851467378, 3786249.033570701722056 ], [ 402774.262461851467378, 3786248.423194303177297 ], [ 402774.567650050856173, 3786248.118006103672087 ], [ 402774.567650050856173, 3786247.812817904166877 ], [ 402774.872838250244968, 3786247.507629705127329 ], [ 402774.872838250244968, 3786247.202441505622119 ], [ 402776.093591047800146, 3786245.98168870806694 ], [ 402776.093591047800146, 3786245.67650050856173 ], [ 402777.00915564596653, 3786244.760935910511762 ], [ 402777.619532044744119, 3786244.760935910511762 ], [ 402778.840284842299297, 3786245.98168870806694 ], [ 402778.840284842299297, 3786246.28687690757215 ], [ 402779.145473041688092, 3786246.592065106611699 ], [ 402779.145473041688092, 3786247.812817904166877 ], [ 402779.450661241076887, 3786248.118006103672087 ], [ 402779.450661241076887, 3786249.033570701722056 ], [ 402779.755849440465681, 3786249.338758901227266 ], [ 402779.755849440465681, 3786251.169888097792864 ], [ 402779.450661241076887, 3786251.475076296832412 ], [ 402779.450661241076887, 3786252.695829094387591 ], [ 402779.145473041688092, 3786253.001017293892801 ], [ 402779.145473041688092, 3786253.306205493398011 ], [ 402777.924720244132914, 3786254.526958290953189 ], [ 402777.619532044744119, 3786254.526958290953189 ], [ 402777.314343845355324, 3786254.832146490458399 ], [ 402777.00915564596653, 3786254.832146490458399 ], [ 402776.703967446577735, 3786255.137334689497948 ], [ 402773.957273652078584, 3786255.137334689497948 ] ] ] } },
{ "type": "Feature", "properties": { "confidence": 0.35510191321372986, "class": 1 }, "geometry": { "type": "Polygon", "coordinates": [ [ [ 403001.62767039675964, 3786336.012207528110594 ], [ 403001.322482197370846, 3786335.707019328605384 ], [ 403000.712105798593257, 3786335.707019328605384 ], [ 403000.406917599204462, 3786335.401831129100174 ], [ 403000.101729399815667, 3786335.401831129100174 ], [ 402999.796541200426873, 3786335.096642929594964 ], [ 402999.796541200426873, 3786334.791454730555415 ], [ 402999.491353001038078, 3786334.486266531050205 ], [ 402999.491353001038078, 3786330.51881993887946 ], [ 402999.796541200426873, 3786330.51881993887946 ], [ 403000.101729399815667, 3786330.21363173937425 ], [ 403000.101729399815667, 3786329.908443540334702 ], [ 403000.406917599204462, 3786329.603255340829492 ], [ 403000.406917599204462, 3786329.298067141324282 ], [ 403002.543234994926024, 3786329.298067141324282 ], [ 403003.458799593092408, 3786330.21363173937425 ], [ 403003.458799593092408, 3786330.51881993887946 ], [ 403004.374364191258792, 3786331.434384536929429 ], [ 403004.374364191258792, 3786333.875890132039785 ], [ 403004.069175991869997, 3786334.181078331544995 ], [ 403004.069175991869997, 3786335.096642929594964 ], [ 403003.763987792481203, 3786335.401831129100174 ], [ 403003.763987792481203, 3786335.707019328605384 ], [ 403003.458799593092408, 3786336.012207528110594 ], [ 403001.62767039675964, 3786336.012207528110594 ] ] ] } },
{ "type": "Feature", "properties": { "confidence": 0.35314163565635681, "class": 1 }, "geometry": { "type": "Polygon", "coordinates": [ [ [ 402849.338758901343681, 3786181.892166836187243 ], [ 402849.033570701954886, 3786181.586978636682034 ], [ 402848.728382502566092, 3786181.586978636682034 ], [ 402847.507629705010913, 3786180.366225839126855 ], [ 402847.507629705010913, 3786180.061037640087306 ], [ 402847.202441505622119, 3786179.755849440582097 ], [ 402847.202441505622119, 3786177.00915564596653 ], [ 402847.507629705010913, 3786176.70396744646132 ], [ 402847.507629705010913, 3786176.398779247421771 ], [ 402847.812817904399708, 3786176.093591047916561 ], [ 402849.643947100732476, 3786176.093591047916561 ], [ 402849.94913530012127, 3786176.398779247421771 ], [ 402850.254323499510065, 3786176.398779247421771 ], [ 402850.864699898287654, 3786177.00915564596653 ], [ 402850.864699898287654, 3786177.31434384547174 ], [ 402851.169888097676449, 3786177.61953204497695 ], [ 402851.169888097676449, 3786179.450661241076887 ], [ 402850.864699898287654, 3786179.755849440582097 ], [ 402850.864699898287654, 3786180.671414038632065 ], [ 402850.559511698898859, 3786180.976602238137275 ], [ 402850.559511698898859, 3786181.281790437642485 ], [ 402849.94913530012127, 3786181.892166836187243 ], [ 402849.338758901343681, 3786181.892166836187243 ] ] ] } },
{ "type": "Feature", "properties": { "confidence": 0.34762170910835266, "class": 1 }, "geometry": { "type": "Polygon", "coordinates": [ [ [ 403145.981688708008733, 3786216.378433367237449 ], [ 403145.981688708008733, 3786216.073245167732239 ], [ 403145.371312309231143, 3786215.46286876918748 ], [ 403145.371312309231143, 3786215.15768056968227 ], [ 403145.066124109842349, 3786214.85249237017706 ], [ 403145.066124109842349, 3786214.547304171137512 ], [ 403144.760935910453554, 3786214.242115971632302 ], [ 403144.760935910453554, 3786210.274669379461557 ], [ 403149.033570701954886, 3786210.274669379461557 ], [ 403149.033570701954886, 3786210.579857578966767 ], [ 403149.643947100732476, 3786211.190233977511525 ], [ 403149.643947100732476, 3786211.495422177016735 ], [ 403149.94913530012127, 3786211.800610376521945 ], [ 403149.94913530012127, 3786213.326551373116672 ], [ 403150.254323499510065, 3786213.631739572621882 ], [ 403150.254323499510065, 3786214.85249237017706 ], [ 403149.338758901343681, 3786215.76805696869269 ], [ 403149.033570701954886, 3786215.76805696869269 ], [ 403148.423194303177297, 3786216.378433367237449 ], [ 403145.981688708008733, 3786216.378433367237449 ] ] ] } },
{ "type": "Feature", "properties": { "confidence": 0.29699349403381348, "class": 1 }, "geometry": { "type": "Polygon", "coordinates": [ [ [ 402805.696846388629638, 3786332.349949135445058 ], [ 402805.391658189240843, 3786332.044760935939848 ], [ 402805.391658189240843, 3786331.739572736434639 ], [ 402805.086469989852048, 3786331.434384536929429 ], [ 402805.086469989852048, 3786330.82400813838467 ], [ 402804.781281790463254, 3786330.51881993887946 ], [ 402804.781281790463254, 3786330.21363173937425 ], [ 402804.476093591074459, 3786329.908443540334702 ], [ 402804.476093591074459, 3786329.603255340829492 ], [ 402804.170905391685665, 3786329.298067141324282 ], [ 402804.170905391685665, 3786326.856561546213925 ], [ 402807.8331637843512, 3786326.856561546213925 ], [ 402807.8331637843512, 3786327.466937945224345 ], [ 402808.138351983739994, 3786327.772126144263893 ], [ 402808.138351983739994, 3786328.077314343769103 ], [ 402807.8331637843512, 3786328.382502543274313 ], [ 402807.8331637843512, 3786330.21363173937425 ], [ 402807.527975584962405, 3786330.51881993887946 ], [ 402807.527975584962405, 3786330.82400813838467 ], [ 402807.222787385573611, 3786331.12919633788988 ], [ 402807.222787385573611, 3786331.434384536929429 ], [ 402806.917599186184816, 3786331.739572736434639 ], [ 402806.917599186184816, 3786332.044760935939848 ], [ 402806.612410986796021, 3786332.044760935939848 ], [ 402806.307222787407227, 3786332.349949135445058 ], [ 402805.696846388629638, 3786332.349949135445058 ] ] ] } },
{ "type": "Feature", "properties": { "confidence": 0.29220855236053467, "class": 1 }, "geometry": { "type": "Polygon", "coordinates": [ [ [ 403019.02339776197914, 3786222.177009155508131 ], [ 403018.718209562590346, 3786221.871820956468582 ], [ 403018.718209562590346, 3786221.566632756963372 ], [ 403018.107833163812757, 3786220.956256357952952 ], [ 403018.413021363201551, 3786220.651068158913404 ], [ 403018.413021363201551, 3786219.125127161853015 ], [ 403018.718209562590346, 3786218.819938962347806 ], [ 403018.718209562590346, 3786214.547304171137512 ], [ 403018.413021363201551, 3786214.242115971632302 ], [ 403018.413021363201551, 3786210.885045778006315 ], [ 403018.718209562590346, 3786210.579857578966767 ], [ 403023.906408952199854, 3786210.579857578966767 ], [ 403024.211597151588649, 3786210.885045778006315 ], [ 403024.821973550366238, 3786210.885045778006315 ], [ 403025.127161749755032, 3786211.190233977511525 ], [ 403025.432349949143827, 3786211.190233977511525 ], [ 403026.042726347921416, 3786211.800610376521945 ], [ 403026.042726347921416, 3786212.105798575561494 ], [ 403026.347914547310211, 3786212.410986775066704 ], [ 403026.653102746699005, 3786212.410986775066704 ], [ 403026.653102746699005, 3786213.021363174077123 ], [ 403026.9582909460878, 3786213.326551373116672 ], [ 403026.9582909460878, 3786213.631739572621882 ], [ 403027.263479145476595, 3786213.936927772127092 ], [ 403027.263479145476595, 3786217.293997965287417 ], [ 403026.9582909460878, 3786217.599186164792627 ], [ 403026.9582909460878, 3786218.209562563803047 ], [ 403026.653102746699005, 3786218.514750762842596 ], [ 403026.653102746699005, 3786218.819938962347806 ], [ 403026.042726347921416, 3786219.430315361358225 ], [ 403026.042726347921416, 3786219.735503560397774 ], [ 403025.737538148532622, 3786220.040691759902984 ], [ 403025.737538148532622, 3786220.345879959408194 ], [ 403025.432349949143827, 3786220.651068158913404 ], [ 403025.432349949143827, 3786221.261444557458162 ], [ 403024.821973550366238, 3786221.871820956468582 ], [ 403023.906408952199854, 3786221.871820956468582 ], [ 403023.601220752811059, 3786221.566632756963372 ], [ 403021.770091556478292, 3786221.566632756963372 ], [ 403021.464903357089497, 3786221.871820956468582 ], [ 403020.549338758923113, 3786221.871820956468582 ], [ 403020.244150559534319, 3786222.177009155508131 ], [ 403019.02339776197914, 3786222.177009155508131 ] ] ] } },
{ "type": "Feature", "properties": { "confidence": 0.28981345891952515, "class": 1 }, "geometry": { "type": "Polygon", "coordinates": [ [ [ 402990.335707019316033, 3786054.933875889983028 ], [ 402990.030518819927238, 3786054.62868769094348 ], [ 402989.725330620538443, 3786054.62868769094348 ], [ 402989.725330620538443, 3786054.01831129193306 ], [ 402989.420142421149649, 3786053.71312309242785 ], [ 402989.420142421149649, 3786053.102746693883091 ], [ 402989.114954221760854, 3786052.797558494377881 ], [ 402989.114954221760854, 3786050.966429298277944 ], [ 402988.80976602237206, 3786050.661241098772734 ], [ 402988.80976602237206, 3786049.440488301217556 ], [ 402989.114954221760854, 3786049.135300101712346 ], [ 402989.114954221760854, 3786048.524923703167588 ], [ 402989.420142421149649, 3786048.219735503662378 ], [ 402989.420142421149649, 3786047.304170905612409 ], [ 402989.725330620538443, 3786046.998982706107199 ], [ 402990.640895218704827, 3786046.998982706107199 ], [ 402990.946083418093622, 3786046.693794506601989 ], [ 402991.556459816871211, 3786046.693794506601989 ], [ 402991.861648016260006, 3786046.388606307096779 ], [ 402993.082400813815184, 3786046.388606307096779 ], [ 402993.692777212592773, 3786046.998982706107199 ], [ 402993.692777212592773, 3786048.524923703167588 ], [ 402993.997965411981568, 3786048.830111902207136 ], [ 402993.997965411981568, 3786050.966429298277944 ], [ 402993.387589013203979, 3786051.576805696822703 ], [ 402993.387589013203979, 3786051.881993896327913 ], [ 402993.082400813815184, 3786052.187182095833123 ], [ 402993.082400813815184, 3786052.492370294872671 ], [ 402992.777212614426389, 3786052.797558494377881 ], [ 402992.777212614426389, 3786053.102746693883091 ], [ 402992.472024415037595, 3786053.407934893388301 ], [ 402992.472024415037595, 3786053.71312309242785 ], [ 402992.1668362156488, 3786054.01831129193306 ], [ 402992.1668362156488, 3786054.32349949143827 ], [ 402991.861648016260006, 3786054.62868769094348 ], [ 402990.640895218704827, 3786054.62868769094348 ], [ 402990.335707019316033, 3786054.933875889983028 ] ] ] } }
]
}
