{
"type": "FeatureCollection",
"name": "cell_00521_pre",
"crs": { "type": "name", "properties": { "name": "urn:ogc:def:crs:EPSG::32611" } },
"features": [
{ "type": "Feature", "properties": { "confidence": 0.95133483409881592, "class": 1 }, "geometry": { "type": "Polygon", "coordinates": [ [ [ 403323.601220752811059, 3784531.12919633788988 ], [ 403323.296032553422265, 3784530.82400813838467 ], [ 403322.380467955255881, 3784530.82400813838467 ], [ 403322.075279755867086, 3784530.51881993887946 ], [ 403322.075279755867086, 3784529.298067141324282 ], [ 403322.380467955255881, 3784528.992878941819072 ], [ 403322.380467955255881, 3784528.382502543274313 ], [ 403322.685656154644676, 3784528.077314343769103 ], [ 403322.685656154644676, 3784527.772126144263893 ], [ 403322.99084435403347, 3784527.466937945224345 ], [ 403322.99084435403347, 3784526.856561546213925 ], [ 403327.873855544254184, 3784526.856561546213925 ], [ 403327.873855544254184, 3784527.161749745719135 ], [ 403327.568667344865389, 3784527.466937945224345 ], [ 403327.568667344865389, 3784527.772126144263893 ], [ 403327.263479145476595, 3784528.077314343769103 ], [ 403327.263479145476595, 3784528.687690742779523 ], [ 403326.9582909460878, 3784528.992878941819072 ], [ 403326.9582909460878, 3784529.298067141324282 ], [ 403326.347914547310211, 3784529.908443540334702 ], [ 403326.347914547310211, 3784530.21363173937425 ], [ 403326.042726347921416, 3784530.51881993887946 ], [ 403326.042726347921416, 3784530.82400813838467 ], [ 403325.737538148532622, 3784530.82400813838467 ], [ 403325.432349949143827, 3784531.12919633788988 ], [ 403323.601220752811059, 3784531.12919633788988 ] ] ] } },
{ "type": "Feature", "properties": { "confidence": 0.9371039867401123, "class": 1 }, "geometry": { "type": "Polygon", "coordinates": [ [ [ 403762.767039674450643, 3784412.716174974571913 ], [ 403762.461851475061849, 3784412.410986775066704 ], [ 403761.85147507628426, 3784412.410986775066704 ], [ 403761.546286876895465, 3784412.105798575561494 ], [ 403761.24109867750667, 3784412.105798575561494 ], [ 403760.935910478117876, 3784411.800610376521945 ], [ 403760.630722278729081, 3784411.800610376521945 ], [ 403760.325534079340287, 3784411.495422177016735 ], [ 403760.020345879951492, 3784411.495422177016735 ], [ 403759.409969481173903, 3784410.885045778006315 ], [ 403759.409969481173903, 3784410.274669379461557 ], [ 403759.715157680562697, 3784409.969481179956347 ], [ 403759.715157680562697, 3784409.664292980451137 ], [ 403766.429298067116179, 3784409.664292980451137 ], [ 403766.429298067116179, 3784409.969481179956347 ], [ 403766.734486266504973, 3784410.274669379461557 ], [ 403766.734486266504973, 3784410.885045778006315 ], [ 403766.429298067116179, 3784411.190233977511525 ], [ 403766.429298067116179, 3784412.410986775066704 ], [ 403766.124109867727384, 3784412.410986775066704 ], [ 403765.818921668338589, 3784412.716174974571913 ], [ 403762.767039674450643, 3784412.716174974571913 ] ] ] } },
{ "type": "Feature", "properties": { "confidence": 0.93129891157150269, "class": 1 }, "geometry": { "type": "Polygon", "coordinates": [ [ [ 403689.827060020354111, 3784758.189216683618724 ], [ 403689.521871820965316, 3784757.884028484113514 ], [ 403689.216683621576522, 3784757.884028484113514 ], [ 403688.606307222798932, 3784757.273652085568756 ], [ 403688.606307222798932, 3784753.916581891942769 ], [ 403689.521871820965316, 3784753.001017293892801 ], [ 403689.521871820965316, 3784752.695829094387591 ], [ 403689.827060020354111, 3784752.390640895348042 ], [ 403689.827060020354111, 3784752.085452695842832 ], [ 403690.132248219742905, 3784751.780264496337622 ], [ 403690.132248219742905, 3784751.475076296832412 ], [ 403690.4374364191317, 3784751.169888097792864 ], [ 403690.742624618520495, 3784751.169888097792864 ], [ 403691.047812817909289, 3784750.864699898287654 ], [ 403693.184130213630851, 3784750.864699898287654 ], [ 403693.489318413019646, 3784751.169888097792864 ], [ 403694.099694811797235, 3784751.169888097792864 ], [ 403695.320447609352414, 3784752.390640895348042 ], [ 403695.320447609352414, 3784756.052899288013577 ], [ 403695.015259409963619, 3784756.358087487053126 ], [ 403694.710071210574824, 3784756.358087487053126 ], [ 403693.794506612408441, 3784757.273652085568756 ], [ 403693.489318413019646, 3784757.273652085568756 ], [ 403693.184130213630851, 3784757.578840285073966 ], [ 403692.878942014242057, 3784757.578840285073966 ], [ 403692.573753814853262, 3784757.884028484113514 ], [ 403691.963377416075673, 3784757.884028484113514 ], [ 403691.658189216686878, 3784758.189216683618724 ], [ 403689.827060020354111, 3784758.189216683618724 ] ] ] } },
{ "type": "Feature", "properties": { "confidence": 0.85496437549591064, "class": 1 }, "geometry": { "type": "Polygon", "coordinates": [ [ [ 403234.791454730439, 3784531.12919633788988 ], [ 403234.486266531050205, 3784530.82400813838467 ], [ 403233.875890132272616, 3784530.82400813838467 ], [ 403233.875890132272616, 3784530.51881993887946 ], [ 403233.570701932883821, 3784530.21363173937425 ], [ 403233.570701932883821, 3784528.077314343769103 ], [ 403234.181078331661411, 3784527.466937945224345 ], [ 403234.181078331661411, 3784526.856561546213925 ], [ 403239.369277721270919, 3784526.856561546213925 ], [ 403239.369277721270919, 3784527.161749745719135 ], [ 403239.064089521882124, 3784527.466937945224345 ], [ 403239.064089521882124, 3784527.772126144263893 ], [ 403238.75890132249333, 3784528.077314343769103 ], [ 403238.75890132249333, 3784528.687690742779523 ], [ 403237.843336724326946, 3784529.603255340829492 ], [ 403237.538148524938151, 3784529.603255340829492 ], [ 403236.927772126160562, 3784530.21363173937425 ], [ 403236.927772126160562, 3784530.82400813838467 ], [ 403236.622583926771767, 3784531.12919633788988 ], [ 403234.791454730439, 3784531.12919633788988 ] ] ] } },
{ "type": "Feature", "properties": { "confidence": 0.83871829509735107, "class": 1 }, "geometry": { "type": "Polygon", "coordinates": [ [ [ 403226.551373346883338, 3784530.82400813838467 ], [ 403226.551373346883338, 3784526.856561546213925 ], [ 403232.349949135328643, 3784526.856561546213925 ], [ 403232.349949135328643, 3784527.161749745719135 ], [ 403232.044760935881641, 3784527.466937945224345 ], [ 403232.044760935881641, 3784528.382502543274313 ], [ 403231.739572736492846, 3784528.687690742779523 ], [ 403231.739572736492846, 3784528.992878941819072 ], [ 403231.434384537104052, 3784529.298067141324282 ], [ 403230.824008138326462, 3784529.298067141324282 ], [ 403230.518819938937668, 3784529.603255340829492 ], [ 403229.908443540160079, 3784529.603255340829492 ], [ 403229.603255340771284, 3784529.908443540334702 ], [ 403229.298067141382489, 3784529.908443540334702 ], [ 403228.6876907426049, 3784530.51881993887946 ], [ 403228.077314343827311, 3784530.51881993887946 ], [ 403227.772126144438516, 3784530.82400813838467 ], [ 403226.551373346883338, 3784530.82400813838467 ] ] ] } },
{ "type": "Feature", "properties": { "confidence": 0.82184767723083496, "class": 1 }, "geometry": { "type": "Polygon", "coordinates": [ [ [ 403555.239064089546446, 3784539.369277721270919 ], [ 403554.628687690768857, 3784538.758901322260499 ], [ 403554.323499491380062, 3784538.758901322260499 ], [ 403554.323499491380062, 3784538.45371312322095 ], [ 403553.713123092602473, 3784537.843336724210531 ], [ 403553.713123092602473, 3784536.927772126160562 ], [ 403553.40793489315547, 3784536.622583926655352 ], [ 403553.40793489315547, 3784535.707019328605384 ], [ 403553.713123092602473, 3784535.401831129100174 ], [ 403553.713123092602473, 3784533.265513733495027 ], [ 403553.40793489315547, 3784532.960325533989817 ], [ 403553.40793489315547, 3784531.12919633788988 ], [ 403553.713123092602473, 3784530.82400813838467 ], [ 403553.713123092602473, 3784530.51881993887946 ], [ 403555.239064089546446, 3784530.51881993887946 ], [ 403555.54425228893524, 3784530.82400813838467 ], [ 403555.849440488324035, 3784530.82400813838467 ], [ 403556.15462868771283, 3784531.12919633788988 ], [ 403556.765005086490419, 3784531.12919633788988 ], [ 403557.070193285879213, 3784531.434384536929429 ], [ 403557.375381485268008, 3784531.434384536929429 ], [ 403557.680569684656803, 3784531.739572736434639 ], [ 403557.680569684656803, 3784532.655137334484607 ], [ 403557.985757884045597, 3784532.960325533989817 ], [ 403557.985757884045597, 3784533.570701933000237 ], [ 403558.290946083434392, 3784533.875890132039785 ], [ 403558.290946083434392, 3784534.181078331544995 ], [ 403559.206510681600776, 3784535.096642929594964 ], [ 403559.206510681600776, 3784536.927772126160562 ], [ 403558.901322482211981, 3784537.232960325665772 ], [ 403558.901322482211981, 3784538.14852492371574 ], [ 403558.596134282823186, 3784538.45371312322095 ], [ 403558.290946083434392, 3784538.45371312322095 ], [ 403557.680569684656803, 3784539.064089521765709 ], [ 403557.375381485268008, 3784539.064089521765709 ], [ 403557.070193285879213, 3784539.369277721270919 ], [ 403555.239064089546446, 3784539.369277721270919 ] ] ] } },
{ "type": "Feature", "properties": { "confidence": 0.75201493501663208, "class": 1 }, "geometry": { "type": "Polygon", "coordinates": [ [ [ 403369.07426246185787, 3784791.454730417113751 ], [ 403368.463886063080281, 3784790.844354018103331 ], [ 403368.463886063080281, 3784789.318413021508604 ], [ 403368.769074262469076, 3784789.013224822003394 ], [ 403368.769074262469076, 3784788.097660223953426 ], [ 403369.379450661246665, 3784787.487283824943006 ], [ 403369.379450661246665, 3784787.182095625437796 ], [ 403369.989827060024254, 3784786.571719226893038 ], [ 403369.989827060024254, 3784786.266531027387828 ], [ 403372.431332655134611, 3784783.825025432277471 ], [ 403372.736520854523405, 3784783.825025432277471 ], [ 403373.0417090539122, 3784783.519837232772261 ], [ 403373.0417090539122, 3784783.214649033732712 ], [ 403373.346897253300995, 3784782.909460834227502 ], [ 403373.652085452689789, 3784782.909460834227502 ], [ 403373.957273652078584, 3784782.604272634722292 ], [ 403374.262461851467378, 3784782.604272634722292 ], [ 403374.567650050856173, 3784782.299084435217083 ], [ 403376.398779247188941, 3784782.299084435217083 ], [ 403376.703967446577735, 3784782.604272634722292 ], [ 403377.00915564596653, 3784782.604272634722292 ], [ 403377.00915564596653, 3784785.350966429337859 ], [ 403376.703967446577735, 3784785.656154628843069 ], [ 403376.703967446577735, 3784785.961342827882618 ], [ 403375.788402848411351, 3784786.876907426398247 ], [ 403375.788402848411351, 3784787.182095625437796 ], [ 403375.178026449633762, 3784787.792472024448216 ], [ 403375.178026449633762, 3784788.097660223953426 ], [ 403374.872838250244968, 3784788.402848422992975 ], [ 403374.872838250244968, 3784789.318413021508604 ], [ 403374.567650050856173, 3784789.623601220548153 ], [ 403373.957273652078584, 3784789.623601220548153 ], [ 403373.652085452689789, 3784789.928789420053363 ], [ 403373.346897253300995, 3784789.928789420053363 ], [ 403373.0417090539122, 3784790.233977619558573 ], [ 403373.0417090539122, 3784790.539165819063783 ], [ 403372.736520854523405, 3784790.844354018103331 ], [ 403372.431332655134611, 3784790.844354018103331 ], [ 403372.126144455745816, 3784791.149542217608541 ], [ 403371.210579857579432, 3784791.149542217608541 ], [ 403370.905391658190638, 3784791.454730417113751 ], [ 403369.07426246185787, 3784791.454730417113751 ] ] ] } },
{ "type": "Feature", "properties": { "confidence": 0.72942197322845459, "class": 1 }, "geometry": { "type": "Polygon", "coordinates": [ [ [ 403752.085452695842832, 3784413.936927772127092 ], [ 403751.780264496454038, 3784413.631739572621882 ], [ 403751.169888097676449, 3784413.631739572621882 ], [ 403750.864699898287654, 3784413.326551373116672 ], [ 403750.864699898287654, 3784413.021363174077123 ], [ 403751.169888097676449, 3784412.716174974571913 ], [ 403751.169888097676449, 3784410.579857578966767 ], [ 403750.864699898287654, 3784410.274669379461557 ], [ 403750.864699898287654, 3784409.664292980451137 ], [ 403756.358087487285957, 3784409.664292980451137 ], [ 403756.358087487285957, 3784410.579857578966767 ], [ 403756.052899287897162, 3784410.885045778006315 ], [ 403756.052899287897162, 3784411.190233977511525 ], [ 403755.747711088508368, 3784411.495422177016735 ], [ 403755.747711088508368, 3784411.800610376521945 ], [ 403755.137334689730778, 3784412.410986775066704 ], [ 403755.137334689730778, 3784412.716174974571913 ], [ 403754.221770091564395, 3784413.631739572621882 ], [ 403752.390640895231627, 3784413.631739572621882 ], [ 403752.085452695842832, 3784413.936927772127092 ] ] ] } },
{ "type": "Feature", "properties": { "confidence": 0.71195846796035767, "class": 1 }, "geometry": { "type": "Polygon", "coordinates": [ [ [ 403290.640895218704827, 3784542.115971515886486 ], [ 403290.030518819927238, 3784541.505595116876066 ], [ 403290.030518819927238, 3784540.590030518826097 ], [ 403289.725330620538443, 3784540.284842319320887 ], [ 403289.725330620538443, 3784539.064089521765709 ], [ 403291.251271617482416, 3784539.064089521765709 ], [ 403291.556459816871211, 3784538.758901322260499 ], [ 403292.777212614426389, 3784538.758901322260499 ], [ 403293.082400813815184, 3784538.45371312322095 ], [ 403293.692777212592773, 3784538.45371312322095 ], [ 403293.997965411981568, 3784538.14852492371574 ], [ 403294.303153611370362, 3784538.14852492371574 ], [ 403294.608341810759157, 3784537.843336724210531 ], [ 403297.660223804705311, 3784537.843336724210531 ], [ 403297.965412004094105, 3784538.14852492371574 ], [ 403297.965412004094105, 3784539.064089521765709 ], [ 403297.660223804705311, 3784539.369277721270919 ], [ 403297.660223804705311, 3784539.979654119815677 ], [ 403297.355035605316516, 3784539.979654119815677 ], [ 403296.439471007150132, 3784540.895218718331307 ], [ 403296.13428280770313, 3784540.895218718331307 ], [ 403295.829094608314335, 3784541.200406917370856 ], [ 403295.523906408925541, 3784541.200406917370856 ], [ 403295.218718209536746, 3784541.505595116876066 ], [ 403294.303153611370362, 3784541.505595116876066 ], [ 403293.997965411981568, 3784541.810783316381276 ], [ 403293.387589013203979, 3784541.810783316381276 ], [ 403293.082400813815184, 3784542.115971515886486 ], [ 403290.640895218704827, 3784542.115971515886486 ] ] ] } },
{ "type": "Feature", "properties": { "confidence": 0.69583970308303833, "class": 1 }, "geometry": { "type": "Polygon", "coordinates": [ [ [ 403447.812817904399708, 3784252.492370294872671 ], [ 403447.507629705010913, 3784252.187182095833123 ], [ 403446.59206510684453, 3784252.187182095833123 ], [ 403446.286876907397527, 3784251.881993896327913 ], [ 403446.286876907397527, 3784250.661241098772734 ], [ 403446.59206510684453, 3784250.356052899267524 ], [ 403446.59206510684453, 3784249.745676500722766 ], [ 403446.897253306233324, 3784249.440488301217556 ], [ 403446.897253306233324, 3784249.135300101712346 ], [ 403447.812817904399708, 3784248.219735503662378 ], [ 403447.812817904399708, 3784247.914547304157168 ], [ 403449.033570701954886, 3784246.693794506601989 ], [ 403449.033570701954886, 3784246.388606307096779 ], [ 403449.643947100732476, 3784246.388606307096779 ], [ 403449.94913530012127, 3784246.083418108057231 ], [ 403451.169888097676449, 3784246.083418108057231 ], [ 403451.475076297065243, 3784246.388606307096779 ], [ 403451.780264496454038, 3784246.388606307096779 ], [ 403451.780264496454038, 3784247.609359104651958 ], [ 403451.475076297065243, 3784247.914547304157168 ], [ 403451.475076297065243, 3784248.219735503662378 ], [ 403450.254323499510065, 3784249.440488301217556 ], [ 403450.254323499510065, 3784249.745676500722766 ], [ 403448.728382502566092, 3784251.271617497317493 ], [ 403448.728382502566092, 3784251.576805696822703 ], [ 403448.423194303177297, 3784251.881993896327913 ], [ 403448.423194303177297, 3784252.187182095833123 ], [ 403448.118006103788503, 3784252.492370294872671 ], [ 403447.812817904399708, 3784252.492370294872671 ] ] ] } },
{ "type": "Feature", "properties": { "confidence": 0.66838681697845459, "class": 1 }, "geometry": { "type": "Polygon", "coordinates": [ [ [ 403745.676500508619938, 3784264.089521871879697 ], [ 403745.371312309231143, 3784263.784333672374487 ], [ 403745.066124109842349, 3784263.784333672374487 ], [ 403744.760935910453554, 3784263.479145472869277 ], [ 403744.45574771106476, 3784263.479145472869277 ], [ 403744.150559511675965, 3784263.173957273829728 ], [ 403743.84537131228717, 3784263.173957273829728 ], [ 403741.403865717176814, 3784260.732451678719372 ], [ 403741.098677517788019, 3784260.732451678719372 ], [ 403741.098677517788019, 3784260.427263479214162 ], [ 403740.793489318399224, 3784260.122075279708952 ], [ 403740.793489318399224, 3784258.596134282648563 ], [ 403742.624618514731992, 3784256.765005086548626 ], [ 403742.624618514731992, 3784256.459816887043417 ], [ 403742.929806714120787, 3784256.459816887043417 ], [ 403743.234994913509581, 3784256.154628687538207 ], [ 403743.234994913509581, 3784255.849440488498658 ], [ 403743.84537131228717, 3784255.239064089488238 ], [ 403744.150559511675965, 3784255.239064089488238 ], [ 403744.45574771106476, 3784254.933875889983028 ], [ 403744.760935910453554, 3784254.933875889983028 ], [ 403745.066124109842349, 3784254.62868769094348 ], [ 403747.202441505622119, 3784254.62868769094348 ], [ 403747.507629705010913, 3784254.933875889983028 ], [ 403747.812817904399708, 3784254.933875889983028 ], [ 403748.423194303177297, 3784255.544252288993448 ], [ 403748.423194303177297, 3784255.849440488498658 ], [ 403748.728382502566092, 3784256.154628687538207 ], [ 403748.728382502566092, 3784256.459816887043417 ], [ 403749.033570701954886, 3784256.765005086548626 ], [ 403749.033570701954886, 3784257.070193286053836 ], [ 403749.643947100732476, 3784257.680569684598595 ], [ 403749.643947100732476, 3784257.985757884103805 ], [ 403749.94913530012127, 3784258.290946083609015 ], [ 403749.94913530012127, 3784259.816887080203742 ], [ 403750.254323499510065, 3784260.122075279708952 ], [ 403750.254323499510065, 3784262.258392675314099 ], [ 403749.94913530012127, 3784262.563580874819309 ], [ 403749.94913530012127, 3784263.173957273829728 ], [ 403749.033570701954886, 3784264.089521871879697 ], [ 403745.676500508619938, 3784264.089521871879697 ] ] ] } },
{ "type": "Feature", "properties": { "confidence": 0.59448224306106567, "class": 1 }, "geometry": { "type": "Polygon", "coordinates": [ [ [ 403281.180061037652194, 3784531.12919633788988 ], [ 403279.959308240097016, 3784529.908443540334702 ], [ 403279.959308240097016, 3784529.298067141324282 ], [ 403279.654120040708221, 3784528.992878941819072 ], [ 403279.654120040708221, 3784526.856561546213925 ], [ 403290.335707019316033, 3784526.856561546213925 ], [ 403290.335707019316033, 3784527.161749745719135 ], [ 403290.030518819927238, 3784527.466937945224345 ], [ 403290.030518819927238, 3784529.298067141324282 ], [ 403289.725330620538443, 3784529.603255340829492 ], [ 403288.80976602237206, 3784529.603255340829492 ], [ 403288.504577822983265, 3784529.908443540334702 ], [ 403287.894201424205676, 3784529.908443540334702 ], [ 403287.589013224816881, 3784530.21363173937425 ], [ 403287.283825025428087, 3784530.21363173937425 ], [ 403286.673448626650497, 3784530.82400813838467 ], [ 403286.368260427261703, 3784530.82400813838467 ], [ 403286.063072227872908, 3784531.12919633788988 ], [ 403281.180061037652194, 3784531.12919633788988 ] ] ] } },
{ "type": "Feature", "properties": { "confidence": 0.48379290103912354, "class": 1 }, "geometry": { "type": "Polygon", "coordinates": [ [ [ 403265.615462868765462, 3784529.908443540334702 ], [ 403265.310274669376668, 3784529.603255340829492 ], [ 403265.310274669376668, 3784528.687690742779523 ], [ 403265.615462868765462, 3784528.382502543274313 ], [ 403265.615462868765462, 3784527.466937945224345 ], [ 403265.920651068154257, 3784527.466937945224345 ], [ 403266.225839267543051, 3784527.161749745719135 ], [ 403266.225839267543051, 3784526.856561546213925 ], [ 403269.277721261430997, 3784526.856561546213925 ], [ 403269.277721261430997, 3784527.161749745719135 ], [ 403269.582909460819792, 3784527.466937945224345 ], [ 403270.193285859597381, 3784527.466937945224345 ], [ 403270.193285859597381, 3784528.687690742779523 ], [ 403269.582909460819792, 3784529.298067141324282 ], [ 403269.277721261430997, 3784529.298067141324282 ], [ 403268.972533062042203, 3784529.603255340829492 ], [ 403266.836215666320641, 3784529.603255340829492 ], [ 403266.531027466931846, 3784529.908443540334702 ], [ 403265.615462868765462, 3784529.908443540334702 ] ] ] } },
{ "type": "Feature", "properties": { "confidence": 0.46272337436676025, "class": 1 }, "geometry": { "type": "Polygon", "coordinates": [ [ [ 403328.179043743642978, 3784555.849440488498658 ], [ 403327.873855544254184, 3784555.544252288993448 ], [ 403327.873855544254184, 3784554.933875889983028 ], [ 403328.179043743642978, 3784554.62868769094348 ], [ 403328.179043743642978, 3784553.407934893388301 ], [ 403328.484231943031773, 3784553.102746693883091 ], [ 403328.484231943031773, 3784552.797558494377881 ], [ 403328.789420142420568, 3784552.797558494377881 ], [ 403329.094608341809362, 3784552.492370294872671 ], [ 403330.010172939975746, 3784552.492370294872671 ], [ 403330.315361139364541, 3784552.797558494377881 ], [ 403330.620549338753335, 3784552.797558494377881 ], [ 403330.92573753814213, 3784553.102746693883091 ], [ 403331.230925737530924, 3784553.102746693883091 ], [ 403331.841302136308514, 3784553.71312309242785 ], [ 403331.841302136308514, 3784554.01831129193306 ], [ 403331.536113936919719, 3784554.32349949143827 ], [ 403331.536113936919719, 3784554.62868769094348 ], [ 403330.620549338753335, 3784555.544252288993448 ], [ 403330.010172939975746, 3784555.544252288993448 ], [ 403329.704984740586951, 3784555.849440488498658 ], [ 403328.179043743642978, 3784555.849440488498658 ] ] ] } },
{ "type": "Feature", "properties": { "confidence": 0.44683846831321716, "class": 1 }, "geometry": { "type": "Polygon", "coordinates": [ [ [ 403540.895218718214892, 3784763.072227873839438 ], [ 403540.590030518826097, 3784762.767039674334228 ], [ 403539.064089521882124, 3784762.767039674334228 ], [ 403538.75890132249333, 3784762.461851475294679 ], [ 403538.453713123104535, 3784762.461851475294679 ], [ 403537.843336724326946, 3784761.85147507628426 ], [ 403537.843336724326946, 3784761.54628687677905 ], [ 403537.538148524938151, 3784761.241098677739501 ], [ 403537.538148524938151, 3784760.630722278729081 ], [ 403537.232960325549357, 3784760.325534079223871 ], [ 403537.232960325549357, 3784759.715157680679113 ], [ 403536.622583926771767, 3784759.104781281668693 ], [ 403536.622583926771767, 3784758.799593082629144 ], [ 403536.317395727382973, 3784758.494404883123934 ], [ 403536.317395727382973, 3784758.189216683618724 ], [ 403536.012207527994178, 3784757.884028484113514 ], [ 403535.707019328605384, 3784757.884028484113514 ], [ 403535.707019328605384, 3784756.052899288013577 ], [ 403537.232960325549357, 3784756.052899288013577 ], [ 403537.843336724326946, 3784756.663275686558336 ], [ 403538.14852492371574, 3784756.663275686558336 ], [ 403538.75890132249333, 3784757.273652085568756 ], [ 403539.064089521882124, 3784757.273652085568756 ], [ 403539.979654120048508, 3784758.189216683618724 ], [ 403540.284842319437303, 3784758.189216683618724 ], [ 403540.590030518826097, 3784758.494404883123934 ], [ 403540.895218718214892, 3784758.494404883123934 ], [ 403542.726347914547659, 3784760.325534079223871 ], [ 403542.726347914547659, 3784760.630722278729081 ], [ 403543.031536113936454, 3784760.935910478234291 ], [ 403543.031536113936454, 3784761.54628687677905 ], [ 403543.336724313325249, 3784761.85147507628426 ], [ 403543.336724313325249, 3784762.767039674334228 ], [ 403543.031536113936454, 3784763.072227873839438 ], [ 403540.895218718214892, 3784763.072227873839438 ] ] ] } },
{ "type": "Feature", "properties": { "confidence": 0.4391467273235321, "class": 1 }, "geometry": { "type": "Polygon", "coordinates": [ [ [ 403585.147507629706524, 3784414.547304171137512 ], [ 403584.537131230928935, 3784413.936927772127092 ], [ 403584.231943031540141, 3784413.936927772127092 ], [ 403583.926754832151346, 3784413.631739572621882 ], [ 403583.926754832151346, 3784412.410986775066704 ], [ 403583.011190233984962, 3784411.495422177016735 ], [ 403583.011190233984962, 3784410.579857578966767 ], [ 403582.706002034596168, 3784410.274669379461557 ], [ 403583.011190233984962, 3784409.969481179956347 ], [ 403583.011190233984962, 3784409.664292980451137 ], [ 403592.472024415037595, 3784409.664292980451137 ], [ 403592.472024415037595, 3784411.800610376521945 ], [ 403592.1668362156488, 3784412.105798575561494 ], [ 403592.1668362156488, 3784412.716174974571913 ], [ 403591.861648016260006, 3784412.716174974571913 ], [ 403591.556459816871211, 3784413.021363174077123 ], [ 403591.251271617482416, 3784413.021363174077123 ], [ 403590.946083418093622, 3784413.326551373116672 ], [ 403590.640895218704827, 3784413.326551373116672 ], [ 403590.030518819927238, 3784413.936927772127092 ], [ 403589.725330620538443, 3784413.936927772127092 ], [ 403589.420142421149649, 3784414.242115971632302 ], [ 403588.19938962359447, 3784414.242115971632302 ], [ 403587.894201424205676, 3784414.547304171137512 ], [ 403585.147507629706524, 3784414.547304171137512 ] ] ] } },
{ "type": "Feature", "properties": { "confidence": 0.43200618028640747, "class": 1 }, "geometry": { "type": "Polygon", "coordinates": [ [ [ 403320.549338758923113, 3784537.538148524705321 ], [ 403320.244150559534319, 3784537.232960325665772 ], [ 403319.63377416075673, 3784537.232960325665772 ], [ 403319.328585961367935, 3784536.927772126160562 ], [ 403319.02339776197914, 3784536.927772126160562 ], [ 403318.718209562590346, 3784536.622583926655352 ], [ 403318.718209562590346, 3784534.181078331544995 ], [ 403319.63377416075673, 3784533.265513733495027 ], [ 403320.549338758923113, 3784533.265513733495027 ], [ 403320.854526958311908, 3784532.960325533989817 ], [ 403322.685656154644676, 3784532.960325533989817 ], [ 403322.685656154644676, 3784533.265513733495027 ], [ 403323.296032553422265, 3784533.875890132039785 ], [ 403323.296032553422265, 3784534.181078331544995 ], [ 403323.601220752811059, 3784534.486266531050205 ], [ 403323.906408952199854, 3784534.486266531050205 ], [ 403324.516785350977443, 3784535.096642929594964 ], [ 403324.516785350977443, 3784535.401831129100174 ], [ 403324.211597151588649, 3784535.707019328605384 ], [ 403324.211597151588649, 3784536.012207528110594 ], [ 403323.296032553422265, 3784536.927772126160562 ], [ 403322.685656154644676, 3784536.927772126160562 ], [ 403322.380467955255881, 3784537.232960325665772 ], [ 403321.464903357089497, 3784537.232960325665772 ], [ 403321.159715157700703, 3784537.538148524705321 ], [ 403320.549338758923113, 3784537.538148524705321 ] ] ] } },
{ "type": "Feature", "properties": { "confidence": 0.42807495594024658, "class": 1 }, "geometry": { "type": "Polygon", "coordinates": [ [ [ 403722.482197355013341, 3784377.00915564596653 ], [ 403722.177009155624546, 3784376.70396744646132 ], [ 403721.566632756846957, 3784376.70396744646132 ], [ 403720.956256358069368, 3784376.093591047916561 ], [ 403720.956256358069368, 3784375.483214648906142 ], [ 403721.261444557458162, 3784375.178026449866593 ], [ 403721.261444557458162, 3784374.567650050856173 ], [ 403721.871820956235752, 3784373.957273652311414 ], [ 403721.871820956235752, 3784373.652085452806205 ], [ 403723.09257375379093, 3784372.431332655251026 ], [ 403723.397761953179725, 3784372.431332655251026 ], [ 403723.702950152568519, 3784372.126144455745816 ], [ 403724.008138351957314, 3784372.126144455745816 ], [ 403724.923702950123698, 3784371.210579857695848 ], [ 403725.2288911495707, 3784371.210579857695848 ], [ 403725.534079348959494, 3784370.905391658190638 ], [ 403726.449643947125878, 3784370.905391658190638 ], [ 403726.754832146514673, 3784370.600203458685428 ], [ 403727.365208545292262, 3784370.600203458685428 ], [ 403727.365208545292262, 3784370.905391658190638 ], [ 403727.670396744681057, 3784371.210579857695848 ], [ 403727.670396744681057, 3784373.957273652311414 ], [ 403727.365208545292262, 3784374.262461851350963 ], [ 403727.365208545292262, 3784374.872838250361383 ], [ 403726.144455747737084, 3784376.093591047916561 ], [ 403725.839267548348289, 3784376.093591047916561 ], [ 403725.534079348959494, 3784376.398779247421771 ], [ 403724.008138351957314, 3784376.398779247421771 ], [ 403723.702950152568519, 3784376.70396744646132 ], [ 403722.787385554402135, 3784376.70396744646132 ], [ 403722.482197355013341, 3784377.00915564596653 ] ] ] } },
{ "type": "Feature", "properties": { "confidence": 0.41703087091445923, "class": 1 }, "geometry": { "type": "Polygon", "coordinates": [ [ [ 403243.947100712102838, 3784530.82400813838467 ], [ 403243.641912512714043, 3784530.51881993887946 ], [ 403242.726347914547659, 3784530.51881993887946 ], [ 403242.421159715158865, 3784530.21363173937425 ], [ 403242.11597151577007, 3784530.21363173937425 ], [ 403241.810783316381276, 3784529.908443540334702 ], [ 403241.810783316381276, 3784529.298067141324282 ], [ 403241.505595116992481, 3784528.992878941819072 ], [ 403241.505595116992481, 3784528.077314343769103 ], [ 403241.810783316381276, 3784527.772126144263893 ], [ 403241.810783316381276, 3784526.856561546213925 ], [ 403247.914547304157168, 3784526.856561546213925 ], [ 403247.914547304157168, 3784527.772126144263893 ], [ 403247.609359104768373, 3784528.077314343769103 ], [ 403247.609359104768373, 3784528.687690742779523 ], [ 403245.473041709046811, 3784530.82400813838467 ], [ 403243.947100712102838, 3784530.82400813838467 ] ] ] } },
{ "type": "Feature", "properties": { "confidence": 0.40632614493370056, "class": 1 }, "geometry": { "type": "Polygon", "coordinates": [ [ [ 403752.695829094620422, 3784330.010172939859331 ], [ 403752.390640895231627, 3784329.704984740819782 ], [ 403752.085452695842832, 3784329.704984740819782 ], [ 403751.475076297065243, 3784329.094608341809362 ], [ 403751.780264496454038, 3784328.789420142304152 ], [ 403751.780264496454038, 3784327.873855544254184 ], [ 403752.085452695842832, 3784327.568667344748974 ], [ 403752.085452695842832, 3784327.263479145243764 ], [ 403752.390640895231627, 3784326.958290946204215 ], [ 403752.695829094620422, 3784326.958290946204215 ], [ 403753.001017294009216, 3784326.653102746699005 ], [ 403754.221770091564395, 3784326.653102746699005 ], [ 403754.526958290953189, 3784326.347914547193795 ], [ 403755.442522889119573, 3784326.347914547193795 ], [ 403755.747711088508368, 3784326.042726347688586 ], [ 403758.494404883007519, 3784326.042726347688586 ], [ 403758.494404883007519, 3784326.347914547193795 ], [ 403758.799593082396314, 3784326.653102746699005 ], [ 403758.799593082396314, 3784327.263479145243764 ], [ 403758.494404883007519, 3784327.568667344748974 ], [ 403758.494404883007519, 3784328.484231942798942 ], [ 403758.189216683618724, 3784328.484231942798942 ], [ 403757.88402848422993, 3784328.789420142304152 ], [ 403757.578840284841135, 3784328.789420142304152 ], [ 403757.273652085452341, 3784329.094608341809362 ], [ 403756.968463886063546, 3784329.094608341809362 ], [ 403756.663275686674751, 3784329.399796541314572 ], [ 403756.052899287897162, 3784329.399796541314572 ], [ 403755.747711088508368, 3784329.704984740819782 ], [ 403753.9165818921756, 3784329.704984740819782 ], [ 403753.611393692786805, 3784330.010172939859331 ], [ 403752.695829094620422, 3784330.010172939859331 ] ] ] } },
{ "type": "Feature", "properties": { "confidence": 0.3494780957698822, "class": 1 }, "geometry": { "type": "Polygon", "coordinates": [ [ [ 403742.624618514731992, 3784779.857578840106726 ], [ 403742.319430315343197, 3784779.552390641067177 ], [ 403742.014242115954403, 3784779.552390641067177 ], [ 403741.098677517788019, 3784778.636826042551547 ], [ 403741.098677517788019, 3784778.331637843511999 ], [ 403740.793489318399224, 3784778.026449644006789 ], [ 403740.793489318399224, 3784777.721261444501579 ], [ 403742.014242115954403, 3784776.5005086469464 ], [ 403742.929806714120787, 3784776.5005086469464 ], [ 403743.540183112898376, 3784777.11088504595682 ], [ 403743.84537131228717, 3784777.11088504595682 ], [ 403744.150559511675965, 3784777.416073244996369 ], [ 403744.45574771106476, 3784777.416073244996369 ], [ 403744.760935910453554, 3784777.721261444501579 ], [ 403744.760935910453554, 3784778.942014242056757 ], [ 403744.45574771106476, 3784779.247202441561967 ], [ 403744.45574771106476, 3784779.552390641067177 ], [ 403744.150559511675965, 3784779.857578840106726 ], [ 403742.624618514731992, 3784779.857578840106726 ] ] ] } },
{ "type": "Feature", "properties": { "confidence": 0.33239999413490295, "class": 1 }, "geometry": { "type": "Polygon", "coordinates": [ [ [ 403355.6459816886927, 3784604.069175991695374 ], [ 403355.340793489303906, 3784603.763987792655826 ], [ 403354.730417090526316, 3784603.763987792655826 ], [ 403354.120040691748727, 3784603.153611393645406 ], [ 403354.120040691748727, 3784602.543234995100647 ], [ 403353.814852492359933, 3784602.238046795595437 ], [ 403353.814852492359933, 3784598.880976602435112 ], [ 403355.340793489303906, 3784597.355035605374724 ], [ 403355.951169888081495, 3784597.355035605374724 ], [ 403355.951169888081495, 3784604.069175991695374 ], [ 403355.6459816886927, 3784604.069175991695374 ] ] ] } },
{ "type": "Feature", "properties": { "confidence": 0.32986980676651001, "class": 1 }, "geometry": { "type": "Polygon", "coordinates": [ [ [ 403708.748728382517584, 3784296.439471007324755 ], [ 403708.443540183128789, 3784296.134282807819545 ], [ 403708.443540183128789, 3784293.692777212709188 ], [ 403708.748728382517584, 3784293.387589013203979 ], [ 403708.748728382517584, 3784292.47202441515401 ], [ 403712.410986775183119, 3784292.47202441515401 ], [ 403712.410986775183119, 3784293.692777212709188 ], [ 403712.105798575794324, 3784293.997965412214398 ], [ 403712.105798575794324, 3784294.608341810759157 ], [ 403711.80061037640553, 3784294.913530010264367 ], [ 403711.80061037640553, 3784295.523906408809125 ], [ 403711.19023397762794, 3784296.134282807819545 ], [ 403710.579857578850351, 3784296.134282807819545 ], [ 403710.274669379461557, 3784296.439471007324755 ], [ 403708.748728382517584, 3784296.439471007324755 ] ] ] } },
{ "type": "Feature", "properties": { "confidence": 0.27062514424324036, "class": 1 }, "geometry": { "type": "Polygon", "coordinates": [ [ [ 403355.035605289915111, 3784603.763987792655826 ], [ 403354.730417090526316, 3784603.458799593150616 ], [ 403354.425228891137522, 3784603.458799593150616 ], [ 403354.120040691748727, 3784603.153611393645406 ], [ 403353.509664292971138, 3784603.153611393645406 ], [ 403353.204476093582343, 3784602.848423194140196 ], [ 403352.594099694804754, 3784602.848423194140196 ], [ 403352.28891149541596, 3784602.543234995100647 ], [ 403352.28891149541596, 3784601.932858596090227 ], [ 403351.983723296027165, 3784601.627670396585017 ], [ 403351.983723296027165, 3784600.10172939999029 ], [ 403352.594099694804754, 3784599.491353000979871 ], [ 403352.594099694804754, 3784599.186164801474661 ], [ 403352.899287894193549, 3784599.186164801474661 ], [ 403353.509664292971138, 3784598.575788402929902 ], [ 403354.120040691748727, 3784598.575788402929902 ], [ 403354.425228891137522, 3784598.270600203424692 ], [ 403355.6459816886927, 3784598.270600203424692 ], [ 403355.951169888081495, 3784597.965412003919482 ], [ 403356.866734486247879, 3784597.965412003919482 ], [ 403357.171922685636673, 3784597.660223804879934 ], [ 403357.477110885025468, 3784597.660223804879934 ], [ 403357.782299084414262, 3784597.355035605374724 ], [ 403358.697863682580646, 3784597.355035605374724 ], [ 403358.697863682580646, 3784597.660223804879934 ], [ 403359.003051881969441, 3784597.965412003919482 ], [ 403359.308240081358235, 3784597.965412003919482 ], [ 403359.308240081358235, 3784598.270600203424692 ], [ 403359.61342828074703, 3784598.575788402929902 ], [ 403359.918616480135825, 3784598.575788402929902 ], [ 403359.918616480135825, 3784598.880976602435112 ], [ 403360.223804679524619, 3784599.186164801474661 ], [ 403360.223804679524619, 3784600.406917599029839 ], [ 403359.918616480135825, 3784600.712105798535049 ], [ 403359.918616480135825, 3784601.017293998040259 ], [ 403357.477110885025468, 3784603.458799593150616 ], [ 403357.171922685636673, 3784603.458799593150616 ], [ 403356.866734486247879, 3784603.763987792655826 ], [ 403355.035605289915111, 3784603.763987792655826 ] ] ] } },
{ "type": "Feature", "properties": { "confidence": 0.26604479551315308, "class": 1 }, "geometry": { "type": "Polygon", "coordinates": [ [ [ 403352.594099694804754, 3784762.156663275789469 ], [ 403352.28891149541596, 3784761.85147507628426 ], [ 403351.67853509663837, 3784761.85147507628426 ], [ 403351.068158697860781, 3784761.241098677739501 ], [ 403351.068158697860781, 3784760.935910478234291 ], [ 403350.762970498471987, 3784760.630722278729081 ], [ 403350.762970498471987, 3784759.715157680679113 ], [ 403350.457782299083192, 3784759.409969481173903 ], [ 403350.457782299083192, 3784754.526958290953189 ], [ 403350.762970498471987, 3784754.221770091447979 ], [ 403350.762970498471987, 3784752.390640895348042 ], [ 403351.068158697860781, 3784752.085452695842832 ], [ 403353.204476093582343, 3784752.085452695842832 ], [ 403353.509664292971138, 3784752.390640895348042 ], [ 403353.814852492359933, 3784752.390640895348042 ], [ 403353.814852492359933, 3784752.695829094387591 ], [ 403354.120040691748727, 3784753.001017293892801 ], [ 403354.120040691748727, 3784753.306205493398011 ], [ 403354.425228891137522, 3784753.611393692903221 ], [ 403354.425228891137522, 3784755.747711088508368 ], [ 403354.730417090526316, 3784756.052899288013577 ], [ 403354.730417090526316, 3784757.273652085568756 ], [ 403354.425228891137522, 3784757.578840285073966 ], [ 403354.425228891137522, 3784758.189216683618724 ], [ 403354.730417090526316, 3784758.494404883123934 ], [ 403354.730417090526316, 3784759.104781281668693 ], [ 403355.035605289915111, 3784759.409969481173903 ], [ 403355.035605289915111, 3784760.020345880184323 ], [ 403354.730417090526316, 3784760.325534079223871 ], [ 403354.730417090526316, 3784760.630722278729081 ], [ 403354.120040691748727, 3784761.241098677739501 ], [ 403353.814852492359933, 3784761.241098677739501 ], [ 403353.509664292971138, 3784761.54628687677905 ], [ 403353.509664292971138, 3784761.85147507628426 ], [ 403353.204476093582343, 3784761.85147507628426 ], [ 403352.899287894193549, 3784762.156663275789469 ], [ 403352.594099694804754, 3784762.156663275789469 ] ] ] } },
{ "type": "Feature", "properties": { "confidence": 0.25785401463508606, "class": 1 }, "geometry": { "type": "Polygon", "coordinates": [ [ [ 403259.206510681600776, 3784702.339776195120066 ], [ 403258.901322482211981, 3784702.034587996080518 ], [ 403258.901322482211981, 3784701.729399796575308 ], [ 403258.596134282823186, 3784701.424211597070098 ], [ 403258.596134282823186, 3784700.20345879951492 ], [ 403258.290946083434392, 3784699.89827060000971 ], [ 403258.596134282823186, 3784699.593082400970161 ], [ 403258.596134282823186, 3784698.982706001959741 ], [ 403259.816887080378365, 3784697.761953204404563 ], [ 403259.816887080378365, 3784697.151576805859804 ], [ 403261.037639877933543, 3784697.151576805859804 ], [ 403261.342828077322338, 3784696.846388606354594 ], [ 403261.953204476099927, 3784696.846388606354594 ], [ 403262.258392675488722, 3784696.541200406849384 ], [ 403262.258392675488722, 3784696.236012207344174 ], [ 403263.173957273655105, 3784696.236012207344174 ], [ 403263.784333672432695, 3784695.625635808799416 ], [ 403265.615462868765462, 3784695.625635808799416 ], [ 403265.615462868765462, 3784696.236012207344174 ], [ 403265.310274669376668, 3784696.541200406849384 ], [ 403265.310274669376668, 3784697.456765004899353 ], [ 403265.005086469987873, 3784697.761953204404563 ], [ 403265.005086469987873, 3784698.067141403909773 ], [ 403264.699898270599078, 3784698.372329603414983 ], [ 403264.699898270599078, 3784698.982706001959741 ], [ 403264.089521871821489, 3784699.593082400970161 ], [ 403264.089521871821489, 3784699.89827060000971 ], [ 403263.784333672432695, 3784700.20345879951492 ], [ 403263.784333672432695, 3784700.508646999020129 ], [ 403263.4791454730439, 3784700.813835198525339 ], [ 403263.4791454730439, 3784701.119023397564888 ], [ 403263.173957273655105, 3784701.119023397564888 ], [ 403262.563580874877516, 3784701.729399796575308 ], [ 403261.953204476099927, 3784701.729399796575308 ], [ 403261.648016276711132, 3784702.034587996080518 ], [ 403260.732451678544749, 3784702.034587996080518 ], [ 403260.427263479155954, 3784702.339776195120066 ], [ 403259.206510681600776, 3784702.339776195120066 ] ] ] } },
{ "type": "Feature", "properties": { "confidence": 0.25692811608314514, "class": 1 }, "geometry": { "type": "Polygon", "coordinates": [ [ [ 403340.996948118030559, 3784614.445574771147221 ], [ 403340.996948118030559, 3784614.140386571642011 ], [ 403340.081383519864175, 3784613.224821973592043 ], [ 403340.081383519864175, 3784611.088504577986896 ], [ 403339.776195320475381, 3784610.783316378481686 ], [ 403339.776195320475381, 3784609.562563580926508 ], [ 403339.165818921639584, 3784608.952187181916088 ], [ 403339.165818921639584, 3784608.646998982876539 ], [ 403338.860630722250789, 3784608.341810783371329 ], [ 403338.860630722250789, 3784607.426246185321361 ], [ 403339.165818921639584, 3784607.121057985816151 ], [ 403339.471007121086586, 3784607.121057985816151 ], [ 403339.776195320475381, 3784606.815869786310941 ], [ 403341.302136317419354, 3784606.815869786310941 ], [ 403341.607324516808148, 3784607.121057985816151 ], [ 403341.607324516808148, 3784607.426246185321361 ], [ 403341.912512716196943, 3784607.731434384360909 ], [ 403342.217700915585738, 3784607.731434384360909 ], [ 403342.828077314363327, 3784608.341810783371329 ], [ 403344.964394710084889, 3784608.341810783371329 ], [ 403345.269582909473684, 3784608.036622583866119 ], [ 403345.574771108862478, 3784608.036622583866119 ], [ 403346.185147507640067, 3784607.426246185321361 ], [ 403347.100712105806451, 3784607.426246185321361 ], [ 403347.405900305195246, 3784607.731434384360909 ], [ 403347.405900305195246, 3784608.341810783371329 ], [ 403347.100712105806451, 3784608.646998982876539 ], [ 403347.100712105806451, 3784608.952187181916088 ], [ 403345.574771108862478, 3784610.478128178976476 ], [ 403345.574771108862478, 3784610.783316378481686 ], [ 403345.269582909473684, 3784611.088504577986896 ], [ 403345.269582909473684, 3784611.698880976531655 ], [ 403344.964394710084889, 3784612.004069176036865 ], [ 403344.964394710084889, 3784612.309257375542074 ], [ 403344.048830111918505, 3784613.224821973592043 ], [ 403343.743641912529711, 3784613.224821973592043 ], [ 403343.438453713140916, 3784613.530010173097253 ], [ 403343.133265513752121, 3784613.530010173097253 ], [ 403342.522889114974532, 3784614.140386571642011 ], [ 403342.217700915585738, 3784614.140386571642011 ], [ 403341.912512716196943, 3784614.445574771147221 ], [ 403340.996948118030559, 3784614.445574771147221 ] ] ] } }
]
}
