{
"type": "FeatureCollection",
"name": "cell_00431_pre",
"crs": { "type": "name", "properties": { "name": "urn:ogc:def:crs:EPSG::32611" } },
"features": [
{ "type": "Feature", "properties": { "confidence": 0.98879402875900269, "class": 1 }, "geometry": { "type": "Polygon", "coordinates": [ [ [ 399145.574771108862478, 3783248.423194303177297 ], [ 399145.574771108862478, 3783248.118006103672087 ], [ 399145.269582909473684, 3783247.812817904166877 ], [ 399144.964394710084889, 3783247.812817904166877 ], [ 399144.964394710084889, 3783247.202441505622119 ], [ 399144.659206510696094, 3783246.897253306116909 ], [ 399144.659206510696094, 3783245.37131230905652 ], [ 399144.964394710084889, 3783245.066124110016972 ], [ 399144.964394710084889, 3783244.150559511501342 ], [ 399145.269582909473684, 3783243.845371312461793 ], [ 399145.269582909473684, 3783242.014242115896195 ], [ 399145.574771108862478, 3783242.014242115896195 ], [ 399146.185147507640067, 3783241.403865717351437 ], [ 399146.490335707028862, 3783241.403865717351437 ], [ 399147.100712105806451, 3783240.793489318341017 ], [ 399147.405900305195246, 3783240.793489318341017 ], [ 399147.71108850458404, 3783240.488301118835807 ], [ 399148.32146490336163, 3783240.488301118835807 ], [ 399148.626653102750424, 3783240.183112919796258 ], [ 399149.237029501528013, 3783240.183112919796258 ], [ 399149.847405900305603, 3783239.572736520785838 ], [ 399151.983723296027165, 3783239.572736520785838 ], [ 399152.28891149541596, 3783239.877924720291048 ], [ 399152.594099694804754, 3783239.877924720291048 ], [ 399152.899287894193549, 3783240.183112919796258 ], [ 399153.204476093582343, 3783240.183112919796258 ], [ 399154.120040691748727, 3783241.098677517846227 ], [ 399154.120040691748727, 3783241.709053916390985 ], [ 399154.425228891137522, 3783242.014242115896195 ], [ 399154.425228891137522, 3783243.234994913451374 ], [ 399154.730417090526316, 3783243.540183112956583 ], [ 399154.730417090526316, 3783245.67650050856173 ], [ 399154.425228891137522, 3783245.98168870806694 ], [ 399154.425228891137522, 3783246.897253306116909 ], [ 399153.509664292971138, 3783247.812817904166877 ], [ 399152.28891149541596, 3783247.812817904166877 ], [ 399151.983723296027165, 3783248.118006103672087 ], [ 399151.983723296027165, 3783248.423194303177297 ], [ 399145.574771108862478, 3783248.423194303177297 ] ] ] } },
{ "type": "Feature", "properties": { "confidence": 0.98473995923995972, "class": 1 }, "geometry": { "type": "Polygon", "coordinates": [ [ [ 399183.723296032578219, 3783115.6663275687024 ], [ 399183.418107833189424, 3783115.36113936919719 ], [ 399183.11291963380063, 3783115.36113936919719 ], [ 399181.892166836187243, 3783114.140386571642011 ], [ 399181.892166836187243, 3783113.835198372136801 ], [ 399181.586978636798449, 3783113.530010173097253 ], [ 399181.586978636798449, 3783109.257375381421298 ], [ 399181.892166836187243, 3783108.952187181916088 ], [ 399181.892166836187243, 3783108.646998982876539 ], [ 399182.807731434411835, 3783107.731434384360909 ], [ 399182.807731434411835, 3783107.426246185321361 ], [ 399183.723296032578219, 3783106.510681586805731 ], [ 399184.944048830133397, 3783106.510681586805731 ], [ 399185.249237029522192, 3783106.815869786310941 ], [ 399185.554425228910986, 3783106.815869786310941 ], [ 399187.385554425243754, 3783108.646998982876539 ], [ 399187.690742624632549, 3783108.646998982876539 ], [ 399187.995930824021343, 3783108.952187181916088 ], [ 399188.301119023410138, 3783108.952187181916088 ], [ 399188.606307222798932, 3783109.257375381421298 ], [ 399188.911495422187727, 3783109.257375381421298 ], [ 399189.521871820965316, 3783109.867751780431718 ], [ 399189.521871820965316, 3783112.004069176036865 ], [ 399189.216683621576522, 3783112.309257375542074 ], [ 399189.216683621576522, 3783112.614445574581623 ], [ 399187.385554425243754, 3783114.445574771147221 ], [ 399187.385554425243754, 3783114.750762970652431 ], [ 399186.46998982707737, 3783115.6663275687024 ], [ 399183.723296032578219, 3783115.6663275687024 ] ] ] } },
{ "type": "Feature", "properties": { "confidence": 0.91973000764846802, "class": 1 }, "geometry": { "type": "Polygon", "coordinates": [ [ [ 399431.230925737530924, 3783209.359104781411588 ], [ 399430.92573753814213, 3783209.053916581906378 ], [ 399430.315361139364541, 3783209.053916581906378 ], [ 399430.010172939975746, 3783208.748728382401168 ], [ 399429.704984740586951, 3783208.748728382401168 ], [ 399429.094608341809362, 3783208.13835198385641 ], [ 399428.789420142420568, 3783208.13835198385641 ], [ 399428.789420142420568, 3783207.8331637843512 ], [ 399428.179043743642978, 3783207.22278738534078 ], [ 399428.179043743642978, 3783206.612410986796021 ], [ 399427.873855544254184, 3783206.307222787290812 ], [ 399427.873855544254184, 3783205.391658189240843 ], [ 399428.179043743642978, 3783205.086469989735633 ], [ 399428.179043743642978, 3783204.781281790230423 ], [ 399428.789420142420568, 3783204.781281790230423 ], [ 399429.094608341809362, 3783204.476093591190875 ], [ 399430.315361139364541, 3783204.476093591190875 ], [ 399430.620549338753335, 3783204.170905391685665 ], [ 399431.230925737530924, 3783204.170905391685665 ], [ 399431.536113936919719, 3783204.476093591190875 ], [ 399431.841302136308514, 3783204.476093591190875 ], [ 399432.146490335697308, 3783204.781281790230423 ], [ 399432.451678535086103, 3783204.781281790230423 ], [ 399433.672431332641281, 3783206.002034587785602 ], [ 399433.672431332641281, 3783207.8331637843512 ], [ 399433.367243133252487, 3783208.13835198385641 ], [ 399433.367243133252487, 3783208.443540182895958 ], [ 399433.062054933863692, 3783208.443540182895958 ], [ 399432.451678535086103, 3783209.053916581906378 ], [ 399431.841302136308514, 3783209.053916581906378 ], [ 399431.536113936919719, 3783209.359104781411588 ], [ 399431.230925737530924, 3783209.359104781411588 ] ] ] } },
{ "type": "Feature", "properties": { "confidence": 0.87341892719268799, "class": 1 }, "geometry": { "type": "Polygon", "coordinates": [ [ [ 399122.380467955255881, 3783336.622583926655352 ], [ 399122.075279755867086, 3783336.317395727150142 ], [ 399121.159715157700703, 3783336.317395727150142 ], [ 399120.549338758923113, 3783335.707019328605384 ], [ 399120.244150559534319, 3783335.707019328605384 ], [ 399119.938962360145524, 3783335.401831129100174 ], [ 399119.328585961367935, 3783335.401831129100174 ], [ 399119.02339776197914, 3783335.096642929594964 ], [ 399118.413021363201551, 3783335.096642929594964 ], [ 399117.802644964365754, 3783334.486266531050205 ], [ 399117.802644964365754, 3783330.82400813838467 ], [ 399118.107833163812757, 3783330.51881993887946 ], [ 399118.107833163812757, 3783330.21363173937425 ], [ 399118.413021363201551, 3783329.908443540334702 ], [ 399118.718209562590346, 3783329.908443540334702 ], [ 399119.328585961367935, 3783329.298067141324282 ], [ 399121.464903357089497, 3783329.298067141324282 ], [ 399121.770091556478292, 3783329.603255340829492 ], [ 399122.380467955255881, 3783329.603255340829492 ], [ 399122.685656154644676, 3783329.908443540334702 ], [ 399122.99084435403347, 3783329.908443540334702 ], [ 399124.516785350977443, 3783331.434384536929429 ], [ 399125.127161749755032, 3783331.434384536929429 ], [ 399125.127161749755032, 3783331.739572736434639 ], [ 399125.737538148532622, 3783332.349949135445058 ], [ 399125.737538148532622, 3783333.570701933000237 ], [ 399125.432349949143827, 3783333.875890132039785 ], [ 399125.432349949143827, 3783334.791454730555415 ], [ 399125.127161749755032, 3783335.096642929594964 ], [ 399125.127161749755032, 3783335.707019328605384 ], [ 399124.821973550366238, 3783336.012207528110594 ], [ 399124.516785350977443, 3783336.012207528110594 ], [ 399124.211597151588649, 3783336.317395727150142 ], [ 399123.601220752811059, 3783336.317395727150142 ], [ 399123.296032553422265, 3783336.622583926655352 ], [ 399122.380467955255881, 3783336.622583926655352 ] ] ] } },
{ "type": "Feature", "properties": { "confidence": 0.81711578369140625, "class": 1 }, "geometry": { "type": "Polygon", "coordinates": [ [ [ 399441.607324516808148, 3783536.215666327625513 ], [ 399441.302136317419354, 3783535.910478128120303 ], [ 399441.302136317419354, 3783535.605289928615093 ], [ 399440.691759918641765, 3783534.994913530070335 ], [ 399440.691759918641765, 3783534.384537131059915 ], [ 399440.38657171925297, 3783534.079348932020366 ], [ 399440.38657171925297, 3783533.774160732515156 ], [ 399440.081383519864175, 3783533.468972533009946 ], [ 399440.081383519864175, 3783532.553407934959978 ], [ 399440.38657171925297, 3783532.248219735454768 ], [ 399440.38657171925297, 3783531.943031535949558 ], [ 399440.996948118030559, 3783531.332655137404799 ], [ 399440.996948118030559, 3783531.02746693789959 ], [ 399441.912512716196943, 3783530.111902339849621 ], [ 399442.217700915585738, 3783530.111902339849621 ], [ 399442.828077314363327, 3783529.501525940839201 ], [ 399443.133265513752121, 3783529.501525940839201 ], [ 399443.438453713140916, 3783529.196337741799653 ], [ 399443.438453713140916, 3783528.280773143284023 ], [ 399445.269582909473684, 3783528.280773143284023 ], [ 399445.269582909473684, 3783528.585961342789233 ], [ 399445.574771108862478, 3783528.891149542294443 ], [ 399446.185147507640067, 3783528.891149542294443 ], [ 399446.490335707028862, 3783529.196337741799653 ], [ 399446.795523906417657, 3783529.196337741799653 ], [ 399446.795523906417657, 3783529.501525940839201 ], [ 399447.71108850458404, 3783530.417090539354831 ], [ 399447.71108850458404, 3783531.332655137404799 ], [ 399447.100712105806451, 3783531.943031535949558 ], [ 399447.100712105806451, 3783532.248219735454768 ], [ 399445.879959308251273, 3783533.468972533009946 ], [ 399445.879959308251273, 3783534.079348932020366 ], [ 399445.269582909473684, 3783534.689725330565125 ], [ 399445.269582909473684, 3783534.994913530070335 ], [ 399444.964394710084889, 3783534.994913530070335 ], [ 399444.659206510696094, 3783535.300101729575545 ], [ 399444.3540183113073, 3783535.300101729575545 ], [ 399444.048830111918505, 3783535.605289928615093 ], [ 399443.743641912529711, 3783535.605289928615093 ], [ 399443.438453713140916, 3783535.910478128120303 ], [ 399443.133265513752121, 3783535.910478128120303 ], [ 399442.828077314363327, 3783536.215666327625513 ], [ 399441.607324516808148, 3783536.215666327625513 ] ] ] } },
{ "type": "Feature", "properties": { "confidence": 0.77504801750183105, "class": 1 }, "geometry": { "type": "Polygon", "coordinates": [ [ [ 399273.143438453727867, 3783097.355035605374724 ], [ 399272.533062054950278, 3783096.744659206364304 ], [ 399271.3123092573951, 3783096.744659206364304 ], [ 399271.007121058006305, 3783096.439471007324755 ], [ 399270.396744659228716, 3783096.439471007324755 ], [ 399270.091556459839921, 3783096.134282807819545 ], [ 399270.091556459839921, 3783095.218718209769577 ], [ 399269.481180061062332, 3783094.608341810759157 ], [ 399269.481180061062332, 3783094.303153611253947 ], [ 399269.175991861673538, 3783093.997965412214398 ], [ 399269.175991861673538, 3783093.692777212709188 ], [ 399268.870803662284743, 3783093.387589013203979 ], [ 399268.870803662284743, 3783092.47202441515401 ], [ 399273.143438453727867, 3783092.47202441515401 ], [ 399273.143438453727867, 3783097.355035605374724 ] ] ] } },
{ "type": "Feature", "properties": { "confidence": 0.74095696210861206, "class": 1 }, "geometry": { "type": "Polygon", "coordinates": [ [ [ 399184.028484231967013, 3783099.79654120048508 ], [ 399183.723296032578219, 3783099.491353000979871 ], [ 399183.11291963380063, 3783099.491353000979871 ], [ 399182.807731434411835, 3783099.186164801474661 ], [ 399182.50254323502304, 3783099.186164801474661 ], [ 399181.892166836187243, 3783098.575788402929902 ], [ 399181.892166836187243, 3783097.049847405869514 ], [ 399182.197355035634246, 3783096.744659206364304 ], [ 399182.197355035634246, 3783093.997965412214398 ], [ 399182.50254323502304, 3783093.692777212709188 ], [ 399182.50254323502304, 3783093.082400813698769 ], [ 399186.46998982707737, 3783093.082400813698769 ], [ 399186.46998982707737, 3783093.692777212709188 ], [ 399186.775178026466165, 3783093.997965412214398 ], [ 399186.775178026466165, 3783094.303153611253947 ], [ 399187.080366225854959, 3783094.608341810759157 ], [ 399187.080366225854959, 3783094.913530010264367 ], [ 399187.385554425243754, 3783095.218718209769577 ], [ 399187.385554425243754, 3783095.523906408809125 ], [ 399187.690742624632549, 3783095.829094608314335 ], [ 399187.690742624632549, 3783096.134282807819545 ], [ 399187.385554425243754, 3783096.439471007324755 ], [ 399187.385554425243754, 3783097.049847405869514 ], [ 399187.080366225854959, 3783097.355035605374724 ], [ 399187.080366225854959, 3783097.965412003919482 ], [ 399186.775178026466165, 3783098.270600203424692 ], [ 399186.775178026466165, 3783098.880976602435112 ], [ 399186.46998982707737, 3783099.186164801474661 ], [ 399186.164801627688576, 3783099.186164801474661 ], [ 399185.859613428299781, 3783099.491353000979871 ], [ 399184.638860630744603, 3783099.491353000979871 ], [ 399184.333672431355808, 3783099.79654120048508 ], [ 399184.028484231967013, 3783099.79654120048508 ] ] ] } },
{ "type": "Feature", "properties": { "confidence": 0.72596609592437744, "class": 1 }, "geometry": { "type": "Polygon", "coordinates": [ [ [ 399331.129196337715257, 3783147.100712105631828 ], [ 399331.129196337715257, 3783146.79552390659228 ], [ 399330.824008138326462, 3783146.49033570708707 ], [ 399330.824008138326462, 3783146.18514750758186 ], [ 399330.518819938937668, 3783145.87995930807665 ], [ 399330.518819938937668, 3783143.438453712966293 ], [ 399330.213631739548873, 3783143.133265513926744 ], [ 399330.213631739548873, 3783142.522889114916325 ], [ 399330.518819938937668, 3783142.217700915411115 ], [ 399330.518819938937668, 3783141.607324516866356 ], [ 399330.824008138326462, 3783141.302136317361146 ], [ 399330.824008138326462, 3783140.996948117855936 ], [ 399331.129196337715257, 3783140.996948117855936 ], [ 399332.349949135328643, 3783139.776195320300758 ], [ 399332.349949135328643, 3783139.165818921755999 ], [ 399333.265513733495027, 3783139.165818921755999 ], [ 399333.570701932883821, 3783138.860630722250789 ], [ 399335.707019328605384, 3783138.860630722250789 ], [ 399336.012207527994178, 3783138.555442522745579 ], [ 399336.317395727382973, 3783138.555442522745579 ], [ 399336.622583926771767, 3783138.860630722250789 ], [ 399336.927772126160562, 3783138.860630722250789 ], [ 399337.538148524938151, 3783139.471007121261209 ], [ 399337.538148524938151, 3783143.133265513926744 ], [ 399337.232960325549357, 3783143.438453712966293 ], [ 399337.232960325549357, 3783144.354018311481923 ], [ 399336.927772126160562, 3783144.659206510521472 ], [ 399336.927772126160562, 3783144.964394710026681 ], [ 399335.707019328605384, 3783146.18514750758186 ], [ 399335.707019328605384, 3783146.79552390659228 ], [ 399335.401831129216589, 3783146.79552390659228 ], [ 399335.096642929827794, 3783147.100712105631828 ], [ 399331.129196337715257, 3783147.100712105631828 ] ] ] } },
{ "type": "Feature", "properties": { "confidence": 0.69963330030441284, "class": 1 }, "geometry": { "type": "Polygon", "coordinates": [ [ [ 399395.218718209536746, 3783098.880976602435112 ], [ 399394.913530010147952, 3783098.575788402929902 ], [ 399394.303153611370362, 3783098.575788402929902 ], [ 399393.997965411981568, 3783098.270600203424692 ], [ 399393.692777212592773, 3783098.270600203424692 ], [ 399393.387589013203979, 3783097.965412003919482 ], [ 399393.082400813815184, 3783097.965412003919482 ], [ 399392.777212614426389, 3783097.660223804879934 ], [ 399392.472024415037595, 3783097.660223804879934 ], [ 399391.861648016260006, 3783097.049847405869514 ], [ 399391.556459816871211, 3783097.049847405869514 ], [ 399390.946083418093622, 3783096.439471007324755 ], [ 399390.640895218704827, 3783096.439471007324755 ], [ 399390.640895218704827, 3783096.134282807819545 ], [ 399390.030518819927238, 3783095.523906408809125 ], [ 399390.030518819927238, 3783094.608341810759157 ], [ 399390.335707019316033, 3783094.303153611253947 ], [ 399390.335707019316033, 3783093.997965412214398 ], [ 399390.946083418093622, 3783093.387589013203979 ], [ 399390.946083418093622, 3783093.082400813698769 ], [ 399391.251271617482416, 3783092.77721261465922 ], [ 399391.251271617482416, 3783092.47202441515401 ], [ 399401.322482197370846, 3783092.47202441515401 ], [ 399401.322482197370846, 3783092.77721261465922 ], [ 399401.62767039675964, 3783093.082400813698769 ], [ 399401.62767039675964, 3783094.303153611253947 ], [ 399401.322482197370846, 3783094.608341810759157 ], [ 399401.322482197370846, 3783095.829094608314335 ], [ 399401.017293997982051, 3783096.134282807819545 ], [ 399401.017293997982051, 3783096.439471007324755 ], [ 399400.712105798593257, 3783096.744659206364304 ], [ 399400.712105798593257, 3783097.049847405869514 ], [ 399400.406917599204462, 3783097.049847405869514 ], [ 399399.796541200426873, 3783097.660223804879934 ], [ 399399.491353001038078, 3783097.660223804879934 ], [ 399398.880976602260489, 3783098.270600203424692 ], [ 399398.575788402871694, 3783098.270600203424692 ], [ 399398.2706002034829, 3783098.575788402929902 ], [ 399397.355035605316516, 3783098.575788402929902 ], [ 399397.049847405927721, 3783098.880976602435112 ], [ 399395.218718209536746, 3783098.880976602435112 ] ] ] } },
{ "type": "Feature", "properties": { "confidence": 0.67893695831298828, "class": 1 }, "geometry": { "type": "Polygon", "coordinates": [ [ [ 399323.194303153606597, 3783151.068158697802573 ], [ 399322.889114954217803, 3783150.762970498297364 ], [ 399321.668362156662624, 3783150.762970498297364 ], [ 399321.36317395727383, 3783150.457782299257815 ], [ 399321.057985757885035, 3783150.457782299257815 ], [ 399320.142421159718651, 3783149.542217700742185 ], [ 399320.142421159718651, 3783146.79552390659228 ], [ 399320.447609359107446, 3783146.49033570708707 ], [ 399320.447609359107446, 3783146.18514750758186 ], [ 399320.752797558496241, 3783146.18514750758186 ], [ 399321.057985757885035, 3783145.87995930807665 ], [ 399321.36317395727383, 3783145.87995930807665 ], [ 399321.668362156662624, 3783145.574771109037101 ], [ 399324.109867751772981, 3783145.574771109037101 ], [ 399324.415055951161776, 3783145.87995930807665 ], [ 399326.246185147494543, 3783145.87995930807665 ], [ 399326.551373346883338, 3783146.18514750758186 ], [ 399326.551373346883338, 3783146.49033570708707 ], [ 399326.856561546272133, 3783146.79552390659228 ], [ 399326.856561546272133, 3783148.016276704147458 ], [ 399326.551373346883338, 3783148.321464903187007 ], [ 399326.551373346883338, 3783149.847405900247395 ], [ 399326.246185147494543, 3783149.847405900247395 ], [ 399325.940996948105749, 3783150.152594099752605 ], [ 399325.940996948105749, 3783150.457782299257815 ], [ 399325.33062054932816, 3783150.457782299257815 ], [ 399325.025432349939365, 3783150.762970498297364 ], [ 399324.415055951161776, 3783150.762970498297364 ], [ 399324.109867751772981, 3783151.068158697802573 ], [ 399323.194303153606597, 3783151.068158697802573 ] ] ] } },
{ "type": "Feature", "properties": { "confidence": 0.6690220832824707, "class": 1 }, "geometry": { "type": "Polygon", "coordinates": [ [ [ 399080.569684638874605, 3783041.810783316381276 ], [ 399080.264496439485811, 3783041.505595116876066 ], [ 399079.654120040708221, 3783041.505595116876066 ], [ 399079.654120040708221, 3783041.200406917370856 ], [ 399078.738555442541838, 3783040.284842319320887 ], [ 399078.738555442541838, 3783039.064089521765709 ], [ 399078.433367243153043, 3783038.758901322260499 ], [ 399078.433367243153043, 3783038.45371312322095 ], [ 399078.128179043764248, 3783038.14852492371574 ], [ 399078.128179043764248, 3783037.843336724210531 ], [ 399077.822990844375454, 3783037.538148524705321 ], [ 399077.822990844375454, 3783036.927772126160562 ], [ 399078.128179043764248, 3783036.622583926655352 ], [ 399078.128179043764248, 3783036.317395727150142 ], [ 399078.433367243153043, 3783036.012207528110594 ], [ 399078.738555442541838, 3783036.012207528110594 ], [ 399079.043743641930632, 3783035.707019328605384 ], [ 399079.348931841319427, 3783035.707019328605384 ], [ 399079.654120040708221, 3783035.401831129100174 ], [ 399079.654120040708221, 3783035.096642929594964 ], [ 399080.264496439485811, 3783035.096642929594964 ], [ 399080.8748728382634, 3783034.486266531050205 ], [ 399082.706002034596168, 3783034.486266531050205 ], [ 399083.011190233984962, 3783034.791454730555415 ], [ 399083.316378433373757, 3783034.791454730555415 ], [ 399083.621566632762551, 3783035.096642929594964 ], [ 399083.621566632762551, 3783035.401831129100174 ], [ 399084.537131230928935, 3783036.317395727150142 ], [ 399084.84231943031773, 3783036.317395727150142 ], [ 399085.452695829095319, 3783036.927772126160562 ], [ 399085.757884028484114, 3783036.927772126160562 ], [ 399086.368260427261703, 3783037.538148524705321 ], [ 399086.978636826039292, 3783037.538148524705321 ], [ 399086.978636826039292, 3783039.064089521765709 ], [ 399086.673448626650497, 3783039.369277721270919 ], [ 399086.368260427261703, 3783039.369277721270919 ], [ 399086.063072227872908, 3783039.674465920776129 ], [ 399085.147507629706524, 3783039.674465920776129 ], [ 399084.537131230928935, 3783040.284842319320887 ], [ 399084.231943031540141, 3783040.284842319320887 ], [ 399083.621566632762551, 3783040.895218718331307 ], [ 399083.316378433373757, 3783040.895218718331307 ], [ 399082.706002034596168, 3783041.505595116876066 ], [ 399082.400813835207373, 3783041.505595116876066 ], [ 399082.095625635818578, 3783041.810783316381276 ], [ 399080.569684638874605, 3783041.810783316381276 ] ] ] } },
{ "type": "Feature", "properties": { "confidence": 0.65674102306365967, "class": 1 }, "geometry": { "type": "Polygon", "coordinates": [ [ [ 399150.457782299083192, 3783365.005086469929665 ], [ 399150.152594099694397, 3783364.699898270424455 ], [ 399149.847405900305603, 3783364.699898270424455 ], [ 399149.847405900305603, 3783364.089521871879697 ], [ 399149.542217700916808, 3783363.784333672374487 ], [ 399149.542217700916808, 3783362.258392675314099 ], [ 399149.847405900305603, 3783361.95320447627455 ], [ 399149.847405900305603, 3783361.64801627676934 ], [ 399151.068158697860781, 3783360.427263479214162 ], [ 399151.068158697860781, 3783360.122075279708952 ], [ 399152.28891149541596, 3783358.901322482153773 ], [ 399152.594099694804754, 3783358.901322482153773 ], [ 399154.425228891137522, 3783357.070193286053836 ], [ 399154.730417090526316, 3783357.070193286053836 ], [ 399155.035605289915111, 3783356.765005086548626 ], [ 399155.340793489303906, 3783357.070193286053836 ], [ 399155.340793489303906, 3783357.985757884103805 ], [ 399155.035605289915111, 3783358.290946083609015 ], [ 399155.035605289915111, 3783358.901322482153773 ], [ 399154.730417090526316, 3783359.206510681658983 ], [ 399154.730417090526316, 3783359.511698881164193 ], [ 399154.425228891137522, 3783359.816887080203742 ], [ 399154.425228891137522, 3783360.427263479214162 ], [ 399154.120040691748727, 3783360.732451678719372 ], [ 399154.120040691748727, 3783361.34282807726413 ], [ 399153.814852492359933, 3783361.64801627676934 ], [ 399153.814852492359933, 3783362.258392675314099 ], [ 399153.509664292971138, 3783362.563580874819309 ], [ 399153.509664292971138, 3783362.868769074324518 ], [ 399153.204476093582343, 3783363.173957273829728 ], [ 399152.899287894193549, 3783363.173957273829728 ], [ 399152.594099694804754, 3783363.479145472869277 ], [ 399152.28891149541596, 3783363.479145472869277 ], [ 399151.983723296027165, 3783363.784333672374487 ], [ 399151.67853509663837, 3783363.784333672374487 ], [ 399151.068158697860781, 3783364.394710071384907 ], [ 399151.068158697860781, 3783364.699898270424455 ], [ 399150.762970498471987, 3783364.699898270424455 ], [ 399150.457782299083192, 3783365.005086469929665 ] ] ] } },
{ "type": "Feature", "properties": { "confidence": 0.65529990196228027, "class": 1 }, "geometry": { "type": "Polygon", "coordinates": [ [ [ 399352.187182095600292, 3783162.665310274809599 ], [ 399351.881993896211497, 3783162.360122075304389 ], [ 399351.576805696822703, 3783162.360122075304389 ], [ 399351.271617497433908, 3783162.054933875799179 ], [ 399351.271617497433908, 3783161.749745676293969 ], [ 399350.966429298045114, 3783161.444557477254421 ], [ 399350.966429298045114, 3783158.697863682638854 ], [ 399351.271617497433908, 3783158.392675483133644 ], [ 399351.271617497433908, 3783157.477110885083675 ], [ 399350.966429298045114, 3783157.171922685578465 ], [ 399350.966429298045114, 3783155.645981688518077 ], [ 399351.576805696822703, 3783155.035605289973319 ], [ 399351.576805696822703, 3783154.730417090468109 ], [ 399351.881993896211497, 3783154.425228890962899 ], [ 399352.492370294989087, 3783154.425228890962899 ], [ 399352.797558494377881, 3783154.12004069192335 ], [ 399357.680569684656803, 3783154.12004069192335 ], [ 399357.985757884045597, 3783154.425228890962899 ], [ 399358.290946083434392, 3783154.425228890962899 ], [ 399358.596134282823186, 3783154.730417090468109 ], [ 399358.596134282823186, 3783156.256358087528497 ], [ 399358.290946083434392, 3783156.561546287033707 ], [ 399358.290946083434392, 3783156.866734486073256 ], [ 399357.985757884045597, 3783156.866734486073256 ], [ 399357.680569684656803, 3783157.171922685578465 ], [ 399357.375381485268008, 3783157.171922685578465 ], [ 399357.070193285879213, 3783157.477110885083675 ], [ 399357.070193285879213, 3783157.782299084588885 ], [ 399356.765005086490419, 3783157.782299084588885 ], [ 399356.459816887101624, 3783158.087487283628434 ], [ 399356.459816887101624, 3783158.392675483133644 ], [ 399356.15462868771283, 3783158.392675483133644 ], [ 399355.849440488324035, 3783158.697863682638854 ], [ 399355.849440488324035, 3783159.003051882144064 ], [ 399354.628687690768857, 3783160.223804679699242 ], [ 399354.628687690768857, 3783160.528992878738791 ], [ 399354.323499491380062, 3783160.834181078244001 ], [ 399354.323499491380062, 3783161.139369277749211 ], [ 399354.018311291991267, 3783161.444557477254421 ], [ 399354.018311291991267, 3783161.749745676293969 ], [ 399353.40793489315547, 3783162.360122075304389 ], [ 399353.102746693766676, 3783162.360122075304389 ], [ 399352.797558494377881, 3783162.665310274809599 ], [ 399352.187182095600292, 3783162.665310274809599 ] ] ] } },
{ "type": "Feature", "properties": { "confidence": 0.63550573587417603, "class": 1 }, "geometry": { "type": "Polygon", "coordinates": [ [ [ 399444.964394710084889, 3783100.406917599029839 ], [ 399444.048830111918505, 3783099.491353000979871 ], [ 399444.048830111918505, 3783099.186164801474661 ], [ 399443.743641912529711, 3783098.880976602435112 ], [ 399443.743641912529711, 3783098.575788402929902 ], [ 399443.438453713140916, 3783098.270600203424692 ], [ 399443.438453713140916, 3783096.744659206364304 ], [ 399443.133265513752121, 3783096.439471007324755 ], [ 399443.133265513752121, 3783093.082400813698769 ], [ 399443.438453713140916, 3783092.77721261465922 ], [ 399443.438453713140916, 3783092.47202441515401 ], [ 399447.71108850458404, 3783092.47202441515401 ], [ 399447.71108850458404, 3783092.77721261465922 ], [ 399448.016276703972835, 3783093.082400813698769 ], [ 399448.32146490336163, 3783093.082400813698769 ], [ 399448.32146490336163, 3783093.692777212709188 ], [ 399448.016276703972835, 3783093.997965412214398 ], [ 399448.016276703972835, 3783097.660223804879934 ], [ 399447.71108850458404, 3783097.965412003919482 ], [ 399447.71108850458404, 3783098.270600203424692 ], [ 399447.405900305195246, 3783098.575788402929902 ], [ 399447.405900305195246, 3783099.186164801474661 ], [ 399446.795523906417657, 3783099.79654120048508 ], [ 399446.795523906417657, 3783100.10172939999029 ], [ 399446.490335707028862, 3783100.406917599029839 ], [ 399444.964394710084889, 3783100.406917599029839 ] ] ] } },
{ "type": "Feature", "properties": { "confidence": 0.6330409049987793, "class": 1 }, "geometry": { "type": "Polygon", "coordinates": [ [ [ 399021.973550356051419, 3783131.230925737414509 ], [ 399021.973550356051419, 3783130.62054933886975 ], [ 399021.668362156662624, 3783130.315361139364541 ], [ 399021.36317395727383, 3783130.315361139364541 ], [ 399021.36317395727383, 3783128.484231942798942 ], [ 399021.668362156662624, 3783128.179043743759394 ], [ 399021.668362156662624, 3783125.127161749638617 ], [ 399022.278738555440214, 3783124.516785351093858 ], [ 399022.278738555440214, 3783124.211597151588649 ], [ 399022.583926754829008, 3783124.211597151588649 ], [ 399024.415055951161776, 3783122.38046795502305 ], [ 399024.72024415055057, 3783122.38046795502305 ], [ 399025.025432349939365, 3783122.075279755983502 ], [ 399026.551373346883338, 3783122.075279755983502 ], [ 399027.466937945049722, 3783122.99084435403347 ], [ 399027.466937945049722, 3783123.29603255353868 ], [ 399027.772126144438516, 3783123.601220752578229 ], [ 399027.772126144438516, 3783125.127161749638617 ], [ 399027.466937945049722, 3783125.432349949143827 ], [ 399027.466937945049722, 3783125.737538148649037 ], [ 399026.856561546272133, 3783126.347914547193795 ], [ 399026.856561546272133, 3783126.653102746699005 ], [ 399026.551373346883338, 3783126.958290946204215 ], [ 399026.551373346883338, 3783128.179043743759394 ], [ 399026.246185147494543, 3783128.484231942798942 ], [ 399026.246185147494543, 3783129.094608341809362 ], [ 399025.940996948105749, 3783129.399796541314572 ], [ 399025.940996948105749, 3783129.704984740819782 ], [ 399025.635808748716954, 3783130.010172939859331 ], [ 399025.635808748716954, 3783130.315361139364541 ], [ 399025.025432349939365, 3783130.92573753837496 ], [ 399025.025432349939365, 3783131.230925737414509 ], [ 399021.973550356051419, 3783131.230925737414509 ] ] ] } },
{ "type": "Feature", "properties": { "confidence": 0.55818521976470947, "class": 1 }, "geometry": { "type": "Polygon", "coordinates": [ [ [ 399341.810783316381276, 3783144.048830111976713 ], [ 399340.590030518826097, 3783142.828077314421535 ], [ 399340.590030518826097, 3783142.522889114916325 ], [ 399340.284842319437303, 3783142.217700915411115 ], [ 399340.284842319437303, 3783141.302136317361146 ], [ 399341.200406917603686, 3783140.386571719311178 ], [ 399341.810783316381276, 3783140.386571719311178 ], [ 399342.11597151577007, 3783140.081383519805968 ], [ 399342.726347914547659, 3783140.081383519805968 ], [ 399343.031536113936454, 3783139.776195320300758 ], [ 399343.947100712102838, 3783139.776195320300758 ], [ 399344.252288911491632, 3783140.081383519805968 ], [ 399345.473041709046811, 3783140.081383519805968 ], [ 399345.778229908435605, 3783140.386571719311178 ], [ 399346.693794506601989, 3783140.386571719311178 ], [ 399346.998982705990784, 3783140.691759918816388 ], [ 399347.609359104768373, 3783140.691759918816388 ], [ 399347.914547304157168, 3783140.996948117855936 ], [ 399348.219735503545962, 3783140.996948117855936 ], [ 399348.524923702934757, 3783141.302136317361146 ], [ 399348.524923702934757, 3783141.607324516866356 ], [ 399348.219735503545962, 3783141.912512716371566 ], [ 399348.219735503545962, 3783142.217700915411115 ], [ 399347.914547304157168, 3783142.522889114916325 ], [ 399347.609359104768373, 3783142.522889114916325 ], [ 399347.304170905379578, 3783142.828077314421535 ], [ 399346.998982705990784, 3783142.828077314421535 ], [ 399346.0834181078244, 3783143.743641912471503 ], [ 399344.862665310269222, 3783143.743641912471503 ], [ 399344.557477110880427, 3783144.048830111976713 ], [ 399341.810783316381276, 3783144.048830111976713 ] ] ] } },
{ "type": "Feature", "properties": { "confidence": 0.53158974647521973, "class": 1 }, "geometry": { "type": "Polygon", "coordinates": [ [ [ 399582.6042726347805, 3783215.15768056968227 ], [ 399582.299084435391705, 3783214.85249237017706 ], [ 399581.993896236002911, 3783214.85249237017706 ], [ 399581.688708036614116, 3783214.547304171137512 ], [ 399581.383519837225322, 3783214.547304171137512 ], [ 399581.078331637836527, 3783214.242115971632302 ], [ 399581.078331637836527, 3783213.631739572621882 ], [ 399580.773143438447732, 3783213.326551373116672 ], [ 399580.773143438447732, 3783211.800610376521945 ], [ 399580.467955239058938, 3783211.495422177016735 ], [ 399580.467955239058938, 3783211.190233977511525 ], [ 399579.552390640892554, 3783210.274669379461557 ], [ 399579.552390640892554, 3783209.969481179956347 ], [ 399579.247202441503759, 3783209.664292980451137 ], [ 399587.792472024390008, 3783209.664292980451137 ], [ 399587.792472024390008, 3783210.579857578966767 ], [ 399585.961342828057241, 3783212.410986775066704 ], [ 399585.961342828057241, 3783212.716174974571913 ], [ 399585.656154628668446, 3783213.021363174077123 ], [ 399585.656154628668446, 3783214.242115971632302 ], [ 399585.350966429279651, 3783214.547304171137512 ], [ 399585.350966429279651, 3783215.15768056968227 ], [ 399582.6042726347805, 3783215.15768056968227 ] ] ] } },
{ "type": "Feature", "properties": { "confidence": 0.50718718767166138, "class": 1 }, "geometry": { "type": "Polygon", "coordinates": [ [ [ 399362.258392675488722, 3783149.847405900247395 ], [ 399361.953204476099927, 3783149.542217700742185 ], [ 399361.342828077322338, 3783149.542217700742185 ], [ 399361.342828077322338, 3783149.237029501702636 ], [ 399361.037639877933543, 3783148.931841302197427 ], [ 399361.037639877933543, 3783148.626653102692217 ], [ 399359.51169888098957, 3783147.100712105631828 ], [ 399359.206510681600776, 3783147.100712105631828 ], [ 399359.206510681600776, 3783145.87995930807665 ], [ 399359.51169888098957, 3783145.574771109037101 ], [ 399359.51169888098957, 3783145.269582909531891 ], [ 399360.732451678544749, 3783144.048830111976713 ], [ 399363.173957273655105, 3783144.048830111976713 ], [ 399363.4791454730439, 3783143.743641912471503 ], [ 399364.089521871821489, 3783143.743641912471503 ], [ 399364.699898270599078, 3783144.354018311481923 ], [ 399364.699898270599078, 3783144.659206510521472 ], [ 399365.615462868765462, 3783145.574771109037101 ], [ 399365.615462868765462, 3783145.87995930807665 ], [ 399365.920651068154257, 3783146.18514750758186 ], [ 399365.920651068154257, 3783146.79552390659228 ], [ 399366.225839267543051, 3783147.100712105631828 ], [ 399366.225839267543051, 3783148.321464903187007 ], [ 399365.920651068154257, 3783148.626653102692217 ], [ 399365.920651068154257, 3783149.237029501702636 ], [ 399364.699898270599078, 3783149.237029501702636 ], [ 399364.394710071210284, 3783149.542217700742185 ], [ 399364.089521871821489, 3783149.542217700742185 ], [ 399363.784333672432695, 3783149.847405900247395 ], [ 399362.258392675488722, 3783149.847405900247395 ] ] ] } },
{ "type": "Feature", "properties": { "confidence": 0.50109511613845825, "class": 1 }, "geometry": { "type": "Polygon", "coordinates": [ [ [ 399166.327568667358719, 3783094.608341810759157 ], [ 399166.022380467969924, 3783094.303153611253947 ], [ 399165.71719226858113, 3783094.303153611253947 ], [ 399165.412004069192335, 3783093.997965412214398 ], [ 399164.801627670414746, 3783093.997965412214398 ], [ 399164.496439471025951, 3783093.692777212709188 ], [ 399164.496439471025951, 3783092.47202441515401 ], [ 399170.295015259413049, 3783092.47202441515401 ], [ 399170.295015259413049, 3783093.692777212709188 ], [ 399169.684638860635459, 3783094.303153611253947 ], [ 399169.379450661246665, 3783094.303153611253947 ], [ 399169.07426246185787, 3783094.608341810759157 ], [ 399166.327568667358719, 3783094.608341810759157 ] ] ] } },
{ "type": "Feature", "properties": { "confidence": 0.49494060873985291, "class": 1 }, "geometry": { "type": "Polygon", "coordinates": [ [ [ 399540.793489318399224, 3783036.622583926655352 ], [ 399540.48830111901043, 3783036.317395727150142 ], [ 399540.183112919621635, 3783036.317395727150142 ], [ 399540.183112919621635, 3783036.012207528110594 ], [ 399539.572736520844046, 3783035.401831129100174 ], [ 399539.572736520844046, 3783034.486266531050205 ], [ 399538.962360122066457, 3783033.875890132039785 ], [ 399538.962360122066457, 3783033.570701933000237 ], [ 399538.657171922677662, 3783033.265513733495027 ], [ 399538.657171922677662, 3783032.044760935939848 ], [ 399539.572736520844046, 3783031.12919633788988 ], [ 399539.877924720232841, 3783031.12919633788988 ], [ 399540.183112919621635, 3783030.82400813838467 ], [ 399540.48830111901043, 3783030.82400813838467 ], [ 399540.793489318399224, 3783030.51881993887946 ], [ 399541.403865717176814, 3783030.51881993887946 ], [ 399541.709053916565608, 3783030.21363173937425 ], [ 399542.624618514731992, 3783030.21363173937425 ], [ 399543.234994913509581, 3783029.603255340829492 ], [ 399543.84537131228717, 3783029.603255340829492 ], [ 399544.150559511675965, 3783029.298067141324282 ], [ 399544.45574771106476, 3783029.298067141324282 ], [ 399544.760935910453554, 3783029.603255340829492 ], [ 399545.066124109842349, 3783029.603255340829492 ], [ 399545.371312309231143, 3783029.908443540334702 ], [ 399545.371312309231143, 3783035.096642929594964 ], [ 399545.066124109842349, 3783035.401831129100174 ], [ 399545.066124109842349, 3783035.707019328605384 ], [ 399544.760935910453554, 3783036.012207528110594 ], [ 399544.760935910453554, 3783036.317395727150142 ], [ 399543.540183112898376, 3783036.317395727150142 ], [ 399543.234994913509581, 3783036.622583926655352 ], [ 399540.793489318399224, 3783036.622583926655352 ] ] ] } },
{ "type": "Feature", "properties": { "confidence": 0.48299270868301392, "class": 1 }, "geometry": { "type": "Polygon", "coordinates": [ [ [ 399473.652085452689789, 3783138.555442522745579 ], [ 399473.346897253300995, 3783138.250254323706031 ], [ 399472.431332655134611, 3783138.250254323706031 ], [ 399472.126144455745816, 3783137.945066124200821 ], [ 399472.126144455745816, 3783137.334689725190401 ], [ 399472.431332655134611, 3783137.029501526150852 ], [ 399472.431332655134611, 3783131.841302136424929 ], [ 399473.0417090539122, 3783131.230925737414509 ], [ 399473.346897253300995, 3783131.230925737414509 ], [ 399473.957273652078584, 3783130.62054933886975 ], [ 399474.567650050856173, 3783130.62054933886975 ], [ 399474.872838250244968, 3783130.315361139364541 ], [ 399476.398779247188941, 3783130.315361139364541 ], [ 399476.703967446577735, 3783130.62054933886975 ], [ 399477.00915564596653, 3783130.62054933886975 ], [ 399477.00915564596653, 3783130.92573753837496 ], [ 399477.314343845355324, 3783131.230925737414509 ], [ 399477.314343845355324, 3783133.062054933980107 ], [ 399477.619532044744119, 3783133.367243133485317 ], [ 399477.619532044744119, 3783137.639877924695611 ], [ 399477.314343845355324, 3783137.639877924695611 ], [ 399477.00915564596653, 3783137.945066124200821 ], [ 399476.093591047800146, 3783137.945066124200821 ], [ 399475.788402848411351, 3783138.250254323706031 ], [ 399473.957273652078584, 3783138.250254323706031 ], [ 399473.652085452689789, 3783138.555442522745579 ] ] ] } },
{ "type": "Feature", "properties": { "confidence": 0.48293358087539673, "class": 1 }, "geometry": { "type": "Polygon", "coordinates": [ [ [ 399149.847405900305603, 3783491.658189216628671 ], [ 399149.542217700916808, 3783491.353001017123461 ], [ 399149.237029501528013, 3783491.353001017123461 ], [ 399148.626653102750424, 3783490.742624618578702 ], [ 399148.626653102750424, 3783490.437436419073492 ], [ 399148.016276703972835, 3783489.827060020528734 ], [ 399148.016276703972835, 3783489.521871821023524 ], [ 399147.71108850458404, 3783489.216683621518314 ], [ 399147.71108850458404, 3783488.606307222973555 ], [ 399147.405900305195246, 3783488.301119023468345 ], [ 399147.405900305195246, 3783487.995930823963135 ], [ 399147.100712105806451, 3783487.690742624457926 ], [ 399147.100712105806451, 3783486.775178026407957 ], [ 399147.71108850458404, 3783486.164801627863199 ], [ 399149.237029501528013, 3783486.164801627863199 ], [ 399149.542217700916808, 3783486.469989826902747 ], [ 399151.068158697860781, 3783486.469989826902747 ], [ 399151.67853509663837, 3783487.080366225913167 ], [ 399152.28891149541596, 3783487.080366225913167 ], [ 399152.594099694804754, 3783487.385554425418377 ], [ 399152.899287894193549, 3783487.385554425418377 ], [ 399153.204476093582343, 3783487.690742624457926 ], [ 399153.509664292971138, 3783487.690742624457926 ], [ 399154.425228891137522, 3783488.606307222973555 ], [ 399154.425228891137522, 3783490.437436419073492 ], [ 399154.120040691748727, 3783490.437436419073492 ], [ 399153.509664292971138, 3783491.047812818083912 ], [ 399152.899287894193549, 3783491.047812818083912 ], [ 399152.594099694804754, 3783491.353001017123461 ], [ 399151.373346897249576, 3783491.353001017123461 ], [ 399151.068158697860781, 3783491.658189216628671 ], [ 399149.847405900305603, 3783491.658189216628671 ] ] ] } },
{ "type": "Feature", "properties": { "confidence": 0.47612422704696655, "class": 1 }, "geometry": { "type": "Polygon", "coordinates": [ [ [ 399581.383519837225322, 3783156.256358087528497 ], [ 399581.383519837225322, 3783155.951169888023287 ], [ 399581.688708036614116, 3783155.645981688518077 ], [ 399581.688708036614116, 3783155.340793489478528 ], [ 399581.993896236002911, 3783155.035605289973319 ], [ 399581.993896236002911, 3783154.730417090468109 ], [ 399582.299084435391705, 3783154.425228890962899 ], [ 399582.299084435391705, 3783154.12004069192335 ], [ 399582.6042726347805, 3783153.81485249241814 ], [ 399582.6042726347805, 3783153.50966429291293 ], [ 399583.214649033558089, 3783152.899287894368172 ], [ 399583.519837232946884, 3783152.899287894368172 ], [ 399583.825025432335678, 3783152.594099694862962 ], [ 399584.130213631724473, 3783152.594099694862962 ], [ 399584.435401831113268, 3783152.288911495357752 ], [ 399584.740590030502062, 3783152.288911495357752 ], [ 399585.045778229890857, 3783151.983723295852542 ], [ 399586.266531027446035, 3783151.983723295852542 ], [ 399586.57171922683483, 3783152.288911495357752 ], [ 399586.876907426223624, 3783152.288911495357752 ], [ 399587.487283825001214, 3783152.899287894368172 ], [ 399587.792472024390008, 3783152.899287894368172 ], [ 399588.097660223778803, 3783153.20447609340772 ], [ 399588.097660223778803, 3783154.425228890962899 ], [ 399587.487283825001214, 3783155.035605289973319 ], [ 399587.487283825001214, 3783155.340793489478528 ], [ 399586.876907426223624, 3783155.951169888023287 ], [ 399586.876907426223624, 3783156.256358087528497 ], [ 399581.383519837225322, 3783156.256358087528497 ] ] ] } },
{ "type": "Feature", "properties": { "confidence": 0.46876978874206543, "class": 1 }, "geometry": { "type": "Polygon", "coordinates": [ [ [ 399455.6459816886927, 3783212.105798575561494 ], [ 399455.340793489303906, 3783211.800610376521945 ], [ 399455.035605289915111, 3783211.800610376521945 ], [ 399455.035605289915111, 3783211.495422177016735 ], [ 399454.730417090526316, 3783211.190233977511525 ], [ 399454.730417090526316, 3783210.274669379461557 ], [ 399455.035605289915111, 3783209.969481179956347 ], [ 399455.035605289915111, 3783206.612410986796021 ], [ 399454.730417090526316, 3783206.307222787290812 ], [ 399454.730417090526316, 3783204.781281790230423 ], [ 399454.425228891137522, 3783204.476093591190875 ], [ 399454.425228891137522, 3783203.865717192180455 ], [ 399454.730417090526316, 3783203.560528992675245 ], [ 399454.730417090526316, 3783202.950152594130486 ], [ 399455.035605289915111, 3783202.644964394625276 ], [ 399455.035605289915111, 3783202.339776195120066 ], [ 399455.340793489303906, 3783202.339776195120066 ], [ 399455.6459816886927, 3783202.034587996080518 ], [ 399456.561546286859084, 3783202.034587996080518 ], [ 399456.561546286859084, 3783202.339776195120066 ], [ 399456.866734486247879, 3783202.644964394625276 ], [ 399457.171922685636673, 3783202.644964394625276 ], [ 399457.171922685636673, 3783203.255340793635696 ], [ 399457.477110885025468, 3783203.560528992675245 ], [ 399457.477110885025468, 3783205.086469989735633 ], [ 399457.782299084414262, 3783205.391658189240843 ], [ 399457.782299084414262, 3783210.885045778006315 ], [ 399457.477110885025468, 3783211.190233977511525 ], [ 399457.477110885025468, 3783211.495422177016735 ], [ 399457.171922685636673, 3783211.800610376521945 ], [ 399457.171922685636673, 3783212.105798575561494 ], [ 399455.6459816886927, 3783212.105798575561494 ] ] ] } },
{ "type": "Feature", "properties": { "confidence": 0.4251844584941864, "class": 1 }, "geometry": { "type": "Polygon", "coordinates": [ [ [ 399197.151576805685181, 3783385.452695828862488 ], [ 399196.846388606296387, 3783385.14750762982294 ], [ 399196.541200406907592, 3783385.14750762982294 ], [ 399196.236012207518797, 3783384.84231943031773 ], [ 399195.930824008130003, 3783384.84231943031773 ], [ 399195.320447609352414, 3783384.23194303130731 ], [ 399195.320447609352414, 3783383.621566632762551 ], [ 399195.015259409963619, 3783383.316378433257341 ], [ 399195.015259409963619, 3783382.706002034712583 ], [ 399195.320447609352414, 3783382.400813835207373 ], [ 399195.320447609352414, 3783381.790437436196953 ], [ 399195.625635808741208, 3783381.485249237157404 ], [ 399195.625635808741208, 3783379.654120040591806 ], [ 399195.320447609352414, 3783379.348931841086596 ], [ 399195.625635808741208, 3783379.043743642047048 ], [ 399195.625635808741208, 3783378.738555442541838 ], [ 399196.541200406907592, 3783378.738555442541838 ], [ 399196.846388606296387, 3783378.433367243036628 ], [ 399197.456765005073976, 3783378.433367243036628 ], [ 399197.76195320446277, 3783378.738555442541838 ], [ 399201.424211597128306, 3783378.738555442541838 ], [ 399201.424211597128306, 3783379.043743642047048 ], [ 399201.7293997965171, 3783379.348931841086596 ], [ 399202.034587995905895, 3783379.348931841086596 ], [ 399202.339776195294689, 3783379.654120040591806 ], [ 399202.339776195294689, 3783380.264496439602226 ], [ 399202.644964394683484, 3783380.569684638641775 ], [ 399202.950152594072279, 3783380.569684638641775 ], [ 399202.950152594072279, 3783382.400813835207373 ], [ 399202.644964394683484, 3783382.400813835207373 ], [ 399202.339776195294689, 3783382.706002034712583 ], [ 399202.339776195294689, 3783383.011190233752131 ], [ 399202.034587995905895, 3783383.316378433257341 ], [ 399202.034587995905895, 3783383.621566632762551 ], [ 399201.7293997965171, 3783383.926754832267761 ], [ 399201.7293997965171, 3783384.23194303130731 ], [ 399201.424211597128306, 3783384.53713123081252 ], [ 399201.424211597128306, 3783384.84231943031773 ], [ 399201.119023397739511, 3783384.84231943031773 ], [ 399200.813835198350716, 3783385.14750762982294 ], [ 399200.813835198350716, 3783385.452695828862488 ], [ 399197.151576805685181, 3783385.452695828862488 ] ] ] } },
{ "type": "Feature", "properties": { "confidence": 0.39748191833496094, "class": 1 }, "geometry": { "type": "Polygon", "coordinates": [ [ [ 399462.054933875915594, 3783102.543234995100647 ], [ 399461.7497456765268, 3783102.238046795595437 ], [ 399461.7497456765268, 3783100.10172939999029 ], [ 399462.054933875915594, 3783099.79654120048508 ], [ 399462.054933875915594, 3783099.491353000979871 ], [ 399462.665310274693184, 3783098.880976602435112 ], [ 399464.191251271637157, 3783098.880976602435112 ], [ 399464.496439471025951, 3783099.186164801474661 ], [ 399464.496439471025951, 3783099.491353000979871 ], [ 399464.801627670414746, 3783099.79654120048508 ], [ 399464.801627670414746, 3783101.932858596090227 ], [ 399464.496439471025951, 3783102.238046795595437 ], [ 399464.191251271637157, 3783102.238046795595437 ], [ 399463.886063072248362, 3783102.543234995100647 ], [ 399462.054933875915594, 3783102.543234995100647 ] ] ] } },
{ "type": "Feature", "properties": { "confidence": 0.36687126755714417, "class": 1 }, "geometry": { "type": "Polygon", "coordinates": [ [ [ 399113.835198372311424, 3783448.016276704147458 ], [ 399113.53001017292263, 3783447.711088504642248 ], [ 399113.224821973533835, 3783447.711088504642248 ], [ 399113.224821973533835, 3783444.659206510521472 ], [ 399117.49745676497696, 3783444.659206510521472 ], [ 399117.192268565588165, 3783444.964394710026681 ], [ 399117.192268565588165, 3783445.269582909531891 ], [ 399116.581892166810576, 3783445.87995930807665 ], [ 399116.581892166810576, 3783446.49033570708707 ], [ 399115.971515768032987, 3783447.100712105631828 ], [ 399115.971515768032987, 3783447.405900305137038 ], [ 399115.666327568644192, 3783447.405900305137038 ], [ 399115.361139369255397, 3783447.711088504642248 ], [ 399115.055951169866603, 3783447.711088504642248 ], [ 399114.750762970477808, 3783448.016276704147458 ], [ 399113.835198372311424, 3783448.016276704147458 ] ] ] } },
{ "type": "Feature", "properties": { "confidence": 0.35897576808929443, "class": 1 }, "geometry": { "type": "Polygon", "coordinates": [ [ [ 399117.802644964365754, 3783176.398779247421771 ], [ 399117.49745676497696, 3783176.093591047916561 ], [ 399117.192268565588165, 3783176.093591047916561 ], [ 399117.192268565588165, 3783168.463886063080281 ], [ 399117.49745676497696, 3783168.463886063080281 ], [ 399118.413021363201551, 3783167.548321465030313 ], [ 399119.938962360145524, 3783167.548321465030313 ], [ 399120.244150559534319, 3783167.243133265525103 ], [ 399121.159715157700703, 3783167.243133265525103 ], [ 399121.159715157700703, 3783168.463886063080281 ], [ 399121.464903357089497, 3783168.769074262585491 ], [ 399121.464903357089497, 3783169.684638860635459 ], [ 399121.159715157700703, 3783169.989827060140669 ], [ 399121.159715157700703, 3783170.600203458685428 ], [ 399120.854526958311908, 3783170.905391658190638 ], [ 399120.854526958311908, 3783173.041709053795785 ], [ 399120.549338758923113, 3783173.346897253300995 ], [ 399120.549338758923113, 3783174.567650050856173 ], [ 399119.938962360145524, 3783175.178026449866593 ], [ 399119.938962360145524, 3783175.483214648906142 ], [ 399119.63377416075673, 3783175.483214648906142 ], [ 399119.328585961367935, 3783175.788402848411351 ], [ 399119.02339776197914, 3783175.788402848411351 ], [ 399118.718209562590346, 3783176.093591047916561 ], [ 399118.413021363201551, 3783176.093591047916561 ], [ 399118.107833163812757, 3783176.398779247421771 ], [ 399117.802644964365754, 3783176.398779247421771 ] ] ] } },
{ "type": "Feature", "properties": { "confidence": 0.35516253113746643, "class": 1 }, "geometry": { "type": "Polygon", "coordinates": [ [ [ 399445.269582909473684, 3783100.406917599029839 ], [ 399444.964394710084889, 3783100.10172939999029 ], [ 399445.574771108862478, 3783099.491353000979871 ], [ 399445.574771108862478, 3783097.355035605374724 ], [ 399445.269582909473684, 3783097.049847405869514 ], [ 399445.269582909473684, 3783096.744659206364304 ], [ 399444.964394710084889, 3783096.439471007324755 ], [ 399444.964394710084889, 3783095.829094608314335 ], [ 399444.659206510696094, 3783095.523906408809125 ], [ 399444.659206510696094, 3783093.387589013203979 ], [ 399445.269582909473684, 3783093.387589013203979 ], [ 399445.574771108862478, 3783093.082400813698769 ], [ 399447.71108850458404, 3783093.082400813698769 ], [ 399447.71108850458404, 3783096.439471007324755 ], [ 399447.405900305195246, 3783096.744659206364304 ], [ 399447.405900305195246, 3783097.660223804879934 ], [ 399447.100712105806451, 3783097.965412003919482 ], [ 399447.100712105806451, 3783098.880976602435112 ], [ 399446.185147507640067, 3783099.79654120048508 ], [ 399446.185147507640067, 3783100.10172939999029 ], [ 399445.879959308251273, 3783100.406917599029839 ], [ 399445.269582909473684, 3783100.406917599029839 ] ] ] } },
{ "type": "Feature", "properties": { "confidence": 0.34110400080680847, "class": 1 }, "geometry": { "type": "Polygon", "coordinates": [ [ [ 399478.229908443521708, 3783585.045778229832649 ], [ 399477.924720244132914, 3783584.740590030327439 ], [ 399477.619532044744119, 3783584.740590030327439 ], [ 399477.00915564596653, 3783584.130213631782681 ], [ 399477.00915564596653, 3783581.993896236177534 ], [ 399477.314343845355324, 3783581.688708036672324 ], [ 399477.314343845355324, 3783581.383519837167114 ], [ 399477.619532044744119, 3783581.078331637661904 ], [ 399477.924720244132914, 3783581.078331637661904 ], [ 399480.061037639854476, 3783578.942014242056757 ], [ 399480.061037639854476, 3783578.636826042551547 ], [ 399480.671414038632065, 3783578.026449644006789 ], [ 399483.418107833189424, 3783578.026449644006789 ], [ 399483.418107833189424, 3783578.636826042551547 ], [ 399483.723296032578219, 3783578.942014242056757 ], [ 399483.723296032578219, 3783581.688708036672324 ], [ 399483.418107833189424, 3783581.993896236177534 ], [ 399483.418107833189424, 3783583.519837232772261 ], [ 399482.807731434411835, 3783584.130213631782681 ], [ 399482.807731434411835, 3783584.435401831287891 ], [ 399482.50254323502304, 3783584.435401831287891 ], [ 399482.197355035634246, 3783584.740590030327439 ], [ 399481.586978636798449, 3783584.740590030327439 ], [ 399481.281790437409654, 3783585.045778229832649 ], [ 399478.229908443521708, 3783585.045778229832649 ] ] ] } },
{ "type": "Feature", "properties": { "confidence": 0.32120954990386963, "class": 1 }, "geometry": { "type": "Polygon", "coordinates": [ [ [ 399021.057985757885035, 3783204.170905391685665 ], [ 399020.752797558496241, 3783203.865717192180455 ], [ 399020.447609359107446, 3783203.865717192180455 ], [ 399019.226856561552268, 3783202.644964394625276 ], [ 399019.226856561552268, 3783202.034587996080518 ], [ 399018.921668362163473, 3783201.729399796575308 ], [ 399018.921668362163473, 3783201.119023397564888 ], [ 399018.616480162774678, 3783200.813835198525339 ], [ 399018.616480162774678, 3783199.89827060000971 ], [ 399018.311291963385884, 3783199.593082400970161 ], [ 399018.311291963385884, 3783195.320447609294206 ], [ 399018.006103763997089, 3783195.015259409788996 ], [ 399018.006103763997089, 3783194.099694811739028 ], [ 399018.311291963385884, 3783194.099694811739028 ], [ 399018.616480162774678, 3783193.794506612233818 ], [ 399019.532044760941062, 3783193.794506612233818 ], [ 399019.837232960329857, 3783194.099694811739028 ], [ 399020.142421159718651, 3783194.099694811739028 ], [ 399020.142421159718651, 3783194.404883011244237 ], [ 399020.752797558496241, 3783195.015259409788996 ], [ 399021.057985757885035, 3783195.015259409788996 ], [ 399021.36317395727383, 3783195.320447609294206 ], [ 399021.973550356051419, 3783195.320447609294206 ], [ 399022.278738555440214, 3783195.625635808799416 ], [ 399023.804679552384187, 3783195.625635808799416 ], [ 399024.109867751772981, 3783195.930824008304626 ], [ 399024.415055951161776, 3783195.930824008304626 ], [ 399024.72024415055057, 3783196.236012207344174 ], [ 399025.025432349939365, 3783196.236012207344174 ], [ 399025.33062054932816, 3783196.541200406849384 ], [ 399025.33062054932816, 3783197.456765004899353 ], [ 399025.635808748716954, 3783197.761953204404563 ], [ 399025.635808748716954, 3783200.813835198525339 ], [ 399025.33062054932816, 3783201.119023397564888 ], [ 399025.33062054932816, 3783202.644964394625276 ], [ 399024.72024415055057, 3783203.255340793635696 ], [ 399024.72024415055057, 3783203.865717192180455 ], [ 399024.415055951161776, 3783204.170905391685665 ], [ 399021.057985757885035, 3783204.170905391685665 ] ] ] } },
{ "type": "Feature", "properties": { "confidence": 0.30720913410186768, "class": 1 }, "geometry": { "type": "Polygon", "coordinates": [ [ [ 399455.035605289915111, 3783183.112919633742422 ], [ 399454.730417090526316, 3783182.807731434237212 ], [ 399452.899287894193549, 3783182.807731434237212 ], [ 399452.594099694804754, 3783182.502543235197663 ], [ 399452.28891149541596, 3783182.502543235197663 ], [ 399451.67853509663837, 3783181.892166836187243 ], [ 399451.67853509663837, 3783181.586978636682034 ], [ 399451.373346897249576, 3783181.281790437642485 ], [ 399451.373346897249576, 3783180.671414038632065 ], [ 399451.068158697860781, 3783180.366225839126855 ], [ 399451.068158697860781, 3783177.61953204497695 ], [ 399450.762970498471987, 3783177.31434384547174 ], [ 399451.068158697860781, 3783177.00915564596653 ], [ 399451.068158697860781, 3783175.788402848411351 ], [ 399451.373346897249576, 3783175.483214648906142 ], [ 399451.373346897249576, 3783175.178026449866593 ], [ 399451.67853509663837, 3783174.872838250361383 ], [ 399451.67853509663837, 3783174.262461851350963 ], [ 399451.983723296027165, 3783174.262461851350963 ], [ 399452.28891149541596, 3783173.957273652311414 ], [ 399452.28891149541596, 3783173.652085452806205 ], [ 399452.899287894193549, 3783173.652085452806205 ], [ 399454.730417090526316, 3783175.483214648906142 ], [ 399455.035605289915111, 3783175.483214648906142 ], [ 399456.561546286859084, 3783177.00915564596653 ], [ 399456.561546286859084, 3783177.31434384547174 ], [ 399456.866734486247879, 3783177.61953204497695 ], [ 399456.866734486247879, 3783179.145473041571677 ], [ 399457.171922685636673, 3783179.450661241076887 ], [ 399457.171922685636673, 3783180.976602238137275 ], [ 399456.866734486247879, 3783181.281790437642485 ], [ 399456.866734486247879, 3783181.892166836187243 ], [ 399456.561546286859084, 3783182.197355035692453 ], [ 399456.561546286859084, 3783182.502543235197663 ], [ 399456.256358087470289, 3783182.502543235197663 ], [ 399455.951169888081495, 3783182.807731434237212 ], [ 399455.340793489303906, 3783182.807731434237212 ], [ 399455.035605289915111, 3783183.112919633742422 ] ] ] } },
{ "type": "Feature", "properties": { "confidence": 0.28527218103408813, "class": 1 }, "geometry": { "type": "Polygon", "coordinates": [ [ [ 399060.427263479155954, 3783129.094608341809362 ], [ 399059.816887080378365, 3783128.484231942798942 ], [ 399059.816887080378365, 3783127.263479145243764 ], [ 399060.427263479155954, 3783126.653102746699005 ], [ 399060.732451678544749, 3783126.653102746699005 ], [ 399061.648016276711132, 3783125.737538148649037 ], [ 399061.953204476099927, 3783125.737538148649037 ], [ 399062.258392675488722, 3783125.432349949143827 ], [ 399064.699898270599078, 3783125.432349949143827 ], [ 399065.005086469987873, 3783125.737538148649037 ], [ 399065.310274669376668, 3783125.737538148649037 ], [ 399065.310274669376668, 3783126.347914547193795 ], [ 399065.005086469987873, 3783126.653102746699005 ], [ 399064.699898270599078, 3783126.653102746699005 ], [ 399064.394710071210284, 3783126.958290946204215 ], [ 399064.394710071210284, 3783127.263479145243764 ], [ 399063.784333672432695, 3783127.873855544254184 ], [ 399063.4791454730439, 3783127.873855544254184 ], [ 399063.173957273655105, 3783128.179043743759394 ], [ 399062.868769074266311, 3783128.179043743759394 ], [ 399062.258392675488722, 3783128.789420142304152 ], [ 399061.953204476099927, 3783128.789420142304152 ], [ 399061.648016276711132, 3783129.094608341809362 ], [ 399060.427263479155954, 3783129.094608341809362 ] ] ] } },
{ "type": "Feature", "properties": { "confidence": 0.28313276171684265, "class": 1 }, "geometry": { "type": "Polygon", "coordinates": [ [ [ 399469.07426246185787, 3783328.992878941819072 ], [ 399468.769074262469076, 3783328.687690742779523 ], [ 399467.548321464913897, 3783328.687690742779523 ], [ 399467.243133265525103, 3783328.382502543274313 ], [ 399466.937945066136308, 3783328.382502543274313 ], [ 399466.632756866747513, 3783328.077314343769103 ], [ 399466.327568667358719, 3783328.077314343769103 ], [ 399466.022380467969924, 3783327.772126144263893 ], [ 399466.022380467969924, 3783326.856561546213925 ], [ 399472.431332655134611, 3783326.856561546213925 ], [ 399472.431332655134611, 3783327.466937945224345 ], [ 399472.126144455745816, 3783327.772126144263893 ], [ 399472.126144455745816, 3783328.077314343769103 ], [ 399471.820956256357022, 3783328.382502543274313 ], [ 399471.515768056968227, 3783328.382502543274313 ], [ 399471.210579857579432, 3783328.687690742779523 ], [ 399470.295015259413049, 3783328.687690742779523 ], [ 399469.989827060024254, 3783328.992878941819072 ], [ 399469.07426246185787, 3783328.992878941819072 ] ] ] } },
{ "type": "Feature", "properties": { "confidence": 0.27932965755462646, "class": 1 }, "geometry": { "type": "Polygon", "coordinates": [ [ [ 399421.159715157700703, 3783197.151576805859804 ], [ 399420.854526958311908, 3783196.846388606354594 ], [ 399419.328585961367935, 3783196.846388606354594 ], [ 399419.02339776197914, 3783196.541200406849384 ], [ 399419.02339776197914, 3783196.236012207344174 ], [ 399418.718209562590346, 3783195.930824008304626 ], [ 399418.718209562590346, 3783194.404883011244237 ], [ 399418.413021363201551, 3783194.099694811739028 ], [ 399418.413021363201551, 3783191.963377416133881 ], [ 399418.107833163812757, 3783191.658189216628671 ], [ 399418.107833163812757, 3783188.911495422013104 ], [ 399417.802644964365754, 3783188.606307222973555 ], [ 399417.802644964365754, 3783187.995930823963135 ], [ 399417.49745676497696, 3783187.690742624457926 ], [ 399417.49745676497696, 3783186.775178026407957 ], [ 399417.192268565588165, 3783186.469989826902747 ], [ 399417.192268565588165, 3783184.94404883030802 ], [ 399417.49745676497696, 3783184.63886063080281 ], [ 399417.802644964365754, 3783184.63886063080281 ], [ 399418.107833163812757, 3783184.3336724312976 ], [ 399419.328585961367935, 3783184.3336724312976 ], [ 399420.244150559534319, 3783185.249237029347569 ], [ 399420.244150559534319, 3783185.859613428357989 ], [ 399420.549338758923113, 3783186.164801627863199 ], [ 399420.549338758923113, 3783186.469989826902747 ], [ 399421.159715157700703, 3783187.080366225913167 ], [ 399421.159715157700703, 3783187.690742624457926 ], [ 399421.770091556478292, 3783188.301119023468345 ], [ 399421.770091556478292, 3783189.521871821023524 ], [ 399422.075279755867086, 3783189.827060020528734 ], [ 399422.075279755867086, 3783190.437436419073492 ], [ 399423.601220752811059, 3783191.963377416133881 ], [ 399423.906408952199854, 3783191.963377416133881 ], [ 399423.906408952199854, 3783192.268565615639091 ], [ 399424.211597151588649, 3783192.573753814678639 ], [ 399423.906408952199854, 3783192.878942014183849 ], [ 399423.906408952199854, 3783196.236012207344174 ], [ 399423.296032553422265, 3783196.846388606354594 ], [ 399422.99084435403347, 3783196.846388606354594 ], [ 399422.685656154644676, 3783197.151576805859804 ], [ 399421.159715157700703, 3783197.151576805859804 ] ] ] } },
{ "type": "Feature", "properties": { "confidence": 0.25349321961402893, "class": 1 }, "geometry": { "type": "Polygon", "coordinates": [ [ [ 399300.305188199388795, 3783155.340793489478528 ], [ 399300.305188199388795, 3783155.035605289973319 ], [ 399300.0, 3783154.730417090468109 ], [ 399300.0, 3783153.50966429291293 ], [ 399300.305188199388795, 3783153.20447609340772 ], [ 399300.305188199388795, 3783152.899287894368172 ], [ 399301.525940996943973, 3783151.678535096812993 ], [ 399303.357070193276741, 3783151.678535096812993 ], [ 399303.357070193276741, 3783155.035605289973319 ], [ 399303.051881993887946, 3783155.340793489478528 ], [ 399300.305188199388795, 3783155.340793489478528 ] ] ] } }
]
}
