{
"type": "FeatureCollection",
"name": "cell_00461_pre",
"crs": { "type": "name", "properties": { "name": "urn:ogc:def:crs:EPSG::32611" } },
"features": [
{ "type": "Feature", "properties": { "confidence": 0.94680607318878174, "class": 1 }, "geometry": { "type": "Polygon", "coordinates": [ [ [ 400706.917599186184816, 3784531.12919633788988 ], [ 400706.612410986796021, 3784530.82400813838467 ], [ 400706.307222787407227, 3784530.82400813838467 ], [ 400706.002034588018432, 3784530.51881993887946 ], [ 400706.002034588018432, 3784530.21363173937425 ], [ 400704.781281790463254, 3784528.992878941819072 ], [ 400704.781281790463254, 3784526.856561546213925 ], [ 400711.19023397762794, 3784526.856561546213925 ], [ 400710.885045778239146, 3784527.161749745719135 ], [ 400710.885045778239146, 3784528.382502543274313 ], [ 400710.274669379461557, 3784528.992878941819072 ], [ 400710.274669379461557, 3784529.603255340829492 ], [ 400709.969481180072762, 3784529.603255340829492 ], [ 400709.664292980683967, 3784529.908443540334702 ], [ 400709.664292980683967, 3784530.21363173937425 ], [ 400709.359104781295173, 3784530.51881993887946 ], [ 400709.053916581906378, 3784530.51881993887946 ], [ 400708.748728382517584, 3784530.82400813838467 ], [ 400708.443540183128789, 3784530.82400813838467 ], [ 400708.138351983739994, 3784531.12919633788988 ], [ 400706.917599186184816, 3784531.12919633788988 ] ] ] } },
{ "type": "Feature", "properties": { "confidence": 0.91763842105865479, "class": 1 }, "geometry": { "type": "Polygon", "coordinates": [ [ [ 400316.581892166810576, 3784442.014242115896195 ], [ 400316.276703967421781, 3784441.709053916390985 ], [ 400315.971515768032987, 3784441.709053916390985 ], [ 400315.666327568644192, 3784441.403865717351437 ], [ 400315.361139369255397, 3784441.403865717351437 ], [ 400314.750762970477808, 3784440.793489318341017 ], [ 400314.750762970477808, 3784440.488301118835807 ], [ 400314.445574771089014, 3784440.183112919796258 ], [ 400314.445574771089014, 3784438.04679552372545 ], [ 400314.140386571700219, 3784437.741607324685901 ], [ 400313.835198372311424, 3784437.741607324685901 ], [ 400314.140386571700219, 3784437.436419125180691 ], [ 400314.140386571700219, 3784436.520854527130723 ], [ 400314.750762970477808, 3784435.910478128120303 ], [ 400315.055951169866603, 3784435.910478128120303 ], [ 400315.666327568644192, 3784435.300101729575545 ], [ 400315.971515768032987, 3784435.300101729575545 ], [ 400316.581892166810576, 3784434.689725330565125 ], [ 400316.88708036619937, 3784434.689725330565125 ], [ 400317.192268565588165, 3784434.384537131059915 ], [ 400317.49745676497696, 3784434.384537131059915 ], [ 400317.802644964365754, 3784434.079348932020366 ], [ 400318.107833163812757, 3784434.079348932020366 ], [ 400318.413021363201551, 3784433.774160732515156 ], [ 400319.02339776197914, 3784433.774160732515156 ], [ 400319.328585961367935, 3784434.079348932020366 ], [ 400319.63377416075673, 3784434.079348932020366 ], [ 400320.244150559534319, 3784434.689725330565125 ], [ 400320.244150559534319, 3784434.994913530070335 ], [ 400320.549338758923113, 3784435.300101729575545 ], [ 400320.854526958311908, 3784435.300101729575545 ], [ 400321.464903357089497, 3784435.910478128120303 ], [ 400321.770091556478292, 3784435.910478128120303 ], [ 400322.685656154644676, 3784436.826042726170272 ], [ 400322.685656154644676, 3784437.131230925675482 ], [ 400322.380467955255881, 3784437.436419125180691 ], [ 400322.380467955255881, 3784437.741607324685901 ], [ 400322.075279755867086, 3784437.741607324685901 ], [ 400321.770091556478292, 3784438.04679552372545 ], [ 400321.159715157700703, 3784438.04679552372545 ], [ 400319.328585961367935, 3784439.877924720291048 ], [ 400319.328585961367935, 3784440.183112919796258 ], [ 400319.02339776197914, 3784440.488301118835807 ], [ 400319.02339776197914, 3784440.793489318341017 ], [ 400318.718209562590346, 3784441.098677517846227 ], [ 400318.718209562590346, 3784441.403865717351437 ], [ 400318.413021363201551, 3784441.403865717351437 ], [ 400318.107833163812757, 3784441.709053916390985 ], [ 400318.107833163812757, 3784442.014242115896195 ], [ 400316.581892166810576, 3784442.014242115896195 ] ] ] } },
{ "type": "Feature", "properties": { "confidence": 0.8984447717666626, "class": 1 }, "geometry": { "type": "Polygon", "coordinates": [ [ [ 400625.432349949143827, 3784434.994913530070335 ], [ 400625.127161749755032, 3784434.689725330565125 ], [ 400623.906408952199854, 3784434.689725330565125 ], [ 400623.601220752811059, 3784434.384537131059915 ], [ 400621.159715157700703, 3784434.384537131059915 ], [ 400620.854526958311908, 3784434.079348932020366 ], [ 400619.938962360145524, 3784434.079348932020366 ], [ 400619.63377416075673, 3784433.774160732515156 ], [ 400619.328585961367935, 3784433.774160732515156 ], [ 400618.413021363201551, 3784432.858596134465188 ], [ 400618.413021363201551, 3784431.02746693789959 ], [ 400618.107833163812757, 3784430.72227873839438 ], [ 400618.107833163812757, 3784429.806714140344411 ], [ 400618.413021363201551, 3784429.501525940839201 ], [ 400618.413021363201551, 3784428.891149542294443 ], [ 400619.328585961367935, 3784427.975584944244474 ], [ 400619.328585961367935, 3784427.670396744739264 ], [ 400619.938962360145524, 3784427.060020345728844 ], [ 400620.244150559534319, 3784427.060020345728844 ], [ 400621.464903357089497, 3784425.839267548173666 ], [ 400621.770091556478292, 3784425.839267548173666 ], [ 400622.685656154644676, 3784424.923702950123698 ], [ 400625.737538148532622, 3784424.923702950123698 ], [ 400626.042726347921416, 3784425.228891149628907 ], [ 400626.653102746699005, 3784425.228891149628907 ], [ 400626.9582909460878, 3784425.534079349134117 ], [ 400627.263479145476595, 3784425.534079349134117 ], [ 400628.179043743642978, 3784426.449643947184086 ], [ 400628.179043743642978, 3784426.754832146689296 ], [ 400628.484231943031773, 3784427.060020345728844 ], [ 400628.484231943031773, 3784427.365208545234054 ], [ 400628.789420142420568, 3784427.670396744739264 ], [ 400628.789420142420568, 3784431.637843336910009 ], [ 400628.484231943031773, 3784431.943031535949558 ], [ 400628.484231943031773, 3784432.553407934959978 ], [ 400628.179043743642978, 3784432.858596134465188 ], [ 400628.179043743642978, 3784433.163784333504736 ], [ 400626.653102746699005, 3784434.689725330565125 ], [ 400626.347914547310211, 3784434.689725330565125 ], [ 400626.042726347921416, 3784434.994913530070335 ], [ 400625.432349949143827, 3784434.994913530070335 ] ] ] } },
{ "type": "Feature", "properties": { "confidence": 0.87439745664596558, "class": 1 }, "geometry": { "type": "Polygon", "coordinates": [ [ [ 400299.186164801649284, 3784412.410986775066704 ], [ 400298.880976602260489, 3784412.105798575561494 ], [ 400297.355035605316516, 3784412.105798575561494 ], [ 400297.049847405927721, 3784411.800610376521945 ], [ 400296.744659206538927, 3784411.800610376521945 ], [ 400296.744659206538927, 3784411.495422177016735 ], [ 400296.439471007150132, 3784411.190233977511525 ], [ 400296.439471007150132, 3784409.664292980451137 ], [ 400301.62767039675964, 3784409.664292980451137 ], [ 400301.62767039675964, 3784409.969481179956347 ], [ 400301.017293997982051, 3784410.579857578966767 ], [ 400301.017293997982051, 3784410.885045778006315 ], [ 400300.406917599204462, 3784411.495422177016735 ], [ 400300.406917599204462, 3784411.800610376521945 ], [ 400300.101729399815667, 3784412.105798575561494 ], [ 400299.796541200426873, 3784412.105798575561494 ], [ 400299.491353001038078, 3784412.410986775066704 ], [ 400299.186164801649284, 3784412.410986775066704 ] ] ] } },
{ "type": "Feature", "properties": { "confidence": 0.86351966857910156, "class": 1 }, "geometry": { "type": "Polygon", "coordinates": [ [ [ 400375.483214649022557, 3784685.249237029347569 ], [ 400375.178026449633762, 3784684.94404883030802 ], [ 400374.872838250244968, 3784684.94404883030802 ], [ 400374.872838250244968, 3784684.63886063080281 ], [ 400373.0417090539122, 3784682.807731434237212 ], [ 400373.0417090539122, 3784682.502543235197663 ], [ 400372.736520854523405, 3784682.197355035692453 ], [ 400372.431332655134611, 3784682.197355035692453 ], [ 400371.820956256357022, 3784681.586978636682034 ], [ 400371.820956256357022, 3784681.281790437642485 ], [ 400371.515768056968227, 3784680.976602238137275 ], [ 400371.515768056968227, 3784680.366225839126855 ], [ 400371.210579857579432, 3784680.061037640087306 ], [ 400371.210579857579432, 3784678.535096643026918 ], [ 400370.905391658190638, 3784678.229908443521708 ], [ 400370.905391658190638, 3784677.31434384547174 ], [ 400370.600203458801843, 3784677.00915564596653 ], [ 400370.600203458801843, 3784676.398779247421771 ], [ 400370.905391658190638, 3784676.093591047916561 ], [ 400370.905391658190638, 3784675.788402848411351 ], [ 400371.210579857579432, 3784675.483214648906142 ], [ 400371.210579857579432, 3784675.178026449866593 ], [ 400372.126144455745816, 3784674.262461851350963 ], [ 400372.126144455745816, 3784673.957273652311414 ], [ 400372.736520854523405, 3784673.346897253300995 ], [ 400372.736520854523405, 3784673.041709053795785 ], [ 400373.0417090539122, 3784672.736520854756236 ], [ 400373.346897253300995, 3784672.736520854756236 ], [ 400373.652085452689789, 3784672.431332655251026 ], [ 400374.567650050856173, 3784672.431332655251026 ], [ 400375.178026449633762, 3784673.041709053795785 ], [ 400375.178026449633762, 3784673.346897253300995 ], [ 400375.483214649022557, 3784673.652085452806205 ], [ 400375.483214649022557, 3784677.61953204497695 ], [ 400375.788402848411351, 3784677.924720244016498 ], [ 400375.788402848411351, 3784678.229908443521708 ], [ 400376.093591047800146, 3784678.535096643026918 ], [ 400376.093591047800146, 3784679.450661241076887 ], [ 400376.398779247188941, 3784679.755849440582097 ], [ 400376.398779247188941, 3784680.671414038632065 ], [ 400376.703967446577735, 3784680.976602238137275 ], [ 400376.703967446577735, 3784681.892166836187243 ], [ 400377.00915564596653, 3784682.197355035692453 ], [ 400377.00915564596653, 3784683.418107833247632 ], [ 400377.314343845355324, 3784683.723296032752842 ], [ 400377.00915564596653, 3784684.02848423179239 ], [ 400377.00915564596653, 3784684.63886063080281 ], [ 400376.703967446577735, 3784684.94404883030802 ], [ 400375.788402848411351, 3784684.94404883030802 ], [ 400375.483214649022557, 3784685.249237029347569 ] ] ] } },
{ "type": "Feature", "properties": { "confidence": 0.86111235618591309, "class": 1 }, "geometry": { "type": "Polygon", "coordinates": [ [ [ 400274.465920651040506, 3784415.15768056968227 ], [ 400273.855544252262916, 3784414.547304171137512 ], [ 400273.550356052874122, 3784414.547304171137512 ], [ 400271.108850457763765, 3784412.105798575561494 ], [ 400271.108850457763765, 3784409.664292980451137 ], [ 400283.316378433373757, 3784409.664292980451137 ], [ 400283.316378433373757, 3784411.190233977511525 ], [ 400283.011190233984962, 3784411.495422177016735 ], [ 400283.011190233984962, 3784413.021363174077123 ], [ 400282.706002034596168, 3784413.326551373116672 ], [ 400282.706002034596168, 3784414.242115971632302 ], [ 400282.400813835207373, 3784414.547304171137512 ], [ 400282.095625635818578, 3784414.547304171137512 ], [ 400281.790437436429784, 3784414.85249237017706 ], [ 400281.485249237040989, 3784414.85249237017706 ], [ 400281.180061037652194, 3784415.15768056968227 ], [ 400278.433367243153043, 3784415.15768056968227 ], [ 400278.128179043764248, 3784414.85249237017706 ], [ 400275.686673448653892, 3784414.85249237017706 ], [ 400275.381485249265097, 3784415.15768056968227 ], [ 400274.465920651040506, 3784415.15768056968227 ] ] ] } },
{ "type": "Feature", "properties": { "confidence": 0.84739536046981812, "class": 1 }, "geometry": { "type": "Polygon", "coordinates": [ [ [ 400580.8748728382634, 3784568.97253306210041 ], [ 400580.569684638874605, 3784568.667344862595201 ], [ 400580.264496439485811, 3784568.667344862595201 ], [ 400580.264496439485811, 3784568.056968464050442 ], [ 400579.959308240097016, 3784567.751780264545232 ], [ 400579.959308240097016, 3784564.089521871879697 ], [ 400579.654120040708221, 3784563.784333672374487 ], [ 400579.654120040708221, 3784563.479145472869277 ], [ 400579.348931841319427, 3784563.173957273829728 ], [ 400579.348931841319427, 3784562.563580874819309 ], [ 400580.569684638874605, 3784562.563580874819309 ], [ 400580.8748728382634, 3784562.258392675314099 ], [ 400581.180061037652194, 3784562.258392675314099 ], [ 400581.485249237040989, 3784561.95320447627455 ], [ 400581.790437436429784, 3784561.95320447627455 ], [ 400582.400813835207373, 3784561.34282807726413 ], [ 400584.231943031540141, 3784561.34282807726413 ], [ 400584.537131230928935, 3784561.64801627676934 ], [ 400584.84231943031773, 3784561.64801627676934 ], [ 400585.147507629706524, 3784561.95320447627455 ], [ 400585.452695829095319, 3784561.95320447627455 ], [ 400586.063072227872908, 3784562.563580874819309 ], [ 400586.063072227872908, 3784563.784333672374487 ], [ 400585.757884028484114, 3784564.089521871879697 ], [ 400585.757884028484114, 3784566.225839267484844 ], [ 400585.452695829095319, 3784566.531027466990054 ], [ 400585.147507629706524, 3784566.531027466990054 ], [ 400584.537131230928935, 3784567.141403865534812 ], [ 400584.231943031540141, 3784567.141403865534812 ], [ 400583.926754832151346, 3784567.446592065040022 ], [ 400583.621566632762551, 3784567.446592065040022 ], [ 400583.316378433373757, 3784567.751780264545232 ], [ 400582.706002034596168, 3784567.751780264545232 ], [ 400582.400813835207373, 3784568.056968464050442 ], [ 400582.400813835207373, 3784568.362156663089991 ], [ 400582.095625635818578, 3784568.667344862595201 ], [ 400581.790437436429784, 3784568.667344862595201 ], [ 400581.485249237040989, 3784568.97253306210041 ], [ 400580.8748728382634, 3784568.97253306210041 ] ] ] } },
{ "type": "Feature", "properties": { "confidence": 0.84017783403396606, "class": 1 }, "geometry": { "type": "Polygon", "coordinates": [ [ [ 400674.872838250244968, 3784532.655137334484607 ], [ 400673.346897253300995, 3784531.12919633788988 ], [ 400673.0417090539122, 3784531.12919633788988 ], [ 400672.431332655134611, 3784530.51881993887946 ], [ 400672.431332655134611, 3784530.21363173937425 ], [ 400672.126144455745816, 3784529.908443540334702 ], [ 400672.126144455745816, 3784529.603255340829492 ], [ 400672.431332655134611, 3784529.298067141324282 ], [ 400672.431332655134611, 3784528.687690742779523 ], [ 400673.957273652078584, 3784527.161749745719135 ], [ 400674.262461851467378, 3784527.161749745719135 ], [ 400674.567650050856173, 3784526.856561546213925 ], [ 400674.872838250244968, 3784526.856561546213925 ], [ 400675.178026449633762, 3784526.551373346708715 ], [ 400675.483214649022557, 3784526.551373346708715 ], [ 400675.788402848411351, 3784526.246185147669166 ], [ 400676.093591047800146, 3784526.246185147669166 ], [ 400676.398779247188941, 3784525.940996948163956 ], [ 400676.398779247188941, 3784525.635808748658746 ], [ 400676.703967446577735, 3784525.635808748658746 ], [ 400677.00915564596653, 3784525.330620549153537 ], [ 400679.145473041688092, 3784525.330620549153537 ], [ 400679.450661241076887, 3784525.025432350113988 ], [ 400680.061037639854476, 3784525.025432350113988 ], [ 400680.36622583924327, 3784525.330620549153537 ], [ 400680.671414038632065, 3784525.330620549153537 ], [ 400680.671414038632065, 3784526.856561546213925 ], [ 400680.36622583924327, 3784527.161749745719135 ], [ 400680.36622583924327, 3784527.772126144263893 ], [ 400680.061037639854476, 3784528.077314343769103 ], [ 400680.061037639854476, 3784528.992878941819072 ], [ 400679.450661241076887, 3784529.603255340829492 ], [ 400679.450661241076887, 3784529.908443540334702 ], [ 400677.924720244132914, 3784531.434384536929429 ], [ 400677.619532044744119, 3784531.434384536929429 ], [ 400676.398779247188941, 3784532.655137334484607 ], [ 400674.872838250244968, 3784532.655137334484607 ] ] ] } },
{ "type": "Feature", "properties": { "confidence": 0.83757489919662476, "class": 1 }, "geometry": { "type": "Polygon", "coordinates": [ [ [ 400724.923702950123698, 3784377.31434384547174 ], [ 400724.618514750734903, 3784377.00915564596653 ], [ 400724.313326551346108, 3784377.00915564596653 ], [ 400723.397761953179725, 3784376.093591047916561 ], [ 400723.397761953179725, 3784375.788402848411351 ], [ 400722.787385554402135, 3784375.178026449866593 ], [ 400722.787385554402135, 3784374.872838250361383 ], [ 400721.261444557458162, 3784373.346897253300995 ], [ 400720.956256358069368, 3784373.346897253300995 ], [ 400720.651068158680573, 3784373.041709053795785 ], [ 400720.345879959291779, 3784373.041709053795785 ], [ 400720.040691759902984, 3784372.736520854756236 ], [ 400719.735503560514189, 3784372.736520854756236 ], [ 400719.735503560514189, 3784372.431332655251026 ], [ 400719.430315361125395, 3784372.126144455745816 ], [ 400719.430315361125395, 3784371.210579857695848 ], [ 400720.040691759902984, 3784370.600203458685428 ], [ 400720.651068158680573, 3784370.600203458685428 ], [ 400720.956256358069368, 3784370.295015259180218 ], [ 400721.871820956235752, 3784370.295015259180218 ], [ 400722.177009155624546, 3784369.989827060140669 ], [ 400723.702950152568519, 3784369.989827060140669 ], [ 400724.008138351957314, 3784369.684638860635459 ], [ 400724.313326551346108, 3784369.684638860635459 ], [ 400724.618514750734903, 3784369.37945066113025 ], [ 400724.923702950123698, 3784369.37945066113025 ], [ 400725.2288911495707, 3784369.07426246162504 ], [ 400726.754832146514673, 3784369.07426246162504 ], [ 400727.060020345903467, 3784369.37945066113025 ], [ 400727.365208545292262, 3784369.37945066113025 ], [ 400727.975584944069851, 3784369.989827060140669 ], [ 400727.975584944069851, 3784370.295015259180218 ], [ 400728.280773143458646, 3784370.600203458685428 ], [ 400728.280773143458646, 3784371.210579857695848 ], [ 400728.891149542236235, 3784371.820956256240606 ], [ 400728.891149542236235, 3784372.126144455745816 ], [ 400729.501525941013824, 3784372.736520854756236 ], [ 400729.501525941013824, 3784373.957273652311414 ], [ 400729.806714140402619, 3784374.262461851350963 ], [ 400729.806714140402619, 3784374.872838250361383 ], [ 400729.501525941013824, 3784375.178026449866593 ], [ 400729.501525941013824, 3784376.093591047916561 ], [ 400729.19633774162503, 3784376.398779247421771 ], [ 400729.19633774162503, 3784376.70396744646132 ], [ 400728.891149542236235, 3784377.00915564596653 ], [ 400728.280773143458646, 3784377.00915564596653 ], [ 400727.975584944069851, 3784377.31434384547174 ], [ 400724.923702950123698, 3784377.31434384547174 ] ] ] } },
{ "type": "Feature", "properties": { "confidence": 0.80881345272064209, "class": 1 }, "geometry": { "type": "Polygon", "coordinates": [ [ [ 400353.509664292971138, 3784652.899287894368172 ], [ 400352.899287894193549, 3784652.288911495357752 ], [ 400352.899287894193549, 3784651.678535096812993 ], [ 400352.594099694804754, 3784651.373346897307783 ], [ 400352.594099694804754, 3784651.068158697802573 ], [ 400351.67853509663837, 3784650.152594099752605 ], [ 400351.67853509663837, 3784648.626653102692217 ], [ 400351.373346897249576, 3784648.321464903187007 ], [ 400351.373346897249576, 3784648.016276704147458 ], [ 400351.068158697860781, 3784647.711088504642248 ], [ 400351.068158697860781, 3784647.100712105631828 ], [ 400350.762970498471987, 3784646.79552390659228 ], [ 400350.762970498471987, 3784646.49033570708707 ], [ 400350.457782299083192, 3784646.18514750758186 ], [ 400350.457782299083192, 3784644.659206510521472 ], [ 400350.152594099694397, 3784644.354018311481923 ], [ 400350.152594099694397, 3784644.048830111976713 ], [ 400354.425228891137522, 3784644.048830111976713 ], [ 400354.425228891137522, 3784646.49033570708707 ], [ 400355.035605289915111, 3784647.100712105631828 ], [ 400355.035605289915111, 3784647.405900305137038 ], [ 400355.340793489303906, 3784647.711088504642248 ], [ 400355.340793489303906, 3784648.016276704147458 ], [ 400355.6459816886927, 3784648.321464903187007 ], [ 400355.951169888081495, 3784648.321464903187007 ], [ 400355.951169888081495, 3784649.847405900247395 ], [ 400355.6459816886927, 3784649.847405900247395 ], [ 400355.340793489303906, 3784650.152594099752605 ], [ 400355.340793489303906, 3784652.594099694862962 ], [ 400355.035605289915111, 3784652.594099694862962 ], [ 400354.730417090526316, 3784652.899287894368172 ], [ 400353.509664292971138, 3784652.899287894368172 ] ] ] } },
{ "type": "Feature", "properties": { "confidence": 0.80532342195510864, "class": 1 }, "geometry": { "type": "Polygon", "coordinates": [ [ [ 400227.466937945049722, 3784684.3336724312976 ], [ 400227.161749745660927, 3784684.02848423179239 ], [ 400227.161749745660927, 3784683.112919633742422 ], [ 400227.466937945049722, 3784682.807731434237212 ], [ 400227.466937945049722, 3784682.502543235197663 ], [ 400228.6876907426049, 3784681.281790437642485 ], [ 400228.992878941993695, 3784681.281790437642485 ], [ 400229.603255340771284, 3784680.671414038632065 ], [ 400229.908443540160079, 3784680.671414038632065 ], [ 400230.213631739548873, 3784680.366225839126855 ], [ 400232.349949135328643, 3784680.366225839126855 ], [ 400232.349949135328643, 3784682.502543235197663 ], [ 400232.044760935881641, 3784682.807731434237212 ], [ 400232.044760935881641, 3784683.418107833247632 ], [ 400231.739572736492846, 3784683.723296032752842 ], [ 400231.129196337715257, 3784683.723296032752842 ], [ 400230.824008138326462, 3784684.02848423179239 ], [ 400229.298067141382489, 3784684.02848423179239 ], [ 400228.992878941993695, 3784684.3336724312976 ], [ 400227.466937945049722, 3784684.3336724312976 ] ] ] } },
{ "type": "Feature", "properties": { "confidence": 0.71892493963241577, "class": 1 }, "geometry": { "type": "Polygon", "coordinates": [ [ [ 400674.262461851467378, 3784408.13835198385641 ], [ 400673.957273652078584, 3784407.8331637843512 ], [ 400672.736520854523405, 3784407.8331637843512 ], [ 400672.431332655134611, 3784407.52797558484599 ], [ 400671.820956256357022, 3784407.52797558484599 ], [ 400669.989827060024254, 3784405.696846388746053 ], [ 400669.989827060024254, 3784402.644964394625276 ], [ 400669.684638860635459, 3784402.339776195120066 ], [ 400669.684638860635459, 3784402.034587996080518 ], [ 400670.600203458801843, 3784401.119023397564888 ], [ 400671.515768056968227, 3784401.119023397564888 ], [ 400672.431332655134611, 3784400.20345879951492 ], [ 400672.736520854523405, 3784400.20345879951492 ], [ 400673.346897253300995, 3784399.593082400970161 ], [ 400673.346897253300995, 3784399.287894201464951 ], [ 400673.652085452689789, 3784399.287894201464951 ], [ 400673.957273652078584, 3784398.982706001959741 ], [ 400674.262461851467378, 3784398.982706001959741 ], [ 400674.567650050856173, 3784398.677517802454531 ], [ 400675.483214649022557, 3784398.677517802454531 ], [ 400675.788402848411351, 3784398.372329603414983 ], [ 400676.703967446577735, 3784398.372329603414983 ], [ 400677.00915564596653, 3784398.067141403909773 ], [ 400679.450661241076887, 3784398.067141403909773 ], [ 400679.450661241076887, 3784398.372329603414983 ], [ 400679.755849440465681, 3784398.677517802454531 ], [ 400679.755849440465681, 3784399.593082400970161 ], [ 400680.061037639854476, 3784399.89827060000971 ], [ 400680.061037639854476, 3784403.255340793635696 ], [ 400679.755849440465681, 3784403.560528992675245 ], [ 400679.755849440465681, 3784404.781281790230423 ], [ 400679.450661241076887, 3784405.086469989735633 ], [ 400679.450661241076887, 3784405.391658189240843 ], [ 400679.145473041688092, 3784405.696846388746053 ], [ 400679.145473041688092, 3784406.307222787290812 ], [ 400678.840284842299297, 3784406.612410986796021 ], [ 400678.840284842299297, 3784407.22278738534078 ], [ 400678.535096642910503, 3784407.22278738534078 ], [ 400678.229908443521708, 3784407.52797558484599 ], [ 400677.924720244132914, 3784407.52797558484599 ], [ 400677.619532044744119, 3784407.8331637843512 ], [ 400674.872838250244968, 3784407.8331637843512 ], [ 400674.567650050856173, 3784408.13835198385641 ], [ 400674.262461851467378, 3784408.13835198385641 ] ] ] } },
{ "type": "Feature", "properties": { "confidence": 0.70097076892852783, "class": 1 }, "geometry": { "type": "Polygon", "coordinates": [ [ [ 400339.776195320475381, 3784521.363173957448453 ], [ 400339.471007121086586, 3784521.057985757943243 ], [ 400339.471007121086586, 3784517.700915564782917 ], [ 400340.081383519864175, 3784517.090539165772498 ], [ 400340.38657171925297, 3784517.090539165772498 ], [ 400340.996948118030559, 3784516.480162767227739 ], [ 400340.996948118030559, 3784515.259409969672561 ], [ 400340.691759918641765, 3784514.954221770167351 ], [ 400340.996948118030559, 3784514.649033570662141 ], [ 400340.996948118030559, 3784514.343845371156931 ], [ 400341.302136317419354, 3784514.038657172117382 ], [ 400343.743641912529711, 3784514.038657172117382 ], [ 400344.048830111918505, 3784514.343845371156931 ], [ 400344.3540183113073, 3784514.343845371156931 ], [ 400344.3540183113073, 3784515.869786368217319 ], [ 400344.048830111918505, 3784516.174974567722529 ], [ 400344.048830111918505, 3784517.090539165772498 ], [ 400343.743641912529711, 3784517.395727365277708 ], [ 400343.743641912529711, 3784518.006103763822466 ], [ 400343.133265513752121, 3784518.616480162832886 ], [ 400343.133265513752121, 3784518.921668362338096 ], [ 400342.828077314363327, 3784519.226856561377645 ], [ 400342.828077314363327, 3784519.532044760882854 ], [ 400342.522889114974532, 3784519.837232960388064 ], [ 400342.217700915585738, 3784519.837232960388064 ], [ 400341.912512716196943, 3784520.142421159893274 ], [ 400341.912512716196943, 3784520.447609358932823 ], [ 400341.607324516808148, 3784520.752797558438033 ], [ 400341.302136317419354, 3784520.752797558438033 ], [ 400340.691759918641765, 3784521.363173957448453 ], [ 400339.776195320475381, 3784521.363173957448453 ] ] ] } },
{ "type": "Feature", "properties": { "confidence": 0.69326090812683105, "class": 1 }, "geometry": { "type": "Polygon", "coordinates": [ [ [ 400513.42828077316517, 3784444.455747711006552 ], [ 400513.123092573776376, 3784444.150559511501342 ], [ 400509.460834181052633, 3784444.150559511501342 ], [ 400509.155645981663838, 3784443.845371312461793 ], [ 400508.545269582886249, 3784443.845371312461793 ], [ 400507.93489318410866, 3784443.234994913451374 ], [ 400507.93489318410866, 3784439.572736520785838 ], [ 400509.766022380441427, 3784437.741607324685901 ], [ 400509.766022380441427, 3784437.436419125180691 ], [ 400510.986775178054813, 3784436.215666327625513 ], [ 400510.986775178054813, 3784435.910478128120303 ], [ 400511.291963377443608, 3784435.910478128120303 ], [ 400512.207527975609992, 3784434.994913530070335 ], [ 400512.512716174998786, 3784434.994913530070335 ], [ 400512.817904374387581, 3784434.689725330565125 ], [ 400513.123092573776376, 3784434.689725330565125 ], [ 400513.42828077316517, 3784434.384537131059915 ], [ 400513.733468972553965, 3784434.384537131059915 ], [ 400514.038657171942759, 3784434.079348932020366 ], [ 400515.564598168886732, 3784434.079348932020366 ], [ 400515.869786368275527, 3784434.384537131059915 ], [ 400516.174974567664322, 3784434.384537131059915 ], [ 400516.785350966441911, 3784434.994913530070335 ], [ 400517.090539165830705, 3784434.994913530070335 ], [ 400518.006103763997089, 3784435.910478128120303 ], [ 400518.006103763997089, 3784437.131230925675482 ], [ 400517.700915564608295, 3784437.436419125180691 ], [ 400517.700915564608295, 3784439.877924720291048 ], [ 400518.006103763997089, 3784440.183112919796258 ], [ 400518.006103763997089, 3784442.014242115896195 ], [ 400517.700915564608295, 3784442.319430315401405 ], [ 400517.700915564608295, 3784443.540183112956583 ], [ 400517.090539165830705, 3784443.540183112956583 ], [ 400516.785350966441911, 3784443.845371312461793 ], [ 400516.480162767053116, 3784443.845371312461793 ], [ 400516.174974567664322, 3784444.150559511501342 ], [ 400515.869786368275527, 3784444.150559511501342 ], [ 400515.564598168886732, 3784444.455747711006552 ], [ 400513.42828077316517, 3784444.455747711006552 ] ] ] } },
{ "type": "Feature", "properties": { "confidence": 0.67853957414627075, "class": 1 }, "geometry": { "type": "Polygon", "coordinates": [ [ [ 400431.332655137346592, 3784453.306205493398011 ], [ 400430.722278738569003, 3784452.695829094387591 ], [ 400430.417090539180208, 3784452.695829094387591 ], [ 400429.806714140402619, 3784452.085452695842832 ], [ 400429.806714140402619, 3784450.559511698782444 ], [ 400430.111902339791413, 3784450.254323499277234 ], [ 400430.111902339791413, 3784449.949135300237685 ], [ 400430.417090539180208, 3784449.949135300237685 ], [ 400431.027466937957797, 3784449.338758901227266 ], [ 400431.637843336735386, 3784449.338758901227266 ], [ 400431.943031536124181, 3784449.033570701722056 ], [ 400432.55340793490177, 3784449.033570701722056 ], [ 400432.858596134290565, 3784449.338758901227266 ], [ 400433.468972533068154, 3784449.338758901227266 ], [ 400433.468972533068154, 3784451.475076296832412 ], [ 400433.163784333679359, 3784451.780264496337622 ], [ 400433.163784333679359, 3784452.695829094387591 ], [ 400432.55340793490177, 3784453.306205493398011 ], [ 400431.332655137346592, 3784453.306205493398011 ] ] ] } },
{ "type": "Feature", "properties": { "confidence": 0.65315765142440796, "class": 1 }, "geometry": { "type": "Polygon", "coordinates": [ [ [ 400447.202441505622119, 3784427.365208545234054 ], [ 400446.286876907397527, 3784426.449643947184086 ], [ 400445.981688708008733, 3784426.449643947184086 ], [ 400445.676500508619938, 3784426.144455747678876 ], [ 400445.676500508619938, 3784425.839267548173666 ], [ 400445.066124109842349, 3784425.228891149628907 ], [ 400445.066124109842349, 3784422.482197355013341 ], [ 400444.760935910453554, 3784422.177009155508131 ], [ 400444.760935910453554, 3784421.261444557458162 ], [ 400445.066124109842349, 3784420.956256357952952 ], [ 400445.066124109842349, 3784420.651068158913404 ], [ 400445.676500508619938, 3784420.040691759902984 ], [ 400445.981688708008733, 3784420.040691759902984 ], [ 400447.202441505622119, 3784418.819938962347806 ], [ 400447.507629705010913, 3784418.819938962347806 ], [ 400447.812817904399708, 3784418.514750762842596 ], [ 400448.118006103788503, 3784418.514750762842596 ], [ 400448.423194303177297, 3784418.209562563803047 ], [ 400449.033570701954886, 3784418.209562563803047 ], [ 400449.338758901343681, 3784417.904374364297837 ], [ 400452.085452695842832, 3784417.904374364297837 ], [ 400452.390640895231627, 3784418.209562563803047 ], [ 400453.001017294009216, 3784418.209562563803047 ], [ 400453.306205493398011, 3784418.514750762842596 ], [ 400453.611393692786805, 3784418.514750762842596 ], [ 400453.9165818921756, 3784418.819938962347806 ], [ 400453.9165818921756, 3784421.261444557458162 ], [ 400453.306205493398011, 3784421.871820956468582 ], [ 400453.306205493398011, 3784422.177009155508131 ], [ 400453.001017294009216, 3784422.482197355013341 ], [ 400453.001017294009216, 3784422.787385554518551 ], [ 400452.695829094620422, 3784423.092573754023761 ], [ 400452.695829094620422, 3784423.702950152568519 ], [ 400452.085452695842832, 3784424.313326551578939 ], [ 400452.085452695842832, 3784425.228891149628907 ], [ 400451.475076297065243, 3784425.839267548173666 ], [ 400451.475076297065243, 3784426.144455747678876 ], [ 400450.864699898287654, 3784426.754832146689296 ], [ 400450.559511698898859, 3784426.754832146689296 ], [ 400450.254323499510065, 3784427.060020345728844 ], [ 400449.338758901343681, 3784427.060020345728844 ], [ 400449.033570701954886, 3784427.365208545234054 ], [ 400447.202441505622119, 3784427.365208545234054 ] ] ] } },
{ "type": "Feature", "properties": { "confidence": 0.62253230810165405, "class": 1 }, "geometry": { "type": "Polygon", "coordinates": [ [ [ 400447.202441505622119, 3784444.150559511501342 ], [ 400447.202441505622119, 3784443.540183112956583 ], [ 400446.897253306233324, 3784443.234994913451374 ], [ 400446.897253306233324, 3784442.624618514906615 ], [ 400447.507629705010913, 3784442.014242115896195 ], [ 400447.507629705010913, 3784441.709053916390985 ], [ 400449.338758901343681, 3784439.877924720291048 ], [ 400449.643947100732476, 3784439.877924720291048 ], [ 400450.559511698898859, 3784438.96236012224108 ], [ 400450.864699898287654, 3784438.96236012224108 ], [ 400451.475076297065243, 3784438.35198372323066 ], [ 400452.085452695842832, 3784438.35198372323066 ], [ 400452.390640895231627, 3784438.04679552372545 ], [ 400452.695829094620422, 3784438.04679552372545 ], [ 400453.001017294009216, 3784437.741607324685901 ], [ 400454.221770091564395, 3784437.741607324685901 ], [ 400455.137334689730778, 3784438.65717192273587 ], [ 400455.137334689730778, 3784438.96236012224108 ], [ 400455.442522889119573, 3784439.267548321280628 ], [ 400455.442522889119573, 3784440.793489318341017 ], [ 400454.526958290953189, 3784441.709053916390985 ], [ 400454.526958290953189, 3784442.014242115896195 ], [ 400454.221770091564395, 3784442.014242115896195 ], [ 400453.9165818921756, 3784442.319430315401405 ], [ 400453.9165818921756, 3784442.624618514906615 ], [ 400452.695829094620422, 3784443.845371312461793 ], [ 400452.390640895231627, 3784443.845371312461793 ], [ 400452.085452695842832, 3784443.540183112956583 ], [ 400449.94913530012127, 3784443.540183112956583 ], [ 400449.643947100732476, 3784443.845371312461793 ], [ 400449.033570701954886, 3784443.845371312461793 ], [ 400448.728382502566092, 3784444.150559511501342 ], [ 400447.202441505622119, 3784444.150559511501342 ] ] ] } },
{ "type": "Feature", "properties": { "confidence": 0.6180230975151062, "class": 1 }, "geometry": { "type": "Polygon", "coordinates": [ [ [ 400221.057985757885035, 3784722.482197355013341 ], [ 400220.752797558496241, 3784722.177009155508131 ], [ 400220.447609359107446, 3784722.177009155508131 ], [ 400220.447609359107446, 3784721.871820956468582 ], [ 400220.142421159718651, 3784721.566632756963372 ], [ 400220.142421159718651, 3784720.956256357952952 ], [ 400220.447609359107446, 3784720.651068158913404 ], [ 400220.447609359107446, 3784720.040691759902984 ], [ 400220.142421159718651, 3784719.735503560397774 ], [ 400220.142421159718651, 3784718.209562563803047 ], [ 400219.837232960329857, 3784717.904374364297837 ], [ 400219.837232960329857, 3784716.683621566742659 ], [ 400220.447609359107446, 3784716.683621566742659 ], [ 400220.752797558496241, 3784716.378433367237449 ], [ 400223.194303153606597, 3784716.378433367237449 ], [ 400223.499491352995392, 3784716.683621566742659 ], [ 400223.804679552384187, 3784716.683621566742659 ], [ 400223.804679552384187, 3784716.988809766247869 ], [ 400224.415055951161776, 3784717.599186164792627 ], [ 400224.415055951161776, 3784718.209562563803047 ], [ 400224.72024415055057, 3784718.514750762842596 ], [ 400224.415055951161776, 3784718.819938962347806 ], [ 400224.415055951161776, 3784721.566632756963372 ], [ 400224.109867751772981, 3784721.871820956468582 ], [ 400224.109867751772981, 3784722.177009155508131 ], [ 400223.804679552384187, 3784722.177009155508131 ], [ 400223.499491352995392, 3784722.482197355013341 ], [ 400221.057985757885035, 3784722.482197355013341 ] ] ] } },
{ "type": "Feature", "properties": { "confidence": 0.59952032566070557, "class": 1 }, "geometry": { "type": "Polygon", "coordinates": [ [ [ 400670.600203458801843, 3784397.761953204404563 ], [ 400670.295015259413049, 3784397.456765004899353 ], [ 400670.295015259413049, 3784396.846388606354594 ], [ 400669.989827060024254, 3784396.541200406849384 ], [ 400669.989827060024254, 3784391.963377416133881 ], [ 400669.684638860635459, 3784391.658189216628671 ], [ 400669.684638860635459, 3784390.132248219568282 ], [ 400669.379450661246665, 3784389.827060020528734 ], [ 400669.379450661246665, 3784388.911495422013104 ], [ 400669.684638860635459, 3784388.606307222973555 ], [ 400669.684638860635459, 3784387.080366225913167 ], [ 400669.989827060024254, 3784386.775178026407957 ], [ 400671.820956256357022, 3784386.775178026407957 ], [ 400671.820956256357022, 3784387.080366225913167 ], [ 400672.431332655134611, 3784387.690742624457926 ], [ 400672.431332655134611, 3784387.995930823963135 ], [ 400672.736520854523405, 3784388.301119023468345 ], [ 400673.346897253300995, 3784388.301119023468345 ], [ 400673.957273652078584, 3784388.911495422013104 ], [ 400674.262461851467378, 3784388.911495422013104 ], [ 400674.262461851467378, 3784389.521871821023524 ], [ 400674.567650050856173, 3784389.827060020528734 ], [ 400674.567650050856173, 3784390.437436419073492 ], [ 400674.872838250244968, 3784390.742624618578702 ], [ 400674.872838250244968, 3784391.047812818083912 ], [ 400675.178026449633762, 3784391.353001017123461 ], [ 400675.178026449633762, 3784392.268565615639091 ], [ 400675.483214649022557, 3784392.573753814678639 ], [ 400675.483214649022557, 3784393.489318413194269 ], [ 400675.178026449633762, 3784393.489318413194269 ], [ 400674.262461851467378, 3784394.404883011244237 ], [ 400674.262461851467378, 3784394.710071210749447 ], [ 400673.957273652078584, 3784395.015259409788996 ], [ 400673.957273652078584, 3784395.320447609294206 ], [ 400673.652085452689789, 3784395.625635808799416 ], [ 400673.652085452689789, 3784395.930824008304626 ], [ 400673.346897253300995, 3784396.236012207344174 ], [ 400673.0417090539122, 3784396.236012207344174 ], [ 400672.736520854523405, 3784396.541200406849384 ], [ 400672.431332655134611, 3784396.541200406849384 ], [ 400672.126144455745816, 3784396.846388606354594 ], [ 400672.126144455745816, 3784397.456765004899353 ], [ 400671.820956256357022, 3784397.456765004899353 ], [ 400671.515768056968227, 3784397.761953204404563 ], [ 400670.600203458801843, 3784397.761953204404563 ] ] ] } },
{ "type": "Feature", "properties": { "confidence": 0.59046310186386108, "class": 1 }, "geometry": { "type": "Polygon", "coordinates": [ [ [ 400412.410986775183119, 3784734.384537131059915 ], [ 400411.80061037640553, 3784733.774160732515156 ], [ 400411.80061037640553, 3784731.637843336910009 ], [ 400412.105798575794324, 3784731.332655137404799 ], [ 400412.105798575794324, 3784731.02746693789959 ], [ 400412.410986775183119, 3784731.02746693789959 ], [ 400412.716174974571913, 3784730.72227873839438 ], [ 400413.936927772127092, 3784730.72227873839438 ], [ 400414.547304170904681, 3784730.111902339849621 ], [ 400415.15768056968227, 3784730.111902339849621 ], [ 400415.462868769071065, 3784729.806714140344411 ], [ 400417.293997965403832, 3784729.806714140344411 ], [ 400417.293997965403832, 3784730.417090539354831 ], [ 400416.683621566626243, 3784731.02746693789959 ], [ 400416.683621566626243, 3784731.332655137404799 ], [ 400416.073245167848654, 3784731.943031535949558 ], [ 400416.073245167848654, 3784732.248219735454768 ], [ 400415.768056968459859, 3784732.553407934959978 ], [ 400415.768056968459859, 3784732.858596134465188 ], [ 400414.852492370293476, 3784733.774160732515156 ], [ 400414.547304170904681, 3784733.774160732515156 ], [ 400413.936927772127092, 3784734.384537131059915 ], [ 400412.410986775183119, 3784734.384537131059915 ] ] ] } },
{ "type": "Feature", "properties": { "confidence": 0.58596932888031006, "class": 1 }, "geometry": { "type": "Polygon", "coordinates": [ [ [ 400420.345879959291779, 3784639.471007121261209 ], [ 400419.430315361125395, 3784638.555442522745579 ], [ 400419.1251271617366, 3784638.555442522745579 ], [ 400418.819938962347806, 3784638.250254323706031 ], [ 400418.514750762959011, 3784638.250254323706031 ], [ 400417.904374364181422, 3784637.639877924695611 ], [ 400417.904374364181422, 3784637.334689725190401 ], [ 400417.293997965403832, 3784636.724313326645643 ], [ 400417.293997965403832, 3784636.419125127140433 ], [ 400416.988809766015038, 3784636.113936927635223 ], [ 400416.988809766015038, 3784634.893184130080044 ], [ 400417.904374364181422, 3784633.977619532030076 ], [ 400418.209562563570216, 3784633.977619532030076 ], [ 400418.514750762959011, 3784633.672431332524866 ], [ 400418.514750762959011, 3784633.367243133485317 ], [ 400418.819938962347806, 3784633.367243133485317 ], [ 400419.1251271617366, 3784633.062054933980107 ], [ 400420.345879959291779, 3784633.062054933980107 ], [ 400420.651068158680573, 3784633.367243133485317 ], [ 400420.956256358069368, 3784633.367243133485317 ], [ 400420.956256358069368, 3784633.672431332524866 ], [ 400421.261444557458162, 3784633.977619532030076 ], [ 400421.566632756846957, 3784633.977619532030076 ], [ 400422.177009155624546, 3784634.587995931040496 ], [ 400422.177009155624546, 3784634.893184130080044 ], [ 400422.482197355013341, 3784635.198372329585254 ], [ 400422.482197355013341, 3784636.113936927635223 ], [ 400422.787385554402135, 3784636.419125127140433 ], [ 400422.787385554402135, 3784637.639877924695611 ], [ 400423.09257375379093, 3784637.945066124200821 ], [ 400423.09257375379093, 3784639.165818921755999 ], [ 400422.787385554402135, 3784639.165818921755999 ], [ 400422.482197355013341, 3784639.471007121261209 ], [ 400420.345879959291779, 3784639.471007121261209 ] ] ] } },
{ "type": "Feature", "properties": { "confidence": 0.56597900390625, "class": 1 }, "geometry": { "type": "Polygon", "coordinates": [ [ [ 400650.762970498471987, 3784418.209562563803047 ], [ 400650.457782299083192, 3784417.904374364297837 ], [ 400649.847405900305603, 3784417.904374364297837 ], [ 400649.847405900305603, 3784417.599186164792627 ], [ 400649.542217700916808, 3784417.293997965287417 ], [ 400649.542217700916808, 3784416.683621566742659 ], [ 400649.847405900305603, 3784416.378433367237449 ], [ 400649.847405900305603, 3784415.15768056968227 ], [ 400650.152594099694397, 3784414.85249237017706 ], [ 400650.152594099694397, 3784414.547304171137512 ], [ 400650.457782299083192, 3784414.242115971632302 ], [ 400650.457782299083192, 3784413.631739572621882 ], [ 400650.762970498471987, 3784413.326551373116672 ], [ 400650.762970498471987, 3784413.021363174077123 ], [ 400651.068158697860781, 3784412.716174974571913 ], [ 400651.068158697860781, 3784412.410986775066704 ], [ 400651.67853509663837, 3784411.800610376521945 ], [ 400651.67853509663837, 3784411.495422177016735 ], [ 400651.983723296027165, 3784411.190233977511525 ], [ 400651.983723296027165, 3784410.885045778006315 ], [ 400652.28891149541596, 3784410.579857578966767 ], [ 400652.28891149541596, 3784410.274669379461557 ], [ 400657.171922685636673, 3784410.274669379461557 ], [ 400657.477110885025468, 3784410.579857578966767 ], [ 400657.782299084414262, 3784410.579857578966767 ], [ 400657.782299084414262, 3784412.105798575561494 ], [ 400657.477110885025468, 3784412.410986775066704 ], [ 400657.477110885025468, 3784413.326551373116672 ], [ 400657.171922685636673, 3784413.631739572621882 ], [ 400657.171922685636673, 3784414.242115971632302 ], [ 400656.866734486247879, 3784414.547304171137512 ], [ 400656.866734486247879, 3784415.46286876918748 ], [ 400656.256358087470289, 3784416.073245167732239 ], [ 400656.256358087470289, 3784416.378433367237449 ], [ 400655.951169888081495, 3784416.683621566742659 ], [ 400655.951169888081495, 3784416.988809766247869 ], [ 400655.340793489303906, 3784417.599186164792627 ], [ 400655.035605289915111, 3784417.599186164792627 ], [ 400654.730417090526316, 3784417.904374364297837 ], [ 400654.120040691748727, 3784417.904374364297837 ], [ 400653.814852492359933, 3784418.209562563803047 ], [ 400650.762970498471987, 3784418.209562563803047 ] ] ] } },
{ "type": "Feature", "properties": { "confidence": 0.55900847911834717, "class": 1 }, "geometry": { "type": "Polygon", "coordinates": [ [ [ 400559.206510681600776, 3784524.720244150608778 ], [ 400558.901322482211981, 3784524.415055951103568 ], [ 400558.596134282823186, 3784524.415055951103568 ], [ 400558.290946083434392, 3784524.109867751598358 ], [ 400558.290946083434392, 3784523.19430315354839 ], [ 400557.985757884045597, 3784522.88911495404318 ], [ 400557.985757884045597, 3784522.583926755003631 ], [ 400557.680569684656803, 3784522.278738555498421 ], [ 400557.680569684656803, 3784521.363173957448453 ], [ 400557.070193285879213, 3784520.752797558438033 ], [ 400557.070193285879213, 3784519.532044760882854 ], [ 400556.765005086490419, 3784519.226856561377645 ], [ 400556.765005086490419, 3784518.921668362338096 ], [ 400557.070193285879213, 3784518.616480162832886 ], [ 400557.070193285879213, 3784518.311291963327676 ], [ 400557.375381485268008, 3784518.311291963327676 ], [ 400557.985757884045597, 3784517.700915564782917 ], [ 400557.985757884045597, 3784517.395727365277708 ], [ 400558.901322482211981, 3784516.480162767227739 ], [ 400559.51169888098957, 3784516.480162767227739 ], [ 400559.816887080378365, 3784516.785350966267288 ], [ 400560.122075279767159, 3784516.785350966267288 ], [ 400560.427263479155954, 3784517.090539165772498 ], [ 400560.732451678544749, 3784517.090539165772498 ], [ 400560.732451678544749, 3784517.395727365277708 ], [ 400561.342828077322338, 3784518.006103763822466 ], [ 400561.342828077322338, 3784518.311291963327676 ], [ 400561.648016276711132, 3784518.616480162832886 ], [ 400561.648016276711132, 3784521.668362156488001 ], [ 400561.953204476099927, 3784521.973550355993211 ], [ 400561.953204476099927, 3784523.4994913530536 ], [ 400561.648016276711132, 3784523.80467955255881 ], [ 400561.648016276711132, 3784524.109867751598358 ], [ 400561.342828077322338, 3784524.415055951103568 ], [ 400561.037639877933543, 3784524.415055951103568 ], [ 400560.732451678544749, 3784524.720244150608778 ], [ 400559.206510681600776, 3784524.720244150608778 ] ] ] } },
{ "type": "Feature", "properties": { "confidence": 0.53605115413665771, "class": 1 }, "geometry": { "type": "Polygon", "coordinates": [ [ [ 400658.087487283803057, 3784532.960325533989817 ], [ 400657.782299084414262, 3784532.655137334484607 ], [ 400657.477110885025468, 3784532.655137334484607 ], [ 400657.171922685636673, 3784532.349949135445058 ], [ 400657.171922685636673, 3784531.12919633788988 ], [ 400657.477110885025468, 3784530.82400813838467 ], [ 400657.477110885025468, 3784530.51881993887946 ], [ 400658.087487283803057, 3784529.908443540334702 ], [ 400658.392675483191852, 3784529.908443540334702 ], [ 400659.003051881969441, 3784529.298067141324282 ], [ 400659.003051881969441, 3784528.992878941819072 ], [ 400659.308240081358235, 3784528.687690742779523 ], [ 400659.308240081358235, 3784527.772126144263893 ], [ 400659.61342828074703, 3784527.466937945224345 ], [ 400663.275686673470773, 3784527.466937945224345 ], [ 400663.275686673470773, 3784529.298067141324282 ], [ 400662.970498474081978, 3784529.603255340829492 ], [ 400662.970498474081978, 3784529.908443540334702 ], [ 400662.665310274693184, 3784530.21363173937425 ], [ 400662.665310274693184, 3784531.12919633788988 ], [ 400662.360122075304389, 3784531.434384536929429 ], [ 400662.360122075304389, 3784531.739572736434639 ], [ 400662.054933875915594, 3784532.044760935939848 ], [ 400662.054933875915594, 3784532.349949135445058 ], [ 400661.7497456765268, 3784532.655137334484607 ], [ 400659.308240081358235, 3784532.655137334484607 ], [ 400659.003051881969441, 3784532.960325533989817 ], [ 400658.087487283803057, 3784532.960325533989817 ] ] ] } },
{ "type": "Feature", "properties": { "confidence": 0.53337657451629639, "class": 1 }, "geometry": { "type": "Polygon", "coordinates": [ [ [ 400388.606307222798932, 3784470.396744659170508 ], [ 400388.301119023410138, 3784470.091556459665298 ], [ 400387.995930824021343, 3784470.091556459665298 ], [ 400387.385554425243754, 3784469.48118006112054 ], [ 400387.385554425243754, 3784469.17599186161533 ], [ 400386.46998982707737, 3784468.260427263565361 ], [ 400386.46998982707737, 3784467.955239064060152 ], [ 400386.164801627688576, 3784467.650050864554942 ], [ 400385.859613428299781, 3784467.650050864554942 ], [ 400384.944048830133397, 3784466.734486266504973 ], [ 400384.944048830133397, 3784466.429298066999763 ], [ 400384.638860630744603, 3784466.124109867960215 ], [ 400384.638860630744603, 3784464.598168870899826 ], [ 400384.333672431355808, 3784464.292980671394616 ], [ 400384.333672431355808, 3784463.072227873839438 ], [ 400384.944048830133397, 3784462.461851475294679 ], [ 400385.249237029522192, 3784462.461851475294679 ], [ 400386.164801627688576, 3784461.54628687677905 ], [ 400386.46998982707737, 3784461.54628687677905 ], [ 400386.775178026466165, 3784461.241098677739501 ], [ 400387.080366225854959, 3784461.241098677739501 ], [ 400387.690742624632549, 3784460.630722278729081 ], [ 400388.301119023410138, 3784460.630722278729081 ], [ 400388.606307222798932, 3784460.325534079223871 ], [ 400388.911495422187727, 3784460.325534079223871 ], [ 400389.521871820965316, 3784459.715157680679113 ], [ 400390.132248219742905, 3784459.715157680679113 ], [ 400390.4374364191317, 3784459.409969481173903 ], [ 400390.742624618520495, 3784459.409969481173903 ], [ 400391.047812817909289, 3784459.715157680679113 ], [ 400391.353001017298084, 3784459.715157680679113 ], [ 400391.353001017298084, 3784461.85147507628426 ], [ 400392.268565615464468, 3784462.767039674334228 ], [ 400392.268565615464468, 3784463.682604272849858 ], [ 400392.573753814853262, 3784463.987792471889406 ], [ 400392.573753814853262, 3784464.903357070405036 ], [ 400392.268565615464468, 3784465.208545269444585 ], [ 400392.268565615464468, 3784466.124109867960215 ], [ 400391.963377416075673, 3784466.429298066999763 ], [ 400391.963377416075673, 3784466.734486266504973 ], [ 400391.658189216686878, 3784467.039674466010183 ], [ 400391.658189216686878, 3784467.650050864554942 ], [ 400391.353001017298084, 3784467.955239064060152 ], [ 400391.353001017298084, 3784468.260427263565361 ], [ 400391.047812817909289, 3784468.565615463070571 ], [ 400391.047812817909289, 3784468.87080366211012 ], [ 400389.827060020354111, 3784470.091556459665298 ], [ 400389.521871820965316, 3784470.091556459665298 ], [ 400389.216683621576522, 3784470.396744659170508 ], [ 400388.606307222798932, 3784470.396744659170508 ] ] ] } },
{ "type": "Feature", "properties": { "confidence": 0.52145904302597046, "class": 1 }, "geometry": { "type": "Polygon", "coordinates": [ [ [ 400663.886063072248362, 3784425.534079349134117 ], [ 400663.580874872859567, 3784425.228891149628907 ], [ 400662.970498474081978, 3784425.228891149628907 ], [ 400662.665310274693184, 3784424.923702950123698 ], [ 400662.360122075304389, 3784424.923702950123698 ], [ 400662.054933875915594, 3784424.618514750618488 ], [ 400662.054933875915594, 3784424.313326551578939 ], [ 400661.7497456765268, 3784424.008138352073729 ], [ 400662.054933875915594, 3784423.702950152568519 ], [ 400662.054933875915594, 3784422.787385554518551 ], [ 400661.7497456765268, 3784422.482197355013341 ], [ 400661.7497456765268, 3784419.735503560397774 ], [ 400662.665310274693184, 3784418.819938962347806 ], [ 400662.970498474081978, 3784418.819938962347806 ], [ 400663.275686673470773, 3784418.514750762842596 ], [ 400666.327568667358719, 3784418.514750762842596 ], [ 400666.632756866747513, 3784418.819938962347806 ], [ 400667.853509664302692, 3784418.819938962347806 ], [ 400668.158697863691486, 3784418.514750762842596 ], [ 400669.07426246185787, 3784418.514750762842596 ], [ 400669.379450661246665, 3784418.209562563803047 ], [ 400671.820956256357022, 3784418.209562563803047 ], [ 400671.820956256357022, 3784418.819938962347806 ], [ 400671.515768056968227, 3784419.125127161853015 ], [ 400671.515768056968227, 3784419.735503560397774 ], [ 400671.820956256357022, 3784420.040691759902984 ], [ 400671.820956256357022, 3784421.871820956468582 ], [ 400671.515768056968227, 3784422.177009155508131 ], [ 400671.515768056968227, 3784422.482197355013341 ], [ 400670.295015259413049, 3784423.702950152568519 ], [ 400670.295015259413049, 3784424.008138352073729 ], [ 400669.07426246185787, 3784425.228891149628907 ], [ 400666.022380467969924, 3784425.228891149628907 ], [ 400665.71719226858113, 3784425.534079349134117 ], [ 400663.886063072248362, 3784425.534079349134117 ] ] ] } },
{ "type": "Feature", "properties": { "confidence": 0.49709624052047729, "class": 1 }, "geometry": { "type": "Polygon", "coordinates": [ [ [ 400601.932858596148435, 3784530.21363173937425 ], [ 400601.322482197370846, 3784529.603255340829492 ], [ 400601.322482197370846, 3784526.856561546213925 ], [ 400605.900305188202765, 3784526.856561546213925 ], [ 400605.900305188202765, 3784527.772126144263893 ], [ 400606.205493387591559, 3784528.077314343769103 ], [ 400606.205493387591559, 3784528.382502543274313 ], [ 400606.510681586980354, 3784528.687690742779523 ], [ 400606.510681586980354, 3784529.603255340829492 ], [ 400606.205493387591559, 3784529.603255340829492 ], [ 400605.900305188202765, 3784529.908443540334702 ], [ 400605.59511698881397, 3784529.908443540334702 ], [ 400605.289928789425176, 3784530.21363173937425 ], [ 400601.932858596148435, 3784530.21363173937425 ] ] ] } },
{ "type": "Feature", "properties": { "confidence": 0.49685516953468323, "class": 1 }, "geometry": { "type": "Polygon", "coordinates": [ [ [ 400366.022380467969924, 3784655.645981688518077 ], [ 400365.71719226858113, 3784655.340793489478528 ], [ 400364.801627670414746, 3784655.340793489478528 ], [ 400364.191251271637157, 3784654.730417090468109 ], [ 400364.191251271637157, 3784654.12004069192335 ], [ 400363.886063072248362, 3784653.81485249241814 ], [ 400363.886063072248362, 3784651.983723295852542 ], [ 400363.580874872859567, 3784651.678535096812993 ], [ 400363.580874872859567, 3784650.762970498297364 ], [ 400363.275686673470773, 3784650.457782299257815 ], [ 400363.275686673470773, 3784648.931841302197427 ], [ 400363.580874872859567, 3784648.626653102692217 ], [ 400363.886063072248362, 3784648.626653102692217 ], [ 400364.191251271637157, 3784648.321464903187007 ], [ 400364.801627670414746, 3784648.321464903187007 ], [ 400365.10681586980354, 3784648.016276704147458 ], [ 400365.412004069192335, 3784648.016276704147458 ], [ 400365.71719226858113, 3784647.711088504642248 ], [ 400366.022380467969924, 3784647.711088504642248 ], [ 400366.632756866747513, 3784647.100712105631828 ], [ 400366.937945066136308, 3784647.100712105631828 ], [ 400367.548321464913897, 3784646.49033570708707 ], [ 400367.853509664302692, 3784646.49033570708707 ], [ 400369.07426246185787, 3784645.269582909531891 ], [ 400370.295015259413049, 3784645.269582909531891 ], [ 400370.905391658190638, 3784645.87995930807665 ], [ 400370.905391658190638, 3784646.49033570708707 ], [ 400371.515768056968227, 3784647.100712105631828 ], [ 400371.515768056968227, 3784647.405900305137038 ], [ 400371.820956256357022, 3784647.711088504642248 ], [ 400372.126144455745816, 3784647.711088504642248 ], [ 400372.431332655134611, 3784648.016276704147458 ], [ 400373.652085452689789, 3784648.016276704147458 ], [ 400373.957273652078584, 3784648.321464903187007 ], [ 400373.957273652078584, 3784648.626653102692217 ], [ 400374.262461851467378, 3784648.931841302197427 ], [ 400374.262461851467378, 3784650.457782299257815 ], [ 400373.957273652078584, 3784650.762970498297364 ], [ 400373.957273652078584, 3784652.288911495357752 ], [ 400373.652085452689789, 3784652.594099694862962 ], [ 400373.652085452689789, 3784652.899287894368172 ], [ 400373.0417090539122, 3784653.50966429291293 ], [ 400373.0417090539122, 3784653.81485249241814 ], [ 400372.736520854523405, 3784654.12004069192335 ], [ 400372.431332655134611, 3784654.12004069192335 ], [ 400370.905391658190638, 3784655.645981688518077 ], [ 400366.022380467969924, 3784655.645981688518077 ] ] ] } },
{ "type": "Feature", "properties": { "confidence": 0.46131804585456848, "class": 1 }, "geometry": { "type": "Polygon", "coordinates": [ [ [ 400219.532044760941062, 3784409.359104781411588 ], [ 400219.226856561552268, 3784409.053916581906378 ], [ 400218.921668362163473, 3784409.053916581906378 ], [ 400218.616480162774678, 3784408.748728382401168 ], [ 400218.616480162774678, 3784407.8331637843512 ], [ 400218.311291963385884, 3784407.52797558484599 ], [ 400218.311291963385884, 3784407.22278738534078 ], [ 400218.006103763997089, 3784406.917599186301231 ], [ 400218.006103763997089, 3784406.612410986796021 ], [ 400217.700915564608295, 3784406.307222787290812 ], [ 400217.700915564608295, 3784405.696846388746053 ], [ 400217.3957273652195, 3784405.391658189240843 ], [ 400217.3957273652195, 3784405.086469989735633 ], [ 400217.700915564608295, 3784404.781281790230423 ], [ 400220.752797558496241, 3784404.781281790230423 ], [ 400221.057985757885035, 3784405.086469989735633 ], [ 400221.36317395727383, 3784405.086469989735633 ], [ 400221.668362156662624, 3784405.391658189240843 ], [ 400221.973550356051419, 3784405.391658189240843 ], [ 400221.973550356051419, 3784405.696846388746053 ], [ 400222.583926754829008, 3784406.307222787290812 ], [ 400222.583926754829008, 3784409.053916581906378 ], [ 400222.278738555440214, 3784409.359104781411588 ], [ 400219.532044760941062, 3784409.359104781411588 ] ] ] } },
{ "type": "Feature", "properties": { "confidence": 0.45834621787071228, "class": 1 }, "geometry": { "type": "Polygon", "coordinates": [ [ [ 400437.131230925733689, 3784414.242115971632302 ], [ 400436.826042726344895, 3784413.936927772127092 ], [ 400436.5208545269561, 3784413.936927772127092 ], [ 400436.215666327567305, 3784413.631739572621882 ], [ 400436.215666327567305, 3784413.326551373116672 ], [ 400436.5208545269561, 3784413.021363174077123 ], [ 400436.5208545269561, 3784410.274669379461557 ], [ 400436.215666327567305, 3784409.969481179956347 ], [ 400436.215666327567305, 3784409.664292980451137 ], [ 400440.793489318399224, 3784409.664292980451137 ], [ 400440.793489318399224, 3784409.969481179956347 ], [ 400440.48830111901043, 3784410.274669379461557 ], [ 400440.48830111901043, 3784410.885045778006315 ], [ 400439.877924720232841, 3784411.495422177016735 ], [ 400439.877924720232841, 3784412.105798575561494 ], [ 400439.267548321455251, 3784412.716174974571913 ], [ 400439.267548321455251, 3784413.021363174077123 ], [ 400438.351983723288868, 3784413.936927772127092 ], [ 400437.741607324511278, 3784413.936927772127092 ], [ 400437.436419125122484, 3784414.242115971632302 ], [ 400437.131230925733689, 3784414.242115971632302 ] ] ] } },
{ "type": "Feature", "properties": { "confidence": 0.41077247262001038, "class": 1 }, "geometry": { "type": "Polygon", "coordinates": [ [ [ 400690.132248219742905, 3784414.85249237017706 ], [ 400689.827060020354111, 3784414.547304171137512 ], [ 400689.827060020354111, 3784414.242115971632302 ], [ 400689.521871820965316, 3784413.936927772127092 ], [ 400689.521871820965316, 3784410.885045778006315 ], [ 400690.132248219742905, 3784410.274669379461557 ], [ 400693.794506612408441, 3784410.274669379461557 ], [ 400693.794506612408441, 3784412.105798575561494 ], [ 400693.489318413019646, 3784412.410986775066704 ], [ 400693.489318413019646, 3784412.716174974571913 ], [ 400692.878942014242057, 3784413.326551373116672 ], [ 400692.878942014242057, 3784413.631739572621882 ], [ 400691.963377416075673, 3784414.547304171137512 ], [ 400691.353001017298084, 3784414.547304171137512 ], [ 400691.047812817909289, 3784414.85249237017706 ], [ 400690.132248219742905, 3784414.85249237017706 ] ] ] } },
{ "type": "Feature", "properties": { "confidence": 0.40207758545875549, "class": 1 }, "geometry": { "type": "Polygon", "coordinates": [ [ [ 400364.496439471025951, 3784425.228891149628907 ], [ 400364.191251271637157, 3784424.923702950123698 ], [ 400363.886063072248362, 3784424.923702950123698 ], [ 400362.970498474081978, 3784424.008138352073729 ], [ 400362.665310274693184, 3784424.008138352073729 ], [ 400362.054933875915594, 3784423.397761953063309 ], [ 400361.7497456765268, 3784423.397761953063309 ], [ 400360.528992878913414, 3784422.177009155508131 ], [ 400360.528992878913414, 3784421.566632756963372 ], [ 400360.223804679524619, 3784421.261444557458162 ], [ 400360.223804679524619, 3784417.599186164792627 ], [ 400359.918616480135825, 3784417.293997965287417 ], [ 400359.918616480135825, 3784414.547304171137512 ], [ 400359.308240081358235, 3784413.936927772127092 ], [ 400359.308240081358235, 3784413.631739572621882 ], [ 400359.61342828074703, 3784413.326551373116672 ], [ 400359.61342828074703, 3784412.716174974571913 ], [ 400360.223804679524619, 3784412.105798575561494 ], [ 400360.223804679524619, 3784411.800610376521945 ], [ 400361.139369277749211, 3784410.885045778006315 ], [ 400365.71719226858113, 3784410.885045778006315 ], [ 400366.022380467969924, 3784411.190233977511525 ], [ 400366.022380467969924, 3784413.021363174077123 ], [ 400366.327568667358719, 3784413.326551373116672 ], [ 400366.327568667358719, 3784413.936927772127092 ], [ 400366.022380467969924, 3784414.242115971632302 ], [ 400366.022380467969924, 3784417.293997965287417 ], [ 400366.327568667358719, 3784417.599186164792627 ], [ 400366.327568667358719, 3784419.125127161853015 ], [ 400366.632756866747513, 3784419.430315361358225 ], [ 400366.632756866747513, 3784420.651068158913404 ], [ 400366.937945066136308, 3784420.956256357952952 ], [ 400366.937945066136308, 3784423.092573754023761 ], [ 400367.243133265525103, 3784423.397761953063309 ], [ 400367.243133265525103, 3784424.313326551578939 ], [ 400366.937945066136308, 3784424.618514750618488 ], [ 400366.937945066136308, 3784424.923702950123698 ], [ 400366.632756866747513, 3784425.228891149628907 ], [ 400364.496439471025951, 3784425.228891149628907 ] ] ] } },
{ "type": "Feature", "properties": { "confidence": 0.39208602905273438, "class": 1 }, "geometry": { "type": "Polygon", "coordinates": [ [ [ 400288.19938962359447, 3784518.616480162832886 ], [ 400287.894201424205676, 3784518.311291963327676 ], [ 400287.589013224816881, 3784518.311291963327676 ], [ 400287.589013224816881, 3784516.785350966267288 ], [ 400287.283825025428087, 3784516.480162767227739 ], [ 400287.283825025428087, 3784515.259409969672561 ], [ 400287.589013224816881, 3784514.954221770167351 ], [ 400287.589013224816881, 3784514.343845371156931 ], [ 400288.19938962359447, 3784513.733468972612172 ], [ 400288.19938962359447, 3784513.428280773106962 ], [ 400288.504577822983265, 3784513.123092573601753 ], [ 400288.504577822983265, 3784512.817904374562204 ], [ 400288.80976602237206, 3784512.817904374562204 ], [ 400289.420142421149649, 3784512.207527975551784 ], [ 400292.1668362156488, 3784512.207527975551784 ], [ 400292.472024415037595, 3784512.512716175056994 ], [ 400292.472024415037595, 3784512.817904374562204 ], [ 400292.777212614426389, 3784513.123092573601753 ], [ 400292.777212614426389, 3784515.259409969672561 ], [ 400292.472024415037595, 3784515.259409969672561 ], [ 400292.1668362156488, 3784515.564598168712109 ], [ 400292.1668362156488, 3784515.869786368217319 ], [ 400291.861648016260006, 3784515.869786368217319 ], [ 400290.640895218704827, 3784517.090539165772498 ], [ 400290.640895218704827, 3784517.700915564782917 ], [ 400290.335707019316033, 3784517.700915564782917 ], [ 400290.030518819927238, 3784518.006103763822466 ], [ 400289.725330620538443, 3784518.006103763822466 ], [ 400289.420142421149649, 3784518.311291963327676 ], [ 400288.80976602237206, 3784518.311291963327676 ], [ 400288.504577822983265, 3784518.616480162832886 ], [ 400288.19938962359447, 3784518.616480162832886 ] ] ] } },
{ "type": "Feature", "properties": { "confidence": 0.39199036359786987, "class": 1 }, "geometry": { "type": "Polygon", "coordinates": [ [ [ 400785.961342828057241, 3784384.3336724312976 ], [ 400785.656154628668446, 3784384.02848423179239 ], [ 400784.740590030502062, 3784384.02848423179239 ], [ 400784.435401831113268, 3784383.723296032752842 ], [ 400784.130213631724473, 3784383.723296032752842 ], [ 400783.214649033558089, 3784382.807731434237212 ], [ 400783.214649033558089, 3784382.502543235197663 ], [ 400782.909460834169295, 3784382.197355035692453 ], [ 400782.909460834169295, 3784381.586978636682034 ], [ 400782.6042726347805, 3784381.281790437642485 ], [ 400782.6042726347805, 3784380.671414038632065 ], [ 400782.299084435391705, 3784380.366225839126855 ], [ 400782.299084435391705, 3784378.840284842532128 ], [ 400781.993896236002911, 3784378.535096643026918 ], [ 400781.993896236002911, 3784378.229908443521708 ], [ 400782.299084435391705, 3784377.924720244016498 ], [ 400782.299084435391705, 3784377.61953204497695 ], [ 400782.909460834169295, 3784377.61953204497695 ], [ 400783.214649033558089, 3784377.924720244016498 ], [ 400784.130213631724473, 3784377.924720244016498 ], [ 400784.435401831113268, 3784378.229908443521708 ], [ 400784.740590030502062, 3784378.229908443521708 ], [ 400785.350966429279651, 3784378.840284842532128 ], [ 400785.656154628668446, 3784378.840284842532128 ], [ 400785.656154628668446, 3784379.145473041571677 ], [ 400785.961342828057241, 3784379.450661241076887 ], [ 400786.266531027446035, 3784379.450661241076887 ], [ 400786.876907426223624, 3784380.061037640087306 ], [ 400787.182095625612419, 3784380.061037640087306 ], [ 400787.487283825001214, 3784380.366225839126855 ], [ 400787.792472024390008, 3784380.366225839126855 ], [ 400788.097660223778803, 3784380.671414038632065 ], [ 400788.097660223778803, 3784383.112919633742422 ], [ 400787.487283825001214, 3784383.723296032752842 ], [ 400787.182095625612419, 3784383.723296032752842 ], [ 400786.876907426223624, 3784384.02848423179239 ], [ 400786.266531027446035, 3784384.02848423179239 ], [ 400785.961342828057241, 3784384.3336724312976 ] ] ] } },
{ "type": "Feature", "properties": { "confidence": 0.39093038439750671, "class": 1 }, "geometry": { "type": "Polygon", "coordinates": [ [ [ 400575.686673448653892, 3784636.724313326645643 ], [ 400575.381485249265097, 3784636.419125127140433 ], [ 400575.076297049876302, 3784636.419125127140433 ], [ 400575.076297049876302, 3784636.113936927635223 ], [ 400574.7711088504293, 3784635.808748728595674 ], [ 400574.7711088504293, 3784633.367243133485317 ], [ 400575.076297049876302, 3784633.062054933980107 ], [ 400575.076297049876302, 3784632.451678534969687 ], [ 400575.686673448653892, 3784631.841302136424929 ], [ 400575.686673448653892, 3784631.536113936919719 ], [ 400576.602238046820275, 3784630.62054933886975 ], [ 400576.90742624620907, 3784630.62054933886975 ], [ 400577.822990844375454, 3784629.704984740819782 ], [ 400578.128179043764248, 3784629.704984740819782 ], [ 400578.433367243153043, 3784629.399796541314572 ], [ 400579.348931841319427, 3784629.399796541314572 ], [ 400579.654120040708221, 3784629.094608341809362 ], [ 400579.959308240097016, 3784629.399796541314572 ], [ 400580.569684638874605, 3784629.399796541314572 ], [ 400580.8748728382634, 3784629.704984740819782 ], [ 400580.8748728382634, 3784630.92573753837496 ], [ 400580.569684638874605, 3784631.230925737414509 ], [ 400580.569684638874605, 3784632.451678534969687 ], [ 400579.959308240097016, 3784633.062054933980107 ], [ 400579.959308240097016, 3784633.367243133485317 ], [ 400579.348931841319427, 3784633.977619532030076 ], [ 400579.348931841319427, 3784634.282807731535286 ], [ 400577.822990844375454, 3784635.808748728595674 ], [ 400577.822990844375454, 3784636.113936927635223 ], [ 400577.517802644986659, 3784636.419125127140433 ], [ 400576.90742624620907, 3784636.419125127140433 ], [ 400576.602238046820275, 3784636.724313326645643 ], [ 400575.686673448653892, 3784636.724313326645643 ] ] ] } },
{ "type": "Feature", "properties": { "confidence": 0.37685942649841309, "class": 1 }, "geometry": { "type": "Polygon", "coordinates": [ [ [ 400321.770091556478292, 3784446.28687690757215 ], [ 400321.464903357089497, 3784445.98168870806694 ], [ 400321.464903357089497, 3784444.455747711006552 ], [ 400321.770091556478292, 3784444.150559511501342 ], [ 400321.770091556478292, 3784443.845371312461793 ], [ 400322.685656154644676, 3784442.929806713946164 ], [ 400322.99084435403347, 3784442.929806713946164 ], [ 400323.296032553422265, 3784442.624618514906615 ], [ 400324.211597151588649, 3784442.624618514906615 ], [ 400324.516785350977443, 3784442.929806713946164 ], [ 400325.127161749755032, 3784442.929806713946164 ], [ 400325.737538148532622, 3784443.540183112956583 ], [ 400325.737538148532622, 3784443.845371312461793 ], [ 400326.042726347921416, 3784444.150559511501342 ], [ 400326.042726347921416, 3784444.760935910511762 ], [ 400325.737538148532622, 3784445.066124110016972 ], [ 400325.737538148532622, 3784445.37131230905652 ], [ 400325.432349949143827, 3784445.37131230905652 ], [ 400325.127161749755032, 3784445.67650050856173 ], [ 400324.821973550366238, 3784445.67650050856173 ], [ 400324.516785350977443, 3784445.98168870806694 ], [ 400323.601220752811059, 3784445.98168870806694 ], [ 400323.296032553422265, 3784446.28687690757215 ], [ 400321.770091556478292, 3784446.28687690757215 ] ] ] } },
{ "type": "Feature", "properties": { "confidence": 0.37426292896270752, "class": 1 }, "geometry": { "type": "Polygon", "coordinates": [ [ [ 400343.743641912529711, 3784416.378433367237449 ], [ 400343.743641912529711, 3784416.073245167732239 ], [ 400343.133265513752121, 3784415.46286876918748 ], [ 400343.133265513752121, 3784415.15768056968227 ], [ 400342.522889114974532, 3784414.547304171137512 ], [ 400342.217700915585738, 3784414.547304171137512 ], [ 400341.607324516808148, 3784413.936927772127092 ], [ 400341.302136317419354, 3784413.936927772127092 ], [ 400340.996948118030559, 3784413.631739572621882 ], [ 400340.996948118030559, 3784413.326551373116672 ], [ 400340.691759918641765, 3784413.021363174077123 ], [ 400340.691759918641765, 3784411.190233977511525 ], [ 400340.38657171925297, 3784410.885045778006315 ], [ 400340.38657171925297, 3784408.13835198385641 ], [ 400340.081383519864175, 3784407.8331637843512 ], [ 400340.081383519864175, 3784406.307222787290812 ], [ 400340.691759918641765, 3784405.696846388746053 ], [ 400341.607324516808148, 3784405.696846388746053 ], [ 400341.912512716196943, 3784405.391658189240843 ], [ 400342.217700915585738, 3784405.391658189240843 ], [ 400342.522889114974532, 3784405.086469989735633 ], [ 400342.828077314363327, 3784405.086469989735633 ], [ 400343.438453713140916, 3784404.476093591190875 ], [ 400343.743641912529711, 3784404.476093591190875 ], [ 400344.048830111918505, 3784404.170905391685665 ], [ 400347.405900305195246, 3784404.170905391685665 ], [ 400347.405900305195246, 3784406.307222787290812 ], [ 400347.100712105806451, 3784406.612410986796021 ], [ 400347.100712105806451, 3784407.8331637843512 ], [ 400346.795523906417657, 3784408.13835198385641 ], [ 400346.795523906417657, 3784412.716174974571913 ], [ 400346.490335707028862, 3784413.021363174077123 ], [ 400346.490335707028862, 3784414.85249237017706 ], [ 400346.185147507640067, 3784415.15768056968227 ], [ 400346.185147507640067, 3784415.46286876918748 ], [ 400345.574771108862478, 3784416.073245167732239 ], [ 400344.964394710084889, 3784416.073245167732239 ], [ 400344.659206510696094, 3784416.378433367237449 ], [ 400343.743641912529711, 3784416.378433367237449 ] ] ] } },
{ "type": "Feature", "properties": { "confidence": 0.36617571115493774, "class": 1 }, "geometry": { "type": "Polygon", "coordinates": [ [ [ 400451.780264496454038, 3784678.535096643026918 ], [ 400451.475076297065243, 3784678.229908443521708 ], [ 400450.559511698898859, 3784678.229908443521708 ], [ 400450.559511698898859, 3784677.61953204497695 ], [ 400449.94913530012127, 3784677.00915564596653 ], [ 400449.94913530012127, 3784676.70396744646132 ], [ 400449.643947100732476, 3784676.398779247421771 ], [ 400449.643947100732476, 3784671.210579857695848 ], [ 400449.94913530012127, 3784670.905391658190638 ], [ 400449.94913530012127, 3784669.07426246162504 ], [ 400449.643947100732476, 3784668.769074262585491 ], [ 400449.643947100732476, 3784668.158697863575071 ], [ 400449.338758901343681, 3784667.853509664069861 ], [ 400449.338758901343681, 3784667.548321465030313 ], [ 400449.033570701954886, 3784667.243133265525103 ], [ 400449.033570701954886, 3784665.412004068959504 ], [ 400449.338758901343681, 3784665.412004068959504 ], [ 400450.864699898287654, 3784663.886063072364777 ], [ 400450.864699898287654, 3784663.580874872859567 ], [ 400451.169888097676449, 3784663.580874872859567 ], [ 400451.475076297065243, 3784663.275686673354357 ], [ 400452.085452695842832, 3784663.275686673354357 ], [ 400452.390640895231627, 3784663.580874872859567 ], [ 400454.832146490341984, 3784663.580874872859567 ], [ 400455.442522889119573, 3784664.191251271404326 ], [ 400455.442522889119573, 3784664.496439470909536 ], [ 400455.747711088508368, 3784664.801627670414746 ], [ 400455.442522889119573, 3784665.106815869919956 ], [ 400455.442522889119573, 3784668.158697863575071 ], [ 400455.137334689730778, 3784668.463886063080281 ], [ 400455.137334689730778, 3784670.905391658190638 ], [ 400454.832146490341984, 3784671.210579857695848 ], [ 400454.832146490341984, 3784674.262461851350963 ], [ 400454.221770091564395, 3784674.872838250361383 ], [ 400454.221770091564395, 3784675.178026449866593 ], [ 400453.611393692786805, 3784675.788402848411351 ], [ 400453.611393692786805, 3784677.924720244016498 ], [ 400453.306205493398011, 3784678.229908443521708 ], [ 400453.001017294009216, 3784678.229908443521708 ], [ 400452.695829094620422, 3784678.535096643026918 ], [ 400451.780264496454038, 3784678.535096643026918 ] ] ] } },
{ "type": "Feature", "properties": { "confidence": 0.36080518364906311, "class": 1 }, "geometry": { "type": "Polygon", "coordinates": [ [ [ 400579.348931841319427, 3784532.960325533989817 ], [ 400579.043743641930632, 3784532.655137334484607 ], [ 400579.043743641930632, 3784531.739572736434639 ], [ 400578.738555442541838, 3784531.434384536929429 ], [ 400578.738555442541838, 3784531.12919633788988 ], [ 400578.433367243153043, 3784530.82400813838467 ], [ 400578.433367243153043, 3784530.51881993887946 ], [ 400578.128179043764248, 3784530.21363173937425 ], [ 400577.822990844375454, 3784530.21363173937425 ], [ 400577.822990844375454, 3784529.298067141324282 ], [ 400578.433367243153043, 3784528.687690742779523 ], [ 400578.433367243153043, 3784528.382502543274313 ], [ 400578.738555442541838, 3784528.382502543274313 ], [ 400579.043743641930632, 3784528.077314343769103 ], [ 400579.043743641930632, 3784527.772126144263893 ], [ 400580.264496439485811, 3784527.772126144263893 ], [ 400580.569684638874605, 3784527.466937945224345 ], [ 400584.537131230928935, 3784527.466937945224345 ], [ 400584.537131230928935, 3784528.687690742779523 ], [ 400584.231943031540141, 3784528.992878941819072 ], [ 400584.231943031540141, 3784529.908443540334702 ], [ 400583.926754832151346, 3784530.21363173937425 ], [ 400582.400813835207373, 3784530.21363173937425 ], [ 400581.485249237040989, 3784531.12919633788988 ], [ 400581.485249237040989, 3784532.044760935939848 ], [ 400580.569684638874605, 3784532.960325533989817 ], [ 400579.348931841319427, 3784532.960325533989817 ] ] ] } },
{ "type": "Feature", "properties": { "confidence": 0.34662100672721863, "class": 1 }, "geometry": { "type": "Polygon", "coordinates": [ [ [ 400645.574771108862478, 3784415.76805696869269 ], [ 400645.269582909473684, 3784415.46286876918748 ], [ 400645.269582909473684, 3784412.105798575561494 ], [ 400645.574771108862478, 3784411.800610376521945 ], [ 400645.574771108862478, 3784409.664292980451137 ], [ 400650.152594099694397, 3784409.664292980451137 ], [ 400650.152594099694397, 3784411.495422177016735 ], [ 400649.542217700916808, 3784412.105798575561494 ], [ 400649.542217700916808, 3784412.716174974571913 ], [ 400649.237029501528013, 3784413.021363174077123 ], [ 400649.237029501528013, 3784413.631739572621882 ], [ 400648.931841302139219, 3784413.936927772127092 ], [ 400648.931841302139219, 3784414.242115971632302 ], [ 400648.32146490336163, 3784414.85249237017706 ], [ 400648.016276703972835, 3784414.85249237017706 ], [ 400647.71108850458404, 3784415.15768056968227 ], [ 400647.405900305195246, 3784415.15768056968227 ], [ 400647.100712105806451, 3784415.46286876918748 ], [ 400646.795523906417657, 3784415.46286876918748 ], [ 400646.490335707028862, 3784415.76805696869269 ], [ 400645.574771108862478, 3784415.76805696869269 ] ] ] } },
{ "type": "Feature", "properties": { "confidence": 0.32247930765151978, "class": 1 }, "geometry": { "type": "Polygon", "coordinates": [ [ [ 400337.334689725306816, 3784456.052899288013577 ], [ 400337.334689725306816, 3784455.442522889003158 ], [ 400337.029501525918022, 3784455.137334689497948 ], [ 400337.334689725306816, 3784454.832146490458399 ], [ 400337.334689725306816, 3784453.306205493398011 ], [ 400337.639877924695611, 3784453.001017293892801 ], [ 400337.639877924695611, 3784452.695829094387591 ], [ 400338.555442522861995, 3784451.780264496337622 ], [ 400338.860630722250789, 3784451.780264496337622 ], [ 400339.165818921639584, 3784451.475076296832412 ], [ 400339.471007121086586, 3784451.475076296832412 ], [ 400339.776195320475381, 3784451.169888097792864 ], [ 400340.081383519864175, 3784451.169888097792864 ], [ 400340.38657171925297, 3784450.864699898287654 ], [ 400341.607324516808148, 3784450.864699898287654 ], [ 400342.522889114974532, 3784449.949135300237685 ], [ 400343.133265513752121, 3784449.949135300237685 ], [ 400343.438453713140916, 3784449.643947100732476 ], [ 400344.048830111918505, 3784449.643947100732476 ], [ 400344.3540183113073, 3784449.338758901227266 ], [ 400345.269582909473684, 3784449.338758901227266 ], [ 400345.574771108862478, 3784449.643947100732476 ], [ 400345.574771108862478, 3784451.475076296832412 ], [ 400344.964394710084889, 3784452.085452695842832 ], [ 400344.964394710084889, 3784452.390640895348042 ], [ 400344.3540183113073, 3784452.390640895348042 ], [ 400343.743641912529711, 3784453.001017293892801 ], [ 400343.438453713140916, 3784453.001017293892801 ], [ 400342.828077314363327, 3784453.611393692903221 ], [ 400342.522889114974532, 3784453.611393692903221 ], [ 400342.217700915585738, 3784453.916581891942769 ], [ 400341.912512716196943, 3784453.916581891942769 ], [ 400341.302136317419354, 3784454.526958290953189 ], [ 400340.996948118030559, 3784454.526958290953189 ], [ 400340.081383519864175, 3784455.442522889003158 ], [ 400339.776195320475381, 3784455.442522889003158 ], [ 400339.165818921639584, 3784456.052899288013577 ], [ 400337.334689725306816, 3784456.052899288013577 ] ] ] } },
{ "type": "Feature", "properties": { "confidence": 0.3218415379524231, "class": 1 }, "geometry": { "type": "Polygon", "coordinates": [ [ [ 400582.706002034596168, 3784594.608341810759157 ], [ 400582.095625635818578, 3784593.997965412214398 ], [ 400582.400813835207373, 3784593.692777212709188 ], [ 400582.400813835207373, 3784591.556459817104042 ], [ 400582.706002034596168, 3784591.251271617598832 ], [ 400582.706002034596168, 3784589.420142421033233 ], [ 400583.316378433373757, 3784588.809766022488475 ], [ 400583.316378433373757, 3784588.504577822983265 ], [ 400583.926754832151346, 3784587.894201424438506 ], [ 400583.926754832151346, 3784587.589013224933296 ], [ 400584.84231943031773, 3784586.673448626883328 ], [ 400584.84231943031773, 3784586.368260427378118 ], [ 400585.757884028484114, 3784586.368260427378118 ], [ 400586.063072227872908, 3784586.063072227872908 ], [ 400587.894201424205676, 3784586.063072227872908 ], [ 400588.19938962359447, 3784586.368260427378118 ], [ 400588.80976602237206, 3784586.368260427378118 ], [ 400589.114954221760854, 3784586.673448626883328 ], [ 400589.114954221760854, 3784586.978636825922877 ], [ 400589.420142421149649, 3784587.283825025428087 ], [ 400589.420142421149649, 3784589.420142421033233 ], [ 400589.114954221760854, 3784589.725330620538443 ], [ 400589.114954221760854, 3784590.030518820043653 ], [ 400588.504577822983265, 3784590.640895218588412 ], [ 400588.504577822983265, 3784592.47202441515401 ], [ 400588.80976602237206, 3784592.77721261465922 ], [ 400588.80976602237206, 3784593.082400813698769 ], [ 400588.504577822983265, 3784593.387589013203979 ], [ 400588.504577822983265, 3784593.692777212709188 ], [ 400587.589013224816881, 3784593.692777212709188 ], [ 400587.283825025428087, 3784593.997965412214398 ], [ 400586.673448626650497, 3784593.997965412214398 ], [ 400586.368260427261703, 3784594.303153611253947 ], [ 400585.452695829095319, 3784594.303153611253947 ], [ 400585.147507629706524, 3784594.608341810759157 ], [ 400582.706002034596168, 3784594.608341810759157 ] ] ] } },
{ "type": "Feature", "properties": { "confidence": 0.31773743033409119, "class": 1 }, "geometry": { "type": "Polygon", "coordinates": [ [ [ 400243.947100712102838, 3784441.403865717351437 ], [ 400243.641912512714043, 3784441.098677517846227 ], [ 400243.336724313325249, 3784441.098677517846227 ], [ 400243.031536113936454, 3784440.793489318341017 ], [ 400242.726347914547659, 3784440.793489318341017 ], [ 400242.421159715158865, 3784440.488301118835807 ], [ 400242.11597151577007, 3784440.488301118835807 ], [ 400242.11597151577007, 3784440.183112919796258 ], [ 400241.505595116992481, 3784439.572736520785838 ], [ 400241.505595116992481, 3784437.436419125180691 ], [ 400241.810783316381276, 3784437.131230925675482 ], [ 400241.810783316381276, 3784436.826042726170272 ], [ 400242.11597151577007, 3784436.520854527130723 ], [ 400242.11597151577007, 3784436.215666327625513 ], [ 400243.336724313325249, 3784434.994913530070335 ], [ 400243.641912512714043, 3784434.994913530070335 ], [ 400244.557477110880427, 3784434.079348932020366 ], [ 400244.557477110880427, 3784433.774160732515156 ], [ 400244.862665310269222, 3784433.774160732515156 ], [ 400245.778229908435605, 3784432.858596134465188 ], [ 400246.388606307213195, 3784432.858596134465188 ], [ 400246.693794506601989, 3784432.553407934959978 ], [ 400247.609359104768373, 3784432.553407934959978 ], [ 400247.914547304157168, 3784432.858596134465188 ], [ 400248.219735503545962, 3784432.858596134465188 ], [ 400249.440488301101141, 3784434.079348932020366 ], [ 400249.440488301101141, 3784434.384537131059915 ], [ 400249.745676500489935, 3784434.689725330565125 ], [ 400249.745676500489935, 3784435.605289928615093 ], [ 400249.440488301101141, 3784435.910478128120303 ], [ 400249.440488301101141, 3784436.215666327625513 ], [ 400248.830111902323551, 3784436.826042726170272 ], [ 400248.830111902323551, 3784437.131230925675482 ], [ 400248.219735503545962, 3784437.741607324685901 ], [ 400248.219735503545962, 3784438.04679552372545 ], [ 400247.914547304157168, 3784438.35198372323066 ], [ 400247.914547304157168, 3784438.96236012224108 ], [ 400247.609359104768373, 3784439.267548321280628 ], [ 400247.609359104768373, 3784441.098677517846227 ], [ 400247.304170905379578, 3784441.403865717351437 ], [ 400243.947100712102838, 3784441.403865717351437 ] ] ] } },
{ "type": "Feature", "properties": { "confidence": 0.31251314282417297, "class": 1 }, "geometry": { "type": "Polygon", "coordinates": [ [ [ 400345.269582909473684, 3784415.76805696869269 ], [ 400344.964394710084889, 3784415.46286876918748 ], [ 400344.3540183113073, 3784415.46286876918748 ], [ 400344.3540183113073, 3784415.15768056968227 ], [ 400344.048830111918505, 3784414.85249237017706 ], [ 400343.743641912529711, 3784414.85249237017706 ], [ 400343.743641912529711, 3784414.547304171137512 ], [ 400343.438453713140916, 3784414.242115971632302 ], [ 400343.133265513752121, 3784414.242115971632302 ], [ 400342.828077314363327, 3784413.936927772127092 ], [ 400342.522889114974532, 3784413.936927772127092 ], [ 400342.217700915585738, 3784413.631739572621882 ], [ 400341.912512716196943, 3784413.631739572621882 ], [ 400341.607324516808148, 3784413.326551373116672 ], [ 400341.302136317419354, 3784413.326551373116672 ], [ 400341.302136317419354, 3784413.021363174077123 ], [ 400340.996948118030559, 3784412.716174974571913 ], [ 400340.996948118030559, 3784412.410986775066704 ], [ 400340.691759918641765, 3784412.105798575561494 ], [ 400340.691759918641765, 3784411.495422177016735 ], [ 400340.38657171925297, 3784411.190233977511525 ], [ 400340.38657171925297, 3784410.579857578966767 ], [ 400347.100712105806451, 3784410.579857578966767 ], [ 400346.795523906417657, 3784410.885045778006315 ], [ 400346.795523906417657, 3784411.800610376521945 ], [ 400346.490335707028862, 3784412.105798575561494 ], [ 400346.490335707028862, 3784412.410986775066704 ], [ 400346.185147507640067, 3784412.716174974571913 ], [ 400346.185147507640067, 3784414.85249237017706 ], [ 400345.879959308251273, 3784415.15768056968227 ], [ 400345.879959308251273, 3784415.46286876918748 ], [ 400345.574771108862478, 3784415.46286876918748 ], [ 400345.269582909473684, 3784415.76805696869269 ] ] ] } },
{ "type": "Feature", "properties": { "confidence": 0.30972003936767578, "class": 1 }, "geometry": { "type": "Polygon", "coordinates": [ [ [ 400720.040691759902984, 3784360.528992878738791 ], [ 400720.040691759902984, 3784360.223804679699242 ], [ 400719.735503560514189, 3784359.918616480194032 ], [ 400719.735503560514189, 3784359.613428280688822 ], [ 400720.040691759902984, 3784359.308240081183612 ], [ 400720.040691759902984, 3784359.003051882144064 ], [ 400720.345879959291779, 3784358.697863682638854 ], [ 400720.345879959291779, 3784358.087487283628434 ], [ 400720.651068158680573, 3784357.782299084588885 ], [ 400720.651068158680573, 3784357.477110885083675 ], [ 400721.566632756846957, 3784356.561546287033707 ], [ 400721.871820956235752, 3784356.561546287033707 ], [ 400722.177009155624546, 3784356.256358087528497 ], [ 400722.482197355013341, 3784356.256358087528497 ], [ 400722.787385554402135, 3784355.951169888023287 ], [ 400724.618514750734903, 3784355.951169888023287 ], [ 400725.534079348959494, 3784356.866734486073256 ], [ 400725.534079348959494, 3784357.477110885083675 ], [ 400723.09257375379093, 3784359.918616480194032 ], [ 400722.787385554402135, 3784359.918616480194032 ], [ 400722.482197355013341, 3784360.223804679699242 ], [ 400721.566632756846957, 3784360.223804679699242 ], [ 400721.261444557458162, 3784360.528992878738791 ], [ 400720.040691759902984, 3784360.528992878738791 ] ] ] } },
{ "type": "Feature", "properties": { "confidence": 0.30749017000198364, "class": 1 }, "geometry": { "type": "Polygon", "coordinates": [ [ [ 400622.685656154644676, 3784568.362156663089991 ], [ 400622.380467955255881, 3784568.056968464050442 ], [ 400622.075279755867086, 3784568.056968464050442 ], [ 400621.770091556478292, 3784567.751780264545232 ], [ 400621.770091556478292, 3784567.141403865534812 ], [ 400621.464903357089497, 3784566.836215666495264 ], [ 400621.464903357089497, 3784566.531027466990054 ], [ 400621.770091556478292, 3784566.225839267484844 ], [ 400621.770091556478292, 3784565.920651067979634 ], [ 400622.380467955255881, 3784565.310274669434875 ], [ 400622.99084435403347, 3784565.310274669434875 ], [ 400623.296032553422265, 3784565.005086469929665 ], [ 400624.516785350977443, 3784565.005086469929665 ], [ 400624.821973550366238, 3784565.310274669434875 ], [ 400625.127161749755032, 3784565.310274669434875 ], [ 400625.432349949143827, 3784565.615462868940085 ], [ 400626.042726347921416, 3784565.615462868940085 ], [ 400626.042726347921416, 3784567.141403865534812 ], [ 400625.737538148532622, 3784567.141403865534812 ], [ 400624.821973550366238, 3784568.056968464050442 ], [ 400624.211597151588649, 3784568.056968464050442 ], [ 400623.906408952199854, 3784568.362156663089991 ], [ 400622.685656154644676, 3784568.362156663089991 ] ] ] } },
{ "type": "Feature", "properties": { "confidence": 0.29884356260299683, "class": 1 }, "geometry": { "type": "Polygon", "coordinates": [ [ [ 400259.206510681600776, 3784712.716174974571913 ], [ 400258.901322482211981, 3784712.410986775066704 ], [ 400258.596134282823186, 3784712.410986775066704 ], [ 400258.596134282823186, 3784709.969481179956347 ], [ 400258.290946083434392, 3784709.664292980451137 ], [ 400258.290946083434392, 3784709.053916581906378 ], [ 400258.596134282823186, 3784708.748728382401168 ], [ 400258.596134282823186, 3784707.8331637843512 ], [ 400258.901322482211981, 3784707.52797558484599 ], [ 400258.901322482211981, 3784707.22278738534078 ], [ 400259.206510681600776, 3784707.22278738534078 ], [ 400259.51169888098957, 3784706.917599186301231 ], [ 400259.816887080378365, 3784706.917599186301231 ], [ 400260.122075279767159, 3784706.612410986796021 ], [ 400262.563580874877516, 3784706.612410986796021 ], [ 400262.868769074266311, 3784706.917599186301231 ], [ 400263.173957273655105, 3784706.917599186301231 ], [ 400263.173957273655105, 3784707.22278738534078 ], [ 400263.4791454730439, 3784707.52797558484599 ], [ 400263.4791454730439, 3784707.8331637843512 ], [ 400263.784333672432695, 3784708.13835198385641 ], [ 400263.784333672432695, 3784708.748728382401168 ], [ 400264.089521871821489, 3784709.053916581906378 ], [ 400264.089521871821489, 3784710.885045778006315 ], [ 400263.784333672432695, 3784710.885045778006315 ], [ 400263.4791454730439, 3784711.190233977511525 ], [ 400263.4791454730439, 3784711.495422177016735 ], [ 400263.173957273655105, 3784711.495422177016735 ], [ 400262.868769074266311, 3784711.800610376521945 ], [ 400262.258392675488722, 3784711.800610376521945 ], [ 400261.953204476099927, 3784712.105798575561494 ], [ 400261.342828077322338, 3784712.105798575561494 ], [ 400261.037639877933543, 3784712.410986775066704 ], [ 400260.122075279767159, 3784712.410986775066704 ], [ 400259.816887080378365, 3784712.716174974571913 ], [ 400259.206510681600776, 3784712.716174974571913 ] ] ] } },
{ "type": "Feature", "properties": { "confidence": 0.2759971022605896, "class": 1 }, "geometry": { "type": "Polygon", "coordinates": [ [ [ 400777.416073245170992, 3784543.031536113936454 ], [ 400777.110885045782197, 3784542.726347914431244 ], [ 400776.500508647004608, 3784542.726347914431244 ], [ 400776.195320447615813, 3784542.421159714926034 ], [ 400776.195320447615813, 3784541.505595116876066 ], [ 400777.110885045782197, 3784540.590030518826097 ], [ 400777.416073245170992, 3784540.590030518826097 ], [ 400778.026449643948581, 3784539.979654119815677 ], [ 400780.162767039670143, 3784539.979654119815677 ], [ 400780.467955239058938, 3784540.284842319320887 ], [ 400781.383519837225322, 3784540.284842319320887 ], [ 400781.688708036614116, 3784540.590030518826097 ], [ 400781.993896236002911, 3784540.590030518826097 ], [ 400782.299084435391705, 3784540.895218718331307 ], [ 400781.993896236002911, 3784541.200406917370856 ], [ 400781.993896236002911, 3784542.115971515886486 ], [ 400781.688708036614116, 3784542.421159714926034 ], [ 400781.383519837225322, 3784542.421159714926034 ], [ 400781.078331637836527, 3784542.726347914431244 ], [ 400780.773143438447732, 3784542.726347914431244 ], [ 400780.467955239058938, 3784543.031536113936454 ], [ 400777.416073245170992, 3784543.031536113936454 ] ] ] } },
{ "type": "Feature", "properties": { "confidence": 0.2544269859790802, "class": 1 }, "geometry": { "type": "Polygon", "coordinates": [ [ [ 400601.322482197370846, 3784750.559511698782444 ], [ 400601.322482197370846, 3784750.254323499277234 ], [ 400601.017293997982051, 3784749.949135300237685 ], [ 400601.017293997982051, 3784749.033570701722056 ], [ 400600.712105798593257, 3784748.728382502682507 ], [ 400601.017293997982051, 3784748.423194303177297 ], [ 400601.017293997982051, 3784747.507629705127329 ], [ 400601.322482197370846, 3784747.202441505622119 ], [ 400601.322482197370846, 3784746.897253306116909 ], [ 400601.62767039675964, 3784746.592065106611699 ], [ 400601.62767039675964, 3784745.98168870806694 ], [ 400601.932858596148435, 3784745.67650050856173 ], [ 400602.543234994926024, 3784745.67650050856173 ], [ 400602.848423194314819, 3784745.37131230905652 ], [ 400603.763987792481203, 3784745.37131230905652 ], [ 400604.069175991869997, 3784745.066124110016972 ], [ 400604.984740590036381, 3784745.066124110016972 ], [ 400605.289928789425176, 3784744.760935910511762 ], [ 400605.59511698881397, 3784744.760935910511762 ], [ 400605.900305188202765, 3784745.066124110016972 ], [ 400605.900305188202765, 3784746.897253306116909 ], [ 400603.763987792481203, 3784749.033570701722056 ], [ 400603.763987792481203, 3784749.338758901227266 ], [ 400603.458799593092408, 3784749.643947100732476 ], [ 400603.458799593092408, 3784749.949135300237685 ], [ 400603.153611393703613, 3784750.254323499277234 ], [ 400602.848423194314819, 3784750.254323499277234 ], [ 400602.543234994926024, 3784750.559511698782444 ], [ 400601.322482197370846, 3784750.559511698782444 ] ] ] } },
{ "type": "Feature", "properties": { "confidence": 0.25117859244346619, "class": 1 }, "geometry": { "type": "Polygon", "coordinates": [ [ [ 400707.222787385573611, 3784793.591047812718898 ], [ 400706.307222787407227, 3784792.67548321466893 ], [ 400706.307222787407227, 3784792.37029501516372 ], [ 400706.002034588018432, 3784792.06510681565851 ], [ 400705.696846388629638, 3784792.06510681565851 ], [ 400705.696846388629638, 3784791.759918616618961 ], [ 400705.391658189240843, 3784791.454730417113751 ], [ 400705.391658189240843, 3784791.149542217608541 ], [ 400705.086469989852048, 3784790.844354018103331 ], [ 400705.086469989852048, 3784789.928789420053363 ], [ 400705.391658189240843, 3784789.623601220548153 ], [ 400705.391658189240843, 3784788.097660223953426 ], [ 400705.696846388629638, 3784787.792472024448216 ], [ 400706.002034588018432, 3784787.792472024448216 ], [ 400706.307222787407227, 3784787.487283824943006 ], [ 400707.527975584962405, 3784787.487283824943006 ], [ 400707.527975584962405, 3784793.591047812718898 ], [ 400707.222787385573611, 3784793.591047812718898 ] ] ] } }
]
}
