{
"type": "FeatureCollection",
"name": "cell_00448_pre",
"crs": { "type": "name", "properties": { "name": "urn:ogc:def:crs:EPSG::32611" } },
"features": [
{ "type": "Feature", "properties": { "confidence": 0.99309533834457397, "class": 1 }, "geometry": { "type": "Polygon", "coordinates": [ [ [ 399709.867751780257095, 3785138.14852492371574 ], [ 399709.5625635808683, 3785137.843336724210531 ], [ 399708.341810783313122, 3785137.843336724210531 ], [ 399708.036622583924327, 3785137.538148524705321 ], [ 399707.426246185146738, 3785137.538148524705321 ], [ 399707.121057985757943, 3785137.232960325665772 ], [ 399706.510681586980354, 3785137.232960325665772 ], [ 399706.205493387591559, 3785136.927772126160562 ], [ 399705.59511698881397, 3785136.927772126160562 ], [ 399705.289928789425176, 3785136.622583926655352 ], [ 399704.984740590036381, 3785136.622583926655352 ], [ 399704.679552390647586, 3785136.317395727150142 ], [ 399704.374364191258792, 3785136.317395727150142 ], [ 399704.069175991869997, 3785136.012207528110594 ], [ 399703.153611393703613, 3785136.012207528110594 ], [ 399702.848423194314819, 3785135.707019328605384 ], [ 399702.543234994926024, 3785135.707019328605384 ], [ 399701.932858596148435, 3785135.096642929594964 ], [ 399701.932858596148435, 3785133.875890132039785 ], [ 399701.62767039675964, 3785133.570701933000237 ], [ 399701.62767039675964, 3785129.603255340829492 ], [ 399701.932858596148435, 3785129.298067141324282 ], [ 399701.932858596148435, 3785128.687690742779523 ], [ 399702.23804679553723, 3785128.382502543274313 ], [ 399702.23804679553723, 3785128.077314343769103 ], [ 399702.543234994926024, 3785127.772126144263893 ], [ 399703.458799593092408, 3785127.772126144263893 ], [ 399703.763987792481203, 3785127.466937945224345 ], [ 399708.036622583924327, 3785127.466937945224345 ], [ 399708.341810783313122, 3785127.772126144263893 ], [ 399708.646998982701916, 3785127.772126144263893 ], [ 399709.5625635808683, 3785128.687690742779523 ], [ 399709.5625635808683, 3785128.992878941819072 ], [ 399709.867751780257095, 3785129.298067141324282 ], [ 399709.867751780257095, 3785129.908443540334702 ], [ 399710.172939979645889, 3785130.21363173937425 ], [ 399710.172939979645889, 3785131.12919633788988 ], [ 399710.478128179034684, 3785131.434384536929429 ], [ 399710.478128179034684, 3785131.739572736434639 ], [ 399710.783316378423478, 3785132.044760935939848 ], [ 399710.783316378423478, 3785132.960325533989817 ], [ 399711.088504577812273, 3785133.265513733495027 ], [ 399711.088504577812273, 3785135.707019328605384 ], [ 399711.393692777201068, 3785136.012207528110594 ], [ 399711.393692777201068, 3785137.843336724210531 ], [ 399711.088504577812273, 3785138.14852492371574 ], [ 399709.867751780257095, 3785138.14852492371574 ] ] ] } },
{ "type": "Feature", "properties": { "confidence": 0.99190771579742432, "class": 1 }, "geometry": { "type": "Polygon", "coordinates": [ [ [ 400092.268565615464468, 3785087.182095625437796 ], [ 400091.963377416075673, 3785086.876907426398247 ], [ 400091.047812817909289, 3785086.876907426398247 ], [ 400090.742624618520495, 3785086.571719226893038 ], [ 400090.132248219742905, 3785086.571719226893038 ], [ 400089.216683621576522, 3785085.656154628843069 ], [ 400089.216683621576522, 3785084.740590030327439 ], [ 400088.911495422187727, 3785084.435401831287891 ], [ 400088.911495422187727, 3785082.604272634722292 ], [ 400088.606307222798932, 3785082.299084435217083 ], [ 400088.606307222798932, 3785081.383519837167114 ], [ 400089.216683621576522, 3785080.773143438622355 ], [ 400089.521871820965316, 3785080.773143438622355 ], [ 400090.132248219742905, 3785080.162767039611936 ], [ 400090.742624618520495, 3785080.162767039611936 ], [ 400091.047812817909289, 3785079.857578840106726 ], [ 400093.489318413019646, 3785079.857578840106726 ], [ 400093.794506612408441, 3785079.552390641067177 ], [ 400095.015259409963619, 3785079.552390641067177 ], [ 400095.320447609352414, 3785079.247202441561967 ], [ 400095.625635808741208, 3785079.552390641067177 ], [ 400095.930824008130003, 3785079.552390641067177 ], [ 400095.930824008130003, 3785079.857578840106726 ], [ 400096.236012207518797, 3785080.162767039611936 ], [ 400096.541200406907592, 3785080.162767039611936 ], [ 400096.846388606296387, 3785080.467955239117146 ], [ 400096.846388606296387, 3785080.773143438622355 ], [ 400097.151576805685181, 3785081.078331637661904 ], [ 400097.151576805685181, 3785082.909460834227502 ], [ 400096.236012207518797, 3785083.825025432277471 ], [ 400096.236012207518797, 3785084.435401831287891 ], [ 400095.625635808741208, 3785085.045778229832649 ], [ 400095.625635808741208, 3785085.350966429337859 ], [ 400095.320447609352414, 3785085.656154628843069 ], [ 400095.320447609352414, 3785085.961342827882618 ], [ 400095.015259409963619, 3785085.961342827882618 ], [ 400094.099694811797235, 3785086.876907426398247 ], [ 400093.794506612408441, 3785086.876907426398247 ], [ 400093.489318413019646, 3785087.182095625437796 ], [ 400092.268565615464468, 3785087.182095625437796 ] ] ] } },
{ "type": "Feature", "properties": { "confidence": 0.98404920101165771, "class": 1 }, "geometry": { "type": "Polygon", "coordinates": [ [ [ 400054.425228891137522, 3785354.832146490458399 ], [ 400054.120040691748727, 3785354.526958290953189 ], [ 400053.814852492359933, 3785354.526958290953189 ], [ 400053.509664292971138, 3785354.221770091447979 ], [ 400053.509664292971138, 3785353.611393692903221 ], [ 400053.204476093582343, 3785353.306205493398011 ], [ 400053.204476093582343, 3785350.559511698782444 ], [ 400054.425228891137522, 3785349.338758901227266 ], [ 400054.425228891137522, 3785349.033570701722056 ], [ 400055.035605289915111, 3785348.423194303177297 ], [ 400055.035605289915111, 3785347.202441505622119 ], [ 400055.340793489303906, 3785346.897253306116909 ], [ 400055.6459816886927, 3785346.897253306116909 ], [ 400055.951169888081495, 3785346.592065106611699 ], [ 400058.392675483191852, 3785346.592065106611699 ], [ 400059.308240081358235, 3785347.507629705127329 ], [ 400059.308240081358235, 3785348.423194303177297 ], [ 400059.61342828074703, 3785348.728382502682507 ], [ 400059.61342828074703, 3785350.864699898287654 ], [ 400059.308240081358235, 3785351.169888097792864 ], [ 400059.308240081358235, 3785353.611393692903221 ], [ 400058.697863682580646, 3785354.221770091447979 ], [ 400058.392675483191852, 3785354.221770091447979 ], [ 400058.087487283803057, 3785354.526958290953189 ], [ 400057.782299084414262, 3785354.526958290953189 ], [ 400057.477110885025468, 3785354.832146490458399 ], [ 400054.425228891137522, 3785354.832146490458399 ] ] ] } },
{ "type": "Feature", "properties": { "confidence": 0.87693250179290771, "class": 1 }, "geometry": { "type": "Polygon", "coordinates": [ [ [ 399670.193285859597381, 3785068.87080366211012 ], [ 399669.888097660208587, 3785068.565615463070571 ], [ 399669.888097660208587, 3785067.650050864554942 ], [ 399670.193285859597381, 3785067.344862665515393 ], [ 399670.193285859597381, 3785066.429298066999763 ], [ 399670.498474058986176, 3785066.124109867960215 ], [ 399670.498474058986176, 3785065.513733468949795 ], [ 399671.108850457763765, 3785064.903357070405036 ], [ 399671.108850457763765, 3785064.598168870899826 ], [ 399671.719226856541354, 3785063.987792471889406 ], [ 399671.719226856541354, 3785063.682604272849858 ], [ 399672.329603255318943, 3785063.072227873839438 ], [ 399672.329603255318943, 3785062.767039674334228 ], [ 399672.634791454707738, 3785062.461851475294679 ], [ 399672.634791454707738, 3785062.156663275789469 ], [ 399672.939979654096533, 3785061.85147507628426 ], [ 399672.939979654096533, 3785061.54628687677905 ], [ 399673.245167853485327, 3785061.241098677739501 ], [ 399673.550356052874122, 3785061.241098677739501 ], [ 399673.855544252262916, 3785060.935910478234291 ], [ 399673.855544252262916, 3785060.630722278729081 ], [ 399674.160732451651711, 3785060.325534079223871 ], [ 399674.160732451651711, 3785059.715157680679113 ], [ 399674.465920651040506, 3785059.409969481173903 ], [ 399675.076297049876302, 3785059.409969481173903 ], [ 399675.381485249265097, 3785059.715157680679113 ], [ 399675.686673448653892, 3785059.715157680679113 ], [ 399675.686673448653892, 3785060.325534079223871 ], [ 399675.991861648042686, 3785060.630722278729081 ], [ 399676.602238046820275, 3785060.630722278729081 ], [ 399676.90742624620907, 3785060.935910478234291 ], [ 399677.822990844375454, 3785060.935910478234291 ], [ 399677.822990844375454, 3785061.241098677739501 ], [ 399678.128179043764248, 3785061.54628687677905 ], [ 399678.128179043764248, 3785062.156663275789469 ], [ 399677.212614445597865, 3785063.072227873839438 ], [ 399677.212614445597865, 3785063.377416073344648 ], [ 399675.076297049876302, 3785065.513733468949795 ], [ 399674.7711088504293, 3785065.513733468949795 ], [ 399671.41403865715256, 3785068.87080366211012 ], [ 399670.193285859597381, 3785068.87080366211012 ] ] ] } },
{ "type": "Feature", "properties": { "confidence": 0.85551238059997559, "class": 1 }, "geometry": { "type": "Polygon", "coordinates": [ [ [ 399979.043743641930632, 3785029.196337741799653 ], [ 399978.433367243153043, 3785028.585961342789233 ], [ 399978.433367243153043, 3785028.280773143284023 ], [ 399978.128179043764248, 3785027.975584944244474 ], [ 399978.128179043764248, 3785026.754832146689296 ], [ 399977.822990844375454, 3785026.449643947184086 ], [ 399977.822990844375454, 3785024.008138352073729 ], [ 399978.128179043764248, 3785023.702950152568519 ], [ 399978.128179043764248, 3785023.397761953063309 ], [ 399978.738555442541838, 3785022.787385554518551 ], [ 399979.043743641930632, 3785022.787385554518551 ], [ 399979.348931841319427, 3785022.482197355013341 ], [ 399981.180061037652194, 3785022.482197355013341 ], [ 399981.485249237040989, 3785022.787385554518551 ], [ 399981.485249237040989, 3785024.008138352073729 ], [ 399982.706002034596168, 3785025.228891149628907 ], [ 399982.706002034596168, 3785026.754832146689296 ], [ 399983.011190233984962, 3785027.060020345728844 ], [ 399983.011190233984962, 3785027.975584944244474 ], [ 399982.400813835207373, 3785028.585961342789233 ], [ 399982.095625635818578, 3785028.585961342789233 ], [ 399981.790437436429784, 3785028.891149542294443 ], [ 399980.8748728382634, 3785028.891149542294443 ], [ 399980.569684638874605, 3785029.196337741799653 ], [ 399979.043743641930632, 3785029.196337741799653 ] ] ] } },
{ "type": "Feature", "properties": { "confidence": 0.85330277681350708, "class": 1 }, "geometry": { "type": "Polygon", "coordinates": [ [ [ 400004.984740590036381, 3785381.993896236177534 ], [ 400004.679552390647586, 3785381.688708036672324 ], [ 400002.848423194314819, 3785381.688708036672324 ], [ 400002.543234994926024, 3785381.383519837167114 ], [ 400001.932858596148435, 3785381.383519837167114 ], [ 400001.62767039675964, 3785381.078331637661904 ], [ 400001.322482197370846, 3785381.078331637661904 ], [ 400001.017293997982051, 3785380.773143438622355 ], [ 400000.712105798593257, 3785380.773143438622355 ], [ 400000.101729399815667, 3785380.162767039611936 ], [ 400000.101729399815667, 3785378.636826042551547 ], [ 400000.406917599204462, 3785378.331637843511999 ], [ 400000.406917599204462, 3785377.721261444501579 ], [ 400000.712105798593257, 3785377.416073244996369 ], [ 400001.322482197370846, 3785377.416073244996369 ], [ 400001.62767039675964, 3785377.11088504595682 ], [ 400005.289928789425176, 3785377.11088504595682 ], [ 400005.59511698881397, 3785377.416073244996369 ], [ 400005.59511698881397, 3785377.721261444501579 ], [ 400007.121057985757943, 3785379.247202441561967 ], [ 400007.426246185146738, 3785379.247202441561967 ], [ 400007.731434384535532, 3785379.552390641067177 ], [ 400007.731434384535532, 3785379.857578840106726 ], [ 400008.036622583924327, 3785380.162767039611936 ], [ 400008.036622583924327, 3785380.467955239117146 ], [ 400008.341810783313122, 3785380.773143438622355 ], [ 400008.341810783313122, 3785381.078331637661904 ], [ 400007.731434384535532, 3785381.688708036672324 ], [ 400007.121057985757943, 3785381.688708036672324 ], [ 400006.815869786369149, 3785381.993896236177534 ], [ 400004.984740590036381, 3785381.993896236177534 ] ] ] } },
{ "type": "Feature", "properties": { "confidence": 0.84533613920211792, "class": 1 }, "geometry": { "type": "Polygon", "coordinates": [ [ [ 400104.476093591074459, 3785070.091556459665298 ], [ 400104.170905391685665, 3785069.78636826062575 ], [ 400103.86571719229687, 3785069.78636826062575 ], [ 400103.560528992908075, 3785069.48118006112054 ], [ 400103.560528992908075, 3785069.17599186161533 ], [ 400103.255340793461073, 3785068.87080366211012 ], [ 400103.255340793461073, 3785067.650050864554942 ], [ 400102.950152594072279, 3785067.344862665515393 ], [ 400102.950152594072279, 3785066.734486266504973 ], [ 400103.255340793461073, 3785066.429298066999763 ], [ 400103.255340793461073, 3785066.124109867960215 ], [ 400104.170905391685665, 3785066.124109867960215 ], [ 400104.476093591074459, 3785065.818921668455005 ], [ 400104.781281790463254, 3785065.818921668455005 ], [ 400105.086469989852048, 3785065.513733468949795 ], [ 400106.612410986796021, 3785065.513733468949795 ], [ 400106.917599186184816, 3785065.208545269444585 ], [ 400108.443540183128789, 3785065.208545269444585 ], [ 400108.748728382517584, 3785065.513733468949795 ], [ 400108.748728382517584, 3785066.734486266504973 ], [ 400108.443540183128789, 3785067.039674466010183 ], [ 400108.443540183128789, 3785067.344862665515393 ], [ 400108.138351983739994, 3785067.650050864554942 ], [ 400108.138351983739994, 3785067.955239064060152 ], [ 400106.612410986796021, 3785069.48118006112054 ], [ 400106.307222787407227, 3785069.48118006112054 ], [ 400106.002034588018432, 3785069.78636826062575 ], [ 400105.696846388629638, 3785069.78636826062575 ], [ 400105.391658189240843, 3785070.091556459665298 ], [ 400104.476093591074459, 3785070.091556459665298 ] ] ] } },
{ "type": "Feature", "properties": { "confidence": 0.82939821481704712, "class": 1 }, "geometry": { "type": "Polygon", "coordinates": [ [ [ 400174.974567650060635, 3785203.153611393645406 ], [ 400174.66937945067184, 3785202.848423194140196 ], [ 400174.364191251283046, 3785202.848423194140196 ], [ 400174.059003051894251, 3785202.543234995100647 ], [ 400173.753814852505457, 3785202.543234995100647 ], [ 400173.448626653116662, 3785202.238046795595437 ], [ 400173.143438453727867, 3785202.238046795595437 ], [ 400172.227873855561484, 3785201.322482197545469 ], [ 400172.227873855561484, 3785200.10172939999029 ], [ 400172.533062054950278, 3785199.79654120048508 ], [ 400172.533062054950278, 3785199.491353000979871 ], [ 400173.143438453727867, 3785198.880976602435112 ], [ 400173.448626653116662, 3785198.880976602435112 ], [ 400173.753814852505457, 3785198.575788402929902 ], [ 400175.890132248227019, 3785198.575788402929902 ], [ 400176.195320447615813, 3785198.880976602435112 ], [ 400176.805696846393403, 3785198.880976602435112 ], [ 400177.110885045782197, 3785199.186164801474661 ], [ 400177.416073245170992, 3785199.186164801474661 ], [ 400177.721261444559786, 3785199.491353000979871 ], [ 400178.331637843337376, 3785199.491353000979871 ], [ 400178.63682604272617, 3785199.79654120048508 ], [ 400178.63682604272617, 3785200.712105798535049 ], [ 400178.331637843337376, 3785200.712105798535049 ], [ 400177.721261444559786, 3785201.322482197545469 ], [ 400177.721261444559786, 3785201.627670396585017 ], [ 400177.416073245170992, 3785201.932858596090227 ], [ 400177.416073245170992, 3785202.543234995100647 ], [ 400177.110885045782197, 3785202.848423194140196 ], [ 400177.110885045782197, 3785203.153611393645406 ], [ 400174.974567650060635, 3785203.153611393645406 ] ] ] } },
{ "type": "Feature", "properties": { "confidence": 0.81528717279434204, "class": 1 }, "geometry": { "type": "Polygon", "coordinates": [ [ [ 399609.460834181052633, 3785103.357070193160325 ], [ 399609.155645981663838, 3785103.051881994120777 ], [ 399608.545269582886249, 3785103.051881994120777 ], [ 399608.545269582886249, 3785102.441505595110357 ], [ 399608.240081383497454, 3785102.136317395605147 ], [ 399608.240081383497454, 3785098.168870803434402 ], [ 399607.93489318410866, 3785097.863682604394853 ], [ 399607.93489318410866, 3785097.253306205384433 ], [ 399607.629704984719865, 3785096.948118005879223 ], [ 399607.629704984719865, 3785094.201424211729318 ], [ 399607.93489318410866, 3785093.896236012224108 ], [ 399608.240081383497454, 3785093.896236012224108 ], [ 399608.850457782275043, 3785093.285859613213688 ], [ 399610.376398779219016, 3785093.285859613213688 ], [ 399610.376398779219016, 3785094.811800610274076 ], [ 399610.681586978607811, 3785095.116988809779286 ], [ 399610.681586978607811, 3785095.422177009284496 ], [ 399611.291963377443608, 3785096.032553407829255 ], [ 399611.291963377443608, 3785096.337741607334465 ], [ 399611.597151576832402, 3785096.642929806839675 ], [ 399611.597151576832402, 3785096.948118005879223 ], [ 399612.512716174998786, 3785097.863682604394853 ], [ 399612.512716174998786, 3785098.779247202444822 ], [ 399612.207527975609992, 3785099.084435401950032 ], [ 399612.207527975609992, 3785102.441505595110357 ], [ 399611.902339776221197, 3785102.746693794615567 ], [ 399611.902339776221197, 3785103.051881994120777 ], [ 399611.597151576832402, 3785103.357070193160325 ], [ 399609.460834181052633, 3785103.357070193160325 ] ] ] } },
{ "type": "Feature", "properties": { "confidence": 0.77607941627502441, "class": 1 }, "geometry": { "type": "Polygon", "coordinates": [ [ [ 400054.730417090526316, 3785299.89827060000971 ], [ 400054.425228891137522, 3785299.593082400970161 ], [ 400054.120040691748727, 3785299.593082400970161 ], [ 400053.204476093582343, 3785298.677517802454531 ], [ 400053.204476093582343, 3785298.067141403909773 ], [ 400052.899287894193549, 3785297.761953204404563 ], [ 400052.899287894193549, 3785297.151576805859804 ], [ 400052.594099694804754, 3785296.846388606354594 ], [ 400052.594099694804754, 3785295.320447609294206 ], [ 400052.899287894193549, 3785295.320447609294206 ], [ 400053.204476093582343, 3785295.015259409788996 ], [ 400053.509664292971138, 3785295.015259409788996 ], [ 400053.814852492359933, 3785294.710071210749447 ], [ 400054.120040691748727, 3785294.710071210749447 ], [ 400055.035605289915111, 3785293.794506612233818 ], [ 400055.035605289915111, 3785293.489318413194269 ], [ 400055.340793489303906, 3785293.184130213689059 ], [ 400055.340793489303906, 3785292.878942014183849 ], [ 400055.6459816886927, 3785292.573753814678639 ], [ 400056.866734486247879, 3785292.573753814678639 ], [ 400058.087487283803057, 3785293.794506612233818 ], [ 400058.087487283803057, 3785294.404883011244237 ], [ 400058.392675483191852, 3785294.710071210749447 ], [ 400058.392675483191852, 3785298.677517802454531 ], [ 400058.087487283803057, 3785298.982706001959741 ], [ 400058.087487283803057, 3785299.287894201464951 ], [ 400057.782299084414262, 3785299.287894201464951 ], [ 400057.477110885025468, 3785299.593082400970161 ], [ 400056.256358087470289, 3785299.593082400970161 ], [ 400055.951169888081495, 3785299.89827060000971 ], [ 400054.730417090526316, 3785299.89827060000971 ] ] ] } },
{ "type": "Feature", "properties": { "confidence": 0.76041954755783081, "class": 1 }, "geometry": { "type": "Polygon", "coordinates": [ [ [ 399993.997965411981568, 3785028.280773143284023 ], [ 399993.692777212592773, 3785027.975584944244474 ], [ 399993.387589013203979, 3785027.975584944244474 ], [ 399993.082400813815184, 3785027.670396744739264 ], [ 399993.082400813815184, 3785027.365208545234054 ], [ 399992.777212614426389, 3785027.060020345728844 ], [ 399992.777212614426389, 3785026.449643947184086 ], [ 399993.082400813815184, 3785026.144455747678876 ], [ 399993.082400813815184, 3785022.482197355013341 ], [ 399992.777212614426389, 3785022.177009155508131 ], [ 399992.777212614426389, 3785019.735503560397774 ], [ 399993.692777212592773, 3785018.819938962347806 ], [ 399993.997965411981568, 3785018.819938962347806 ], [ 399994.303153611370362, 3785018.514750762842596 ], [ 399994.913530010147952, 3785018.514750762842596 ], [ 399995.218718209536746, 3785018.209562563803047 ], [ 399995.829094608314335, 3785018.209562563803047 ], [ 399996.13428280770313, 3785018.514750762842596 ], [ 399997.049847405927721, 3785018.514750762842596 ], [ 399997.355035605316516, 3785018.209562563803047 ], [ 399997.965412004094105, 3785018.209562563803047 ], [ 399998.2706002034829, 3785017.904374364297837 ], [ 399999.186164801649284, 3785017.904374364297837 ], [ 399999.491353001038078, 3785018.209562563803047 ], [ 400000.101729399815667, 3785018.209562563803047 ], [ 400000.406917599204462, 3785018.514750762842596 ], [ 400000.712105798593257, 3785018.514750762842596 ], [ 400001.017293997982051, 3785018.819938962347806 ], [ 400001.017293997982051, 3785019.125127161853015 ], [ 400001.322482197370846, 3785019.430315361358225 ], [ 400001.322482197370846, 3785020.956256357952952 ], [ 400001.62767039675964, 3785021.261444557458162 ], [ 400001.62767039675964, 3785022.177009155508131 ], [ 400001.322482197370846, 3785022.482197355013341 ], [ 400001.322482197370846, 3785024.313326551578939 ], [ 399999.796541200426873, 3785025.839267548173666 ], [ 399999.796541200426873, 3785026.144455747678876 ], [ 399999.491353001038078, 3785026.449643947184086 ], [ 399999.491353001038078, 3785026.754832146689296 ], [ 399999.186164801649284, 3785027.060020345728844 ], [ 399999.186164801649284, 3785027.670396744739264 ], [ 399998.575788402871694, 3785028.280773143284023 ], [ 399993.997965411981568, 3785028.280773143284023 ] ] ] } },
{ "type": "Feature", "properties": { "confidence": 0.7359626293182373, "class": 1 }, "geometry": { "type": "Polygon", "coordinates": [ [ [ 399974.465920651040506, 3785051.169888097792864 ], [ 399973.550356052874122, 3785050.254323499277234 ], [ 399973.550356052874122, 3785049.949135300237685 ], [ 399973.245167853485327, 3785049.643947100732476 ], [ 399973.245167853485327, 3785049.338758901227266 ], [ 399972.939979654096533, 3785049.033570701722056 ], [ 399972.939979654096533, 3785048.423194303177297 ], [ 399972.634791454707738, 3785048.118006103672087 ], [ 399972.634791454707738, 3785046.897253306116909 ], [ 399973.550356052874122, 3785045.98168870806694 ], [ 399978.433367243153043, 3785045.98168870806694 ], [ 399978.433367243153043, 3785046.28687690757215 ], [ 399978.738555442541838, 3785046.592065106611699 ], [ 399978.738555442541838, 3785049.949135300237685 ], [ 399978.433367243153043, 3785050.254323499277234 ], [ 399978.433367243153043, 3785050.559511698782444 ], [ 399977.822990844375454, 3785051.169888097792864 ], [ 399974.465920651040506, 3785051.169888097792864 ] ] ] } },
{ "type": "Feature", "properties": { "confidence": 0.69581770896911621, "class": 1 }, "geometry": { "type": "Polygon", "coordinates": [ [ [ 400064.801627670414746, 3785193.387589013203979 ], [ 400064.496439471025951, 3785193.082400813698769 ], [ 400063.580874872859567, 3785193.082400813698769 ], [ 400062.970498474081978, 3785192.47202441515401 ], [ 400062.970498474081978, 3785191.86164801614359 ], [ 400062.665310274693184, 3785191.556459817104042 ], [ 400062.665310274693184, 3785191.251271617598832 ], [ 400062.360122075304389, 3785190.946083418093622 ], [ 400062.360122075304389, 3785189.114954221993685 ], [ 400062.665310274693184, 3785188.809766022488475 ], [ 400062.665310274693184, 3785187.283825025428087 ], [ 400062.970498474081978, 3785186.978636825922877 ], [ 400062.970498474081978, 3785186.368260427378118 ], [ 400063.275686673470773, 3785186.063072227872908 ], [ 400063.275686673470773, 3785183.316378433257341 ], [ 400066.632756866747513, 3785183.316378433257341 ], [ 400066.937945066136308, 3785183.621566632762551 ], [ 400066.937945066136308, 3785184.84231943031773 ], [ 400067.243133265525103, 3785185.14750762982294 ], [ 400067.548321464913897, 3785185.14750762982294 ], [ 400067.853509664302692, 3785185.452695828862488 ], [ 400068.158697863691486, 3785185.452695828862488 ], [ 400068.463886063080281, 3785185.757884028367698 ], [ 400068.769074262469076, 3785185.757884028367698 ], [ 400069.07426246185787, 3785186.063072227872908 ], [ 400069.07426246185787, 3785186.368260427378118 ], [ 400069.379450661246665, 3785186.673448626883328 ], [ 400069.684638860635459, 3785186.673448626883328 ], [ 400069.989827060024254, 3785186.978636825922877 ], [ 400070.295015259413049, 3785186.978636825922877 ], [ 400070.295015259413049, 3785187.283825025428087 ], [ 400070.905391658190638, 3785187.894201424438506 ], [ 400070.905391658190638, 3785190.335707019548863 ], [ 400070.600203458801843, 3785190.640895218588412 ], [ 400070.600203458801843, 3785190.946083418093622 ], [ 400068.463886063080281, 3785193.082400813698769 ], [ 400066.632756866747513, 3785193.082400813698769 ], [ 400066.327568667358719, 3785193.387589013203979 ], [ 400064.801627670414746, 3785193.387589013203979 ] ] ] } },
{ "type": "Feature", "properties": { "confidence": 0.69192862510681152, "class": 1 }, "geometry": { "type": "Polygon", "coordinates": [ [ [ 400134.689725330623332, 3785111.291963377501816 ], [ 400134.079348931845743, 3785110.681586978491396 ], [ 400134.079348931845743, 3785110.071210579946637 ], [ 400133.774160732456949, 3785109.766022380441427 ], [ 400133.774160732456949, 3785109.460834180936217 ], [ 400133.163784333679359, 3785108.850457782391459 ], [ 400133.163784333679359, 3785108.545269582886249 ], [ 400132.858596134290565, 3785108.240081383381039 ], [ 400132.858596134290565, 3785107.32451678533107 ], [ 400132.55340793490177, 3785107.019328585825861 ], [ 400132.248219735512976, 3785107.019328585825861 ], [ 400132.248219735512976, 3785106.408952187281102 ], [ 400131.943031536124181, 3785106.103763987775892 ], [ 400131.943031536124181, 3785104.883011190220714 ], [ 400132.55340793490177, 3785104.272634791675955 ], [ 400138.046795523900073, 3785104.272634791675955 ], [ 400138.351983723288868, 3785104.577822990715504 ], [ 400138.657171922677662, 3785104.577822990715504 ], [ 400138.962360122066457, 3785104.883011190220714 ], [ 400138.962360122066457, 3785105.493387589231133 ], [ 400139.267548321455251, 3785105.798575788270682 ], [ 400139.267548321455251, 3785107.62970498483628 ], [ 400138.046795523900073, 3785108.850457782391459 ], [ 400138.046795523900073, 3785109.155645981896669 ], [ 400137.741607324511278, 3785109.460834180936217 ], [ 400137.741607324511278, 3785109.766022380441427 ], [ 400136.5208545269561, 3785110.986775177996606 ], [ 400135.910478128178511, 3785110.986775177996606 ], [ 400135.605289928789716, 3785111.291963377501816 ], [ 400134.689725330623332, 3785111.291963377501816 ] ] ] } },
{ "type": "Feature", "properties": { "confidence": 0.69011461734771729, "class": 1 }, "geometry": { "type": "Polygon", "coordinates": [ [ [ 399865.818921668338589, 3785018.209562563803047 ], [ 399865.513733468949795, 3785017.904374364297837 ], [ 399865.208545269561, 3785017.904374364297837 ], [ 399864.903357070172206, 3785017.599186164792627 ], [ 399864.903357070172206, 3785016.378433367237449 ], [ 399865.513733468949795, 3785015.76805696869269 ], [ 399865.513733468949795, 3785015.46286876918748 ], [ 399867.650050864671357, 3785013.326551373116672 ], [ 399869.786368260451127, 3785013.326551373116672 ], [ 399870.396744659228716, 3785013.936927772127092 ], [ 399870.396744659228716, 3785014.547304171137512 ], [ 399870.701932858617511, 3785014.85249237017706 ], [ 399870.701932858617511, 3785016.073245167732239 ], [ 399870.396744659228716, 3785016.378433367237449 ], [ 399870.396744659228716, 3785016.988809766247869 ], [ 399869.481180061062332, 3785017.904374364297837 ], [ 399867.955239064118359, 3785017.904374364297837 ], [ 399867.650050864671357, 3785018.209562563803047 ], [ 399865.818921668338589, 3785018.209562563803047 ] ] ] } },
{ "type": "Feature", "properties": { "confidence": 0.62990003824234009, "class": 1 }, "geometry": { "type": "Polygon", "coordinates": [ [ [ 399693.082400813815184, 3785361.241098677739501 ], [ 399692.777212614426389, 3785360.935910478234291 ], [ 399692.472024415037595, 3785360.935910478234291 ], [ 399691.861648016260006, 3785360.325534079223871 ], [ 399691.861648016260006, 3785360.020345880184323 ], [ 399691.556459816871211, 3785359.715157680679113 ], [ 399691.556459816871211, 3785355.442522889003158 ], [ 399691.251271617482416, 3785355.137334689497948 ], [ 399691.251271617482416, 3785352.390640895348042 ], [ 399691.556459816871211, 3785352.390640895348042 ], [ 399691.861648016260006, 3785352.085452695842832 ], [ 399692.1668362156488, 3785352.085452695842832 ], [ 399692.472024415037595, 3785351.780264496337622 ], [ 399693.387589013203979, 3785351.780264496337622 ], [ 399693.692777212592773, 3785351.475076296832412 ], [ 399694.913530010147952, 3785351.475076296832412 ], [ 399695.218718209536746, 3785351.780264496337622 ], [ 399696.13428280770313, 3785351.780264496337622 ], [ 399696.744659206538927, 3785352.390640895348042 ], [ 399697.049847405927721, 3785352.390640895348042 ], [ 399697.355035605316516, 3785352.695829094387591 ], [ 399697.355035605316516, 3785353.001017293892801 ], [ 399697.965412004094105, 3785353.611393692903221 ], [ 399697.965412004094105, 3785353.916581891942769 ], [ 399698.2706002034829, 3785354.221770091447979 ], [ 399698.2706002034829, 3785357.578840285073966 ], [ 399697.965412004094105, 3785357.884028484113514 ], [ 399697.965412004094105, 3785358.494404883123934 ], [ 399696.744659206538927, 3785359.715157680679113 ], [ 399696.439471007150132, 3785359.715157680679113 ], [ 399695.523906408925541, 3785360.630722278729081 ], [ 399695.218718209536746, 3785360.630722278729081 ], [ 399694.913530010147952, 3785360.935910478234291 ], [ 399694.608341810759157, 3785360.935910478234291 ], [ 399694.303153611370362, 3785361.241098677739501 ], [ 399693.082400813815184, 3785361.241098677739501 ] ] ] } },
{ "type": "Feature", "properties": { "confidence": 0.53564280271530151, "class": 1 }, "geometry": { "type": "Polygon", "coordinates": [ [ [ 399741.302136317419354, 3785142.115971515886486 ], [ 399740.996948118030559, 3785141.810783316381276 ], [ 399740.996948118030559, 3785140.895218718331307 ], [ 399741.302136317419354, 3785140.590030518826097 ], [ 399741.302136317419354, 3785138.758901322260499 ], [ 399741.607324516808148, 3785138.45371312322095 ], [ 399741.607324516808148, 3785138.14852492371574 ], [ 399741.912512716196943, 3785137.843336724210531 ], [ 399742.217700915585738, 3785137.843336724210531 ], [ 399742.828077314363327, 3785137.232960325665772 ], [ 399743.133265513752121, 3785137.232960325665772 ], [ 399743.438453713140916, 3785136.927772126160562 ], [ 399745.269582909473684, 3785136.927772126160562 ], [ 399745.574771108862478, 3785137.232960325665772 ], [ 399746.490335707028862, 3785137.232960325665772 ], [ 399746.795523906417657, 3785137.538148524705321 ], [ 399746.795523906417657, 3785137.843336724210531 ], [ 399747.100712105806451, 3785138.14852492371574 ], [ 399747.100712105806451, 3785138.758901322260499 ], [ 399746.795523906417657, 3785139.064089521765709 ], [ 399746.795523906417657, 3785139.979654119815677 ], [ 399745.574771108862478, 3785141.200406917370856 ], [ 399745.269582909473684, 3785141.200406917370856 ], [ 399744.659206510696094, 3785141.810783316381276 ], [ 399743.743641912529711, 3785141.810783316381276 ], [ 399743.438453713140916, 3785142.115971515886486 ], [ 399741.302136317419354, 3785142.115971515886486 ] ] ] } },
{ "type": "Feature", "properties": { "confidence": 0.51380658149719238, "class": 1 }, "geometry": { "type": "Polygon", "coordinates": [ [ [ 400047.100712105806451, 3785356.968463886063546 ], [ 400046.795523906417657, 3785356.663275686558336 ], [ 400046.795523906417657, 3785356.358087487053126 ], [ 400046.490335707028862, 3785356.052899288013577 ], [ 400046.490335707028862, 3785355.747711088508368 ], [ 400046.185147507640067, 3785355.442522889003158 ], [ 400046.185147507640067, 3785354.832146490458399 ], [ 400045.879959308251273, 3785354.526958290953189 ], [ 400045.879959308251273, 3785354.221770091447979 ], [ 400045.574771108862478, 3785353.916581891942769 ], [ 400045.574771108862478, 3785348.118006103672087 ], [ 400045.879959308251273, 3785347.812817904166877 ], [ 400045.879959308251273, 3785346.897253306116909 ], [ 400046.490335707028862, 3785346.28687690757215 ], [ 400046.490335707028862, 3785345.98168870806694 ], [ 400047.405900305195246, 3785345.066124110016972 ], [ 400047.405900305195246, 3785344.760935910511762 ], [ 400047.71108850458404, 3785344.455747711006552 ], [ 400047.71108850458404, 3785343.845371312461793 ], [ 400048.016276703972835, 3785343.540183112956583 ], [ 400048.016276703972835, 3785342.929806713946164 ], [ 400048.931841302139219, 3785342.014242115896195 ], [ 400050.457782299083192, 3785342.014242115896195 ], [ 400050.762970498471987, 3785342.319430315401405 ], [ 400051.068158697860781, 3785342.319430315401405 ], [ 400051.373346897249576, 3785342.624618514906615 ], [ 400051.373346897249576, 3785343.540183112956583 ], [ 400051.67853509663837, 3785343.845371312461793 ], [ 400051.373346897249576, 3785344.150559511501342 ], [ 400051.373346897249576, 3785345.37131230905652 ], [ 400051.068158697860781, 3785345.67650050856173 ], [ 400051.068158697860781, 3785347.202441505622119 ], [ 400050.457782299083192, 3785347.812817904166877 ], [ 400050.457782299083192, 3785351.780264496337622 ], [ 400050.152594099694397, 3785352.085452695842832 ], [ 400050.152594099694397, 3785352.695829094387591 ], [ 400049.542217700916808, 3785353.306205493398011 ], [ 400049.542217700916808, 3785353.611393692903221 ], [ 400049.237029501528013, 3785353.916581891942769 ], [ 400049.237029501528013, 3785354.221770091447979 ], [ 400048.931841302139219, 3785354.526958290953189 ], [ 400048.931841302139219, 3785355.442522889003158 ], [ 400048.626653102750424, 3785355.747711088508368 ], [ 400048.626653102750424, 3785356.052899288013577 ], [ 400048.32146490336163, 3785356.358087487053126 ], [ 400048.32146490336163, 3785356.663275686558336 ], [ 400048.016276703972835, 3785356.663275686558336 ], [ 400047.71108850458404, 3785356.968463886063546 ], [ 400047.100712105806451, 3785356.968463886063546 ] ] ] } },
{ "type": "Feature", "properties": { "confidence": 0.48622262477874756, "class": 1 }, "geometry": { "type": "Polygon", "coordinates": [ [ [ 399973.550356052874122, 3785037.131230925675482 ], [ 399973.245167853485327, 3785036.826042726170272 ], [ 399972.939979654096533, 3785036.826042726170272 ], [ 399972.939979654096533, 3785035.910478128120303 ], [ 399972.329603255318943, 3785035.300101729575545 ], [ 399972.329603255318943, 3785033.774160732515156 ], [ 399972.634791454707738, 3785033.468972533009946 ], [ 399972.634791454707738, 3785033.163784333504736 ], [ 399972.939979654096533, 3785032.858596134465188 ], [ 399973.245167853485327, 3785032.858596134465188 ], [ 399973.550356052874122, 3785032.553407934959978 ], [ 399976.297049847431481, 3785032.553407934959978 ], [ 399976.297049847431481, 3785032.858596134465188 ], [ 399976.602238046820275, 3785033.163784333504736 ], [ 399976.602238046820275, 3785034.079348932020366 ], [ 399976.297049847431481, 3785034.384537131059915 ], [ 399976.297049847431481, 3785034.689725330565125 ], [ 399975.991861648042686, 3785034.994913530070335 ], [ 399975.991861648042686, 3785035.910478128120303 ], [ 399975.381485249265097, 3785036.520854527130723 ], [ 399975.076297049876302, 3785036.520854527130723 ], [ 399974.7711088504293, 3785036.826042726170272 ], [ 399973.855544252262916, 3785036.826042726170272 ], [ 399973.550356052874122, 3785037.131230925675482 ] ] ] } },
{ "type": "Feature", "properties": { "confidence": 0.47238096594810486, "class": 1 }, "geometry": { "type": "Polygon", "coordinates": [ [ [ 399867.955239064118359, 3784954.730417090468109 ], [ 399867.650050864671357, 3784954.425228890962899 ], [ 399867.344862665282562, 3784954.425228890962899 ], [ 399867.039674465893768, 3784954.12004069192335 ], [ 399866.734486266504973, 3784954.12004069192335 ], [ 399866.124109867727384, 3784953.50966429291293 ], [ 399866.124109867727384, 3784952.899287894368172 ], [ 399865.818921668338589, 3784952.594099694862962 ], [ 399865.818921668338589, 3784951.983723295852542 ], [ 399865.513733468949795, 3784951.678535096812993 ], [ 399865.513733468949795, 3784951.068158697802573 ], [ 399865.208545269561, 3784950.762970498297364 ], [ 399865.208545269561, 3784950.457782299257815 ], [ 399864.903357070172206, 3784950.152594099752605 ], [ 399864.903357070172206, 3784947.405900305137038 ], [ 399865.208545269561, 3784947.100712105631828 ], [ 399867.650050864671357, 3784947.100712105631828 ], [ 399867.955239064118359, 3784947.405900305137038 ], [ 399870.396744659228716, 3784947.405900305137038 ], [ 399870.701932858617511, 3784947.100712105631828 ], [ 399871.007121058006305, 3784947.405900305137038 ], [ 399871.3123092573951, 3784947.405900305137038 ], [ 399871.3123092573951, 3784948.626653102692217 ], [ 399871.617497456783894, 3784948.931841302197427 ], [ 399871.617497456783894, 3784950.457782299257815 ], [ 399871.3123092573951, 3784950.762970498297364 ], [ 399871.3123092573951, 3784951.678535096812993 ], [ 399871.617497456783894, 3784951.983723295852542 ], [ 399871.617497456783894, 3784952.899287894368172 ], [ 399871.922685656172689, 3784953.20447609340772 ], [ 399871.922685656172689, 3784953.50966429291293 ], [ 399871.617497456783894, 3784953.81485249241814 ], [ 399871.3123092573951, 3784953.81485249241814 ], [ 399870.396744659228716, 3784954.730417090468109 ], [ 399867.955239064118359, 3784954.730417090468109 ] ] ] } },
{ "type": "Feature", "properties": { "confidence": 0.43514826893806458, "class": 1 }, "geometry": { "type": "Polygon", "coordinates": [ [ [ 400060.834181078360416, 3785133.875890132039785 ], [ 400060.528992878913414, 3785133.570701933000237 ], [ 400060.223804679524619, 3785133.570701933000237 ], [ 400059.61342828074703, 3785132.960325533989817 ], [ 400059.61342828074703, 3785131.12919633788988 ], [ 400059.308240081358235, 3785130.82400813838467 ], [ 400059.308240081358235, 3785130.21363173937425 ], [ 400059.003051881969441, 3785129.908443540334702 ], [ 400059.003051881969441, 3785129.603255340829492 ], [ 400058.697863682580646, 3785129.298067141324282 ], [ 400058.697863682580646, 3785127.772126144263893 ], [ 400059.003051881969441, 3785127.466937945224345 ], [ 400063.580874872859567, 3785127.466937945224345 ], [ 400063.580874872859567, 3785128.992878941819072 ], [ 400063.886063072248362, 3785129.298067141324282 ], [ 400063.886063072248362, 3785129.603255340829492 ], [ 400064.191251271637157, 3785129.908443540334702 ], [ 400064.191251271637157, 3785131.739572736434639 ], [ 400063.886063072248362, 3785132.044760935939848 ], [ 400063.886063072248362, 3785132.349949135445058 ], [ 400062.970498474081978, 3785133.265513733495027 ], [ 400062.665310274693184, 3785133.265513733495027 ], [ 400062.360122075304389, 3785133.570701933000237 ], [ 400062.054933875915594, 3785133.570701933000237 ], [ 400061.7497456765268, 3785133.875890132039785 ], [ 400060.834181078360416, 3785133.875890132039785 ] ] ] } },
{ "type": "Feature", "properties": { "confidence": 0.43356135487556458, "class": 1 }, "geometry": { "type": "Polygon", "coordinates": [ [ [ 400016.276703967421781, 3785297.761953204404563 ], [ 400015.971515768032987, 3785297.456765004899353 ], [ 400015.055951169866603, 3785297.456765004899353 ], [ 400015.055951169866603, 3785295.625635808799416 ], [ 400016.276703967421781, 3785294.404883011244237 ], [ 400018.413021363201551, 3785294.404883011244237 ], [ 400019.02339776197914, 3785295.015259409788996 ], [ 400019.02339776197914, 3785297.456765004899353 ], [ 400018.413021363201551, 3785297.456765004899353 ], [ 400018.107833163812757, 3785297.761953204404563 ], [ 400016.276703967421781, 3785297.761953204404563 ] ] ] } },
{ "type": "Feature", "properties": { "confidence": 0.408092200756073, "class": 1 }, "geometry": { "type": "Polygon", "coordinates": [ [ [ 399881.993896236002911, 3785056.663275686558336 ], [ 399881.993896236002911, 3785055.747711088508368 ], [ 399881.688708036614116, 3785055.442522889003158 ], [ 399881.688708036614116, 3785054.832146490458399 ], [ 399881.993896236002911, 3785054.526958290953189 ], [ 399881.993896236002911, 3785054.221770091447979 ], [ 399882.6042726347805, 3785053.611393692903221 ], [ 399882.909460834169295, 3785053.611393692903221 ], [ 399883.214649033558089, 3785053.306205493398011 ], [ 399883.825025432335678, 3785053.306205493398011 ], [ 399884.435401831113268, 3785052.695829094387591 ], [ 399885.045778229890857, 3785052.695829094387591 ], [ 399885.350966429279651, 3785052.390640895348042 ], [ 399885.656154628668446, 3785052.390640895348042 ], [ 399885.961342828057241, 3785052.085452695842832 ], [ 399887.182095625612419, 3785052.085452695842832 ], [ 399887.487283825001214, 3785052.390640895348042 ], [ 399887.487283825001214, 3785053.001017293892801 ], [ 399886.876907426223624, 3785053.611393692903221 ], [ 399886.876907426223624, 3785053.916581891942769 ], [ 399886.266531027446035, 3785054.526958290953189 ], [ 399885.961342828057241, 3785054.526958290953189 ], [ 399885.656154628668446, 3785054.832146490458399 ], [ 399885.350966429279651, 3785054.832146490458399 ], [ 399885.045778229890857, 3785055.137334689497948 ], [ 399884.740590030502062, 3785055.137334689497948 ], [ 399884.435401831113268, 3785055.442522889003158 ], [ 399884.130213631724473, 3785055.442522889003158 ], [ 399883.825025432335678, 3785055.747711088508368 ], [ 399883.519837232946884, 3785055.747711088508368 ], [ 399882.6042726347805, 3785056.663275686558336 ], [ 399881.993896236002911, 3785056.663275686558336 ] ] ] } },
{ "type": "Feature", "properties": { "confidence": 0.3780205249786377, "class": 1 }, "geometry": { "type": "Polygon", "coordinates": [ [ [ 400068.158697863691486, 3785129.908443540334702 ], [ 400068.158697863691486, 3785129.298067141324282 ], [ 400067.853509664302692, 3785128.992878941819072 ], [ 400067.853509664302692, 3785126.856561546213925 ], [ 400076.703967446577735, 3785126.856561546213925 ], [ 400076.703967446577735, 3785127.161749745719135 ], [ 400076.093591047800146, 3785127.772126144263893 ], [ 400075.788402848411351, 3785127.772126144263893 ], [ 400075.483214649022557, 3785128.077314343769103 ], [ 400075.178026449633762, 3785128.077314343769103 ], [ 400074.872838250244968, 3785128.382502543274313 ], [ 400073.957273652078584, 3785128.382502543274313 ], [ 400073.957273652078584, 3785127.466937945224345 ], [ 400073.652085452689789, 3785127.161749745719135 ], [ 400072.736520854523405, 3785127.161749745719135 ], [ 400072.431332655134611, 3785127.466937945224345 ], [ 400072.431332655134611, 3785127.772126144263893 ], [ 400072.126144455745816, 3785128.077314343769103 ], [ 400072.126144455745816, 3785128.382502543274313 ], [ 400071.820956256357022, 3785128.687690742779523 ], [ 400071.820956256357022, 3785128.992878941819072 ], [ 400071.515768056968227, 3785129.298067141324282 ], [ 400071.210579857579432, 3785129.298067141324282 ], [ 400070.905391658190638, 3785129.603255340829492 ], [ 400070.295015259413049, 3785129.603255340829492 ], [ 400069.989827060024254, 3785129.908443540334702 ], [ 400068.158697863691486, 3785129.908443540334702 ] ] ] } },
{ "type": "Feature", "properties": { "confidence": 0.37567245960235596, "class": 1 }, "geometry": { "type": "Polygon", "coordinates": [ [ [ 400067.243133265525103, 3785046.897253306116909 ], [ 400066.022380467969924, 3785045.67650050856173 ], [ 400065.71719226858113, 3785045.67650050856173 ], [ 400065.71719226858113, 3785045.37131230905652 ], [ 400065.10681586980354, 3785044.760935910511762 ], [ 400065.10681586980354, 3785044.455747711006552 ], [ 400064.801627670414746, 3785044.150559511501342 ], [ 400064.801627670414746, 3785043.540183112956583 ], [ 400064.496439471025951, 3785043.234994913451374 ], [ 400064.496439471025951, 3785042.624618514906615 ], [ 400064.191251271637157, 3785042.319430315401405 ], [ 400064.191251271637157, 3785041.709053916390985 ], [ 400064.496439471025951, 3785041.403865717351437 ], [ 400064.496439471025951, 3785041.098677517846227 ], [ 400065.412004069192335, 3785040.183112919796258 ], [ 400067.548321464913897, 3785040.183112919796258 ], [ 400067.853509664302692, 3785040.488301118835807 ], [ 400068.463886063080281, 3785040.488301118835807 ], [ 400068.463886063080281, 3785040.793489318341017 ], [ 400068.769074262469076, 3785041.098677517846227 ], [ 400069.07426246185787, 3785041.098677517846227 ], [ 400069.379450661246665, 3785041.403865717351437 ], [ 400069.379450661246665, 3785042.014242115896195 ], [ 400069.684638860635459, 3785042.319430315401405 ], [ 400069.684638860635459, 3785045.37131230905652 ], [ 400069.379450661246665, 3785045.67650050856173 ], [ 400069.379450661246665, 3785046.28687690757215 ], [ 400069.07426246185787, 3785046.28687690757215 ], [ 400068.463886063080281, 3785046.897253306116909 ], [ 400067.243133265525103, 3785046.897253306116909 ] ] ] } },
{ "type": "Feature", "properties": { "confidence": 0.36107105016708374, "class": 1 }, "geometry": { "type": "Polygon", "coordinates": [ [ [ 399680.8748728382634, 3785364.292980671394616 ], [ 399680.569684638874605, 3785363.987792471889406 ], [ 399679.654120040708221, 3785363.987792471889406 ], [ 399679.348931841319427, 3785363.682604272849858 ], [ 399679.043743641930632, 3785363.682604272849858 ], [ 399678.433367243153043, 3785363.072227873839438 ], [ 399678.433367243153043, 3785362.461851475294679 ], [ 399677.822990844375454, 3785361.85147507628426 ], [ 399677.822990844375454, 3785360.630722278729081 ], [ 399677.517802644986659, 3785360.325534079223871 ], [ 399677.517802644986659, 3785359.715157680679113 ], [ 399677.822990844375454, 3785359.409969481173903 ], [ 399677.822990844375454, 3785359.104781281668693 ], [ 399678.128179043764248, 3785359.104781281668693 ], [ 399679.348931841319427, 3785357.884028484113514 ], [ 399679.654120040708221, 3785357.884028484113514 ], [ 399679.959308240097016, 3785357.578840285073966 ], [ 399681.180061037652194, 3785357.578840285073966 ], [ 399681.790437436429784, 3785358.189216683618724 ], [ 399682.095625635818578, 3785358.189216683618724 ], [ 399683.316378433373757, 3785359.409969481173903 ], [ 399683.316378433373757, 3785360.020345880184323 ], [ 399683.621566632762551, 3785360.325534079223871 ], [ 399683.621566632762551, 3785362.767039674334228 ], [ 399683.011190233984962, 3785363.377416073344648 ], [ 399683.011190233984962, 3785363.682604272849858 ], [ 399682.706002034596168, 3785363.987792471889406 ], [ 399681.790437436429784, 3785363.987792471889406 ], [ 399681.485249237040989, 3785364.292980671394616 ], [ 399680.8748728382634, 3785364.292980671394616 ] ] ] } },
{ "type": "Feature", "properties": { "confidence": 0.34580370783805847, "class": 1 }, "geometry": { "type": "Polygon", "coordinates": [ [ [ 399868.870803662284743, 3784970.600203458685428 ], [ 399868.565615462895948, 3784970.295015259180218 ], [ 399867.955239064118359, 3784970.295015259180218 ], [ 399867.650050864671357, 3784969.989827060140669 ], [ 399867.650050864671357, 3784969.684638860635459 ], [ 399867.344862665282562, 3784969.37945066113025 ], [ 399867.344862665282562, 3784969.07426246162504 ], [ 399866.734486266504973, 3784968.463886063080281 ], [ 399866.734486266504973, 3784968.158697863575071 ], [ 399866.429298067116179, 3784967.853509664069861 ], [ 399866.429298067116179, 3784967.548321465030313 ], [ 399866.124109867727384, 3784967.243133265525103 ], [ 399866.124109867727384, 3784966.327568667475134 ], [ 399865.818921668338589, 3784966.022380467969924 ], [ 399865.818921668338589, 3784964.496439470909536 ], [ 399866.124109867727384, 3784964.191251271404326 ], [ 399866.429298067116179, 3784964.191251271404326 ], [ 399866.734486266504973, 3784963.886063072364777 ], [ 399867.039674465893768, 3784963.886063072364777 ], [ 399867.344862665282562, 3784963.580874872859567 ], [ 399867.650050864671357, 3784963.580874872859567 ], [ 399867.955239064118359, 3784963.886063072364777 ], [ 399868.260427263507154, 3784963.886063072364777 ], [ 399868.565615462895948, 3784964.191251271404326 ], [ 399868.565615462895948, 3784964.801627670414746 ], [ 399868.870803662284743, 3784965.106815869919956 ], [ 399868.870803662284743, 3784966.022380467969924 ], [ 399869.175991861673538, 3784966.327568667475134 ], [ 399869.175991861673538, 3784966.937945066019893 ], [ 399869.481180061062332, 3784967.243133265525103 ], [ 399869.481180061062332, 3784967.853509664069861 ], [ 399869.786368260451127, 3784968.158697863575071 ], [ 399869.786368260451127, 3784969.989827060140669 ], [ 399869.175991861673538, 3784970.600203458685428 ], [ 399868.870803662284743, 3784970.600203458685428 ] ] ] } },
{ "type": "Feature", "properties": { "confidence": 0.28022724390029907, "class": 1 }, "geometry": { "type": "Polygon", "coordinates": [ [ [ 399973.855544252262916, 3785017.293997965287417 ], [ 399973.855544252262916, 3785016.378433367237449 ], [ 399974.160732451651711, 3785016.073245167732239 ], [ 399974.160732451651711, 3785015.15768056968227 ], [ 399974.7711088504293, 3785014.547304171137512 ], [ 399974.7711088504293, 3785014.242115971632302 ], [ 399975.076297049876302, 3785014.242115971632302 ], [ 399975.991861648042686, 3785013.326551373116672 ], [ 399976.90742624620907, 3785013.326551373116672 ], [ 399977.212614445597865, 3785013.021363174077123 ], [ 399977.517802644986659, 3785013.021363174077123 ], [ 399978.128179043764248, 3785012.410986775066704 ], [ 399978.433367243153043, 3785012.410986775066704 ], [ 399978.738555442541838, 3785012.105798575561494 ], [ 399979.043743641930632, 3785012.410986775066704 ], [ 399979.959308240097016, 3785012.410986775066704 ], [ 399980.264496439485811, 3785012.716174974571913 ], [ 399980.264496439485811, 3785013.631739572621882 ], [ 399979.654120040708221, 3785014.242115971632302 ], [ 399979.348931841319427, 3785014.242115971632302 ], [ 399978.433367243153043, 3785015.15768056968227 ], [ 399978.128179043764248, 3785015.15768056968227 ], [ 399977.517802644986659, 3785015.76805696869269 ], [ 399977.212614445597865, 3785015.76805696869269 ], [ 399976.90742624620907, 3785016.073245167732239 ], [ 399976.602238046820275, 3785016.073245167732239 ], [ 399975.686673448653892, 3785016.988809766247869 ], [ 399975.076297049876302, 3785016.988809766247869 ], [ 399974.7711088504293, 3785017.293997965287417 ], [ 399973.855544252262916, 3785017.293997965287417 ] ] ] } },
{ "type": "Feature", "properties": { "confidence": 0.26014965772628784, "class": 1 }, "geometry": { "type": "Polygon", "coordinates": [ [ [ 399978.738555442541838, 3785386.876907426398247 ], [ 399978.433367243153043, 3785386.571719226893038 ], [ 399978.128179043764248, 3785386.571719226893038 ], [ 399977.822990844375454, 3785386.266531027387828 ], [ 399977.822990844375454, 3785385.350966429337859 ], [ 399977.517802644986659, 3785385.045778229832649 ], [ 399977.517802644986659, 3785384.130213631782681 ], [ 399977.212614445597865, 3785383.825025432277471 ], [ 399977.212614445597865, 3785382.604272634722292 ], [ 399976.90742624620907, 3785382.299084435217083 ], [ 399976.90742624620907, 3785380.162767039611936 ], [ 399977.212614445597865, 3785379.857578840106726 ], [ 399979.959308240097016, 3785379.857578840106726 ], [ 399980.264496439485811, 3785380.162767039611936 ], [ 399980.569684638874605, 3785380.162767039611936 ], [ 399980.569684638874605, 3785380.467955239117146 ], [ 399980.8748728382634, 3785380.773143438622355 ], [ 399980.8748728382634, 3785381.078331637661904 ], [ 399981.485249237040989, 3785381.688708036672324 ], [ 399982.095625635818578, 3785381.688708036672324 ], [ 399982.400813835207373, 3785381.993896236177534 ], [ 399982.706002034596168, 3785381.993896236177534 ], [ 399983.011190233984962, 3785382.299084435217083 ], [ 399983.316378433373757, 3785382.299084435217083 ], [ 399983.621566632762551, 3785382.604272634722292 ], [ 399983.926754832151346, 3785382.604272634722292 ], [ 399984.231943031540141, 3785382.909460834227502 ], [ 399984.84231943031773, 3785382.909460834227502 ], [ 399985.147507629706524, 3785383.214649033732712 ], [ 399985.147507629706524, 3785383.519837232772261 ], [ 399985.452695829095319, 3785383.825025432277471 ], [ 399985.452695829095319, 3785385.350966429337859 ], [ 399984.537131230928935, 3785386.266531027387828 ], [ 399984.231943031540141, 3785386.266531027387828 ], [ 399983.926754832151346, 3785386.571719226893038 ], [ 399980.8748728382634, 3785386.571719226893038 ], [ 399980.569684638874605, 3785386.876907426398247 ], [ 399978.738555442541838, 3785386.876907426398247 ] ] ] } }
]
}
