{
"type": "FeatureCollection",
"name": "cell_00459_pre",
"crs": { "type": "name", "properties": { "name": "urn:ogc:def:crs:EPSG::32611" } },
"features": [
{ "type": "Feature", "properties": { "confidence": 0.89032268524169922, "class": 1 }, "geometry": { "type": "Polygon", "coordinates": [ [ [ 400521.057985757885035, 3783448.931841302197427 ], [ 400520.752797558496241, 3783448.626653102692217 ], [ 400520.142421159718651, 3783448.626653102692217 ], [ 400519.837232960329857, 3783448.321464903187007 ], [ 400519.837232960329857, 3783448.016276704147458 ], [ 400519.532044760941062, 3783447.711088504642248 ], [ 400519.532044760941062, 3783446.79552390659228 ], [ 400519.226856561552268, 3783446.49033570708707 ], [ 400519.226856561552268, 3783446.18514750758186 ], [ 400518.921668362163473, 3783445.87995930807665 ], [ 400518.921668362163473, 3783445.574771109037101 ], [ 400518.616480162774678, 3783445.269582909531891 ], [ 400518.616480162774678, 3783444.964394710026681 ], [ 400518.311291963385884, 3783444.659206510521472 ], [ 400525.635808748716954, 3783444.659206510521472 ], [ 400525.635808748716954, 3783444.964394710026681 ], [ 400525.33062054932816, 3783445.269582909531891 ], [ 400525.33062054932816, 3783446.18514750758186 ], [ 400523.194303153606597, 3783448.321464903187007 ], [ 400522.889114954217803, 3783448.321464903187007 ], [ 400522.583926754829008, 3783448.626653102692217 ], [ 400521.36317395727383, 3783448.626653102692217 ], [ 400521.057985757885035, 3783448.931841302197427 ] ] ] } },
{ "type": "Feature", "properties": { "confidence": 0.84462356567382812, "class": 1 }, "geometry": { "type": "Polygon", "coordinates": [ [ [ 400532.349949135328643, 3783370.498474059160799 ], [ 400532.044760935881641, 3783370.193285859655589 ], [ 400531.739572736492846, 3783370.193285859655589 ], [ 400530.518819938937668, 3783368.97253306210041 ], [ 400530.518819938937668, 3783367.751780264545232 ], [ 400530.824008138326462, 3783367.751780264545232 ], [ 400531.434384537104052, 3783367.141403865534812 ], [ 400531.739572736492846, 3783367.141403865534812 ], [ 400532.044760935881641, 3783366.836215666495264 ], [ 400532.349949135328643, 3783366.836215666495264 ], [ 400532.655137334717438, 3783366.531027466990054 ], [ 400533.265513733495027, 3783366.531027466990054 ], [ 400533.570701932883821, 3783366.225839267484844 ], [ 400534.181078331661411, 3783366.225839267484844 ], [ 400534.486266531050205, 3783366.531027466990054 ], [ 400535.401831129216589, 3783366.531027466990054 ], [ 400535.707019328605384, 3783366.836215666495264 ], [ 400536.012207527994178, 3783366.836215666495264 ], [ 400536.317395727382973, 3783367.141403865534812 ], [ 400536.927772126160562, 3783367.141403865534812 ], [ 400536.927772126160562, 3783367.446592065040022 ], [ 400537.232960325549357, 3783367.751780264545232 ], [ 400537.232960325549357, 3783368.667344862595201 ], [ 400536.927772126160562, 3783368.97253306210041 ], [ 400536.622583926771767, 3783368.97253306210041 ], [ 400536.317395727382973, 3783369.27772126160562 ], [ 400535.707019328605384, 3783369.27772126160562 ], [ 400535.401831129216589, 3783369.582909460645169 ], [ 400535.096642929827794, 3783369.582909460645169 ], [ 400534.791454730439, 3783369.888097660150379 ], [ 400534.486266531050205, 3783369.888097660150379 ], [ 400534.181078331661411, 3783370.193285859655589 ], [ 400533.875890132272616, 3783370.193285859655589 ], [ 400533.570701932883821, 3783370.498474059160799 ], [ 400532.349949135328643, 3783370.498474059160799 ] ] ] } },
{ "type": "Feature", "properties": { "confidence": 0.83502101898193359, "class": 1 }, "geometry": { "type": "Polygon", "coordinates": [ [ [ 400690.132248219742905, 3783144.659206510521472 ], [ 400690.132248219742905, 3783142.828077314421535 ], [ 400690.4374364191317, 3783142.522889114916325 ], [ 400690.4374364191317, 3783142.217700915411115 ], [ 400690.742624618520495, 3783141.912512716371566 ], [ 400690.742624618520495, 3783140.996948117855936 ], [ 400691.658189216686878, 3783140.081383519805968 ], [ 400691.658189216686878, 3783139.471007121261209 ], [ 400691.963377416075673, 3783139.165818921755999 ], [ 400691.963377416075673, 3783137.334689725190401 ], [ 400692.268565615464468, 3783137.029501526150852 ], [ 400692.268565615464468, 3783133.672431332524866 ], [ 400692.878942014242057, 3783133.062054933980107 ], [ 400692.878942014242057, 3783131.841302136424929 ], [ 400693.489318413019646, 3783131.230925737414509 ], [ 400693.489318413019646, 3783130.92573753837496 ], [ 400695.930824008130003, 3783128.484231942798942 ], [ 400695.930824008130003, 3783128.179043743759394 ], [ 400696.541200406907592, 3783128.179043743759394 ], [ 400696.846388606296387, 3783127.873855544254184 ], [ 400697.151576805685181, 3783127.873855544254184 ], [ 400697.456765005073976, 3783128.179043743759394 ], [ 400698.067141403851565, 3783128.179043743759394 ], [ 400698.37232960324036, 3783128.484231942798942 ], [ 400698.37232960324036, 3783128.789420142304152 ], [ 400698.982706002017949, 3783129.399796541314572 ], [ 400698.677517802629154, 3783129.704984740819782 ], [ 400698.677517802629154, 3783137.639877924695611 ], [ 400698.982706002017949, 3783137.945066124200821 ], [ 400698.982706002017949, 3783140.081383519805968 ], [ 400698.677517802629154, 3783140.386571719311178 ], [ 400698.677517802629154, 3783140.691759918816388 ], [ 400698.37232960324036, 3783140.996948117855936 ], [ 400698.37232960324036, 3783141.302136317361146 ], [ 400697.76195320446277, 3783141.912512716371566 ], [ 400697.456765005073976, 3783141.912512716371566 ], [ 400696.846388606296387, 3783142.522889114916325 ], [ 400696.541200406907592, 3783142.522889114916325 ], [ 400695.930824008130003, 3783143.133265513926744 ], [ 400695.320447609352414, 3783143.133265513926744 ], [ 400694.710071210574824, 3783143.743641912471503 ], [ 400694.099694811797235, 3783143.743641912471503 ], [ 400693.794506612408441, 3783144.048830111976713 ], [ 400693.489318413019646, 3783144.048830111976713 ], [ 400693.184130213630851, 3783144.354018311481923 ], [ 400692.268565615464468, 3783144.354018311481923 ], [ 400691.963377416075673, 3783144.659206510521472 ], [ 400690.132248219742905, 3783144.659206510521472 ] ] ] } },
{ "type": "Feature", "properties": { "confidence": 0.71078282594680786, "class": 1 }, "geometry": { "type": "Polygon", "coordinates": [ [ [ 400677.619532044744119, 3783129.704984740819782 ], [ 400677.619532044744119, 3783129.399796541314572 ], [ 400677.314343845355324, 3783129.094608341809362 ], [ 400677.314343845355324, 3783128.179043743759394 ], [ 400677.619532044744119, 3783127.873855544254184 ], [ 400677.619532044744119, 3783127.263479145243764 ], [ 400677.924720244132914, 3783126.958290946204215 ], [ 400678.229908443521708, 3783126.958290946204215 ], [ 400678.535096642910503, 3783126.653102746699005 ], [ 400678.840284842299297, 3783126.653102746699005 ], [ 400679.145473041688092, 3783126.347914547193795 ], [ 400681.586978636798449, 3783126.347914547193795 ], [ 400681.892166836187243, 3783126.653102746699005 ], [ 400681.892166836187243, 3783126.958290946204215 ], [ 400680.97660223802086, 3783127.873855544254184 ], [ 400680.97660223802086, 3783128.179043743759394 ], [ 400679.755849440465681, 3783129.399796541314572 ], [ 400679.450661241076887, 3783129.399796541314572 ], [ 400679.145473041688092, 3783129.704984740819782 ], [ 400677.619532044744119, 3783129.704984740819782 ] ] ] } },
{ "type": "Feature", "properties": { "confidence": 0.71038645505905151, "class": 1 }, "geometry": { "type": "Polygon", "coordinates": [ [ [ 400557.680569684656803, 3783507.52797558484599 ], [ 400557.375381485268008, 3783507.22278738534078 ], [ 400556.459816887101624, 3783507.22278738534078 ], [ 400556.15462868771283, 3783506.917599186301231 ], [ 400555.849440488324035, 3783506.917599186301231 ], [ 400555.849440488324035, 3783506.307222787290812 ], [ 400555.54425228893524, 3783506.002034587785602 ], [ 400555.54425228893524, 3783505.391658189240843 ], [ 400555.849440488324035, 3783505.086469989735633 ], [ 400555.849440488324035, 3783504.781281790230423 ], [ 400556.15462868771283, 3783504.781281790230423 ], [ 400556.765005086490419, 3783504.170905391685665 ], [ 400557.070193285879213, 3783504.170905391685665 ], [ 400557.985757884045597, 3783503.255340793635696 ], [ 400558.290946083434392, 3783503.255340793635696 ], [ 400558.901322482211981, 3783502.644964394625276 ], [ 400559.206510681600776, 3783502.644964394625276 ], [ 400559.51169888098957, 3783502.339776195120066 ], [ 400562.868769074266311, 3783502.339776195120066 ], [ 400563.173957273655105, 3783502.644964394625276 ], [ 400563.173957273655105, 3783504.476093591190875 ], [ 400562.868769074266311, 3783504.781281790230423 ], [ 400562.868769074266311, 3783506.307222787290812 ], [ 400561.953204476099927, 3783507.22278738534078 ], [ 400561.342828077322338, 3783507.22278738534078 ], [ 400561.037639877933543, 3783507.52797558484599 ], [ 400557.680569684656803, 3783507.52797558484599 ] ] ] } },
{ "type": "Feature", "properties": { "confidence": 0.6950792670249939, "class": 1 }, "geometry": { "type": "Polygon", "coordinates": [ [ [ 400774.364191251283046, 3783120.549338758923113 ], [ 400774.059003051894251, 3783120.244150559417903 ], [ 400772.838250254339073, 3783120.244150559417903 ], [ 400772.533062054950278, 3783119.938962359912694 ], [ 400772.227873855561484, 3783119.938962359912694 ], [ 400772.227873855561484, 3783119.633774160873145 ], [ 400771.922685656172689, 3783119.328585961367935 ], [ 400771.922685656172689, 3783117.497456764802337 ], [ 400772.227873855561484, 3783117.192268565762788 ], [ 400772.227873855561484, 3783116.276703967247158 ], [ 400772.533062054950278, 3783115.97151576820761 ], [ 400772.533062054950278, 3783115.6663275687024 ], [ 400772.838250254339073, 3783115.36113936919719 ], [ 400772.838250254339073, 3783114.445574771147221 ], [ 400774.974567650060635, 3783112.309257375542074 ], [ 400777.416073245170992, 3783112.309257375542074 ], [ 400777.721261444559786, 3783112.614445574581623 ], [ 400777.721261444559786, 3783115.6663275687024 ], [ 400778.026449643948581, 3783115.97151576820761 ], [ 400778.026449643948581, 3783116.276703967247158 ], [ 400778.331637843337376, 3783116.581892166752368 ], [ 400778.331637843337376, 3783117.192268565762788 ], [ 400778.63682604272617, 3783117.497456764802337 ], [ 400778.63682604272617, 3783118.718209562357515 ], [ 400778.331637843337376, 3783119.023397761862725 ], [ 400778.026449643948581, 3783119.023397761862725 ], [ 400777.721261444559786, 3783119.328585961367935 ], [ 400777.416073245170992, 3783119.328585961367935 ], [ 400777.110885045782197, 3783119.633774160873145 ], [ 400776.805696846393403, 3783119.633774160873145 ], [ 400775.890132248227019, 3783120.549338758923113 ], [ 400774.364191251283046, 3783120.549338758923113 ] ] ] } },
{ "type": "Feature", "properties": { "confidence": 0.63735896348953247, "class": 1 }, "geometry": { "type": "Polygon", "coordinates": [ [ [ 400353.509664292971138, 3783051.881993896327913 ], [ 400352.899287894193549, 3783051.271617497317493 ], [ 400352.899287894193549, 3783050.050864699762315 ], [ 400352.594099694804754, 3783049.745676500722766 ], [ 400352.594099694804754, 3783047.914547304157168 ], [ 400352.899287894193549, 3783047.609359104651958 ], [ 400352.899287894193549, 3783046.998982706107199 ], [ 400353.204476093582343, 3783046.693794506601989 ], [ 400353.509664292971138, 3783046.693794506601989 ], [ 400353.814852492359933, 3783046.388606307096779 ], [ 400354.120040691748727, 3783046.388606307096779 ], [ 400354.425228891137522, 3783046.083418108057231 ], [ 400355.951169888081495, 3783046.083418108057231 ], [ 400355.951169888081495, 3783051.576805696822703 ], [ 400355.6459816886927, 3783051.576805696822703 ], [ 400355.340793489303906, 3783051.881993896327913 ], [ 400353.509664292971138, 3783051.881993896327913 ] ] ] } },
{ "type": "Feature", "properties": { "confidence": 0.61868327856063843, "class": 1 }, "geometry": { "type": "Polygon", "coordinates": [ [ [ 400352.899287894193549, 3783097.965412003919482 ], [ 400352.594099694804754, 3783097.660223804879934 ], [ 400352.594099694804754, 3783097.355035605374724 ], [ 400352.28891149541596, 3783097.049847405869514 ], [ 400352.28891149541596, 3783095.523906408809125 ], [ 400351.983723296027165, 3783095.218718209769577 ], [ 400351.983723296027165, 3783093.997965412214398 ], [ 400351.67853509663837, 3783093.692777212709188 ], [ 400351.67853509663837, 3783092.47202441515401 ], [ 400355.951169888081495, 3783092.47202441515401 ], [ 400355.951169888081495, 3783097.355035605374724 ], [ 400354.425228891137522, 3783097.355035605374724 ], [ 400354.120040691748727, 3783097.660223804879934 ], [ 400353.509664292971138, 3783097.660223804879934 ], [ 400353.204476093582343, 3783097.965412003919482 ], [ 400352.899287894193549, 3783097.965412003919482 ] ] ] } },
{ "type": "Feature", "properties": { "confidence": 0.60155469179153442, "class": 1 }, "geometry": { "type": "Polygon", "coordinates": [ [ [ 400528.6876907426049, 3783453.50966429291293 ], [ 400528.382502543216106, 3783453.20447609340772 ], [ 400528.077314343827311, 3783453.20447609340772 ], [ 400528.077314343827311, 3783452.594099694862962 ], [ 400527.772126144438516, 3783452.288911495357752 ], [ 400527.772126144438516, 3783451.983723295852542 ], [ 400528.077314343827311, 3783451.678535096812993 ], [ 400528.077314343827311, 3783450.152594099752605 ], [ 400527.772126144438516, 3783449.847405900247395 ], [ 400527.772126144438516, 3783449.237029501702636 ], [ 400528.077314343827311, 3783448.931841302197427 ], [ 400528.077314343827311, 3783448.626653102692217 ], [ 400528.382502543216106, 3783448.321464903187007 ], [ 400528.382502543216106, 3783448.016276704147458 ], [ 400528.992878941993695, 3783447.405900305137038 ], [ 400528.992878941993695, 3783447.100712105631828 ], [ 400530.213631739548873, 3783445.87995930807665 ], [ 400530.213631739548873, 3783445.574771109037101 ], [ 400530.518819938937668, 3783445.574771109037101 ], [ 400531.129196337715257, 3783444.964394710026681 ], [ 400531.739572736492846, 3783444.964394710026681 ], [ 400532.044760935881641, 3783444.659206510521472 ], [ 400532.960325534106232, 3783444.659206510521472 ], [ 400533.265513733495027, 3783444.964394710026681 ], [ 400533.875890132272616, 3783444.964394710026681 ], [ 400533.875890132272616, 3783445.574771109037101 ], [ 400534.181078331661411, 3783445.87995930807665 ], [ 400534.181078331661411, 3783446.79552390659228 ], [ 400534.486266531050205, 3783447.100712105631828 ], [ 400534.791454730439, 3783447.100712105631828 ], [ 400535.401831129216589, 3783447.711088504642248 ], [ 400535.707019328605384, 3783447.711088504642248 ], [ 400536.317395727382973, 3783448.321464903187007 ], [ 400536.927772126160562, 3783448.321464903187007 ], [ 400536.927772126160562, 3783448.626653102692217 ], [ 400537.232960325549357, 3783448.931841302197427 ], [ 400537.232960325549357, 3783449.237029501702636 ], [ 400537.538148524938151, 3783449.542217700742185 ], [ 400537.232960325549357, 3783449.847405900247395 ], [ 400537.232960325549357, 3783450.152594099752605 ], [ 400536.012207527994178, 3783451.373346897307783 ], [ 400536.012207527994178, 3783451.678535096812993 ], [ 400535.096642929827794, 3783452.594099694862962 ], [ 400534.181078331661411, 3783452.594099694862962 ], [ 400533.875890132272616, 3783452.899287894368172 ], [ 400532.349949135328643, 3783452.899287894368172 ], [ 400532.044760935881641, 3783453.20447609340772 ], [ 400530.518819938937668, 3783453.20447609340772 ], [ 400530.213631739548873, 3783453.50966429291293 ], [ 400528.6876907426049, 3783453.50966429291293 ] ] ] } },
{ "type": "Feature", "properties": { "confidence": 0.59251320362091064, "class": 1 }, "geometry": { "type": "Polygon", "coordinates": [ [ [ 400651.373346897249576, 3783096.744659206364304 ], [ 400651.068158697860781, 3783096.439471007324755 ], [ 400650.762970498471987, 3783096.439471007324755 ], [ 400650.457782299083192, 3783096.134282807819545 ], [ 400650.457782299083192, 3783095.829094608314335 ], [ 400649.847405900305603, 3783095.218718209769577 ], [ 400649.847405900305603, 3783094.913530010264367 ], [ 400649.542217700916808, 3783094.608341810759157 ], [ 400649.542217700916808, 3783094.303153611253947 ], [ 400649.237029501528013, 3783093.997965412214398 ], [ 400649.237029501528013, 3783092.47202441515401 ], [ 400653.814852492359933, 3783092.47202441515401 ], [ 400653.814852492359933, 3783093.692777212709188 ], [ 400653.509664292971138, 3783093.997965412214398 ], [ 400653.509664292971138, 3783094.913530010264367 ], [ 400653.204476093582343, 3783095.218718209769577 ], [ 400653.204476093582343, 3783095.829094608314335 ], [ 400652.899287894193549, 3783096.134282807819545 ], [ 400652.899287894193549, 3783096.439471007324755 ], [ 400652.594099694804754, 3783096.439471007324755 ], [ 400652.28891149541596, 3783096.744659206364304 ], [ 400651.373346897249576, 3783096.744659206364304 ] ] ] } },
{ "type": "Feature", "properties": { "confidence": 0.56906062364578247, "class": 1 }, "geometry": { "type": "Polygon", "coordinates": [ [ [ 400553.713123092602473, 3783563.682604272849858 ], [ 400553.713123092602473, 3783563.377416073344648 ], [ 400553.40793489315547, 3783563.072227873839438 ], [ 400553.40793489315547, 3783560.020345880184323 ], [ 400553.102746693766676, 3783559.715157680679113 ], [ 400553.102746693766676, 3783557.578840285073966 ], [ 400553.40793489315547, 3783557.273652085568756 ], [ 400553.40793489315547, 3783556.663275686558336 ], [ 400554.628687690768857, 3783555.442522889003158 ], [ 400554.628687690768857, 3783555.137334689497948 ], [ 400555.239064089546446, 3783554.526958290953189 ], [ 400556.15462868771283, 3783554.526958290953189 ], [ 400556.459816887101624, 3783554.221770091447979 ], [ 400557.680569684656803, 3783554.221770091447979 ], [ 400557.985757884045597, 3783554.526958290953189 ], [ 400558.290946083434392, 3783554.526958290953189 ], [ 400558.290946083434392, 3783555.442522889003158 ], [ 400557.985757884045597, 3783555.747711088508368 ], [ 400557.985757884045597, 3783556.358087487053126 ], [ 400557.680569684656803, 3783556.663275686558336 ], [ 400557.680569684656803, 3783557.273652085568756 ], [ 400557.375381485268008, 3783557.578840285073966 ], [ 400557.375381485268008, 3783558.494404883123934 ], [ 400557.070193285879213, 3783558.799593082629144 ], [ 400557.070193285879213, 3783559.409969481173903 ], [ 400556.765005086490419, 3783559.715157680679113 ], [ 400556.765005086490419, 3783560.935910478234291 ], [ 400556.459816887101624, 3783561.241098677739501 ], [ 400556.459816887101624, 3783562.156663275789469 ], [ 400555.54425228893524, 3783563.072227873839438 ], [ 400555.239064089546446, 3783563.072227873839438 ], [ 400554.628687690768857, 3783563.682604272849858 ], [ 400553.713123092602473, 3783563.682604272849858 ] ] ] } },
{ "type": "Feature", "properties": { "confidence": 0.5463559627532959, "class": 1 }, "geometry": { "type": "Polygon", "coordinates": [ [ [ 400550.05086469987873, 3783568.565615463070571 ], [ 400549.745676500489935, 3783568.260427263565361 ], [ 400549.135300101712346, 3783568.260427263565361 ], [ 400548.830111902323551, 3783567.955239064060152 ], [ 400548.524923702934757, 3783567.955239064060152 ], [ 400547.304170905379578, 3783566.734486266504973 ], [ 400547.304170905379578, 3783566.429298066999763 ], [ 400546.388606307213195, 3783565.513733468949795 ], [ 400546.388606307213195, 3783564.903357070405036 ], [ 400546.0834181078244, 3783564.598168870899826 ], [ 400546.0834181078244, 3783563.682604272849858 ], [ 400546.388606307213195, 3783563.377416073344648 ], [ 400546.388606307213195, 3783563.072227873839438 ], [ 400546.693794506601989, 3783562.767039674334228 ], [ 400548.524923702934757, 3783562.767039674334228 ], [ 400549.745676500489935, 3783563.987792471889406 ], [ 400550.05086469987873, 3783563.987792471889406 ], [ 400551.271617497433908, 3783565.208545269444585 ], [ 400551.271617497433908, 3783566.429298066999763 ], [ 400551.576805696822703, 3783566.734486266504973 ], [ 400551.576805696822703, 3783567.955239064060152 ], [ 400551.271617497433908, 3783568.260427263565361 ], [ 400550.661241098656319, 3783568.260427263565361 ], [ 400550.356052899267524, 3783568.565615463070571 ], [ 400550.05086469987873, 3783568.565615463070571 ] ] ] } },
{ "type": "Feature", "properties": { "confidence": 0.52556204795837402, "class": 1 }, "geometry": { "type": "Polygon", "coordinates": [ [ [ 400453.9165818921756, 3783095.829094608314335 ], [ 400453.611393692786805, 3783095.523906408809125 ], [ 400453.611393692786805, 3783094.303153611253947 ], [ 400453.9165818921756, 3783093.997965412214398 ], [ 400453.9165818921756, 3783092.47202441515401 ], [ 400457.273652085452341, 3783092.47202441515401 ], [ 400457.273652085452341, 3783093.997965412214398 ], [ 400456.968463886063546, 3783094.303153611253947 ], [ 400456.968463886063546, 3783094.608341810759157 ], [ 400456.358087487285957, 3783095.218718209769577 ], [ 400455.747711088508368, 3783095.218718209769577 ], [ 400455.442522889119573, 3783095.523906408809125 ], [ 400454.832146490341984, 3783095.523906408809125 ], [ 400454.526958290953189, 3783095.829094608314335 ], [ 400453.9165818921756, 3783095.829094608314335 ] ] ] } },
{ "type": "Feature", "properties": { "confidence": 0.50808620452880859, "class": 1 }, "geometry": { "type": "Polygon", "coordinates": [ [ [ 400562.868769074266311, 3783526.754832146689296 ], [ 400562.258392675488722, 3783526.144455747678876 ], [ 400562.258392675488722, 3783525.839267548173666 ], [ 400561.953204476099927, 3783525.534079349134117 ], [ 400561.648016276711132, 3783525.534079349134117 ], [ 400561.342828077322338, 3783525.228891149628907 ], [ 400559.816887080378365, 3783525.228891149628907 ], [ 400559.206510681600776, 3783524.618514750618488 ], [ 400559.206510681600776, 3783524.313326551578939 ], [ 400558.596134282823186, 3783523.702950152568519 ], [ 400558.596134282823186, 3783523.397761953063309 ], [ 400557.985757884045597, 3783522.787385554518551 ], [ 400557.985757884045597, 3783520.345879959408194 ], [ 400558.290946083434392, 3783520.040691759902984 ], [ 400558.290946083434392, 3783519.735503560397774 ], [ 400558.596134282823186, 3783519.735503560397774 ], [ 400559.206510681600776, 3783519.125127161853015 ], [ 400562.258392675488722, 3783519.125127161853015 ], [ 400562.258392675488722, 3783519.430315361358225 ], [ 400562.563580874877516, 3783519.735503560397774 ], [ 400562.563580874877516, 3783520.040691759902984 ], [ 400562.868769074266311, 3783520.345879959408194 ], [ 400562.868769074266311, 3783520.651068158913404 ], [ 400563.4791454730439, 3783521.261444557458162 ], [ 400563.4791454730439, 3783521.871820956468582 ], [ 400564.699898270599078, 3783523.092573754023761 ], [ 400564.699898270599078, 3783523.702950152568519 ], [ 400565.005086469987873, 3783524.008138352073729 ], [ 400565.005086469987873, 3783524.923702950123698 ], [ 400565.310274669376668, 3783525.228891149628907 ], [ 400565.310274669376668, 3783525.534079349134117 ], [ 400565.005086469987873, 3783525.534079349134117 ], [ 400564.699898270599078, 3783525.839267548173666 ], [ 400564.699898270599078, 3783526.144455747678876 ], [ 400563.4791454730439, 3783526.144455747678876 ], [ 400563.173957273655105, 3783526.449643947184086 ], [ 400563.173957273655105, 3783526.754832146689296 ], [ 400562.868769074266311, 3783526.754832146689296 ] ] ] } },
{ "type": "Feature", "properties": { "confidence": 0.4056968092918396, "class": 1 }, "geometry": { "type": "Polygon", "coordinates": [ [ [ 400586.368260427261703, 3783530.111902339849621 ], [ 400586.063072227872908, 3783529.806714140344411 ], [ 400585.757884028484114, 3783529.806714140344411 ], [ 400585.452695829095319, 3783529.501525940839201 ], [ 400585.452695829095319, 3783524.923702950123698 ], [ 400585.757884028484114, 3783524.618514750618488 ], [ 400586.063072227872908, 3783524.618514750618488 ], [ 400586.368260427261703, 3783524.923702950123698 ], [ 400586.368260427261703, 3783525.228891149628907 ], [ 400586.673448626650497, 3783525.534079349134117 ], [ 400590.335707019316033, 3783525.534079349134117 ], [ 400590.335707019316033, 3783529.196337741799653 ], [ 400589.725330620538443, 3783529.196337741799653 ], [ 400589.420142421149649, 3783529.501525940839201 ], [ 400588.80976602237206, 3783529.501525940839201 ], [ 400588.504577822983265, 3783529.806714140344411 ], [ 400588.19938962359447, 3783529.806714140344411 ], [ 400587.894201424205676, 3783530.111902339849621 ], [ 400586.368260427261703, 3783530.111902339849621 ] ] ] } },
{ "type": "Feature", "properties": { "confidence": 0.3937528133392334, "class": 1 }, "geometry": { "type": "Polygon", "coordinates": [ [ [ 400387.690742624632549, 3783099.79654120048508 ], [ 400387.385554425243754, 3783099.491353000979871 ], [ 400387.080366225854959, 3783099.491353000979871 ], [ 400387.080366225854959, 3783098.575788402929902 ], [ 400387.385554425243754, 3783098.270600203424692 ], [ 400387.385554425243754, 3783096.439471007324755 ], [ 400387.080366225854959, 3783096.134282807819545 ], [ 400387.385554425243754, 3783095.829094608314335 ], [ 400387.385554425243754, 3783094.913530010264367 ], [ 400387.690742624632549, 3783094.608341810759157 ], [ 400387.690742624632549, 3783093.082400813698769 ], [ 400391.353001017298084, 3783093.082400813698769 ], [ 400391.353001017298084, 3783093.387589013203979 ], [ 400391.047812817909289, 3783093.692777212709188 ], [ 400391.047812817909289, 3783093.997965412214398 ], [ 400390.742624618520495, 3783094.303153611253947 ], [ 400390.742624618520495, 3783094.913530010264367 ], [ 400390.4374364191317, 3783095.218718209769577 ], [ 400390.4374364191317, 3783095.523906408809125 ], [ 400390.132248219742905, 3783095.829094608314335 ], [ 400390.132248219742905, 3783096.134282807819545 ], [ 400389.827060020354111, 3783096.439471007324755 ], [ 400389.827060020354111, 3783097.660223804879934 ], [ 400390.132248219742905, 3783097.965412003919482 ], [ 400390.132248219742905, 3783098.880976602435112 ], [ 400389.521871820965316, 3783099.491353000979871 ], [ 400387.995930824021343, 3783099.491353000979871 ], [ 400387.690742624632549, 3783099.79654120048508 ] ] ] } },
{ "type": "Feature", "properties": { "confidence": 0.36771947145462036, "class": 1 }, "geometry": { "type": "Polygon", "coordinates": [ [ [ 400768.870803662284743, 3783089.725330620538443 ], [ 400768.565615462895948, 3783089.420142421033233 ], [ 400768.260427263507154, 3783089.420142421033233 ], [ 400767.650050864671357, 3783088.809766022488475 ], [ 400767.650050864671357, 3783088.504577822983265 ], [ 400766.429298067116179, 3783087.283825025428087 ], [ 400766.429298067116179, 3783086.978636825922877 ], [ 400766.124109867727384, 3783086.673448626883328 ], [ 400766.124109867727384, 3783086.368260427378118 ], [ 400765.818921668338589, 3783086.063072227872908 ], [ 400765.818921668338589, 3783085.452695828862488 ], [ 400766.124109867727384, 3783085.14750762982294 ], [ 400766.124109867727384, 3783084.53713123081252 ], [ 400766.429298067116179, 3783084.23194303130731 ], [ 400766.429298067116179, 3783083.926754832267761 ], [ 400767.650050864671357, 3783083.926754832267761 ], [ 400767.955239064118359, 3783083.621566632762551 ], [ 400768.870803662284743, 3783083.621566632762551 ], [ 400769.175991861673538, 3783083.316378433257341 ], [ 400770.091556459839921, 3783083.316378433257341 ], [ 400770.396744659228716, 3783083.621566632762551 ], [ 400771.007121058006305, 3783083.621566632762551 ], [ 400771.3123092573951, 3783083.926754832267761 ], [ 400771.617497456783894, 3783083.926754832267761 ], [ 400772.227873855561484, 3783084.53713123081252 ], [ 400772.227873855561484, 3783086.063072227872908 ], [ 400770.701932858617511, 3783087.589013224933296 ], [ 400770.701932858617511, 3783087.894201424438506 ], [ 400770.396744659228716, 3783088.199389623478055 ], [ 400770.396744659228716, 3783089.114954221993685 ], [ 400770.091556459839921, 3783089.420142421033233 ], [ 400769.786368260451127, 3783089.420142421033233 ], [ 400769.481180061062332, 3783089.725330620538443 ], [ 400768.870803662284743, 3783089.725330620538443 ] ] ] } },
{ "type": "Feature", "properties": { "confidence": 0.33990970253944397, "class": 1 }, "geometry": { "type": "Polygon", "coordinates": [ [ [ 400346.185147507640067, 3783100.406917599029839 ], [ 400346.185147507640067, 3783100.10172939999029 ], [ 400345.879959308251273, 3783099.79654120048508 ], [ 400345.574771108862478, 3783099.79654120048508 ], [ 400345.574771108862478, 3783099.491353000979871 ], [ 400345.269582909473684, 3783099.186164801474661 ], [ 400344.964394710084889, 3783099.186164801474661 ], [ 400344.964394710084889, 3783098.880976602435112 ], [ 400344.659206510696094, 3783098.575788402929902 ], [ 400344.659206510696094, 3783097.965412003919482 ], [ 400344.3540183113073, 3783097.660223804879934 ], [ 400344.3540183113073, 3783097.049847405869514 ], [ 400344.048830111918505, 3783096.744659206364304 ], [ 400344.048830111918505, 3783095.829094608314335 ], [ 400343.743641912529711, 3783095.523906408809125 ], [ 400343.743641912529711, 3783094.913530010264367 ], [ 400343.438453713140916, 3783094.608341810759157 ], [ 400343.438453713140916, 3783093.997965412214398 ], [ 400343.743641912529711, 3783093.692777212709188 ], [ 400343.743641912529711, 3783093.387589013203979 ], [ 400344.048830111918505, 3783093.082400813698769 ], [ 400349.847405900305603, 3783093.082400813698769 ], [ 400349.847405900305603, 3783093.997965412214398 ], [ 400350.152594099694397, 3783094.303153611253947 ], [ 400350.152594099694397, 3783095.218718209769577 ], [ 400350.457782299083192, 3783095.523906408809125 ], [ 400350.457782299083192, 3783096.439471007324755 ], [ 400350.762970498471987, 3783096.744659206364304 ], [ 400350.762970498471987, 3783099.186164801474661 ], [ 400350.152594099694397, 3783099.79654120048508 ], [ 400349.847405900305603, 3783099.79654120048508 ], [ 400349.542217700916808, 3783100.10172939999029 ], [ 400348.931841302139219, 3783100.10172939999029 ], [ 400348.626653102750424, 3783100.406917599029839 ], [ 400346.185147507640067, 3783100.406917599029839 ] ] ] } },
{ "type": "Feature", "properties": { "confidence": 0.32877025008201599, "class": 1 }, "geometry": { "type": "Polygon", "coordinates": [ [ [ 400478.942014242114965, 3783240.488301118835807 ], [ 400478.63682604272617, 3783240.183112919796258 ], [ 400478.331637843337376, 3783240.183112919796258 ], [ 400478.026449643948581, 3783239.877924720291048 ], [ 400477.721261444559786, 3783239.877924720291048 ], [ 400477.110885045782197, 3783239.267548321280628 ], [ 400477.110885045782197, 3783238.65717192273587 ], [ 400476.805696846393403, 3783238.35198372323066 ], [ 400476.805696846393403, 3783238.04679552372545 ], [ 400476.500508647004608, 3783237.741607324685901 ], [ 400476.500508647004608, 3783237.436419125180691 ], [ 400476.195320447615813, 3783237.131230925675482 ], [ 400476.195320447615813, 3783236.826042726170272 ], [ 400475.584944048838224, 3783236.215666327625513 ], [ 400475.584944048838224, 3783235.910478128120303 ], [ 400475.27975584944943, 3783235.605289928615093 ], [ 400475.27975584944943, 3783235.300101729575545 ], [ 400474.974567650060635, 3783234.994913530070335 ], [ 400474.974567650060635, 3783234.384537131059915 ], [ 400474.66937945067184, 3783234.079348932020366 ], [ 400474.66937945067184, 3783233.468972533009946 ], [ 400474.974567650060635, 3783233.163784333504736 ], [ 400474.974567650060635, 3783232.553407934959978 ], [ 400475.584944048838224, 3783231.943031535949558 ], [ 400476.195320447615813, 3783231.943031535949558 ], [ 400476.500508647004608, 3783231.637843336910009 ], [ 400477.110885045782197, 3783231.637843336910009 ], [ 400477.416073245170992, 3783231.332655137404799 ], [ 400478.63682604272617, 3783231.332655137404799 ], [ 400478.942014242114965, 3783231.02746693789959 ], [ 400479.247202441503759, 3783231.332655137404799 ], [ 400479.552390640892554, 3783231.332655137404799 ], [ 400479.857578840281349, 3783231.637843336910009 ], [ 400480.467955239058938, 3783231.637843336910009 ], [ 400480.467955239058938, 3783232.248219735454768 ], [ 400481.993896236002911, 3783233.774160732515156 ], [ 400481.993896236002911, 3783234.994913530070335 ], [ 400482.299084435391705, 3783235.300101729575545 ], [ 400482.299084435391705, 3783237.131230925675482 ], [ 400482.6042726347805, 3783237.436419125180691 ], [ 400482.6042726347805, 3783237.741607324685901 ], [ 400482.299084435391705, 3783238.04679552372545 ], [ 400482.299084435391705, 3783239.877924720291048 ], [ 400481.688708036614116, 3783240.488301118835807 ], [ 400478.942014242114965, 3783240.488301118835807 ] ] ] } },
{ "type": "Feature", "properties": { "confidence": 0.32010462880134583, "class": 1 }, "geometry": { "type": "Polygon", "coordinates": [ [ [ 400784.740590030502062, 3783315.259409969672561 ], [ 400784.435401831113268, 3783314.954221770167351 ], [ 400784.130213631724473, 3783314.954221770167351 ], [ 400783.519837232946884, 3783314.343845371156931 ], [ 400783.214649033558089, 3783314.343845371156931 ], [ 400782.909460834169295, 3783314.038657172117382 ], [ 400782.909460834169295, 3783313.428280773106962 ], [ 400782.6042726347805, 3783313.123092573601753 ], [ 400782.6042726347805, 3783312.817904374562204 ], [ 400782.299084435391705, 3783312.512716175056994 ], [ 400782.299084435391705, 3783311.902339776046574 ], [ 400782.6042726347805, 3783311.597151577007025 ], [ 400785.350966429279651, 3783311.597151577007025 ], [ 400785.656154628668446, 3783311.291963377501816 ], [ 400786.57171922683483, 3783311.291963377501816 ], [ 400786.876907426223624, 3783310.986775177996606 ], [ 400787.182095625612419, 3783310.986775177996606 ], [ 400787.487283825001214, 3783310.681586978491396 ], [ 400787.487283825001214, 3783310.376398779451847 ], [ 400788.708036622556392, 3783310.376398779451847 ], [ 400789.013224821945187, 3783310.681586978491396 ], [ 400789.623601220780984, 3783310.681586978491396 ], [ 400790.233977619558573, 3783311.291963377501816 ], [ 400790.233977619558573, 3783312.817904374562204 ], [ 400789.928789420169778, 3783313.123092573601753 ], [ 400789.928789420169778, 3783313.733468972612172 ], [ 400789.318413021392189, 3783314.343845371156931 ], [ 400789.013224821945187, 3783314.343845371156931 ], [ 400788.708036622556392, 3783314.649033570662141 ], [ 400788.402848423167598, 3783314.649033570662141 ], [ 400788.097660223778803, 3783314.954221770167351 ], [ 400787.792472024390008, 3783314.954221770167351 ], [ 400787.487283825001214, 3783315.259409969672561 ], [ 400784.740590030502062, 3783315.259409969672561 ] ] ] } },
{ "type": "Feature", "properties": { "confidence": 0.31201809644699097, "class": 1 }, "geometry": { "type": "Polygon", "coordinates": [ [ [ 400787.182095625612419, 3783109.257375381421298 ], [ 400787.182095625612419, 3783108.646998982876539 ], [ 400787.487283825001214, 3783108.341810783371329 ], [ 400787.487283825001214, 3783107.426246185321361 ], [ 400787.182095625612419, 3783107.121057985816151 ], [ 400787.182095625612419, 3783106.510681586805731 ], [ 400786.876907426223624, 3783106.205493387766182 ], [ 400786.876907426223624, 3783105.900305188260972 ], [ 400786.57171922683483, 3783105.595116988755763 ], [ 400786.57171922683483, 3783104.374364191200584 ], [ 400786.876907426223624, 3783104.069175991695374 ], [ 400786.876907426223624, 3783103.763987792655826 ], [ 400787.182095625612419, 3783103.763987792655826 ], [ 400787.487283825001214, 3783103.458799593150616 ], [ 400788.097660223778803, 3783103.458799593150616 ], [ 400788.402848423167598, 3783103.153611393645406 ], [ 400789.928789420169778, 3783103.153611393645406 ], [ 400790.233977619558573, 3783103.458799593150616 ], [ 400790.233977619558573, 3783106.815869786310941 ], [ 400789.928789420169778, 3783107.121057985816151 ], [ 400789.928789420169778, 3783108.036622583866119 ], [ 400789.623601220780984, 3783108.341810783371329 ], [ 400789.318413021392189, 3783108.341810783371329 ], [ 400788.402848423167598, 3783109.257375381421298 ], [ 400787.182095625612419, 3783109.257375381421298 ] ] ] } },
{ "type": "Feature", "properties": { "confidence": 0.25732201337814331, "class": 1 }, "geometry": { "type": "Polygon", "coordinates": [ [ [ 400464.598168870783411, 3783213.631739572621882 ], [ 400464.292980671394616, 3783213.326551373116672 ], [ 400463.682604272617027, 3783213.326551373116672 ], [ 400463.377416073228233, 3783213.021363174077123 ], [ 400462.461851475061849, 3783213.021363174077123 ], [ 400461.85147507628426, 3783212.410986775066704 ], [ 400461.546286876895465, 3783212.410986775066704 ], [ 400461.546286876895465, 3783212.105798575561494 ], [ 400461.24109867750667, 3783211.800610376521945 ], [ 400461.24109867750667, 3783209.664292980451137 ], [ 400466.124109867727384, 3783209.664292980451137 ], [ 400466.124109867727384, 3783212.716174974571913 ], [ 400465.513733468949795, 3783213.326551373116672 ], [ 400465.208545269561, 3783213.326551373116672 ], [ 400464.903357070172206, 3783213.631739572621882 ], [ 400464.598168870783411, 3783213.631739572621882 ] ] ] } },
{ "type": "Feature", "properties": { "confidence": 0.25471672415733337, "class": 1 }, "geometry": { "type": "Polygon", "coordinates": [ [ [ 400704.781281790463254, 3783214.242115971632302 ], [ 400704.476093591074459, 3783213.936927772127092 ], [ 400703.86571719229687, 3783213.936927772127092 ], [ 400703.560528992908075, 3783213.631739572621882 ], [ 400702.950152594072279, 3783213.631739572621882 ], [ 400702.644964394683484, 3783213.326551373116672 ], [ 400702.339776195294689, 3783213.326551373116672 ], [ 400702.034587995905895, 3783213.021363174077123 ], [ 400701.119023397739511, 3783213.021363174077123 ], [ 400700.813835198350716, 3783212.716174974571913 ], [ 400699.898270600184333, 3783212.716174974571913 ], [ 400698.677517802629154, 3783211.495422177016735 ], [ 400698.37232960324036, 3783211.495422177016735 ], [ 400698.067141403851565, 3783211.190233977511525 ], [ 400697.76195320446277, 3783211.190233977511525 ], [ 400697.456765005073976, 3783210.885045778006315 ], [ 400697.151576805685181, 3783210.885045778006315 ], [ 400697.151576805685181, 3783209.664292980451137 ], [ 400706.612410986796021, 3783209.664292980451137 ], [ 400706.612410986796021, 3783210.885045778006315 ], [ 400706.307222787407227, 3783211.190233977511525 ], [ 400706.307222787407227, 3783211.495422177016735 ], [ 400706.002034588018432, 3783211.800610376521945 ], [ 400706.002034588018432, 3783213.631739572621882 ], [ 400706.307222787407227, 3783213.936927772127092 ], [ 400706.002034588018432, 3783214.242115971632302 ], [ 400704.781281790463254, 3783214.242115971632302 ] ] ] } }
]
}
