{
"type": "FeatureCollection",
"name": "cell_00155_pre",
"crs": { "type": "name", "properties": { "name": "urn:ogc:def:crs:EPSG::32611" } },
"features": [
{ "type": "Feature", "properties": { "confidence": 0.3659675121307373, "class": 1 }, "geometry": { "type": "Polygon", "coordinates": [ [ [ 355414.242115971515886, 3770247.405900305137038 ], [ 355413.936927772127092, 3770247.100712105631828 ], [ 355413.631739572738297, 3770247.100712105631828 ], [ 355412.716174974571913, 3770246.18514750758186 ], [ 355412.716174974571913, 3770245.574771109037101 ], [ 355412.410986775183119, 3770245.269582909531891 ], [ 355412.410986775183119, 3770244.048830111976713 ], [ 355418.514750762959011, 3770244.048830111976713 ], [ 355418.514750762959011, 3770244.964394710026681 ], [ 355418.209562563570216, 3770245.269582909531891 ], [ 355418.209562563570216, 3770245.574771109037101 ], [ 355417.599186164792627, 3770246.18514750758186 ], [ 355417.599186164792627, 3770246.49033570708707 ], [ 355417.293997965403832, 3770246.79552390659228 ], [ 355417.293997965403832, 3770247.100712105631828 ], [ 355416.988809766015038, 3770247.100712105631828 ], [ 355416.683621566626243, 3770247.405900305137038 ], [ 355414.242115971515886, 3770247.405900305137038 ] ] ] } },
{ "type": "Feature", "properties": { "confidence": 0.35442405939102173, "class": 1 }, "geometry": { "type": "Polygon", "coordinates": [ [ [ 355353.204476093582343, 3770013.326551373116672 ], [ 355352.899287894193549, 3770013.021363174077123 ], [ 355352.594099694804754, 3770013.021363174077123 ], [ 355352.28891149541596, 3770012.716174974571913 ], [ 355352.28891149541596, 3770012.410986775066704 ], [ 355351.373346897249576, 3770011.495422177016735 ], [ 355351.373346897249576, 3770010.579857578966767 ], [ 355351.068158697860781, 3770010.274669379461557 ], [ 355351.068158697860781, 3770009.664292980451137 ], [ 355355.340793489303906, 3770009.664292980451137 ], [ 355355.340793489303906, 3770011.800610376521945 ], [ 355355.035605289915111, 3770012.105798575561494 ], [ 355355.035605289915111, 3770012.716174974571913 ], [ 355354.730417090526316, 3770013.021363174077123 ], [ 355354.425228891137522, 3770013.021363174077123 ], [ 355354.120040691748727, 3770013.326551373116672 ], [ 355353.204476093582343, 3770013.326551373116672 ] ] ] } },
{ "type": "Feature", "properties": { "confidence": 0.34743261337280273, "class": 1 }, "geometry": { "type": "Polygon", "coordinates": [ [ [ 355693.184130213630851, 3770164.699898270424455 ], [ 355692.878942014242057, 3770164.394710071384907 ], [ 355692.878942014242057, 3770162.868769074324518 ], [ 355692.573753814853262, 3770162.563580874819309 ], [ 355692.573753814853262, 3770161.95320447627455 ], [ 355692.268565615464468, 3770161.64801627676934 ], [ 355692.268565615464468, 3770160.732451678719372 ], [ 355691.353001017298084, 3770159.816887080203742 ], [ 355691.353001017298084, 3770159.511698881164193 ], [ 355691.047812817909289, 3770159.206510681658983 ], [ 355691.047812817909289, 3770158.901322482153773 ], [ 355690.742624618520495, 3770158.596134282648563 ], [ 355691.047812817909289, 3770158.290946083609015 ], [ 355691.047812817909289, 3770157.985757884103805 ], [ 355691.353001017298084, 3770157.985757884103805 ], [ 355691.658189216686878, 3770157.680569684598595 ], [ 355691.963377416075673, 3770157.680569684598595 ], [ 355692.268565615464468, 3770157.375381485093385 ], [ 355694.099694811797235, 3770157.375381485093385 ], [ 355696.236012207518797, 3770159.511698881164193 ], [ 355696.236012207518797, 3770160.122075279708952 ], [ 355696.846388606296387, 3770160.732451678719372 ], [ 355696.846388606296387, 3770161.03763987775892 ], [ 355697.151576805685181, 3770161.34282807726413 ], [ 355697.151576805685181, 3770162.258392675314099 ], [ 355697.456765005073976, 3770162.563580874819309 ], [ 355697.456765005073976, 3770162.868769074324518 ], [ 355697.151576805685181, 3770163.173957273829728 ], [ 355697.151576805685181, 3770163.479145472869277 ], [ 355696.846388606296387, 3770163.784333672374487 ], [ 355696.846388606296387, 3770164.089521871879697 ], [ 355696.236012207518797, 3770164.089521871879697 ], [ 355695.625635808741208, 3770164.699898270424455 ], [ 355693.184130213630851, 3770164.699898270424455 ] ] ] } },
{ "type": "Feature", "properties": { "confidence": 0.27685621380805969, "class": 1 }, "geometry": { "type": "Polygon", "coordinates": [ [ [ 355437.131230925733689, 3770013.631739572621882 ], [ 355436.826042726344895, 3770013.326551373116672 ], [ 355436.215666327567305, 3770013.326551373116672 ], [ 355435.605289928789716, 3770012.716174974571913 ], [ 355435.605289928789716, 3770010.885045778006315 ], [ 355435.300101729400922, 3770010.579857578966767 ], [ 355435.300101729400922, 3770009.664292980451137 ], [ 355439.877924720232841, 3770009.664292980451137 ], [ 355439.877924720232841, 3770010.885045778006315 ], [ 355439.572736520844046, 3770011.190233977511525 ], [ 355439.572736520844046, 3770011.800610376521945 ], [ 355439.267548321455251, 3770012.105798575561494 ], [ 355439.267548321455251, 3770012.410986775066704 ], [ 355438.657171922677662, 3770013.021363174077123 ], [ 355438.657171922677662, 3770013.326551373116672 ], [ 355438.046795523900073, 3770013.326551373116672 ], [ 355437.741607324511278, 3770013.631739572621882 ], [ 355437.131230925733689, 3770013.631739572621882 ] ] ] } },
{ "type": "Feature", "properties": { "confidence": 0.25335261225700378, "class": 1 }, "geometry": { "type": "Polygon", "coordinates": [ [ [ 355599.796541200426873, 3770164.089521871879697 ], [ 355599.491353001038078, 3770163.784333672374487 ], [ 355597.049847405927721, 3770163.784333672374487 ], [ 355596.744659206538927, 3770163.479145472869277 ], [ 355596.439471007150132, 3770163.479145472869277 ], [ 355596.13428280770313, 3770163.173957273829728 ], [ 355595.218718209536746, 3770163.173957273829728 ], [ 355594.913530010147952, 3770162.868769074324518 ], [ 355593.997965411981568, 3770162.868769074324518 ], [ 355593.692777212592773, 3770162.563580874819309 ], [ 355593.692777212592773, 3770162.258392675314099 ], [ 355593.387589013203979, 3770161.95320447627455 ], [ 355593.387589013203979, 3770161.34282807726413 ], [ 355593.082400813815184, 3770161.03763987775892 ], [ 355593.082400813815184, 3770160.427263479214162 ], [ 355592.777212614426389, 3770160.122075279708952 ], [ 355592.777212614426389, 3770159.206510681658983 ], [ 355593.082400813815184, 3770159.206510681658983 ], [ 355593.387589013203979, 3770158.901322482153773 ], [ 355593.692777212592773, 3770158.901322482153773 ], [ 355594.913530010147952, 3770157.680569684598595 ], [ 355594.913530010147952, 3770157.375381485093385 ], [ 355595.523906408925541, 3770156.765005086548626 ], [ 355595.829094608314335, 3770156.765005086548626 ], [ 355596.13428280770313, 3770156.459816887043417 ], [ 355596.744659206538927, 3770156.459816887043417 ], [ 355597.049847405927721, 3770156.154628687538207 ], [ 355597.660223804705311, 3770156.154628687538207 ], [ 355597.965412004094105, 3770155.849440488498658 ], [ 355599.796541200426873, 3770155.849440488498658 ], [ 355600.101729399815667, 3770156.154628687538207 ], [ 355600.406917599204462, 3770156.154628687538207 ], [ 355600.712105798593257, 3770156.459816887043417 ], [ 355601.017293997982051, 3770156.459816887043417 ], [ 355601.017293997982051, 3770156.765005086548626 ], [ 355602.543234994926024, 3770158.290946083609015 ], [ 355602.543234994926024, 3770158.596134282648563 ], [ 355602.848423194314819, 3770158.901322482153773 ], [ 355602.848423194314819, 3770159.206510681658983 ], [ 355603.153611393703613, 3770159.511698881164193 ], [ 355603.153611393703613, 3770162.258392675314099 ], [ 355602.848423194314819, 3770162.563580874819309 ], [ 355602.848423194314819, 3770162.868769074324518 ], [ 355602.543234994926024, 3770162.868769074324518 ], [ 355601.932858596148435, 3770163.479145472869277 ], [ 355601.932858596148435, 3770163.784333672374487 ], [ 355601.62767039675964, 3770163.784333672374487 ], [ 355601.322482197370846, 3770164.089521871879697 ], [ 355599.796541200426873, 3770164.089521871879697 ] ] ] } },
{ "type": "Feature", "properties": { "confidence": 0.25051000714302063, "class": 1 }, "geometry": { "type": "Polygon", "coordinates": [ [ [ 355597.355035605316516, 3770370.091556459665298 ], [ 355597.049847405927721, 3770369.78636826062575 ], [ 355596.744659206538927, 3770369.78636826062575 ], [ 355596.13428280770313, 3770369.17599186161533 ], [ 355596.13428280770313, 3770368.565615463070571 ], [ 355595.829094608314335, 3770368.260427263565361 ], [ 355595.829094608314335, 3770367.344862665515393 ], [ 355596.439471007150132, 3770366.734486266504973 ], [ 355596.744659206538927, 3770366.734486266504973 ], [ 355597.049847405927721, 3770366.429298066999763 ], [ 355597.660223804705311, 3770366.429298066999763 ], [ 355597.965412004094105, 3770366.124109867960215 ], [ 355598.2706002034829, 3770366.124109867960215 ], [ 355598.575788402871694, 3770365.818921668455005 ], [ 355598.880976602260489, 3770365.818921668455005 ], [ 355599.186164801649284, 3770365.513733468949795 ], [ 355599.491353001038078, 3770365.513733468949795 ], [ 355599.796541200426873, 3770365.208545269444585 ], [ 355601.62767039675964, 3770365.208545269444585 ], [ 355602.543234994926024, 3770366.124109867960215 ], [ 355602.543234994926024, 3770368.260427263565361 ], [ 355602.23804679553723, 3770368.565615463070571 ], [ 355601.932858596148435, 3770368.565615463070571 ], [ 355601.62767039675964, 3770368.87080366211012 ], [ 355601.322482197370846, 3770368.87080366211012 ], [ 355601.017293997982051, 3770369.17599186161533 ], [ 355600.712105798593257, 3770369.17599186161533 ], [ 355600.101729399815667, 3770369.78636826062575 ], [ 355599.796541200426873, 3770369.78636826062575 ], [ 355599.491353001038078, 3770370.091556459665298 ], [ 355597.355035605316516, 3770370.091556459665298 ] ] ] } }
]
}
