{
"type": "FeatureCollection",
"name": "cell_00527_pre",
"crs": { "type": "name", "properties": { "name": "urn:ogc:def:crs:EPSG::32611" } },
"features": [
{ "type": "Feature", "properties": { "confidence": 0.98781955242156982, "class": 1 }, "geometry": { "type": "Polygon", "coordinates": [ [ [ 404384.740590030502062, 3783365.615462868940085 ], [ 404384.740590030502062, 3783365.310274669434875 ], [ 404384.435401831113268, 3783365.005086469929665 ], [ 404383.825025432335678, 3783365.005086469929665 ], [ 404383.519837232946884, 3783364.699898270424455 ], [ 404383.214649033558089, 3783364.699898270424455 ], [ 404382.6042726347805, 3783364.089521871879697 ], [ 404382.299084435391705, 3783364.089521871879697 ], [ 404381.383519837225322, 3783363.173957273829728 ], [ 404381.078331637836527, 3783363.173957273829728 ], [ 404379.857578840281349, 3783361.95320447627455 ], [ 404379.857578840281349, 3783361.64801627676934 ], [ 404379.552390640892554, 3783361.34282807726413 ], [ 404379.552390640892554, 3783359.206510681658983 ], [ 404380.773143438447732, 3783357.985757884103805 ], [ 404381.078331637836527, 3783357.985757884103805 ], [ 404381.383519837225322, 3783357.680569684598595 ], [ 404381.993896236002911, 3783357.680569684598595 ], [ 404382.299084435391705, 3783357.985757884103805 ], [ 404383.214649033558089, 3783357.985757884103805 ], [ 404383.825025432335678, 3783358.596134282648563 ], [ 404384.130213631724473, 3783358.596134282648563 ], [ 404384.435401831113268, 3783358.901322482153773 ], [ 404385.045778229890857, 3783358.901322482153773 ], [ 404385.350966429279651, 3783359.206510681658983 ], [ 404385.656154628668446, 3783359.206510681658983 ], [ 404385.961342828057241, 3783359.511698881164193 ], [ 404386.266531027446035, 3783359.511698881164193 ], [ 404386.57171922683483, 3783359.816887080203742 ], [ 404387.182095625612419, 3783359.816887080203742 ], [ 404387.487283825001214, 3783360.122075279708952 ], [ 404388.097660223778803, 3783360.122075279708952 ], [ 404388.402848423167598, 3783360.427263479214162 ], [ 404389.623601220780984, 3783360.427263479214162 ], [ 404389.928789420169778, 3783360.732451678719372 ], [ 404390.539165818947367, 3783360.732451678719372 ], [ 404390.844354018336162, 3783361.03763987775892 ], [ 404390.844354018336162, 3783361.64801627676934 ], [ 404391.149542217724957, 3783361.95320447627455 ], [ 404390.844354018336162, 3783362.258392675314099 ], [ 404390.844354018336162, 3783362.868769074324518 ], [ 404390.539165818947367, 3783363.173957273829728 ], [ 404390.539165818947367, 3783363.784333672374487 ], [ 404389.928789420169778, 3783364.394710071384907 ], [ 404389.928789420169778, 3783364.699898270424455 ], [ 404389.318413021392189, 3783365.310274669434875 ], [ 404389.318413021392189, 3783365.615462868940085 ], [ 404384.740590030502062, 3783365.615462868940085 ] ] ] } },
{ "type": "Feature", "properties": { "confidence": 0.97578012943267822, "class": 1 }, "geometry": { "type": "Polygon", "coordinates": [ [ [ 404083.825025432335678, 3783151.068158697802573 ], [ 404083.519837232946884, 3783150.762970498297364 ], [ 404083.214649033558089, 3783150.762970498297364 ], [ 404082.909460834169295, 3783150.457782299257815 ], [ 404082.909460834169295, 3783150.152594099752605 ], [ 404082.6042726347805, 3783149.847405900247395 ], [ 404082.6042726347805, 3783147.405900305137038 ], [ 404082.299084435391705, 3783147.100712105631828 ], [ 404082.299084435391705, 3783146.49033570708707 ], [ 404083.214649033558089, 3783145.574771109037101 ], [ 404083.519837232946884, 3783145.574771109037101 ], [ 404083.825025432335678, 3783145.269582909531891 ], [ 404084.130213631724473, 3783145.269582909531891 ], [ 404085.350966429279651, 3783144.048830111976713 ], [ 404085.656154628668446, 3783144.048830111976713 ], [ 404086.266531027446035, 3783143.438453712966293 ], [ 404087.792472024390008, 3783143.438453712966293 ], [ 404088.097660223778803, 3783143.743641912471503 ], [ 404088.402848423167598, 3783143.743641912471503 ], [ 404089.013224821945187, 3783144.354018311481923 ], [ 404089.013224821945187, 3783147.711088504642248 ], [ 404088.708036622556392, 3783148.016276704147458 ], [ 404088.708036622556392, 3783148.321464903187007 ], [ 404088.402848423167598, 3783148.626653102692217 ], [ 404088.097660223778803, 3783148.626653102692217 ], [ 404087.182095625612419, 3783149.542217700742185 ], [ 404087.182095625612419, 3783149.847405900247395 ], [ 404086.876907426223624, 3783150.152594099752605 ], [ 404086.876907426223624, 3783150.457782299257815 ], [ 404086.57171922683483, 3783150.457782299257815 ], [ 404086.266531027446035, 3783150.762970498297364 ], [ 404085.961342828057241, 3783150.762970498297364 ], [ 404085.656154628668446, 3783151.068158697802573 ], [ 404083.825025432335678, 3783151.068158697802573 ] ] ] } },
{ "type": "Feature", "properties": { "confidence": 0.97537714242935181, "class": 1 }, "geometry": { "type": "Polygon", "coordinates": [ [ [ 404150.356052899267524, 3783375.686673448421061 ], [ 404150.05086469987873, 3783375.381485249381512 ], [ 404149.745676500489935, 3783375.381485249381512 ], [ 404149.440488301101141, 3783375.076297049876302 ], [ 404149.135300101712346, 3783375.076297049876302 ], [ 404148.524923702934757, 3783374.465920650865883 ], [ 404148.219735503545962, 3783374.465920650865883 ], [ 404147.914547304157168, 3783374.160732451826334 ], [ 404147.914547304157168, 3783373.855544252321124 ], [ 404147.609359104768373, 3783373.550356052815914 ], [ 404147.609359104768373, 3783373.245167853310704 ], [ 404147.304170905379578, 3783372.939979654271156 ], [ 404147.304170905379578, 3783372.634791454765946 ], [ 404146.998982705990784, 3783372.329603255260736 ], [ 404146.998982705990784, 3783370.803662258200347 ], [ 404146.693794506601989, 3783370.498474059160799 ], [ 404146.693794506601989, 3783369.582909460645169 ], [ 404146.998982705990784, 3783369.27772126160562 ], [ 404146.998982705990784, 3783368.362156663089991 ], [ 404147.304170905379578, 3783368.056968464050442 ], [ 404147.304170905379578, 3783367.751780264545232 ], [ 404147.609359104768373, 3783367.751780264545232 ], [ 404148.219735503545962, 3783367.141403865534812 ], [ 404148.524923702934757, 3783367.141403865534812 ], [ 404148.830111902323551, 3783366.836215666495264 ], [ 404149.135300101712346, 3783366.836215666495264 ], [ 404149.440488301101141, 3783366.531027466990054 ], [ 404150.05086469987873, 3783366.531027466990054 ], [ 404150.356052899267524, 3783366.225839267484844 ], [ 404151.881993896211497, 3783366.225839267484844 ], [ 404152.187182095600292, 3783366.531027466990054 ], [ 404151.881993896211497, 3783366.836215666495264 ], [ 404151.881993896211497, 3783368.362156663089991 ], [ 404153.102746693766676, 3783369.582909460645169 ], [ 404153.40793489315547, 3783369.582909460645169 ], [ 404154.018311291991267, 3783370.193285859655589 ], [ 404154.628687690768857, 3783370.193285859655589 ], [ 404154.933875890157651, 3783370.498474059160799 ], [ 404154.933875890157651, 3783371.108850457705557 ], [ 404155.239064089546446, 3783371.414038657210767 ], [ 404155.239064089546446, 3783373.550356052815914 ], [ 404154.933875890157651, 3783373.855544252321124 ], [ 404154.933875890157651, 3783374.160732451826334 ], [ 404154.628687690768857, 3783374.160732451826334 ], [ 404154.323499491380062, 3783374.465920650865883 ], [ 404153.40793489315547, 3783374.465920650865883 ], [ 404153.102746693766676, 3783374.771108850371093 ], [ 404153.102746693766676, 3783375.076297049876302 ], [ 404152.797558494377881, 3783375.076297049876302 ], [ 404152.187182095600292, 3783375.686673448421061 ], [ 404150.356052899267524, 3783375.686673448421061 ] ] ] } },
{ "type": "Feature", "properties": { "confidence": 0.95011293888092041, "class": 1 }, "geometry": { "type": "Polygon", "coordinates": [ [ [ 404348.728382502566092, 3783446.49033570708707 ], [ 404348.118006103788503, 3783445.87995930807665 ], [ 404348.118006103788503, 3783444.964394710026681 ], [ 404346.59206510684453, 3783443.438453712966293 ], [ 404346.286876907397527, 3783443.438453712966293 ], [ 404345.676500508619938, 3783442.828077314421535 ], [ 404345.371312309231143, 3783442.828077314421535 ], [ 404345.066124109842349, 3783442.522889114916325 ], [ 404345.066124109842349, 3783437.334689725190401 ], [ 404345.371312309231143, 3783437.029501526150852 ], [ 404345.371312309231143, 3783436.724313326645643 ], [ 404345.676500508619938, 3783436.419125127140433 ], [ 404345.981688708008733, 3783436.419125127140433 ], [ 404346.286876907397527, 3783436.113936927635223 ], [ 404346.59206510684453, 3783436.113936927635223 ], [ 404346.897253306233324, 3783435.808748728595674 ], [ 404347.202441505622119, 3783435.808748728595674 ], [ 404347.507629705010913, 3783435.503560529090464 ], [ 404348.118006103788503, 3783435.503560529090464 ], [ 404348.423194303177297, 3783435.198372329585254 ], [ 404348.728382502566092, 3783435.198372329585254 ], [ 404349.033570701954886, 3783434.893184130080044 ], [ 404350.254323499510065, 3783434.893184130080044 ], [ 404351.169888097676449, 3783435.808748728595674 ], [ 404351.169888097676449, 3783436.113936927635223 ], [ 404351.475076297065243, 3783436.419125127140433 ], [ 404351.475076297065243, 3783436.724313326645643 ], [ 404351.780264496454038, 3783437.029501526150852 ], [ 404351.780264496454038, 3783437.334689725190401 ], [ 404352.085452695842832, 3783437.639877924695611 ], [ 404352.085452695842832, 3783438.555442522745579 ], [ 404352.390640895231627, 3783438.860630722250789 ], [ 404352.390640895231627, 3783442.522889114916325 ], [ 404352.085452695842832, 3783442.828077314421535 ], [ 404352.085452695842832, 3783443.133265513926744 ], [ 404351.780264496454038, 3783443.438453712966293 ], [ 404351.780264496454038, 3783444.048830111976713 ], [ 404351.475076297065243, 3783444.354018311481923 ], [ 404351.475076297065243, 3783444.659206510521472 ], [ 404351.169888097676449, 3783444.964394710026681 ], [ 404351.169888097676449, 3783445.269582909531891 ], [ 404350.254323499510065, 3783446.18514750758186 ], [ 404349.94913530012127, 3783446.18514750758186 ], [ 404349.643947100732476, 3783446.49033570708707 ], [ 404348.728382502566092, 3783446.49033570708707 ] ] ] } },
{ "type": "Feature", "properties": { "confidence": 0.93989109992980957, "class": 1 }, "geometry": { "type": "Polygon", "coordinates": [ [ [ 404154.628687690768857, 3783209.053916581906378 ], [ 404154.323499491380062, 3783208.748728382401168 ], [ 404153.713123092602473, 3783208.748728382401168 ], [ 404153.40793489315547, 3783208.443540182895958 ], [ 404153.102746693766676, 3783208.443540182895958 ], [ 404152.797558494377881, 3783208.13835198385641 ], [ 404152.797558494377881, 3783207.8331637843512 ], [ 404152.492370294989087, 3783207.52797558484599 ], [ 404152.492370294989087, 3783203.865717192180455 ], [ 404152.797558494377881, 3783203.865717192180455 ], [ 404153.102746693766676, 3783203.560528992675245 ], [ 404153.102746693766676, 3783202.644964394625276 ], [ 404153.40793489315547, 3783202.339776195120066 ], [ 404153.40793489315547, 3783201.729399796575308 ], [ 404154.323499491380062, 3783201.729399796575308 ], [ 404154.628687690768857, 3783201.424211597070098 ], [ 404154.933875890157651, 3783201.424211597070098 ], [ 404155.239064089546446, 3783201.119023397564888 ], [ 404157.985757884045597, 3783201.119023397564888 ], [ 404158.290946083434392, 3783201.424211597070098 ], [ 404158.901322482211981, 3783201.424211597070098 ], [ 404158.901322482211981, 3783201.729399796575308 ], [ 404159.206510681600776, 3783202.034587996080518 ], [ 404159.51169888098957, 3783202.034587996080518 ], [ 404159.51169888098957, 3783203.255340793635696 ], [ 404159.816887080378365, 3783203.560528992675245 ], [ 404159.816887080378365, 3783206.307222787290812 ], [ 404159.51169888098957, 3783206.612410986796021 ], [ 404159.51169888098957, 3783206.917599186301231 ], [ 404158.901322482211981, 3783207.52797558484599 ], [ 404158.901322482211981, 3783207.8331637843512 ], [ 404158.596134282823186, 3783208.13835198385641 ], [ 404158.290946083434392, 3783208.13835198385641 ], [ 404157.680569684656803, 3783208.748728382401168 ], [ 404157.375381485268008, 3783208.748728382401168 ], [ 404157.070193285879213, 3783209.053916581906378 ], [ 404154.628687690768857, 3783209.053916581906378 ] ] ] } },
{ "type": "Feature", "properties": { "confidence": 0.93674337863922119, "class": 1 }, "geometry": { "type": "Polygon", "coordinates": [ [ [ 404271.515768056968227, 3783371.108850457705557 ], [ 404271.515768056968227, 3783370.193285859655589 ], [ 404271.210579857579432, 3783369.888097660150379 ], [ 404271.210579857579432, 3783369.27772126160562 ], [ 404270.905391658190638, 3783368.97253306210041 ], [ 404270.905391658190638, 3783366.225839267484844 ], [ 404271.515768056968227, 3783365.615462868940085 ], [ 404276.703967446577735, 3783365.615462868940085 ], [ 404277.00915564596653, 3783365.920651067979634 ], [ 404277.00915564596653, 3783366.225839267484844 ], [ 404276.703967446577735, 3783366.531027466990054 ], [ 404276.703967446577735, 3783367.141403865534812 ], [ 404276.398779247188941, 3783367.446592065040022 ], [ 404276.398779247188941, 3783369.27772126160562 ], [ 404275.483214649022557, 3783370.193285859655589 ], [ 404275.178026449633762, 3783370.193285859655589 ], [ 404274.872838250244968, 3783370.498474059160799 ], [ 404274.262461851467378, 3783370.498474059160799 ], [ 404273.957273652078584, 3783370.803662258200347 ], [ 404273.652085452689789, 3783370.803662258200347 ], [ 404273.346897253300995, 3783371.108850457705557 ], [ 404271.515768056968227, 3783371.108850457705557 ] ] ] } },
{ "type": "Feature", "properties": { "confidence": 0.92990750074386597, "class": 1 }, "geometry": { "type": "Polygon", "coordinates": [ [ [ 404069.786368260451127, 3783415.05595116969198 ], [ 404069.481180061062332, 3783414.750762970652431 ], [ 404069.175991861673538, 3783414.750762970652431 ], [ 404068.870803662284743, 3783414.445574771147221 ], [ 404068.870803662284743, 3783414.140386571642011 ], [ 404068.565615462895948, 3783413.835198372136801 ], [ 404068.565615462895948, 3783412.004069176036865 ], [ 404068.870803662284743, 3783411.698880976531655 ], [ 404068.870803662284743, 3783408.341810783371329 ], [ 404068.565615462895948, 3783408.036622583866119 ], [ 404068.565615462895948, 3783407.121057985816151 ], [ 404068.870803662284743, 3783406.815869786310941 ], [ 404068.870803662284743, 3783406.510681586805731 ], [ 404069.481180061062332, 3783405.900305188260972 ], [ 404069.786368260451127, 3783405.900305188260972 ], [ 404070.091556459839921, 3783405.595116988755763 ], [ 404070.396744659228716, 3783405.595116988755763 ], [ 404070.701932858617511, 3783405.289928789250553 ], [ 404071.922685656172689, 3783405.289928789250553 ], [ 404072.227873855561484, 3783404.984740590211004 ], [ 404074.059003051894251, 3783404.984740590211004 ], [ 404074.364191251283046, 3783405.289928789250553 ], [ 404075.890132248227019, 3783405.289928789250553 ], [ 404076.805696846393403, 3783406.205493387766182 ], [ 404076.500508647004608, 3783406.510681586805731 ], [ 404076.500508647004608, 3783410.478128178976476 ], [ 404076.195320447615813, 3783410.783316378481686 ], [ 404076.195320447615813, 3783411.088504577986896 ], [ 404075.584944048838224, 3783411.698880976531655 ], [ 404075.27975584944943, 3783411.698880976531655 ], [ 404074.974567650060635, 3783412.004069176036865 ], [ 404074.364191251283046, 3783412.004069176036865 ], [ 404073.753814852505457, 3783412.614445574581623 ], [ 404073.448626653116662, 3783412.614445574581623 ], [ 404072.838250254339073, 3783413.224821973592043 ], [ 404072.533062054950278, 3783413.224821973592043 ], [ 404071.3123092573951, 3783414.445574771147221 ], [ 404071.007121058006305, 3783414.445574771147221 ], [ 404070.701932858617511, 3783414.750762970652431 ], [ 404070.091556459839921, 3783414.750762970652431 ], [ 404069.786368260451127, 3783415.05595116969198 ] ] ] } },
{ "type": "Feature", "properties": { "confidence": 0.91993683576583862, "class": 1 }, "geometry": { "type": "Polygon", "coordinates": [ [ [ 404347.812817904399708, 3783448.321464903187007 ], [ 404347.507629705010913, 3783448.016276704147458 ], [ 404347.507629705010913, 3783446.18514750758186 ], [ 404347.202441505622119, 3783445.87995930807665 ], [ 404347.202441505622119, 3783444.048830111976713 ], [ 404351.780264496454038, 3783444.048830111976713 ], [ 404351.780264496454038, 3783444.659206510521472 ], [ 404351.169888097676449, 3783445.269582909531891 ], [ 404351.169888097676449, 3783445.574771109037101 ], [ 404350.864699898287654, 3783445.87995930807665 ], [ 404350.864699898287654, 3783446.18514750758186 ], [ 404349.338758901343681, 3783447.711088504642248 ], [ 404349.033570701954886, 3783447.711088504642248 ], [ 404348.728382502566092, 3783448.016276704147458 ], [ 404348.118006103788503, 3783448.016276704147458 ], [ 404347.812817904399708, 3783448.321464903187007 ] ] ] } },
{ "type": "Feature", "properties": { "confidence": 0.90413308143615723, "class": 1 }, "geometry": { "type": "Polygon", "coordinates": [ [ [ 404006.612410986796021, 3783224.008138352073729 ], [ 404006.002034588018432, 3783223.397761953063309 ], [ 404006.307222787407227, 3783223.092573754023761 ], [ 404006.307222787407227, 3783221.871820956468582 ], [ 404006.612410986796021, 3783221.566632756963372 ], [ 404006.612410986796021, 3783220.040691759902984 ], [ 404006.917599186184816, 3783219.735503560397774 ], [ 404006.917599186184816, 3783219.430315361358225 ], [ 404009.053916581906378, 3783217.293997965287417 ], [ 404009.359104781295173, 3783217.293997965287417 ], [ 404010.579857578850351, 3783216.073245167732239 ], [ 404010.579857578850351, 3783215.76805696869269 ], [ 404012.105798575794324, 3783214.242115971632302 ], [ 404012.105798575794324, 3783213.631739572621882 ], [ 404012.410986775183119, 3783213.631739572621882 ], [ 404012.716174974571913, 3783213.326551373116672 ], [ 404015.768056968459859, 3783213.326551373116672 ], [ 404015.768056968459859, 3783215.15768056968227 ], [ 404015.462868769071065, 3783215.46286876918748 ], [ 404015.462868769071065, 3783215.76805696869269 ], [ 404015.15768056968227, 3783216.073245167732239 ], [ 404015.15768056968227, 3783216.378433367237449 ], [ 404014.547304170904681, 3783216.988809766247869 ], [ 404014.547304170904681, 3783217.293997965287417 ], [ 404013.936927772127092, 3783217.904374364297837 ], [ 404013.936927772127092, 3783218.209562563803047 ], [ 404012.105798575794324, 3783220.040691759902984 ], [ 404011.80061037640553, 3783220.040691759902984 ], [ 404011.495422177016735, 3783220.345879959408194 ], [ 404011.495422177016735, 3783220.651068158913404 ], [ 404011.19023397762794, 3783220.956256357952952 ], [ 404011.19023397762794, 3783221.261444557458162 ], [ 404010.274669379461557, 3783222.177009155508131 ], [ 404009.969481180072762, 3783222.177009155508131 ], [ 404009.664292980683967, 3783222.482197355013341 ], [ 404009.359104781295173, 3783222.482197355013341 ], [ 404008.138351983739994, 3783223.702950152568519 ], [ 404007.8331637843512, 3783223.702950152568519 ], [ 404007.527975584962405, 3783224.008138352073729 ], [ 404006.612410986796021, 3783224.008138352073729 ] ] ] } },
{ "type": "Feature", "properties": { "confidence": 0.84800004959106445, "class": 1 }, "geometry": { "type": "Polygon", "coordinates": [ [ [ 404054.221770091564395, 3783191.963377416133881 ], [ 404053.9165818921756, 3783191.658189216628671 ], [ 404053.9165818921756, 3783191.047812818083912 ], [ 404053.611393692786805, 3783190.742624618578702 ], [ 404053.611393692786805, 3783190.437436419073492 ], [ 404053.306205493398011, 3783190.132248219568282 ], [ 404053.306205493398011, 3783189.521871821023524 ], [ 404053.001017294009216, 3783189.216683621518314 ], [ 404053.001017294009216, 3783188.301119023468345 ], [ 404052.695829094620422, 3783187.995930823963135 ], [ 404052.695829094620422, 3783187.690742624457926 ], [ 404052.390640895231627, 3783187.385554425418377 ], [ 404052.390640895231627, 3783186.775178026407957 ], [ 404051.780264496454038, 3783186.164801627863199 ], [ 404051.780264496454038, 3783182.502543235197663 ], [ 404052.695829094620422, 3783182.502543235197663 ], [ 404053.001017294009216, 3783182.197355035692453 ], [ 404056.358087487285957, 3783182.197355035692453 ], [ 404056.663275686674751, 3783182.502543235197663 ], [ 404057.273652085452341, 3783182.502543235197663 ], [ 404057.578840284841135, 3783182.807731434237212 ], [ 404058.189216683618724, 3783182.807731434237212 ], [ 404058.189216683618724, 3783183.418107833247632 ], [ 404058.494404883007519, 3783183.723296032752842 ], [ 404058.799593082396314, 3783183.723296032752842 ], [ 404059.104781281785108, 3783184.02848423179239 ], [ 404059.104781281785108, 3783184.3336724312976 ], [ 404059.409969481173903, 3783184.63886063080281 ], [ 404059.715157680562697, 3783184.63886063080281 ], [ 404059.715157680562697, 3783184.94404883030802 ], [ 404060.630722278729081, 3783185.859613428357989 ], [ 404060.630722278729081, 3783186.164801627863199 ], [ 404060.935910478117876, 3783186.469989826902747 ], [ 404060.935910478117876, 3783187.995930823963135 ], [ 404061.24109867750667, 3783188.301119023468345 ], [ 404061.24109867750667, 3783189.521871821023524 ], [ 404060.020345879951492, 3783190.742624618578702 ], [ 404059.715157680562697, 3783190.742624618578702 ], [ 404059.104781281785108, 3783191.353001017123461 ], [ 404056.052899287897162, 3783191.353001017123461 ], [ 404055.747711088508368, 3783191.658189216628671 ], [ 404055.442522889119573, 3783191.658189216628671 ], [ 404055.137334689730778, 3783191.963377416133881 ], [ 404054.221770091564395, 3783191.963377416133881 ] ] ] } },
{ "type": "Feature", "properties": { "confidence": 0.82209974527359009, "class": 1 }, "geometry": { "type": "Polygon", "coordinates": [ [ [ 403971.515768056968227, 3783095.829094608314335 ], [ 403971.210579857579432, 3783095.523906408809125 ], [ 403970.905391658190638, 3783095.523906408809125 ], [ 403970.600203458801843, 3783095.218718209769577 ], [ 403970.295015259413049, 3783095.218718209769577 ], [ 403969.989827060024254, 3783094.913530010264367 ], [ 403969.379450661246665, 3783094.913530010264367 ], [ 403969.07426246185787, 3783094.608341810759157 ], [ 403968.463886063080281, 3783094.608341810759157 ], [ 403968.158697863691486, 3783094.303153611253947 ], [ 403967.548321464913897, 3783094.303153611253947 ], [ 403967.243133265525103, 3783093.997965412214398 ], [ 403966.937945066136308, 3783093.997965412214398 ], [ 403966.632756866747513, 3783093.692777212709188 ], [ 403966.632756866747513, 3783093.387589013203979 ], [ 403966.327568667358719, 3783093.082400813698769 ], [ 403966.327568667358719, 3783092.47202441515401 ], [ 403977.00915564596653, 3783092.47202441515401 ], [ 403977.00915564596653, 3783092.77721261465922 ], [ 403976.703967446577735, 3783093.082400813698769 ], [ 403976.703967446577735, 3783094.303153611253947 ], [ 403976.093591047800146, 3783094.913530010264367 ], [ 403975.483214649022557, 3783094.913530010264367 ], [ 403975.178026449633762, 3783095.218718209769577 ], [ 403973.957273652078584, 3783095.218718209769577 ], [ 403973.652085452689789, 3783095.523906408809125 ], [ 403973.346897253300995, 3783095.523906408809125 ], [ 403973.0417090539122, 3783095.829094608314335 ], [ 403971.515768056968227, 3783095.829094608314335 ] ] ] } },
{ "type": "Feature", "properties": { "confidence": 0.82167285680770874, "class": 1 }, "geometry": { "type": "Polygon", "coordinates": [ [ [ 403919.02339776197914, 3783212.716174974571913 ], [ 403919.02339776197914, 3783212.105798575561494 ], [ 403918.718209562590346, 3783211.800610376521945 ], [ 403917.802644964365754, 3783211.800610376521945 ], [ 403917.49745676497696, 3783211.495422177016735 ], [ 403917.192268565588165, 3783211.495422177016735 ], [ 403917.192268565588165, 3783209.664292980451137 ], [ 403922.380467955255881, 3783209.664292980451137 ], [ 403922.380467955255881, 3783210.885045778006315 ], [ 403922.075279755867086, 3783211.190233977511525 ], [ 403922.075279755867086, 3783211.495422177016735 ], [ 403921.464903357089497, 3783212.105798575561494 ], [ 403921.159715157700703, 3783212.105798575561494 ], [ 403920.854526958311908, 3783212.410986775066704 ], [ 403920.549338758923113, 3783212.410986775066704 ], [ 403920.244150559534319, 3783212.716174974571913 ], [ 403919.02339776197914, 3783212.716174974571913 ] ] ] } },
{ "type": "Feature", "properties": { "confidence": 0.80914855003356934, "class": 1 }, "geometry": { "type": "Polygon", "coordinates": [ [ [ 403952.899287894193549, 3783118.107833163812757 ], [ 403952.594099694804754, 3783117.802644964307547 ], [ 403952.28891149541596, 3783117.802644964307547 ], [ 403951.67853509663837, 3783117.192268565762788 ], [ 403951.373346897249576, 3783117.192268565762788 ], [ 403950.762970498471987, 3783116.581892166752368 ], [ 403950.457782299083192, 3783116.581892166752368 ], [ 403950.457782299083192, 3783116.276703967247158 ], [ 403950.152594099694397, 3783115.97151576820761 ], [ 403950.152594099694397, 3783113.835198372136801 ], [ 403950.457782299083192, 3783113.530010173097253 ], [ 403950.457782299083192, 3783112.004069176036865 ], [ 403950.762970498471987, 3783111.698880976531655 ], [ 403950.762970498471987, 3783111.393692777026445 ], [ 403951.068158697860781, 3783111.088504577986896 ], [ 403953.509664292971138, 3783111.088504577986896 ], [ 403953.814852492359933, 3783111.393692777026445 ], [ 403954.730417090526316, 3783111.393692777026445 ], [ 403955.035605289915111, 3783111.698880976531655 ], [ 403955.035605289915111, 3783112.004069176036865 ], [ 403955.6459816886927, 3783112.614445574581623 ], [ 403955.951169888081495, 3783112.614445574581623 ], [ 403955.951169888081495, 3783117.497456764802337 ], [ 403955.6459816886927, 3783117.497456764802337 ], [ 403955.340793489303906, 3783117.802644964307547 ], [ 403953.204476093582343, 3783117.802644964307547 ], [ 403952.899287894193549, 3783118.107833163812757 ] ] ] } },
{ "type": "Feature", "properties": { "confidence": 0.80137640237808228, "class": 1 }, "geometry": { "type": "Polygon", "coordinates": [ [ [ 404056.663275686674751, 3783201.729399796575308 ], [ 404055.747711088508368, 3783200.813835198525339 ], [ 404055.747711088508368, 3783200.508646999020129 ], [ 404055.442522889119573, 3783200.20345879951492 ], [ 404055.442522889119573, 3783199.89827060000971 ], [ 404055.137334689730778, 3783199.593082400970161 ], [ 404055.137334689730778, 3783199.287894201464951 ], [ 404054.832146490341984, 3783198.982706001959741 ], [ 404054.832146490341984, 3783197.151576805859804 ], [ 404055.137334689730778, 3783196.846388606354594 ], [ 404055.442522889119573, 3783196.846388606354594 ], [ 404055.747711088508368, 3783196.541200406849384 ], [ 404056.358087487285957, 3783196.541200406849384 ], [ 404056.663275686674751, 3783196.236012207344174 ], [ 404058.189216683618724, 3783196.236012207344174 ], [ 404058.494404883007519, 3783195.930824008304626 ], [ 404060.325534079340287, 3783195.930824008304626 ], [ 404060.325534079340287, 3783197.151576805859804 ], [ 404060.020345879951492, 3783197.456765004899353 ], [ 404060.020345879951492, 3783198.067141403909773 ], [ 404059.715157680562697, 3783198.372329603414983 ], [ 404059.715157680562697, 3783198.982706001959741 ], [ 404059.409969481173903, 3783199.287894201464951 ], [ 404059.409969481173903, 3783199.593082400970161 ], [ 404059.104781281785108, 3783199.89827060000971 ], [ 404059.104781281785108, 3783200.20345879951492 ], [ 404058.799593082396314, 3783200.508646999020129 ], [ 404058.799593082396314, 3783200.813835198525339 ], [ 404058.189216683618724, 3783201.424211597070098 ], [ 404057.578840284841135, 3783201.424211597070098 ], [ 404057.273652085452341, 3783201.729399796575308 ], [ 404056.663275686674751, 3783201.729399796575308 ] ] ] } },
{ "type": "Feature", "properties": { "confidence": 0.7955554723739624, "class": 1 }, "geometry": { "type": "Polygon", "coordinates": [ [ [ 404199.796541200426873, 3783161.139369277749211 ], [ 404199.491353001038078, 3783160.834181078244001 ], [ 404199.186164801649284, 3783160.834181078244001 ], [ 404198.575788402871694, 3783160.223804679699242 ], [ 404198.2706002034829, 3783160.223804679699242 ], [ 404198.2706002034829, 3783159.918616480194032 ], [ 404197.049847405927721, 3783158.697863682638854 ], [ 404196.744659206538927, 3783158.697863682638854 ], [ 404196.439471007150132, 3783158.392675483133644 ], [ 404196.13428280770313, 3783158.392675483133644 ], [ 404195.523906408925541, 3783157.782299084588885 ], [ 404195.523906408925541, 3783157.477110885083675 ], [ 404195.218718209536746, 3783157.171922685578465 ], [ 404195.218718209536746, 3783156.866734486073256 ], [ 404195.523906408925541, 3783156.561546287033707 ], [ 404195.523906408925541, 3783156.256358087528497 ], [ 404196.13428280770313, 3783155.645981688518077 ], [ 404197.049847405927721, 3783155.645981688518077 ], [ 404197.355035605316516, 3783155.340793489478528 ], [ 404198.2706002034829, 3783155.340793489478528 ], [ 404198.575788402871694, 3783155.645981688518077 ], [ 404199.186164801649284, 3783155.645981688518077 ], [ 404199.796541200426873, 3783156.256358087528497 ], [ 404201.932858596148435, 3783156.256358087528497 ], [ 404202.23804679553723, 3783156.561546287033707 ], [ 404202.848423194314819, 3783156.561546287033707 ], [ 404203.153611393703613, 3783156.866734486073256 ], [ 404203.763987792481203, 3783156.866734486073256 ], [ 404204.069175991869997, 3783157.171922685578465 ], [ 404204.069175991869997, 3783157.477110885083675 ], [ 404204.374364191258792, 3783157.782299084588885 ], [ 404204.374364191258792, 3783160.528992878738791 ], [ 404204.069175991869997, 3783160.834181078244001 ], [ 404203.153611393703613, 3783160.834181078244001 ], [ 404202.848423194314819, 3783161.139369277749211 ], [ 404199.796541200426873, 3783161.139369277749211 ] ] ] } },
{ "type": "Feature", "properties": { "confidence": 0.76566773653030396, "class": 1 }, "geometry": { "type": "Polygon", "coordinates": [ [ [ 403928.789420142420568, 3783552.695829094387591 ], [ 403928.179043743642978, 3783552.085452695842832 ], [ 403927.873855544254184, 3783552.085452695842832 ], [ 403927.568667344865389, 3783551.780264496337622 ], [ 403927.568667344865389, 3783551.475076296832412 ], [ 403927.263479145476595, 3783551.169888097792864 ], [ 403927.263479145476595, 3783549.033570701722056 ], [ 403927.568667344865389, 3783548.728382502682507 ], [ 403927.568667344865389, 3783548.423194303177297 ], [ 403927.873855544254184, 3783548.118006103672087 ], [ 403927.873855544254184, 3783547.812817904166877 ], [ 403929.399796541198157, 3783546.28687690757215 ], [ 403929.704984740586951, 3783546.28687690757215 ], [ 403930.010172939975746, 3783545.98168870806694 ], [ 403930.315361139364541, 3783545.98168870806694 ], [ 403930.620549338753335, 3783545.67650050856173 ], [ 403931.536113936919719, 3783545.67650050856173 ], [ 403931.841302136308514, 3783545.37131230905652 ], [ 403932.756866734474897, 3783545.37131230905652 ], [ 403933.062054933863692, 3783545.066124110016972 ], [ 403935.503560528974049, 3783545.066124110016972 ], [ 403936.113936927751638, 3783545.67650050856173 ], [ 403936.419125127140433, 3783545.67650050856173 ], [ 403936.419125127140433, 3783545.98168870806694 ], [ 403936.724313326529227, 3783546.28687690757215 ], [ 403936.724313326529227, 3783546.897253306116909 ], [ 403937.029501525918022, 3783547.202441505622119 ], [ 403936.724313326529227, 3783547.507629705127329 ], [ 403936.724313326529227, 3783549.338758901227266 ], [ 403936.419125127140433, 3783549.643947100732476 ], [ 403936.419125127140433, 3783549.949135300237685 ], [ 403936.113936927751638, 3783550.254323499277234 ], [ 403935.808748728362843, 3783550.254323499277234 ], [ 403935.503560528974049, 3783550.559511698782444 ], [ 403934.89318413019646, 3783550.559511698782444 ], [ 403934.587995930807665, 3783550.864699898287654 ], [ 403933.672431332641281, 3783550.864699898287654 ], [ 403933.367243133252487, 3783551.169888097792864 ], [ 403932.451678535086103, 3783551.169888097792864 ], [ 403932.146490335697308, 3783551.475076296832412 ], [ 403931.536113936919719, 3783551.475076296832412 ], [ 403931.230925737530924, 3783551.780264496337622 ], [ 403930.92573753814213, 3783551.780264496337622 ], [ 403930.315361139364541, 3783552.390640895348042 ], [ 403930.010172939975746, 3783552.390640895348042 ], [ 403929.704984740586951, 3783552.695829094387591 ], [ 403928.789420142420568, 3783552.695829094387591 ] ] ] } },
{ "type": "Feature", "properties": { "confidence": 0.76317107677459717, "class": 1 }, "geometry": { "type": "Polygon", "coordinates": [ [ [ 403995.320447609352414, 3783171.515768057201058 ], [ 403995.015259409963619, 3783171.210579857695848 ], [ 403994.710071210574824, 3783171.210579857695848 ], [ 403994.40488301118603, 3783170.905391658190638 ], [ 403994.099694811797235, 3783170.905391658190638 ], [ 403993.489318413019646, 3783170.295015259180218 ], [ 403993.489318413019646, 3783168.463886063080281 ], [ 403993.794506612408441, 3783168.158697863575071 ], [ 403993.794506612408441, 3783167.853509664069861 ], [ 403995.320447609352414, 3783166.327568667475134 ], [ 403995.625635808741208, 3783166.327568667475134 ], [ 403996.236012207518797, 3783165.717192268464714 ], [ 403997.76195320446277, 3783165.717192268464714 ], [ 403997.76195320446277, 3783166.022380467969924 ], [ 403998.067141403851565, 3783166.327568667475134 ], [ 403998.067141403851565, 3783168.158697863575071 ], [ 403997.76195320446277, 3783168.463886063080281 ], [ 403997.76195320446277, 3783170.295015259180218 ], [ 403997.456765005073976, 3783170.600203458685428 ], [ 403997.456765005073976, 3783170.905391658190638 ], [ 403997.151576805685181, 3783171.210579857695848 ], [ 403997.151576805685181, 3783171.515768057201058 ], [ 403995.320447609352414, 3783171.515768057201058 ] ] ] } },
{ "type": "Feature", "properties": { "confidence": 0.7586672306060791, "class": 1 }, "geometry": { "type": "Polygon", "coordinates": [ [ [ 403811.291963377443608, 3783156.256358087528497 ], [ 403811.291963377443608, 3783155.951169888023287 ], [ 403810.681586978607811, 3783155.340793489478528 ], [ 403810.681586978607811, 3783154.730417090468109 ], [ 403810.376398779219016, 3783154.425228890962899 ], [ 403810.376398779219016, 3783154.12004069192335 ], [ 403809.766022380441427, 3783153.50966429291293 ], [ 403809.460834181052633, 3783153.50966429291293 ], [ 403808.850457782275043, 3783152.899287894368172 ], [ 403808.850457782275043, 3783152.594099694862962 ], [ 403808.545269582886249, 3783152.288911495357752 ], [ 403808.545269582886249, 3783151.373346897307783 ], [ 403809.155645981663838, 3783150.762970498297364 ], [ 403809.460834181052633, 3783150.762970498297364 ], [ 403809.766022380441427, 3783150.457782299257815 ], [ 403811.291963377443608, 3783150.457782299257815 ], [ 403811.597151576832402, 3783150.762970498297364 ], [ 403811.597151576832402, 3783151.068158697802573 ], [ 403812.512716174998786, 3783151.983723295852542 ], [ 403813.123092573776376, 3783151.983723295852542 ], [ 403813.733468972553965, 3783152.594099694862962 ], [ 403814.038657171942759, 3783152.594099694862962 ], [ 403814.038657171942759, 3783152.899287894368172 ], [ 403814.343845371331554, 3783153.20447609340772 ], [ 403814.343845371331554, 3783154.12004069192335 ], [ 403814.038657171942759, 3783154.425228890962899 ], [ 403814.038657171942759, 3783154.730417090468109 ], [ 403813.42828077316517, 3783155.340793489478528 ], [ 403813.42828077316517, 3783155.645981688518077 ], [ 403813.123092573776376, 3783155.645981688518077 ], [ 403812.817904374387581, 3783155.951169888023287 ], [ 403812.817904374387581, 3783156.256358087528497 ], [ 403811.291963377443608, 3783156.256358087528497 ] ] ] } },
{ "type": "Feature", "properties": { "confidence": 0.7457355260848999, "class": 1 }, "geometry": { "type": "Polygon", "coordinates": [ [ [ 403969.684638860635459, 3783492.268565615639091 ], [ 403969.684638860635459, 3783489.521871821023524 ], [ 403969.989827060024254, 3783489.216683621518314 ], [ 403969.989827060024254, 3783488.911495422013104 ], [ 403970.295015259413049, 3783488.606307222973555 ], [ 403970.295015259413049, 3783488.301119023468345 ], [ 403970.905391658190638, 3783487.690742624457926 ], [ 403970.905391658190638, 3783487.080366225913167 ], [ 403971.210579857579432, 3783487.080366225913167 ], [ 403971.515768056968227, 3783486.775178026407957 ], [ 403974.262461851467378, 3783486.775178026407957 ], [ 403974.567650050856173, 3783487.080366225913167 ], [ 403974.567650050856173, 3783488.301119023468345 ], [ 403974.262461851467378, 3783488.606307222973555 ], [ 403974.262461851467378, 3783489.827060020528734 ], [ 403973.346897253300995, 3783490.742624618578702 ], [ 403973.346897253300995, 3783491.047812818083912 ], [ 403972.431332655134611, 3783491.047812818083912 ], [ 403971.515768056968227, 3783491.963377416133881 ], [ 403971.210579857579432, 3783491.963377416133881 ], [ 403970.905391658190638, 3783492.268565615639091 ], [ 403969.684638860635459, 3783492.268565615639091 ] ] ] } },
{ "type": "Feature", "properties": { "confidence": 0.73697000741958618, "class": 1 }, "geometry": { "type": "Polygon", "coordinates": [ [ [ 404080.467955239058938, 3783181.586978636682034 ], [ 404080.467955239058938, 3783181.281790437642485 ], [ 404080.162767039670143, 3783180.976602238137275 ], [ 404080.162767039670143, 3783177.00915564596653 ], [ 404079.857578840281349, 3783176.70396744646132 ], [ 404079.857578840281349, 3783175.788402848411351 ], [ 404079.552390640892554, 3783175.483214648906142 ], [ 404079.552390640892554, 3783175.178026449866593 ], [ 404080.467955239058938, 3783174.262461851350963 ], [ 404082.299084435391705, 3783174.262461851350963 ], [ 404082.909460834169295, 3783174.872838250361383 ], [ 404082.909460834169295, 3783175.483214648906142 ], [ 404084.130213631724473, 3783176.70396744646132 ], [ 404084.740590030502062, 3783176.70396744646132 ], [ 404084.740590030502062, 3783177.00915564596653 ], [ 404085.045778229890857, 3783177.31434384547174 ], [ 404085.045778229890857, 3783178.229908443521708 ], [ 404084.740590030502062, 3783178.535096643026918 ], [ 404084.740590030502062, 3783179.145473041571677 ], [ 404083.825025432335678, 3783180.061037640087306 ], [ 404083.519837232946884, 3783180.061037640087306 ], [ 404083.214649033558089, 3783180.366225839126855 ], [ 404082.909460834169295, 3783180.366225839126855 ], [ 404081.993896236002911, 3783181.281790437642485 ], [ 404081.383519837225322, 3783181.281790437642485 ], [ 404081.078331637836527, 3783181.586978636682034 ], [ 404080.467955239058938, 3783181.586978636682034 ] ] ] } },
{ "type": "Feature", "properties": { "confidence": 0.72842568159103394, "class": 1 }, "geometry": { "type": "Polygon", "coordinates": [ [ [ 403992.573753814853262, 3783494.404883011244237 ], [ 403992.268565615464468, 3783494.099694811739028 ], [ 403991.963377416075673, 3783494.099694811739028 ], [ 403991.658189216686878, 3783493.794506612233818 ], [ 403991.353001017298084, 3783493.794506612233818 ], [ 403991.047812817909289, 3783493.489318413194269 ], [ 403990.742624618520495, 3783493.489318413194269 ], [ 403990.742624618520495, 3783493.184130213689059 ], [ 403990.4374364191317, 3783492.878942014183849 ], [ 403990.4374364191317, 3783491.047812818083912 ], [ 403990.132248219742905, 3783490.742624618578702 ], [ 403990.132248219742905, 3783489.827060020528734 ], [ 403989.827060020354111, 3783489.521871821023524 ], [ 403989.827060020354111, 3783487.385554425418377 ], [ 403989.521871820965316, 3783487.080366225913167 ], [ 403989.827060020354111, 3783487.080366225913167 ], [ 403990.132248219742905, 3783486.775178026407957 ], [ 403990.132248219742905, 3783486.469989826902747 ], [ 403990.4374364191317, 3783486.469989826902747 ], [ 403990.742624618520495, 3783486.164801627863199 ], [ 403991.353001017298084, 3783486.164801627863199 ], [ 403991.658189216686878, 3783486.469989826902747 ], [ 403992.268565615464468, 3783486.469989826902747 ], [ 403992.573753814853262, 3783486.775178026407957 ], [ 403992.878942014242057, 3783486.775178026407957 ], [ 403993.184130213630851, 3783487.080366225913167 ], [ 403993.184130213630851, 3783487.385554425418377 ], [ 403994.40488301118603, 3783488.606307222973555 ], [ 403994.40488301118603, 3783489.216683621518314 ], [ 403994.710071210574824, 3783489.521871821023524 ], [ 403994.710071210574824, 3783490.437436419073492 ], [ 403995.015259409963619, 3783490.742624618578702 ], [ 403995.015259409963619, 3783491.047812818083912 ], [ 403995.320447609352414, 3783491.353001017123461 ], [ 403995.320447609352414, 3783492.878942014183849 ], [ 403994.099694811797235, 3783494.099694811739028 ], [ 403993.794506612408441, 3783494.099694811739028 ], [ 403993.489318413019646, 3783494.404883011244237 ], [ 403992.573753814853262, 3783494.404883011244237 ] ] ] } },
{ "type": "Feature", "properties": { "confidence": 0.7132256031036377, "class": 1 }, "geometry": { "type": "Polygon", "coordinates": [ [ [ 403940.081383519864175, 3783162.360122075304389 ], [ 403940.081383519864175, 3783160.834181078244001 ], [ 403941.302136317419354, 3783159.613428280688822 ], [ 403941.912512716196943, 3783159.613428280688822 ], [ 403942.217700915585738, 3783159.308240081183612 ], [ 403944.659206510696094, 3783159.308240081183612 ], [ 403944.659206510696094, 3783159.613428280688822 ], [ 403944.964394710084889, 3783159.918616480194032 ], [ 403944.964394710084889, 3783161.139369277749211 ], [ 403944.659206510696094, 3783161.444557477254421 ], [ 403944.659206510696094, 3783161.749745676293969 ], [ 403944.3540183113073, 3783161.749745676293969 ], [ 403944.048830111918505, 3783162.054933875799179 ], [ 403943.743641912529711, 3783162.054933875799179 ], [ 403943.438453713140916, 3783162.360122075304389 ], [ 403940.081383519864175, 3783162.360122075304389 ] ] ] } },
{ "type": "Feature", "properties": { "confidence": 0.69406414031982422, "class": 1 }, "geometry": { "type": "Polygon", "coordinates": [ [ [ 404209.867751780257095, 3783420.244150559417903 ], [ 404209.5625635808683, 3783419.938962359912694 ], [ 404208.952187182090711, 3783419.938962359912694 ], [ 404208.646998982701916, 3783419.633774160873145 ], [ 404206.205493387591559, 3783419.633774160873145 ], [ 404205.900305188202765, 3783419.328585961367935 ], [ 404205.900305188202765, 3783416.887080366257578 ], [ 404206.205493387591559, 3783416.581892166752368 ], [ 404206.815869786369149, 3783416.581892166752368 ], [ 404207.121057985757943, 3783416.276703967247158 ], [ 404207.731434384535532, 3783416.276703967247158 ], [ 404208.036622583924327, 3783416.581892166752368 ], [ 404208.646998982701916, 3783416.581892166752368 ], [ 404208.952187182090711, 3783416.887080366257578 ], [ 404209.257375381479505, 3783416.887080366257578 ], [ 404209.5625635808683, 3783417.192268565762788 ], [ 404209.867751780257095, 3783417.192268565762788 ], [ 404210.478128179034684, 3783417.802644964307547 ], [ 404210.783316378423478, 3783417.802644964307547 ], [ 404211.088504577812273, 3783418.107833163812757 ], [ 404211.088504577812273, 3783418.718209562357515 ], [ 404211.393692777201068, 3783419.023397761862725 ], [ 404211.393692777201068, 3783419.938962359912694 ], [ 404211.088504577812273, 3783419.938962359912694 ], [ 404210.783316378423478, 3783420.244150559417903 ], [ 404209.867751780257095, 3783420.244150559417903 ] ] ] } },
{ "type": "Feature", "properties": { "confidence": 0.68875181674957275, "class": 1 }, "geometry": { "type": "Polygon", "coordinates": [ [ [ 404015.462868769071065, 3783452.288911495357752 ], [ 404015.15768056968227, 3783451.983723295852542 ], [ 404014.242115971515886, 3783451.983723295852542 ], [ 404013.936927772127092, 3783451.678535096812993 ], [ 404013.326551373349503, 3783451.678535096812993 ], [ 404013.021363173960708, 3783451.373346897307783 ], [ 404012.105798575794324, 3783451.373346897307783 ], [ 404011.80061037640553, 3783451.068158697802573 ], [ 404011.80061037640553, 3783450.457782299257815 ], [ 404011.495422177016735, 3783450.152594099752605 ], [ 404011.495422177016735, 3783449.542217700742185 ], [ 404011.19023397762794, 3783449.237029501702636 ], [ 404011.19023397762794, 3783448.321464903187007 ], [ 404010.885045778239146, 3783448.016276704147458 ], [ 404010.885045778239146, 3783447.405900305137038 ], [ 404010.579857578850351, 3783447.100712105631828 ], [ 404010.579857578850351, 3783444.659206510521472 ], [ 404010.274669379461557, 3783444.354018311481923 ], [ 404010.274669379461557, 3783442.522889114916325 ], [ 404010.579857578850351, 3783442.217700915411115 ], [ 404010.579857578850351, 3783441.912512716371566 ], [ 404010.885045778239146, 3783441.912512716371566 ], [ 404011.19023397762794, 3783441.607324516866356 ], [ 404013.936927772127092, 3783441.607324516866356 ], [ 404014.852492370293476, 3783442.522889114916325 ], [ 404014.852492370293476, 3783443.743641912471503 ], [ 404015.15768056968227, 3783444.048830111976713 ], [ 404015.15768056968227, 3783447.711088504642248 ], [ 404015.462868769071065, 3783448.016276704147458 ], [ 404015.462868769071065, 3783448.321464903187007 ], [ 404015.768056968459859, 3783448.626653102692217 ], [ 404015.768056968459859, 3783451.983723295852542 ], [ 404015.462868769071065, 3783452.288911495357752 ] ] ] } },
{ "type": "Feature", "properties": { "confidence": 0.68562006950378418, "class": 1 }, "geometry": { "type": "Polygon", "coordinates": [ [ [ 404159.51169888098957, 3783182.197355035692453 ], [ 404159.206510681600776, 3783181.892166836187243 ], [ 404158.901322482211981, 3783181.892166836187243 ], [ 404158.596134282823186, 3783181.586978636682034 ], [ 404158.596134282823186, 3783180.061037640087306 ], [ 404159.51169888098957, 3783179.145473041571677 ], [ 404159.816887080378365, 3783179.145473041571677 ], [ 404160.122075279767159, 3783178.840284842532128 ], [ 404161.648016276711132, 3783178.840284842532128 ], [ 404162.868769074266311, 3783180.061037640087306 ], [ 404162.868769074266311, 3783180.366225839126855 ], [ 404162.563580874877516, 3783180.671414038632065 ], [ 404162.563580874877516, 3783180.976602238137275 ], [ 404161.342828077322338, 3783182.197355035692453 ], [ 404159.51169888098957, 3783182.197355035692453 ] ] ] } },
{ "type": "Feature", "properties": { "confidence": 0.67925542593002319, "class": 1 }, "geometry": { "type": "Polygon", "coordinates": [ [ [ 404139.674465920659713, 3783217.293997965287417 ], [ 404139.369277721270919, 3783216.988809766247869 ], [ 404138.75890132249333, 3783216.988809766247869 ], [ 404139.064089521882124, 3783216.683621566742659 ], [ 404139.064089521882124, 3783214.547304171137512 ], [ 404139.369277721270919, 3783214.242115971632302 ], [ 404139.369277721270919, 3783213.936927772127092 ], [ 404139.674465920659713, 3783213.631739572621882 ], [ 404139.674465920659713, 3783211.495422177016735 ], [ 404139.979654120048508, 3783211.190233977511525 ], [ 404139.979654120048508, 3783210.885045778006315 ], [ 404140.284842319437303, 3783210.579857578966767 ], [ 404140.284842319437303, 3783210.274669379461557 ], [ 404140.590030518826097, 3783209.969481179956347 ], [ 404140.590030518826097, 3783209.664292980451137 ], [ 404147.304170905379578, 3783209.664292980451137 ], [ 404147.304170905379578, 3783209.969481179956347 ], [ 404146.998982705990784, 3783210.274669379461557 ], [ 404146.998982705990784, 3783210.885045778006315 ], [ 404146.693794506601989, 3783211.190233977511525 ], [ 404146.693794506601989, 3783211.800610376521945 ], [ 404146.388606307213195, 3783212.105798575561494 ], [ 404146.388606307213195, 3783212.410986775066704 ], [ 404146.0834181078244, 3783212.410986775066704 ], [ 404145.473041709046811, 3783213.021363174077123 ], [ 404144.862665310269222, 3783213.021363174077123 ], [ 404144.557477110880427, 3783213.326551373116672 ], [ 404144.252288911491632, 3783213.326551373116672 ], [ 404143.641912512714043, 3783213.936927772127092 ], [ 404143.641912512714043, 3783214.242115971632302 ], [ 404143.336724313325249, 3783214.547304171137512 ], [ 404143.336724313325249, 3783214.85249237017706 ], [ 404143.031536113936454, 3783215.15768056968227 ], [ 404143.031536113936454, 3783215.46286876918748 ], [ 404141.810783316381276, 3783216.683621566742659 ], [ 404141.505595116992481, 3783216.683621566742659 ], [ 404141.200406917603686, 3783216.988809766247869 ], [ 404140.590030518826097, 3783216.988809766247869 ], [ 404140.284842319437303, 3783217.293997965287417 ], [ 404139.674465920659713, 3783217.293997965287417 ] ] ] } },
{ "type": "Feature", "properties": { "confidence": 0.64774912595748901, "class": 1 }, "geometry": { "type": "Polygon", "coordinates": [ [ [ 404387.182095625612419, 3783357.070193286053836 ], [ 404387.182095625612419, 3783356.765005086548626 ], [ 404386.57171922683483, 3783356.154628687538207 ], [ 404386.57171922683483, 3783354.933875889983028 ], [ 404386.266531027446035, 3783354.62868769094348 ], [ 404386.266531027446035, 3783353.71312309242785 ], [ 404386.57171922683483, 3783353.407934893388301 ], [ 404386.57171922683483, 3783353.102746693883091 ], [ 404386.876907426223624, 3783352.797558494377881 ], [ 404388.097660223778803, 3783352.797558494377881 ], [ 404388.402848423167598, 3783352.492370294872671 ], [ 404388.708036622556392, 3783352.492370294872671 ], [ 404389.013224821945187, 3783352.797558494377881 ], [ 404389.623601220780984, 3783352.797558494377881 ], [ 404389.928789420169778, 3783352.492370294872671 ], [ 404389.928789420169778, 3783352.187182095833123 ], [ 404390.844354018336162, 3783352.187182095833123 ], [ 404390.844354018336162, 3783352.492370294872671 ], [ 404391.149542217724957, 3783352.797558494377881 ], [ 404391.149542217724957, 3783353.102746693883091 ], [ 404390.844354018336162, 3783353.407934893388301 ], [ 404390.844354018336162, 3783356.154628687538207 ], [ 404390.233977619558573, 3783356.765005086548626 ], [ 404389.318413021392189, 3783356.765005086548626 ], [ 404389.013224821945187, 3783357.070193286053836 ], [ 404387.182095625612419, 3783357.070193286053836 ] ] ] } },
{ "type": "Feature", "properties": { "confidence": 0.60270309448242188, "class": 1 }, "geometry": { "type": "Polygon", "coordinates": [ [ [ 403863.784333672432695, 3783448.321464903187007 ], [ 403861.648016276711132, 3783446.18514750758186 ], [ 403861.648016276711132, 3783444.964394710026681 ], [ 403861.953204476099927, 3783444.659206510521472 ], [ 403869.888097660208587, 3783444.659206510521472 ], [ 403869.582909460819792, 3783444.964394710026681 ], [ 403869.582909460819792, 3783446.18514750758186 ], [ 403868.972533062042203, 3783446.79552390659228 ], [ 403868.667344862653408, 3783446.79552390659228 ], [ 403868.362156663264614, 3783447.100712105631828 ], [ 403868.056968463875819, 3783447.100712105631828 ], [ 403867.44659206509823, 3783447.711088504642248 ], [ 403867.141403865709435, 3783447.711088504642248 ], [ 403866.836215666320641, 3783448.016276704147458 ], [ 403865.920651068154257, 3783448.016276704147458 ], [ 403865.615462868765462, 3783448.321464903187007 ], [ 403863.784333672432695, 3783448.321464903187007 ] ] ] } },
{ "type": "Feature", "properties": { "confidence": 0.58418023586273193, "class": 1 }, "geometry": { "type": "Polygon", "coordinates": [ [ [ 404118.616480162774678, 3783330.82400813838467 ], [ 404118.311291963385884, 3783330.51881993887946 ], [ 404117.3957273652195, 3783330.51881993887946 ], [ 404117.3957273652195, 3783330.21363173937425 ], [ 404117.090539165830705, 3783329.908443540334702 ], [ 404117.090539165830705, 3783329.298067141324282 ], [ 404116.785350966441911, 3783328.992878941819072 ], [ 404116.785350966441911, 3783328.687690742779523 ], [ 404116.480162767053116, 3783328.382502543274313 ], [ 404116.480162767053116, 3783326.856561546213925 ], [ 404120.447609359107446, 3783326.856561546213925 ], [ 404120.447609359107446, 3783327.772126144263893 ], [ 404120.142421159718651, 3783328.077314343769103 ], [ 404120.142421159718651, 3783329.908443540334702 ], [ 404119.837232960329857, 3783330.21363173937425 ], [ 404119.837232960329857, 3783330.51881993887946 ], [ 404119.532044760941062, 3783330.51881993887946 ], [ 404119.226856561552268, 3783330.82400813838467 ], [ 404118.616480162774678, 3783330.82400813838467 ] ] ] } },
{ "type": "Feature", "properties": { "confidence": 0.57864910364151001, "class": 1 }, "geometry": { "type": "Polygon", "coordinates": [ [ [ 404002.339776195294689, 3783215.15768056968227 ], [ 404001.424211597128306, 3783214.242115971632302 ], [ 404001.119023397739511, 3783214.242115971632302 ], [ 404001.119023397739511, 3783213.631739572621882 ], [ 404000.813835198350716, 3783213.326551373116672 ], [ 404000.508646998961922, 3783213.326551373116672 ], [ 404000.508646998961922, 3783213.021363174077123 ], [ 403999.898270600184333, 3783212.410986775066704 ], [ 403999.593082400795538, 3783212.410986775066704 ], [ 403999.287894201406743, 3783212.105798575561494 ], [ 403999.287894201406743, 3783211.800610376521945 ], [ 403998.982706002017949, 3783211.495422177016735 ], [ 403998.677517802629154, 3783211.495422177016735 ], [ 403998.677517802629154, 3783210.885045778006315 ], [ 403998.37232960324036, 3783210.579857578966767 ], [ 403998.067141403851565, 3783210.579857578966767 ], [ 403998.067141403851565, 3783209.664292980451137 ], [ 404005.391658189240843, 3783209.664292980451137 ], [ 404005.391658189240843, 3783209.969481179956347 ], [ 404005.696846388629638, 3783210.274669379461557 ], [ 404005.696846388629638, 3783213.326551373116672 ], [ 404005.391658189240843, 3783213.631739572621882 ], [ 404005.391658189240843, 3783213.936927772127092 ], [ 404004.476093591074459, 3783214.85249237017706 ], [ 404004.170905391685665, 3783214.85249237017706 ], [ 404003.86571719229687, 3783215.15768056968227 ], [ 404002.339776195294689, 3783215.15768056968227 ] ] ] } },
{ "type": "Feature", "properties": { "confidence": 0.50608187913894653, "class": 1 }, "geometry": { "type": "Polygon", "coordinates": [ [ [ 403995.625635808741208, 3783159.613428280688822 ], [ 403995.320447609352414, 3783159.308240081183612 ], [ 403995.015259409963619, 3783159.308240081183612 ], [ 403995.015259409963619, 3783158.087487283628434 ], [ 403995.320447609352414, 3783157.782299084588885 ], [ 403995.320447609352414, 3783157.477110885083675 ], [ 403996.541200406907592, 3783156.256358087528497 ], [ 403996.846388606296387, 3783156.256358087528497 ], [ 403997.151576805685181, 3783155.951169888023287 ], [ 403997.456765005073976, 3783155.951169888023287 ], [ 403997.76195320446277, 3783155.645981688518077 ], [ 403999.898270600184333, 3783155.645981688518077 ], [ 403999.898270600184333, 3783157.782299084588885 ], [ 403999.593082400795538, 3783158.087487283628434 ], [ 403999.593082400795538, 3783158.392675483133644 ], [ 403999.287894201406743, 3783158.697863682638854 ], [ 403999.287894201406743, 3783159.003051882144064 ], [ 403998.677517802629154, 3783159.613428280688822 ], [ 403995.625635808741208, 3783159.613428280688822 ] ] ] } },
{ "type": "Feature", "properties": { "confidence": 0.50388419628143311, "class": 1 }, "geometry": { "type": "Polygon", "coordinates": [ [ [ 404102.441505595110357, 3783236.215666327625513 ], [ 404101.831129196332768, 3783235.605289928615093 ], [ 404101.525940996943973, 3783235.605289928615093 ], [ 404100.915564598166384, 3783234.994913530070335 ], [ 404100.915564598166384, 3783233.468972533009946 ], [ 404101.220752797555178, 3783233.163784333504736 ], [ 404101.220752797555178, 3783232.858596134465188 ], [ 404102.136317395721562, 3783231.943031535949558 ], [ 404102.746693794499151, 3783231.943031535949558 ], [ 404103.051881993887946, 3783231.637843336910009 ], [ 404104.577822990831919, 3783231.637843336910009 ], [ 404104.883011190220714, 3783231.332655137404799 ], [ 404104.883011190220714, 3783231.02746693789959 ], [ 404106.408952187164687, 3783231.02746693789959 ], [ 404106.714140386553481, 3783230.72227873839438 ], [ 404107.93489318410866, 3783230.72227873839438 ], [ 404108.240081383497454, 3783231.02746693789959 ], [ 404108.240081383497454, 3783231.637843336910009 ], [ 404108.545269582886249, 3783231.943031535949558 ], [ 404108.545269582886249, 3783232.248219735454768 ], [ 404108.850457782275043, 3783232.553407934959978 ], [ 404108.850457782275043, 3783233.468972533009946 ], [ 404108.545269582886249, 3783233.774160732515156 ], [ 404108.545269582886249, 3783234.079348932020366 ], [ 404107.629704984719865, 3783234.079348932020366 ], [ 404107.32451678533107, 3783234.384537131059915 ], [ 404107.019328585942276, 3783234.384537131059915 ], [ 404105.188199389609508, 3783236.215666327625513 ], [ 404102.441505595110357, 3783236.215666327625513 ] ] ] } },
{ "type": "Feature", "properties": { "confidence": 0.49844962358474731, "class": 1 }, "geometry": { "type": "Polygon", "coordinates": [ [ [ 403996.541200406907592, 3783576.5005086469464 ], [ 403996.236012207518797, 3783576.19532044744119 ], [ 403996.236012207518797, 3783575.890132248401642 ], [ 403995.930824008130003, 3783575.584944048896432 ], [ 403995.930824008130003, 3783574.974567649886012 ], [ 403995.625635808741208, 3783574.669379450846463 ], [ 403995.625635808741208, 3783574.364191251341254 ], [ 403995.320447609352414, 3783574.059003051836044 ], [ 403995.320447609352414, 3783573.448626653291285 ], [ 403995.015259409963619, 3783573.143438453786075 ], [ 403995.015259409963619, 3783572.227873855736107 ], [ 403995.320447609352414, 3783571.922685656230897 ], [ 403995.320447609352414, 3783571.617497456725687 ], [ 403996.236012207518797, 3783570.701932858675718 ], [ 403997.151576805685181, 3783570.701932858675718 ], [ 403997.456765005073976, 3783570.396744659170508 ], [ 403997.76195320446277, 3783570.701932858675718 ], [ 403998.37232960324036, 3783570.701932858675718 ], [ 403998.677517802629154, 3783571.007121058180928 ], [ 403998.982706002017949, 3783571.007121058180928 ], [ 403999.287894201406743, 3783571.312309257220477 ], [ 404000.203458799573127, 3783571.312309257220477 ], [ 404000.508646998961922, 3783571.617497456725687 ], [ 404001.424211597128306, 3783571.617497456725687 ], [ 404001.7293997965171, 3783571.922685656230897 ], [ 404002.644964394683484, 3783571.922685656230897 ], [ 404002.950152594072279, 3783572.227873855736107 ], [ 404003.255340793461073, 3783572.227873855736107 ], [ 404003.255340793461073, 3783572.533062054775655 ], [ 404003.86571719229687, 3783573.143438453786075 ], [ 404003.86571719229687, 3783573.448626653291285 ], [ 404004.170905391685665, 3783573.753814852330834 ], [ 404004.170905391685665, 3783574.974567649886012 ], [ 404003.86571719229687, 3783574.974567649886012 ], [ 404003.255340793461073, 3783575.584944048896432 ], [ 404002.950152594072279, 3783575.584944048896432 ], [ 404002.644964394683484, 3783575.890132248401642 ], [ 404002.339776195294689, 3783575.890132248401642 ], [ 404002.034587995905895, 3783576.19532044744119 ], [ 404001.424211597128306, 3783576.19532044744119 ], [ 404001.119023397739511, 3783576.5005086469464 ], [ 403996.541200406907592, 3783576.5005086469464 ] ] ] } },
{ "type": "Feature", "properties": { "confidence": 0.49760693311691284, "class": 1 }, "geometry": { "type": "Polygon", "coordinates": [ [ [ 404187.894201424205676, 3783189.827060020528734 ], [ 404187.589013224816881, 3783189.521871821023524 ], [ 404186.063072227872908, 3783189.521871821023524 ], [ 404185.452695829095319, 3783188.911495422013104 ], [ 404185.452695829095319, 3783188.301119023468345 ], [ 404185.757884028484114, 3783187.995930823963135 ], [ 404185.757884028484114, 3783182.502543235197663 ], [ 404186.063072227872908, 3783182.197355035692453 ], [ 404186.063072227872908, 3783181.586978636682034 ], [ 404186.368260427261703, 3783181.281790437642485 ], [ 404186.368260427261703, 3783180.976602238137275 ], [ 404187.283825025428087, 3783180.061037640087306 ], [ 404187.283825025428087, 3783179.755849440582097 ], [ 404187.589013224816881, 3783179.755849440582097 ], [ 404187.894201424205676, 3783179.450661241076887 ], [ 404188.19938962359447, 3783179.450661241076887 ], [ 404188.504577822983265, 3783179.145473041571677 ], [ 404190.335707019316033, 3783179.145473041571677 ], [ 404190.335707019316033, 3783189.827060020528734 ], [ 404187.894201424205676, 3783189.827060020528734 ] ] ] } },
{ "type": "Feature", "properties": { "confidence": 0.48514819145202637, "class": 1 }, "geometry": { "type": "Polygon", "coordinates": [ [ [ 404042.624618514731992, 3783470.905391658190638 ], [ 404042.319430315343197, 3783470.600203458685428 ], [ 404041.403865717176814, 3783470.600203458685428 ], [ 404041.098677517788019, 3783470.295015259180218 ], [ 404040.48830111901043, 3783470.295015259180218 ], [ 404040.183112919621635, 3783469.989827060140669 ], [ 404039.877924720232841, 3783469.989827060140669 ], [ 404039.267548321455251, 3783469.37945066113025 ], [ 404038.962360122066457, 3783469.37945066113025 ], [ 404038.657171922677662, 3783469.07426246162504 ], [ 404038.657171922677662, 3783467.243133265525103 ], [ 404038.351983723288868, 3783466.937945066019893 ], [ 404038.351983723288868, 3783466.327568667475134 ], [ 404038.046795523900073, 3783466.022380467969924 ], [ 404038.046795523900073, 3783465.717192268464714 ], [ 404037.741607324511278, 3783465.412004068959504 ], [ 404038.046795523900073, 3783465.106815869919956 ], [ 404038.046795523900073, 3783464.801627670414746 ], [ 404038.351983723288868, 3783464.496439470909536 ], [ 404038.962360122066457, 3783464.496439470909536 ], [ 404039.267548321455251, 3783464.191251271404326 ], [ 404039.572736520844046, 3783464.191251271404326 ], [ 404039.877924720232841, 3783463.886063072364777 ], [ 404040.183112919621635, 3783463.886063072364777 ], [ 404040.48830111901043, 3783463.580874872859567 ], [ 404042.624618514731992, 3783463.580874872859567 ], [ 404042.624618514731992, 3783463.886063072364777 ], [ 404042.929806714120787, 3783464.191251271404326 ], [ 404043.234994913509581, 3783464.191251271404326 ], [ 404043.234994913509581, 3783464.496439470909536 ], [ 404043.540183112898376, 3783464.801627670414746 ], [ 404044.760935910453554, 3783464.801627670414746 ], [ 404045.066124109842349, 3783465.106815869919956 ], [ 404045.371312309231143, 3783465.106815869919956 ], [ 404046.286876907397527, 3783466.022380467969924 ], [ 404046.286876907397527, 3783468.769074262585491 ], [ 404045.981688708008733, 3783469.07426246162504 ], [ 404045.981688708008733, 3783469.684638860635459 ], [ 404045.066124109842349, 3783470.600203458685428 ], [ 404044.150559511675965, 3783470.600203458685428 ], [ 404043.84537131228717, 3783470.905391658190638 ], [ 404042.624618514731992, 3783470.905391658190638 ] ] ] } },
{ "type": "Feature", "properties": { "confidence": 0.47413364052772522, "class": 1 }, "geometry": { "type": "Polygon", "coordinates": [ [ [ 404271.820956256357022, 3783380.264496439602226 ], [ 404271.515768056968227, 3783379.959308240097016 ], [ 404271.515768056968227, 3783376.907426245976239 ], [ 404271.820956256357022, 3783376.602238046936691 ], [ 404271.820956256357022, 3783375.686673448421061 ], [ 404272.126144455745816, 3783375.381485249381512 ], [ 404272.126144455745816, 3783375.076297049876302 ], [ 404273.0417090539122, 3783374.160732451826334 ], [ 404273.0417090539122, 3783373.855544252321124 ], [ 404273.346897253300995, 3783373.550356052815914 ], [ 404273.346897253300995, 3783373.245167853310704 ], [ 404273.957273652078584, 3783372.634791454765946 ], [ 404274.567650050856173, 3783372.634791454765946 ], [ 404274.872838250244968, 3783372.329603255260736 ], [ 404275.178026449633762, 3783372.329603255260736 ], [ 404275.483214649022557, 3783372.024415055755526 ], [ 404277.00915564596653, 3783372.024415055755526 ], [ 404277.314343845355324, 3783372.329603255260736 ], [ 404277.00915564596653, 3783372.634791454765946 ], [ 404277.00915564596653, 3783376.297049847431481 ], [ 404276.703967446577735, 3783376.602238046936691 ], [ 404276.703967446577735, 3783376.907426245976239 ], [ 404276.398779247188941, 3783377.212614445481449 ], [ 404276.398779247188941, 3783377.517802644986659 ], [ 404276.093591047800146, 3783377.822990844491869 ], [ 404276.093591047800146, 3783378.128179043531418 ], [ 404275.788402848411351, 3783378.433367243036628 ], [ 404275.788402848411351, 3783378.738555442541838 ], [ 404274.872838250244968, 3783379.654120040591806 ], [ 404274.567650050856173, 3783379.654120040591806 ], [ 404274.262461851467378, 3783379.959308240097016 ], [ 404273.957273652078584, 3783379.959308240097016 ], [ 404273.652085452689789, 3783380.264496439602226 ], [ 404271.820956256357022, 3783380.264496439602226 ] ] ] } },
{ "type": "Feature", "properties": { "confidence": 0.4516008198261261, "class": 1 }, "geometry": { "type": "Polygon", "coordinates": [ [ [ 404277.924720244132914, 3783289.318413021508604 ], [ 404277.619532044744119, 3783289.013224822003394 ], [ 404276.398779247188941, 3783289.013224822003394 ], [ 404276.093591047800146, 3783288.708036622498184 ], [ 404275.788402848411351, 3783288.708036622498184 ], [ 404274.567650050856173, 3783287.487283824943006 ], [ 404274.567650050856173, 3783287.182095625437796 ], [ 404274.872838250244968, 3783286.876907426398247 ], [ 404274.872838250244968, 3783286.266531027387828 ], [ 404275.178026449633762, 3783285.961342827882618 ], [ 404275.178026449633762, 3783281.688708036672324 ], [ 404276.398779247188941, 3783280.467955239117146 ], [ 404276.398779247188941, 3783279.857578840106726 ], [ 404276.703967446577735, 3783279.857578840106726 ], [ 404277.00915564596653, 3783279.552390641067177 ], [ 404278.840284842299297, 3783279.552390641067177 ], [ 404279.145473041688092, 3783279.857578840106726 ], [ 404279.145473041688092, 3783281.078331637661904 ], [ 404279.450661241076887, 3783281.383519837167114 ], [ 404279.450661241076887, 3783281.688708036672324 ], [ 404279.755849440465681, 3783281.993896236177534 ], [ 404279.755849440465681, 3783282.604272634722292 ], [ 404280.061037639854476, 3783282.909460834227502 ], [ 404280.061037639854476, 3783283.519837232772261 ], [ 404280.36622583924327, 3783283.825025432277471 ], [ 404280.36622583924327, 3783284.435401831287891 ], [ 404280.671414038632065, 3783284.740590030327439 ], [ 404280.671414038632065, 3783288.097660223953426 ], [ 404280.061037639854476, 3783288.708036622498184 ], [ 404279.755849440465681, 3783288.708036622498184 ], [ 404279.450661241076887, 3783289.013224822003394 ], [ 404278.535096642910503, 3783289.013224822003394 ], [ 404278.229908443521708, 3783289.318413021508604 ], [ 404277.924720244132914, 3783289.318413021508604 ] ] ] } },
{ "type": "Feature", "properties": { "confidence": 0.45047327876091003, "class": 1 }, "geometry": { "type": "Polygon", "coordinates": [ [ [ 404019.1251271617366, 3783285.350966429337859 ], [ 404018.819938962347806, 3783285.045778229832649 ], [ 404018.819938962347806, 3783284.435401831287891 ], [ 404018.514750762959011, 3783284.130213631782681 ], [ 404018.514750762959011, 3783283.214649033732712 ], [ 404018.209562563570216, 3783282.909460834227502 ], [ 404018.209562563570216, 3783282.299084435217083 ], [ 404017.904374364181422, 3783281.993896236177534 ], [ 404017.904374364181422, 3783281.383519837167114 ], [ 404018.209562563570216, 3783281.078331637661904 ], [ 404018.209562563570216, 3783280.162767039611936 ], [ 404018.819938962347806, 3783279.552390641067177 ], [ 404020.040691759902984, 3783279.552390641067177 ], [ 404020.345879959291779, 3783279.247202441561967 ], [ 404022.177009155624546, 3783279.247202441561967 ], [ 404022.482197355013341, 3783279.552390641067177 ], [ 404023.702950152568519, 3783279.552390641067177 ], [ 404024.008138351957314, 3783279.857578840106726 ], [ 404024.008138351957314, 3783280.467955239117146 ], [ 404024.313326551346108, 3783280.773143438622355 ], [ 404024.313326551346108, 3783281.383519837167114 ], [ 404024.008138351957314, 3783281.688708036672324 ], [ 404024.008138351957314, 3783282.604272634722292 ], [ 404023.702950152568519, 3783282.604272634722292 ], [ 404023.09257375379093, 3783283.214649033732712 ], [ 404023.09257375379093, 3783283.519837232772261 ], [ 404021.871820956235752, 3783284.740590030327439 ], [ 404021.566632756846957, 3783284.740590030327439 ], [ 404021.261444557458162, 3783285.045778229832649 ], [ 404020.956256358069368, 3783285.045778229832649 ], [ 404020.651068158680573, 3783285.350966429337859 ], [ 404019.1251271617366, 3783285.350966429337859 ] ] ] } },
{ "type": "Feature", "properties": { "confidence": 0.43847492337226868, "class": 1 }, "geometry": { "type": "Polygon", "coordinates": [ [ [ 404035.910478128178511, 3783204.476093591190875 ], [ 404035.910478128178511, 3783202.644964394625276 ], [ 404036.215666327567305, 3783202.339776195120066 ], [ 404036.215666327567305, 3783202.034587996080518 ], [ 404036.5208545269561, 3783201.729399796575308 ], [ 404036.5208545269561, 3783201.424211597070098 ], [ 404036.826042726344895, 3783201.424211597070098 ], [ 404038.657171922677662, 3783199.593082400970161 ], [ 404038.657171922677662, 3783198.982706001959741 ], [ 404039.877924720232841, 3783197.761953204404563 ], [ 404040.793489318399224, 3783197.761953204404563 ], [ 404041.098677517788019, 3783197.456765004899353 ], [ 404042.319430315343197, 3783197.456765004899353 ], [ 404042.929806714120787, 3783198.067141403909773 ], [ 404042.929806714120787, 3783198.372329603414983 ], [ 404043.234994913509581, 3783198.677517802454531 ], [ 404043.234994913509581, 3783198.982706001959741 ], [ 404043.540183112898376, 3783199.287894201464951 ], [ 404043.540183112898376, 3783201.424211597070098 ], [ 404041.403865717176814, 3783203.560528992675245 ], [ 404041.098677517788019, 3783203.560528992675245 ], [ 404040.793489318399224, 3783203.865717192180455 ], [ 404040.48830111901043, 3783203.865717192180455 ], [ 404039.877924720232841, 3783204.476093591190875 ], [ 404038.657171922677662, 3783204.476093591190875 ], [ 404038.351983723288868, 3783204.170905391685665 ], [ 404037.436419125122484, 3783204.170905391685665 ], [ 404037.131230925733689, 3783204.476093591190875 ], [ 404035.910478128178511, 3783204.476093591190875 ] ] ] } },
{ "type": "Feature", "properties": { "confidence": 0.41154462099075317, "class": 1 }, "geometry": { "type": "Polygon", "coordinates": [ [ [ 404114.954221770109143, 3783306.714140386786312 ], [ 404114.649033570720349, 3783306.408952187281102 ], [ 404114.343845371331554, 3783306.408952187281102 ], [ 404113.733468972553965, 3783305.798575788270682 ], [ 404113.733468972553965, 3783305.493387589231133 ], [ 404113.42828077316517, 3783305.188199389725924 ], [ 404113.42828077316517, 3783303.357070193160325 ], [ 404113.733468972553965, 3783303.051881994120777 ], [ 404113.733468972553965, 3783302.746693794615567 ], [ 404114.343845371331554, 3783302.136317395605147 ], [ 404115.259409969497938, 3783302.136317395605147 ], [ 404115.564598168886732, 3783301.831129196565598 ], [ 404116.785350966441911, 3783301.831129196565598 ], [ 404117.090539165830705, 3783302.136317395605147 ], [ 404117.700915564608295, 3783302.136317395605147 ], [ 404118.616480162774678, 3783303.051881994120777 ], [ 404118.921668362163473, 3783303.051881994120777 ], [ 404119.226856561552268, 3783303.357070193160325 ], [ 404119.226856561552268, 3783303.967446592170745 ], [ 404119.532044760941062, 3783304.272634791675955 ], [ 404119.532044760941062, 3783304.883011190220714 ], [ 404119.226856561552268, 3783305.188199389725924 ], [ 404119.226856561552268, 3783305.798575788270682 ], [ 404118.921668362163473, 3783305.798575788270682 ], [ 404118.616480162774678, 3783306.103763987775892 ], [ 404118.006103763997089, 3783306.103763987775892 ], [ 404117.700915564608295, 3783306.408952187281102 ], [ 404117.090539165830705, 3783306.408952187281102 ], [ 404116.785350966441911, 3783306.714140386786312 ], [ 404114.954221770109143, 3783306.714140386786312 ] ] ] } },
{ "type": "Feature", "properties": { "confidence": 0.39756637811660767, "class": 1 }, "geometry": { "type": "Polygon", "coordinates": [ [ [ 404022.177009155624546, 3783446.49033570708707 ], [ 404021.871820956235752, 3783446.18514750758186 ], [ 404021.261444557458162, 3783446.18514750758186 ], [ 404020.956256358069368, 3783445.87995930807665 ], [ 404020.651068158680573, 3783445.87995930807665 ], [ 404019.735503560514189, 3783444.964394710026681 ], [ 404019.735503560514189, 3783444.048830111976713 ], [ 404027.975584944069851, 3783444.048830111976713 ], [ 404027.975584944069851, 3783444.659206510521472 ], [ 404026.449643947125878, 3783446.18514750758186 ], [ 404025.839267548348289, 3783446.18514750758186 ], [ 404025.534079348959494, 3783446.49033570708707 ], [ 404022.177009155624546, 3783446.49033570708707 ] ] ] } },
{ "type": "Feature", "properties": { "confidence": 0.37503436207771301, "class": 1 }, "geometry": { "type": "Polygon", "coordinates": [ [ [ 404308.748728382517584, 3783376.907426245976239 ], [ 404308.443540183128789, 3783376.602238046936691 ], [ 404308.443540183128789, 3783374.465920650865883 ], [ 404308.748728382517584, 3783374.160732451826334 ], [ 404308.748728382517584, 3783373.855544252321124 ], [ 404309.359104781295173, 3783373.245167853310704 ], [ 404309.664292980683967, 3783373.245167853310704 ], [ 404309.969481180072762, 3783372.939979654271156 ], [ 404310.274669379461557, 3783372.939979654271156 ], [ 404310.579857578850351, 3783372.634791454765946 ], [ 404310.885045778239146, 3783372.634791454765946 ], [ 404312.105798575794324, 3783371.414038657210767 ], [ 404313.631739572738297, 3783371.414038657210767 ], [ 404313.936927772127092, 3783371.719226856715977 ], [ 404314.242115971515886, 3783371.719226856715977 ], [ 404314.547304170904681, 3783372.024415055755526 ], [ 404314.852492370293476, 3783372.024415055755526 ], [ 404315.15768056968227, 3783372.329603255260736 ], [ 404315.15768056968227, 3783372.939979654271156 ], [ 404315.462868769071065, 3783373.245167853310704 ], [ 404315.462868769071065, 3783374.465920650865883 ], [ 404315.15768056968227, 3783374.771108850371093 ], [ 404315.15768056968227, 3783375.381485249381512 ], [ 404314.242115971515886, 3783375.381485249381512 ], [ 404313.936927772127092, 3783375.686673448421061 ], [ 404313.631739572738297, 3783375.686673448421061 ], [ 404313.326551373349503, 3783375.991861647926271 ], [ 404311.80061037640553, 3783375.991861647926271 ], [ 404311.495422177016735, 3783376.297049847431481 ], [ 404310.885045778239146, 3783376.297049847431481 ], [ 404310.579857578850351, 3783376.602238046936691 ], [ 404309.969481180072762, 3783376.602238046936691 ], [ 404309.664292980683967, 3783376.907426245976239 ], [ 404308.748728382517584, 3783376.907426245976239 ] ] ] } },
{ "type": "Feature", "properties": { "confidence": 0.33757662773132324, "class": 1 }, "geometry": { "type": "Polygon", "coordinates": [ [ [ 403921.464903357089497, 3783233.163784333504736 ], [ 403921.159715157700703, 3783232.858596134465188 ], [ 403919.938962360145524, 3783232.858596134465188 ], [ 403919.938962360145524, 3783229.501525940839201 ], [ 403919.02339776197914, 3783228.585961342789233 ], [ 403919.02339776197914, 3783227.975584944244474 ], [ 403918.718209562590346, 3783227.670396744739264 ], [ 403918.718209562590346, 3783226.144455747678876 ], [ 403919.02339776197914, 3783225.839267548173666 ], [ 403919.02339776197914, 3783225.534079349134117 ], [ 403919.328585961367935, 3783225.534079349134117 ], [ 403919.63377416075673, 3783225.228891149628907 ], [ 403919.938962360145524, 3783225.228891149628907 ], [ 403920.244150559534319, 3783225.534079349134117 ], [ 403920.854526958311908, 3783225.534079349134117 ], [ 403921.464903357089497, 3783226.144455747678876 ], [ 403922.99084435403347, 3783226.144455747678876 ], [ 403923.296032553422265, 3783226.449643947184086 ], [ 403923.601220752811059, 3783226.449643947184086 ], [ 403923.601220752811059, 3783227.365208545234054 ], [ 403923.906408952199854, 3783227.670396744739264 ], [ 403923.906408952199854, 3783230.111902339849621 ], [ 403924.211597151588649, 3783230.417090539354831 ], [ 403924.211597151588649, 3783232.248219735454768 ], [ 403923.906408952199854, 3783232.553407934959978 ], [ 403923.906408952199854, 3783232.858596134465188 ], [ 403923.601220752811059, 3783233.163784333504736 ], [ 403921.464903357089497, 3783233.163784333504736 ] ] ] } },
{ "type": "Feature", "properties": { "confidence": 0.33010265231132507, "class": 1 }, "geometry": { "type": "Polygon", "coordinates": [ [ [ 404122.889114954217803, 3783448.016276704147458 ], [ 404122.583926754829008, 3783447.711088504642248 ], [ 404121.973550356051419, 3783447.711088504642248 ], [ 404121.973550356051419, 3783447.100712105631828 ], [ 404121.668362156662624, 3783446.79552390659228 ], [ 404121.668362156662624, 3783446.49033570708707 ], [ 404121.36317395727383, 3783446.18514750758186 ], [ 404121.36317395727383, 3783445.269582909531891 ], [ 404121.668362156662624, 3783444.964394710026681 ], [ 404121.668362156662624, 3783444.659206510521472 ], [ 404121.973550356051419, 3783444.354018311481923 ], [ 404121.973550356051419, 3783444.048830111976713 ], [ 404129.298067141382489, 3783444.048830111976713 ], [ 404129.298067141382489, 3783444.354018311481923 ], [ 404128.382502543216106, 3783445.269582909531891 ], [ 404128.077314343827311, 3783445.269582909531891 ], [ 404127.466937945049722, 3783445.87995930807665 ], [ 404127.161749745660927, 3783445.87995930807665 ], [ 404126.856561546272133, 3783446.18514750758186 ], [ 404126.551373346883338, 3783446.18514750758186 ], [ 404126.246185147494543, 3783446.49033570708707 ], [ 404125.940996948105749, 3783446.49033570708707 ], [ 404125.33062054932816, 3783447.100712105631828 ], [ 404125.025432349939365, 3783447.100712105631828 ], [ 404124.72024415055057, 3783447.405900305137038 ], [ 404124.72024415055057, 3783447.711088504642248 ], [ 404124.415055951161776, 3783447.711088504642248 ], [ 404124.109867751772981, 3783448.016276704147458 ], [ 404122.889114954217803, 3783448.016276704147458 ] ] ] } },
{ "type": "Feature", "properties": { "confidence": 0.32175984978675842, "class": 1 }, "geometry": { "type": "Polygon", "coordinates": [ [ [ 403931.536113936919719, 3783216.988809766247869 ], [ 403930.92573753814213, 3783216.378433367237449 ], [ 403930.92573753814213, 3783213.631739572621882 ], [ 403931.230925737530924, 3783213.326551373116672 ], [ 403931.230925737530924, 3783213.021363174077123 ], [ 403931.536113936919719, 3783212.716174974571913 ], [ 403933.672431332641281, 3783212.716174974571913 ], [ 403934.28280773141887, 3783213.326551373116672 ], [ 403934.28280773141887, 3783213.936927772127092 ], [ 403934.587995930807665, 3783214.242115971632302 ], [ 403934.587995930807665, 3783214.85249237017706 ], [ 403934.28280773141887, 3783215.15768056968227 ], [ 403934.28280773141887, 3783215.76805696869269 ], [ 403933.977619532030076, 3783216.073245167732239 ], [ 403933.977619532030076, 3783216.378433367237449 ], [ 403933.672431332641281, 3783216.683621566742659 ], [ 403933.367243133252487, 3783216.683621566742659 ], [ 403933.062054933863692, 3783216.988809766247869 ], [ 403931.536113936919719, 3783216.988809766247869 ] ] ] } },
{ "type": "Feature", "properties": { "confidence": 0.32106640934944153, "class": 1 }, "geometry": { "type": "Polygon", "coordinates": [ [ [ 404255.035605289915111, 3783232.248219735454768 ], [ 404254.730417090526316, 3783231.943031535949558 ], [ 404254.730417090526316, 3783230.72227873839438 ], [ 404254.425228891137522, 3783230.417090539354831 ], [ 404254.425228891137522, 3783229.501525940839201 ], [ 404254.730417090526316, 3783229.196337741799653 ], [ 404254.730417090526316, 3783228.891149542294443 ], [ 404255.035605289915111, 3783228.585961342789233 ], [ 404255.035605289915111, 3783225.534079349134117 ], [ 404255.340793489303906, 3783225.228891149628907 ], [ 404255.6459816886927, 3783225.228891149628907 ], [ 404255.951169888081495, 3783224.923702950123698 ], [ 404256.256358087470289, 3783224.923702950123698 ], [ 404256.561546286859084, 3783224.618514750618488 ], [ 404258.392675483191852, 3783224.618514750618488 ], [ 404258.697863682580646, 3783224.923702950123698 ], [ 404259.003051881969441, 3783224.923702950123698 ], [ 404259.308240081358235, 3783225.228891149628907 ], [ 404259.918616480135825, 3783225.228891149628907 ], [ 404260.528992878913414, 3783225.839267548173666 ], [ 404261.139369277749211, 3783225.839267548173666 ], [ 404261.7497456765268, 3783226.449643947184086 ], [ 404262.054933875915594, 3783226.449643947184086 ], [ 404262.054933875915594, 3783226.754832146689296 ], [ 404262.360122075304389, 3783227.060020345728844 ], [ 404262.360122075304389, 3783228.280773143284023 ], [ 404261.7497456765268, 3783228.891149542294443 ], [ 404261.7497456765268, 3783229.196337741799653 ], [ 404261.139369277749211, 3783229.806714140344411 ], [ 404261.139369277749211, 3783230.417090539354831 ], [ 404260.528992878913414, 3783231.02746693789959 ], [ 404259.61342828074703, 3783231.02746693789959 ], [ 404259.308240081358235, 3783231.332655137404799 ], [ 404259.003051881969441, 3783231.332655137404799 ], [ 404258.697863682580646, 3783231.637843336910009 ], [ 404258.087487283803057, 3783231.637843336910009 ], [ 404257.782299084414262, 3783231.943031535949558 ], [ 404257.171922685636673, 3783231.943031535949558 ], [ 404256.866734486247879, 3783232.248219735454768 ], [ 404255.035605289915111, 3783232.248219735454768 ] ] ] } },
{ "type": "Feature", "properties": { "confidence": 0.31375834345817566, "class": 1 }, "geometry": { "type": "Polygon", "coordinates": [ [ [ 404130.824008138326462, 3783328.992878941819072 ], [ 404130.518819938937668, 3783328.687690742779523 ], [ 404128.992878941993695, 3783328.687690742779523 ], [ 404128.6876907426049, 3783328.382502543274313 ], [ 404128.6876907426049, 3783327.772126144263893 ], [ 404128.382502543216106, 3783327.466937945224345 ], [ 404128.382502543216106, 3783326.856561546213925 ], [ 404133.875890132272616, 3783326.856561546213925 ], [ 404133.875890132272616, 3783328.687690742779523 ], [ 404133.570701932883821, 3783328.992878941819072 ], [ 404130.824008138326462, 3783328.992878941819072 ] ] ] } },
{ "type": "Feature", "properties": { "confidence": 0.3134097158908844, "class": 1 }, "geometry": { "type": "Polygon", "coordinates": [ [ [ 404044.45574771106476, 3783486.469989826902747 ], [ 404044.150559511675965, 3783486.164801627863199 ], [ 404043.84537131228717, 3783486.164801627863199 ], [ 404043.540183112898376, 3783485.859613428357989 ], [ 404042.624618514731992, 3783485.859613428357989 ], [ 404042.319430315343197, 3783485.554425228852779 ], [ 404042.014242115954403, 3783485.554425228852779 ], [ 404041.709053916565608, 3783485.249237029347569 ], [ 404041.709053916565608, 3783484.02848423179239 ], [ 404041.403865717176814, 3783483.723296032752842 ], [ 404041.403865717176814, 3783483.112919633742422 ], [ 404041.709053916565608, 3783482.807731434237212 ], [ 404041.709053916565608, 3783482.197355035692453 ], [ 404042.624618514731992, 3783481.281790437642485 ], [ 404042.624618514731992, 3783480.976602238137275 ], [ 404042.929806714120787, 3783480.671414038632065 ], [ 404042.929806714120787, 3783480.061037640087306 ], [ 404043.540183112898376, 3783479.450661241076887 ], [ 404044.150559511675965, 3783479.450661241076887 ], [ 404044.760935910453554, 3783480.061037640087306 ], [ 404045.371312309231143, 3783480.061037640087306 ], [ 404045.371312309231143, 3783480.366225839126855 ], [ 404045.676500508619938, 3783480.671414038632065 ], [ 404045.981688708008733, 3783480.671414038632065 ], [ 404046.59206510684453, 3783481.281790437642485 ], [ 404047.202441505622119, 3783481.281790437642485 ], [ 404047.507629705010913, 3783481.586978636682034 ], [ 404047.507629705010913, 3783484.94404883030802 ], [ 404047.202441505622119, 3783485.249237029347569 ], [ 404047.202441505622119, 3783485.554425228852779 ], [ 404046.897253306233324, 3783485.859613428357989 ], [ 404045.981688708008733, 3783485.859613428357989 ], [ 404045.676500508619938, 3783486.164801627863199 ], [ 404044.760935910453554, 3783486.164801627863199 ], [ 404044.45574771106476, 3783486.469989826902747 ] ] ] } },
{ "type": "Feature", "properties": { "confidence": 0.30690115690231323, "class": 1 }, "geometry": { "type": "Polygon", "coordinates": [ [ [ 403929.704984740586951, 3783515.15768056968227 ], [ 403929.399796541198157, 3783514.85249237017706 ], [ 403929.094608341809362, 3783514.85249237017706 ], [ 403927.263479145476595, 3783513.021363174077123 ], [ 403927.263479145476595, 3783512.410986775066704 ], [ 403926.9582909460878, 3783512.105798575561494 ], [ 403926.9582909460878, 3783511.190233977511525 ], [ 403927.263479145476595, 3783510.885045778006315 ], [ 403929.704984740586951, 3783510.885045778006315 ], [ 403930.010172939975746, 3783511.190233977511525 ], [ 403930.315361139364541, 3783511.190233977511525 ], [ 403930.620549338753335, 3783511.495422177016735 ], [ 403930.92573753814213, 3783511.495422177016735 ], [ 403931.230925737530924, 3783511.800610376521945 ], [ 403931.536113936919719, 3783511.800610376521945 ], [ 403932.451678535086103, 3783512.716174974571913 ], [ 403932.756866734474897, 3783512.716174974571913 ], [ 403933.367243133252487, 3783513.326551373116672 ], [ 403933.672431332641281, 3783513.326551373116672 ], [ 403933.977619532030076, 3783513.631739572621882 ], [ 403933.977619532030076, 3783513.936927772127092 ], [ 403933.367243133252487, 3783514.547304171137512 ], [ 403933.062054933863692, 3783514.547304171137512 ], [ 403932.756866734474897, 3783514.85249237017706 ], [ 403932.451678535086103, 3783514.85249237017706 ], [ 403932.146490335697308, 3783515.15768056968227 ], [ 403929.704984740586951, 3783515.15768056968227 ] ] ] } },
{ "type": "Feature", "properties": { "confidence": 0.30425748229026794, "class": 1 }, "geometry": { "type": "Polygon", "coordinates": [ [ [ 403909.257375381479505, 3783456.866734486073256 ], [ 403908.646998982701916, 3783456.256358087528497 ], [ 403908.646998982701916, 3783455.951169888023287 ], [ 403908.341810783313122, 3783455.645981688518077 ], [ 403908.341810783313122, 3783454.730417090468109 ], [ 403908.646998982701916, 3783454.425228890962899 ], [ 403908.952187182090711, 3783454.425228890962899 ], [ 403909.257375381479505, 3783454.12004069192335 ], [ 403910.172939979645889, 3783454.12004069192335 ], [ 403910.478128179034684, 3783453.81485249241814 ], [ 403912.614445574756246, 3783453.81485249241814 ], [ 403912.919633774145041, 3783454.12004069192335 ], [ 403912.919633774145041, 3783455.035605289973319 ], [ 403912.614445574756246, 3783455.340793489478528 ], [ 403912.614445574756246, 3783455.951169888023287 ], [ 403912.309257375367451, 3783456.256358087528497 ], [ 403912.004069175978657, 3783456.256358087528497 ], [ 403911.698880976589862, 3783456.561546287033707 ], [ 403911.088504577812273, 3783456.561546287033707 ], [ 403910.783316378423478, 3783456.866734486073256 ], [ 403909.257375381479505, 3783456.866734486073256 ] ] ] } },
{ "type": "Feature", "properties": { "confidence": 0.30217596888542175, "class": 1 }, "geometry": { "type": "Polygon", "coordinates": [ [ [ 404200.712105798593257, 3783193.794506612233818 ], [ 404200.406917599204462, 3783193.489318413194269 ], [ 404200.712105798593257, 3783193.184130213689059 ], [ 404200.712105798593257, 3783191.963377416133881 ], [ 404201.017293997982051, 3783191.658189216628671 ], [ 404201.017293997982051, 3783190.742624618578702 ], [ 404201.322482197370846, 3783190.437436419073492 ], [ 404201.322482197370846, 3783190.132248219568282 ], [ 404202.543234994926024, 3783188.911495422013104 ], [ 404202.543234994926024, 3783188.606307222973555 ], [ 404204.679552390647586, 3783188.606307222973555 ], [ 404204.984740590036381, 3783188.301119023468345 ], [ 404205.289928789425176, 3783188.606307222973555 ], [ 404205.289928789425176, 3783189.521871821023524 ], [ 404204.069175991869997, 3783190.742624618578702 ], [ 404204.069175991869997, 3783191.047812818083912 ], [ 404203.153611393703613, 3783191.963377416133881 ], [ 404203.153611393703613, 3783192.268565615639091 ], [ 404202.848423194314819, 3783192.573753814678639 ], [ 404202.848423194314819, 3783192.878942014183849 ], [ 404201.932858596148435, 3783193.794506612233818 ], [ 404200.712105798593257, 3783193.794506612233818 ] ] ] } },
{ "type": "Feature", "properties": { "confidence": 0.28582626581192017, "class": 1 }, "geometry": { "type": "Polygon", "coordinates": [ [ [ 404094.811800610390492, 3783166.327568667475134 ], [ 404094.506612411001697, 3783166.022380467969924 ], [ 404094.201424211612903, 3783166.022380467969924 ], [ 404094.201424211612903, 3783165.717192268464714 ], [ 404093.896236012224108, 3783165.412004068959504 ], [ 404093.896236012224108, 3783164.801627670414746 ], [ 404093.591047812835313, 3783164.496439470909536 ], [ 404093.591047812835313, 3783163.886063072364777 ], [ 404093.285859613446519, 3783163.580874872859567 ], [ 404093.285859613446519, 3783162.970498473849148 ], [ 404092.980671414057724, 3783162.665310274809599 ], [ 404092.980671414057724, 3783162.360122075304389 ], [ 404092.67548321466893, 3783162.054933875799179 ], [ 404092.67548321466893, 3783161.139369277749211 ], [ 404092.980671414057724, 3783160.834181078244001 ], [ 404093.285859613446519, 3783160.834181078244001 ], [ 404093.591047812835313, 3783160.528992878738791 ], [ 404096.642929806723259, 3783160.528992878738791 ], [ 404096.642929806723259, 3783161.749745676293969 ], [ 404096.948118006112054, 3783162.054933875799179 ], [ 404097.253306205500849, 3783162.054933875799179 ], [ 404097.558494404889643, 3783162.360122075304389 ], [ 404097.558494404889643, 3783162.665310274809599 ], [ 404097.863682604278438, 3783162.970498473849148 ], [ 404098.168870803667232, 3783162.970498473849148 ], [ 404098.168870803667232, 3783163.275686673354357 ], [ 404098.474059003056027, 3783163.580874872859567 ], [ 404098.474059003056027, 3783164.801627670414746 ], [ 404097.558494404889643, 3783165.717192268464714 ], [ 404097.253306205500849, 3783165.717192268464714 ], [ 404096.642929806723259, 3783166.327568667475134 ], [ 404094.811800610390492, 3783166.327568667475134 ] ] ] } },
{ "type": "Feature", "properties": { "confidence": 0.28143933415412903, "class": 1 }, "geometry": { "type": "Polygon", "coordinates": [ [ [ 404048.728382502566092, 3783563.377416073344648 ], [ 404048.423194303177297, 3783563.072227873839438 ], [ 404048.118006103788503, 3783563.072227873839438 ], [ 404047.812817904399708, 3783562.767039674334228 ], [ 404047.202441505622119, 3783562.767039674334228 ], [ 404046.59206510684453, 3783562.156663275789469 ], [ 404046.59206510684453, 3783560.630722278729081 ], [ 404046.286876907397527, 3783560.325534079223871 ], [ 404046.286876907397527, 3783559.715157680679113 ], [ 404046.59206510684453, 3783559.409969481173903 ], [ 404046.59206510684453, 3783559.104781281668693 ], [ 404047.202441505622119, 3783559.104781281668693 ], [ 404047.507629705010913, 3783558.799593082629144 ], [ 404047.812817904399708, 3783558.799593082629144 ], [ 404048.423194303177297, 3783558.189216683618724 ], [ 404049.033570701954886, 3783558.189216683618724 ], [ 404049.338758901343681, 3783557.884028484113514 ], [ 404049.643947100732476, 3783557.884028484113514 ], [ 404049.94913530012127, 3783557.578840285073966 ], [ 404051.475076297065243, 3783557.578840285073966 ], [ 404051.780264496454038, 3783557.273652085568756 ], [ 404052.390640895231627, 3783557.273652085568756 ], [ 404052.695829094620422, 3783557.578840285073966 ], [ 404052.695829094620422, 3783557.884028484113514 ], [ 404053.001017294009216, 3783558.189216683618724 ], [ 404053.001017294009216, 3783559.409969481173903 ], [ 404052.695829094620422, 3783559.715157680679113 ], [ 404052.695829094620422, 3783562.767039674334228 ], [ 404052.085452695842832, 3783563.377416073344648 ], [ 404048.728382502566092, 3783563.377416073344648 ] ] ] } },
{ "type": "Feature", "properties": { "confidence": 0.27993664145469666, "class": 1 }, "geometry": { "type": "Polygon", "coordinates": [ [ [ 404071.007121058006305, 3783194.710071210749447 ], [ 404070.701932858617511, 3783194.404883011244237 ], [ 404070.396744659228716, 3783194.404883011244237 ], [ 404070.091556459839921, 3783194.099694811739028 ], [ 404069.786368260451127, 3783194.099694811739028 ], [ 404069.786368260451127, 3783193.794506612233818 ], [ 404069.481180061062332, 3783193.489318413194269 ], [ 404069.481180061062332, 3783192.268565615639091 ], [ 404069.786368260451127, 3783191.963377416133881 ], [ 404069.786368260451127, 3783190.742624618578702 ], [ 404069.481180061062332, 3783190.437436419073492 ], [ 404069.481180061062332, 3783190.132248219568282 ], [ 404069.786368260451127, 3783189.827060020528734 ], [ 404069.786368260451127, 3783189.216683621518314 ], [ 404070.091556459839921, 3783188.911495422013104 ], [ 404070.091556459839921, 3783188.606307222973555 ], [ 404070.701932858617511, 3783187.995930823963135 ], [ 404070.701932858617511, 3783187.690742624457926 ], [ 404071.617497456783894, 3783186.775178026407957 ], [ 404071.617497456783894, 3783186.469989826902747 ], [ 404072.227873855561484, 3783185.859613428357989 ], [ 404072.227873855561484, 3783184.94404883030802 ], [ 404072.533062054950278, 3783184.63886063080281 ], [ 404073.143438453727867, 3783184.63886063080281 ], [ 404073.143438453727867, 3783194.099694811739028 ], [ 404072.227873855561484, 3783194.099694811739028 ], [ 404071.922685656172689, 3783194.404883011244237 ], [ 404071.617497456783894, 3783194.404883011244237 ], [ 404071.3123092573951, 3783194.710071210749447 ], [ 404071.007121058006305, 3783194.710071210749447 ] ] ] } }
]
}
