{
"type": "FeatureCollection",
"name": "cell_00508_pre",
"crs": { "type": "name", "properties": { "name": "urn:ogc:def:crs:EPSG::32611" } },
"features": [
{ "type": "Feature", "properties": { "confidence": 0.99830424785614014, "class": 1, "regularized": null }, "geometry": { "type": "Polygon", "coordinates": [ [ [ 402902.136317395721562, 3782212.919633774086833 ], [ 402901.831129196332768, 3782212.614445574581623 ], [ 402901.525940996943973, 3782212.614445574581623 ], [ 402901.525940996943973, 3782212.309257375542074 ], [ 402901.220752797555178, 3782212.004069176036865 ], [ 402900.915564598166384, 3782212.004069176036865 ], [ 402900.915564598166384, 3782211.698880976531655 ], [ 402899.694811800611205, 3782210.478128178976476 ], [ 402899.694811800611205, 3782210.172939979471266 ], [ 402899.389623601222411, 3782209.867751780431718 ], [ 402899.389623601222411, 3782208.646998982876539 ], [ 402900.915564598166384, 3782207.121057985816151 ], [ 402901.220752797555178, 3782207.121057985816151 ], [ 402901.831129196332768, 3782206.510681586805731 ], [ 402902.136317395721562, 3782206.510681586805731 ], [ 402902.441505595110357, 3782206.205493387766182 ], [ 402902.441505595110357, 3782205.900305188260972 ], [ 402902.746693794499151, 3782205.900305188260972 ], [ 402903.051881993887946, 3782205.595116988755763 ], [ 402904.883011190220714, 3782205.595116988755763 ], [ 402904.883011190220714, 3782206.205493387766182 ], [ 402905.188199389609508, 3782206.510681586805731 ], [ 402905.188199389609508, 3782206.815869786310941 ], [ 402906.103763987775892, 3782207.731434384360909 ], [ 402906.103763987775892, 3782208.036622583866119 ], [ 402906.408952187164687, 3782208.341810783371329 ], [ 402906.714140386553481, 3782208.341810783371329 ], [ 402907.019328585942276, 3782208.646998982876539 ], [ 402907.019328585942276, 3782208.952187181916088 ], [ 402907.32451678533107, 3782209.257375381421298 ], [ 402907.32451678533107, 3782211.088504577986896 ], [ 402907.019328585942276, 3782211.393692777026445 ], [ 402906.408952187164687, 3782211.393692777026445 ], [ 402906.103763987775892, 3782211.698880976531655 ], [ 402905.798575788387097, 3782211.698880976531655 ], [ 402905.493387588998303, 3782212.004069176036865 ], [ 402905.188199389609508, 3782212.004069176036865 ], [ 402904.577822990831919, 3782212.614445574581623 ], [ 402904.272634791443124, 3782212.614445574581623 ], [ 402903.96744659205433, 3782212.919633774086833 ], [ 402902.136317395721562, 3782212.919633774086833 ] ] ] } },
{ "type": "Feature", "properties": { "confidence": 0.99042749404907227, "class": 1, "regularized": null }, "geometry": { "type": "Polygon", "coordinates": [ [ [ 402796.846388606296387, 3782075.584944048896432 ], [ 402795.320447609352414, 3782074.059003051836044 ], [ 402795.015259409963619, 3782074.059003051836044 ], [ 402794.710071210574824, 3782073.753814852330834 ], [ 402794.40488301118603, 3782073.753814852330834 ], [ 402794.099694811797235, 3782073.448626653291285 ], [ 402794.099694811797235, 3782072.533062054775655 ], [ 402793.794506612408441, 3782072.227873855736107 ], [ 402793.794506612408441, 3782070.701932858675718 ], [ 402794.099694811797235, 3782070.396744659170508 ], [ 402794.099694811797235, 3782069.48118006112054 ], [ 402794.710071210574824, 3782068.87080366211012 ], [ 402795.320447609352414, 3782068.87080366211012 ], [ 402795.625635808741208, 3782068.565615463070571 ], [ 402796.236012207518797, 3782068.565615463070571 ], [ 402796.541200406907592, 3782068.87080366211012 ], [ 402797.456765005073976, 3782068.87080366211012 ], [ 402797.76195320446277, 3782069.17599186161533 ], [ 402798.677517802629154, 3782069.17599186161533 ], [ 402799.287894201406743, 3782069.78636826062575 ], [ 402799.287894201406743, 3782070.091556459665298 ], [ 402799.593082400795538, 3782070.396744659170508 ], [ 402799.593082400795538, 3782074.669379450846463 ], [ 402799.287894201406743, 3782074.974567649886012 ], [ 402799.287894201406743, 3782075.279755849391222 ], [ 402798.982706002017949, 3782075.584944048896432 ], [ 402796.846388606296387, 3782075.584944048896432 ] ] ] } },
{ "type": "Feature", "properties": { "confidence": 0.97273546457290649, "class": 1, "regularized": null }, "geometry": { "type": "Polygon", "coordinates": [ [ [ 402798.982706002017949, 3781921.159715157467872 ], [ 402798.982706002017949, 3781920.854526958428323 ], [ 402798.677517802629154, 3781920.549338758923113 ], [ 402797.151576805685181, 3781920.549338758923113 ], [ 402796.846388606296387, 3781920.244150559417903 ], [ 402795.930824008130003, 3781920.244150559417903 ], [ 402795.625635808741208, 3781919.938962359912694 ], [ 402795.015259409963619, 3781919.938962359912694 ], [ 402795.015259409963619, 3781919.633774160873145 ], [ 402794.710071210574824, 3781919.328585961367935 ], [ 402794.710071210574824, 3781917.497456764802337 ], [ 402795.015259409963619, 3781917.192268565762788 ], [ 402795.320447609352414, 3781917.192268565762788 ], [ 402795.625635808741208, 3781916.887080366257578 ], [ 402795.625635808741208, 3781916.581892166752368 ], [ 402795.930824008130003, 3781916.581892166752368 ], [ 402799.593082400795538, 3781912.919633774086833 ], [ 402799.593082400795538, 3781912.309257375542074 ], [ 402800.508646998961922, 3781911.393692777026445 ], [ 402803.255340793461073, 3781911.393692777026445 ], [ 402803.560528992849868, 3781911.698880976531655 ], [ 402803.86571719229687, 3781911.698880976531655 ], [ 402804.170905391685665, 3781912.004069176036865 ], [ 402804.476093591074459, 3781912.004069176036865 ], [ 402804.476093591074459, 3781912.309257375542074 ], [ 402804.781281790463254, 3781912.614445574581623 ], [ 402805.696846388629638, 3781912.614445574581623 ], [ 402806.002034588018432, 3781912.919633774086833 ], [ 402806.307222787407227, 3781912.919633774086833 ], [ 402806.307222787407227, 3781913.224821973592043 ], [ 402806.612410986796021, 3781913.530010173097253 ], [ 402806.612410986796021, 3781916.276703967247158 ], [ 402806.307222787407227, 3781916.581892166752368 ], [ 402806.307222787407227, 3781917.192268565762788 ], [ 402806.002034588018432, 3781917.497456764802337 ], [ 402806.002034588018432, 3781917.802644964307547 ], [ 402805.696846388629638, 3781918.107833163812757 ], [ 402805.696846388629638, 3781918.413021363317966 ], [ 402805.391658189240843, 3781918.718209562357515 ], [ 402804.781281790463254, 3781918.718209562357515 ], [ 402804.476093591074459, 3781919.023397761862725 ], [ 402803.255340793461073, 3781919.023397761862725 ], [ 402802.950152594072279, 3781919.328585961367935 ], [ 402800.813835198350716, 3781919.328585961367935 ], [ 402800.508646998961922, 3781919.633774160873145 ], [ 402800.203458799573127, 3781919.633774160873145 ], [ 402799.898270600184333, 3781919.938962359912694 ], [ 402799.898270600184333, 3781921.159715157467872 ], [ 402798.982706002017949, 3781921.159715157467872 ] ] ] } },
{ "type": "Feature", "properties": { "confidence": 0.96403694152832031, "class": 1, "regularized": null }, "geometry": { "type": "Polygon", "coordinates": [ [ [ 402939.064089521882124, 3782262.360122075304389 ], [ 402939.064089521882124, 3782261.139369277749211 ], [ 402939.369277721270919, 3782260.834181078244001 ], [ 402939.369277721270919, 3782260.528992878738791 ], [ 402940.284842319437303, 3782259.613428280688822 ], [ 402940.590030518826097, 3782259.613428280688822 ], [ 402941.200406917603686, 3782259.003051882144064 ], [ 402941.505595116992481, 3782259.003051882144064 ], [ 402941.810783316381276, 3782258.697863682638854 ], [ 402942.11597151577007, 3782258.697863682638854 ], [ 402942.421159715158865, 3782258.392675483133644 ], [ 402942.726347914547659, 3782258.392675483133644 ], [ 402943.336724313325249, 3782257.782299084588885 ], [ 402946.0834181078244, 3782257.782299084588885 ], [ 402946.0834181078244, 3782258.392675483133644 ], [ 402946.388606307213195, 3782258.697863682638854 ], [ 402946.388606307213195, 3782259.613428280688822 ], [ 402946.0834181078244, 3782259.918616480194032 ], [ 402946.0834181078244, 3782260.223804679699242 ], [ 402945.473041709046811, 3782260.834181078244001 ], [ 402945.167853509658016, 3782260.834181078244001 ], [ 402944.252288911491632, 3782261.749745676293969 ], [ 402943.947100712102838, 3782261.749745676293969 ], [ 402943.641912512714043, 3782262.054933875799179 ], [ 402943.336724313325249, 3782262.054933875799179 ], [ 402943.031536113936454, 3782262.360122075304389 ], [ 402939.064089521882124, 3782262.360122075304389 ] ] ] } },
{ "type": "Feature", "properties": { "confidence": 0.94359672069549561, "class": 1, "regularized": null }, "geometry": { "type": "Polygon", "coordinates": [ [ [ 402749.237029501528013, 3781870.498474059160799 ], [ 402748.931841302139219, 3781870.193285859655589 ], [ 402748.32146490336163, 3781870.193285859655589 ], [ 402748.016276703972835, 3781869.888097660150379 ], [ 402747.71108850458404, 3781869.888097660150379 ], [ 402747.405900305195246, 3781869.582909460645169 ], [ 402747.405900305195246, 3781867.446592065040022 ], [ 402747.71108850458404, 3781867.141403865534812 ], [ 402747.71108850458404, 3781866.836215666495264 ], [ 402748.016276703972835, 3781866.531027466990054 ], [ 402748.32146490336163, 3781866.531027466990054 ], [ 402748.626653102750424, 3781866.225839267484844 ], [ 402748.626653102750424, 3781865.920651067979634 ], [ 402748.931841302139219, 3781865.920651067979634 ], [ 402749.237029501528013, 3781865.615462868940085 ], [ 402751.373346897249576, 3781865.615462868940085 ], [ 402751.67853509663837, 3781865.310274669434875 ], [ 402753.509664292971138, 3781865.310274669434875 ], [ 402754.120040691748727, 3781865.920651067979634 ], [ 402754.120040691748727, 3781866.531027466990054 ], [ 402753.814852492359933, 3781866.836215666495264 ], [ 402753.814852492359933, 3781867.141403865534812 ], [ 402753.509664292971138, 3781867.446592065040022 ], [ 402753.509664292971138, 3781867.751780264545232 ], [ 402753.204476093582343, 3781868.056968464050442 ], [ 402753.204476093582343, 3781868.362156663089991 ], [ 402752.899287894193549, 3781868.667344862595201 ], [ 402752.899287894193549, 3781868.97253306210041 ], [ 402752.594099694804754, 3781869.27772126160562 ], [ 402752.594099694804754, 3781869.582909460645169 ], [ 402752.28891149541596, 3781869.888097660150379 ], [ 402752.28891149541596, 3781870.193285859655589 ], [ 402751.983723296027165, 3781870.498474059160799 ], [ 402749.237029501528013, 3781870.498474059160799 ] ] ] } },
{ "type": "Feature", "properties": { "confidence": 0.9068528413772583, "class": 1, "regularized": null }, "geometry": { "type": "Polygon", "coordinates": [ [ [ 402967.751780264487024, 3781832.349949135445058 ], [ 402966.531027466931846, 3781831.12919633788988 ], [ 402966.531027466931846, 3781830.82400813838467 ], [ 402966.225839267543051, 3781830.51881993887946 ], [ 402965.920651068154257, 3781830.51881993887946 ], [ 402965.920651068154257, 3781829.603255340829492 ], [ 402965.005086469987873, 3781828.687690742779523 ], [ 402965.005086469987873, 3781828.077314343769103 ], [ 402963.784333672432695, 3781826.856561546213925 ], [ 402963.784333672432695, 3781826.551373346708715 ], [ 402962.258392675488722, 3781825.025432350113988 ], [ 402962.258392675488722, 3781824.720244150608778 ], [ 402961.953204476099927, 3781824.415055951103568 ], [ 402961.953204476099927, 3781824.109867751598358 ], [ 402961.648016276711132, 3781823.80467955255881 ], [ 402961.342828077322338, 3781823.80467955255881 ], [ 402961.342828077322338, 3781822.278738555498421 ], [ 402961.037639877933543, 3781821.973550355993211 ], [ 402961.953204476099927, 3781821.057985757943243 ], [ 402962.868769074266311, 3781821.057985757943243 ], [ 402963.173957273655105, 3781820.752797558438033 ], [ 402968.667344862653408, 3781820.752797558438033 ], [ 402968.972533062042203, 3781821.057985757943243 ], [ 402969.277721261430997, 3781821.057985757943243 ], [ 402969.277721261430997, 3781821.363173957448453 ], [ 402969.888097660208587, 3781821.973550355993211 ], [ 402970.193285859597381, 3781821.973550355993211 ], [ 402970.193285859597381, 3781822.278738555498421 ], [ 402970.498474058986176, 3781822.583926755003631 ], [ 402970.498474058986176, 3781823.4994913530536 ], [ 402970.80366225837497, 3781823.80467955255881 ], [ 402970.80366225837497, 3781825.025432350113988 ], [ 402970.498474058986176, 3781825.330620549153537 ], [ 402970.498474058986176, 3781828.992878941819072 ], [ 402970.80366225837497, 3781829.298067141324282 ], [ 402970.80366225837497, 3781831.12919633788988 ], [ 402970.498474058986176, 3781831.434384536929429 ], [ 402970.498474058986176, 3781831.739572736434639 ], [ 402970.193285859597381, 3781832.044760935939848 ], [ 402969.888097660208587, 3781832.044760935939848 ], [ 402969.582909460819792, 3781832.349949135445058 ], [ 402967.751780264487024, 3781832.349949135445058 ] ] ] } },
{ "type": "Feature", "properties": { "confidence": 0.90072000026702881, "class": 1, "regularized": null }, "geometry": { "type": "Polygon", "coordinates": [ [ [ 402726.042726347921416, 3782015.15768056968227 ], [ 402725.737538148532622, 3782014.85249237017706 ], [ 402724.821973550366238, 3782014.85249237017706 ], [ 402724.516785350977443, 3782014.547304171137512 ], [ 402724.211597151588649, 3782014.547304171137512 ], [ 402723.906408952199854, 3782014.242115971632302 ], [ 402723.601220752811059, 3782014.242115971632302 ], [ 402723.296032553422265, 3782013.936927772127092 ], [ 402723.296032553422265, 3782009.664292980451137 ], [ 402731.536113936919719, 3782009.664292980451137 ], [ 402731.536113936919719, 3782009.969481179956347 ], [ 402732.451678535086103, 3782010.885045778006315 ], [ 402732.451678535086103, 3782012.716174974571913 ], [ 402732.756866734474897, 3782013.021363174077123 ], [ 402732.756866734474897, 3782013.631739572621882 ], [ 402732.451678535086103, 3782013.936927772127092 ], [ 402732.146490335697308, 3782013.936927772127092 ], [ 402730.92573753814213, 3782015.15768056968227 ], [ 402729.094608341809362, 3782015.15768056968227 ], [ 402728.789420142420568, 3782014.85249237017706 ], [ 402726.653102746699005, 3782014.85249237017706 ], [ 402726.347914547310211, 3782015.15768056968227 ], [ 402726.042726347921416, 3782015.15768056968227 ] ] ] } },
{ "type": "Feature", "properties": { "confidence": 0.89486980438232422, "class": 1, "regularized": null }, "geometry": { "type": "Polygon", "coordinates": [ [ [ 402853.001017294009216, 3782246.49033570708707 ], [ 402852.695829094620422, 3782246.18514750758186 ], [ 402852.390640895231627, 3782246.18514750758186 ], [ 402851.780264496454038, 3782245.574771109037101 ], [ 402851.780264496454038, 3782245.269582909531891 ], [ 402851.475076297065243, 3782244.964394710026681 ], [ 402851.475076297065243, 3782244.659206510521472 ], [ 402851.169888097676449, 3782244.354018311481923 ], [ 402851.169888097676449, 3782243.438453712966293 ], [ 402850.864699898287654, 3782243.133265513926744 ], [ 402850.864699898287654, 3782241.607324516866356 ], [ 402850.559511698898859, 3782241.302136317361146 ], [ 402850.559511698898859, 3782240.691759918816388 ], [ 402850.254323499510065, 3782240.386571719311178 ], [ 402850.254323499510065, 3782238.250254323706031 ], [ 402850.559511698898859, 3782237.945066124200821 ], [ 402850.864699898287654, 3782237.945066124200821 ], [ 402851.780264496454038, 3782237.029501526150852 ], [ 402852.085452695842832, 3782237.029501526150852 ], [ 402852.390640895231627, 3782236.724313326645643 ], [ 402853.306205493398011, 3782236.724313326645643 ], [ 402853.611393692786805, 3782236.419125127140433 ], [ 402853.9165818921756, 3782236.419125127140433 ], [ 402854.526958290953189, 3782235.808748728595674 ], [ 402855.747711088508368, 3782235.808748728595674 ], [ 402855.747711088508368, 3782237.029501526150852 ], [ 402855.442522889119573, 3782237.334689725190401 ], [ 402855.442522889119573, 3782238.860630722250789 ], [ 402855.137334689730778, 3782239.165818921755999 ], [ 402855.137334689730778, 3782240.996948117855936 ], [ 402855.442522889119573, 3782241.302136317361146 ], [ 402855.442522889119573, 3782241.912512716371566 ], [ 402855.747711088508368, 3782242.217700915411115 ], [ 402855.747711088508368, 3782244.659206510521472 ], [ 402855.442522889119573, 3782244.964394710026681 ], [ 402855.442522889119573, 3782245.269582909531891 ], [ 402855.137334689730778, 3782245.574771109037101 ], [ 402854.832146490341984, 3782245.574771109037101 ], [ 402854.221770091564395, 3782246.18514750758186 ], [ 402853.611393692786805, 3782246.18514750758186 ], [ 402853.306205493398011, 3782246.49033570708707 ], [ 402853.001017294009216, 3782246.49033570708707 ] ] ] } },
{ "type": "Feature", "properties": { "confidence": 0.86204570531845093, "class": 1, "regularized": null }, "geometry": { "type": "Polygon", "coordinates": [ [ [ 402795.930824008130003, 3781860.427263479214162 ], [ 402795.625635808741208, 3781860.122075279708952 ], [ 402795.320447609352414, 3781860.122075279708952 ], [ 402795.015259409963619, 3781859.816887080203742 ], [ 402794.710071210574824, 3781859.816887080203742 ], [ 402794.710071210574824, 3781856.459816887043417 ], [ 402794.40488301118603, 3781856.154628687538207 ], [ 402794.40488301118603, 3781854.32349949143827 ], [ 402794.710071210574824, 3781854.01831129193306 ], [ 402794.710071210574824, 3781853.407934893388301 ], [ 402795.320447609352414, 3781853.407934893388301 ], [ 402795.625635808741208, 3781853.102746693883091 ], [ 402796.846388606296387, 3781853.102746693883091 ], [ 402797.151576805685181, 3781852.797558494377881 ], [ 402797.456765005073976, 3781852.797558494377881 ], [ 402797.76195320446277, 3781852.492370294872671 ], [ 402798.067141403851565, 3781852.492370294872671 ], [ 402798.37232960324036, 3781852.187182095833123 ], [ 402798.37232960324036, 3781851.881993896327913 ], [ 402798.982706002017949, 3781851.271617497317493 ], [ 402798.982706002017949, 3781850.661241098772734 ], [ 402799.898270600184333, 3781849.745676500722766 ], [ 402800.203458799573127, 3781849.745676500722766 ], [ 402800.508646998961922, 3781849.440488301217556 ], [ 402804.170905391685665, 3781849.440488301217556 ], [ 402804.476093591074459, 3781849.745676500722766 ], [ 402804.476093591074459, 3781851.271617497317493 ], [ 402804.781281790463254, 3781851.576805696822703 ], [ 402804.781281790463254, 3781854.01831129193306 ], [ 402804.476093591074459, 3781854.32349949143827 ], [ 402804.476093591074459, 3781858.901322482153773 ], [ 402804.170905391685665, 3781859.206510681658983 ], [ 402804.170905391685665, 3781859.511698881164193 ], [ 402803.86571719229687, 3781859.816887080203742 ], [ 402802.644964394683484, 3781859.816887080203742 ], [ 402802.339776195294689, 3781860.122075279708952 ], [ 402799.898270600184333, 3781860.122075279708952 ], [ 402799.593082400795538, 3781860.427263479214162 ], [ 402795.930824008130003, 3781860.427263479214162 ] ] ] } },
{ "type": "Feature", "properties": { "confidence": 0.85600811243057251, "class": 1, "regularized": "rectangle" }, "geometry": { "type": "Polygon", "coordinates": [ [ [ 402706.3125, 3781860.5 ], [ 402707.0, 3781844.0 ], [ 402715.625, 3781844.5 ], [ 402714.9375, 3781861.0 ], [ 402706.3125, 3781860.5 ] ] ] } },
{ "type": "Feature", "properties": { "confidence": 0.85067731142044067, "class": 1, "regularized": null }, "geometry": { "type": "Polygon", "coordinates": [ [ [ 402814.547304170904681, 3781895.218718209769577 ], [ 402814.242115971515886, 3781894.913530010264367 ], [ 402813.936927772127092, 3781894.913530010264367 ], [ 402813.936927772127092, 3781894.303153611253947 ], [ 402813.631739572738297, 3781893.997965412214398 ], [ 402813.631739572738297, 3781892.47202441515401 ], [ 402824.008138351957314, 3781892.47202441515401 ], [ 402824.008138351957314, 3781892.77721261465922 ], [ 402824.313326551346108, 3781893.082400813698769 ], [ 402824.313326551346108, 3781893.692777212709188 ], [ 402823.702950152568519, 3781894.303153611253947 ], [ 402823.397761953179725, 3781894.303153611253947 ], [ 402823.09257375379093, 3781894.608341810759157 ], [ 402822.177009155624546, 3781894.608341810759157 ], [ 402821.871820956235752, 3781894.913530010264367 ], [ 402819.735503560514189, 3781894.913530010264367 ], [ 402819.430315361125395, 3781895.218718209769577 ], [ 402814.547304170904681, 3781895.218718209769577 ] ] ] } },
{ "type": "Feature", "properties": { "confidence": 0.80454725027084351, "class": 1, "regularized": null }, "geometry": { "type": "Polygon", "coordinates": [ [ [ 402853.001017294009216, 3781825.025432350113988 ], [ 402852.695829094620422, 3781824.720244150608778 ], [ 402852.695829094620422, 3781824.415055951103568 ], [ 402852.390640895231627, 3781824.109867751598358 ], [ 402852.390640895231627, 3781823.4994913530536 ], [ 402852.085452695842832, 3781823.19430315354839 ], [ 402852.085452695842832, 3781822.88911495404318 ], [ 402851.475076297065243, 3781822.278738555498421 ], [ 402851.475076297065243, 3781821.363173957448453 ], [ 402851.169888097676449, 3781821.057985757943243 ], [ 402851.475076297065243, 3781820.752797558438033 ], [ 402851.475076297065243, 3781820.142421159893274 ], [ 402851.780264496454038, 3781819.837232960388064 ], [ 402851.780264496454038, 3781818.311291963327676 ], [ 402851.475076297065243, 3781818.006103763822466 ], [ 402851.475076297065243, 3781817.090539165772498 ], [ 402851.780264496454038, 3781816.785350966267288 ], [ 402851.780264496454038, 3781815.869786368217319 ], [ 402852.085452695842832, 3781815.869786368217319 ], [ 402853.001017294009216, 3781814.954221770167351 ], [ 402853.001017294009216, 3781814.649033570662141 ], [ 402853.306205493398011, 3781814.343845371156931 ], [ 402853.306205493398011, 3781814.038657172117382 ], [ 402853.611393692786805, 3781813.733468972612172 ], [ 402853.611393692786805, 3781813.428280773106962 ], [ 402853.9165818921756, 3781813.123092573601753 ], [ 402854.832146490341984, 3781813.123092573601753 ], [ 402855.137334689730778, 3781813.428280773106962 ], [ 402856.052899287897162, 3781813.428280773106962 ], [ 402857.273652085452341, 3781814.649033570662141 ], [ 402857.273652085452341, 3781819.532044760882854 ], [ 402857.578840284841135, 3781819.837232960388064 ], [ 402857.578840284841135, 3781821.668362156488001 ], [ 402857.88402848422993, 3781821.973550355993211 ], [ 402857.88402848422993, 3781824.109867751598358 ], [ 402857.578840284841135, 3781824.415055951103568 ], [ 402856.968463886063546, 3781824.415055951103568 ], [ 402856.663275686674751, 3781824.720244150608778 ], [ 402855.747711088508368, 3781824.720244150608778 ], [ 402855.442522889119573, 3781825.025432350113988 ], [ 402853.001017294009216, 3781825.025432350113988 ] ] ] } },
{ "type": "Feature", "properties": { "confidence": 0.79593175649642944, "class": 1, "regularized": null }, "geometry": { "type": "Polygon", "coordinates": [ [ [ 403124.923702950123698, 3781921.159715157467872 ], [ 403124.618514750734903, 3781920.854526958428323 ], [ 403124.008138351957314, 3781920.854526958428323 ], [ 403123.702950152568519, 3781920.549338758923113 ], [ 403123.397761953179725, 3781920.549338758923113 ], [ 403122.177009155624546, 3781919.328585961367935 ], [ 403122.177009155624546, 3781918.718209562357515 ], [ 403121.871820956235752, 3781918.413021363317966 ], [ 403122.177009155624546, 3781918.107833163812757 ], [ 403122.177009155624546, 3781917.192268565762788 ], [ 403122.482197355013341, 3781916.887080366257578 ], [ 403122.482197355013341, 3781916.276703967247158 ], [ 403123.702950152568519, 3781915.05595116969198 ], [ 403125.2288911495707, 3781915.05595116969198 ], [ 403125.2288911495707, 3781915.36113936919719 ], [ 403125.534079348959494, 3781915.6663275687024 ], [ 403125.839267548348289, 3781915.6663275687024 ], [ 403126.449643947125878, 3781916.276703967247158 ], [ 403126.754832146514673, 3781916.276703967247158 ], [ 403126.754832146514673, 3781916.581892166752368 ], [ 403127.060020345903467, 3781916.887080366257578 ], [ 403127.365208545292262, 3781916.887080366257578 ], [ 403127.670396744681057, 3781917.192268565762788 ], [ 403127.975584944069851, 3781917.192268565762788 ], [ 403128.280773143458646, 3781917.497456764802337 ], [ 403128.280773143458646, 3781917.802644964307547 ], [ 403128.58596134284744, 3781918.107833163812757 ], [ 403128.280773143458646, 3781918.413021363317966 ], [ 403128.280773143458646, 3781919.328585961367935 ], [ 403127.670396744681057, 3781919.938962359912694 ], [ 403127.670396744681057, 3781920.244150559417903 ], [ 403127.060020345903467, 3781920.854526958428323 ], [ 403126.754832146514673, 3781920.854526958428323 ], [ 403126.449643947125878, 3781921.159715157467872 ], [ 403124.923702950123698, 3781921.159715157467872 ] ] ] } },
{ "type": "Feature", "properties": { "confidence": 0.78982394933700562, "class": 1, "regularized": null }, "geometry": { "type": "Polygon", "coordinates": [ [ [ 402718.107833163812757, 3781897.355035605374724 ], [ 402717.802644964365754, 3781897.049847405869514 ], [ 402717.802644964365754, 3781894.608341810759157 ], [ 402718.107833163812757, 3781894.303153611253947 ], [ 402718.107833163812757, 3781892.47202441515401 ], [ 402720.854526958311908, 3781892.47202441515401 ], [ 402720.854526958311908, 3781893.692777212709188 ], [ 402720.549338758923113, 3781893.997965412214398 ], [ 402720.549338758923113, 3781896.134282807819545 ], [ 402720.244150559534319, 3781896.439471007324755 ], [ 402720.244150559534319, 3781896.744659206364304 ], [ 402719.938962360145524, 3781896.744659206364304 ], [ 402719.63377416075673, 3781897.049847405869514 ], [ 402719.328585961367935, 3781897.049847405869514 ], [ 402719.02339776197914, 3781897.355035605374724 ], [ 402718.107833163812757, 3781897.355035605374724 ] ] ] } },
{ "type": "Feature", "properties": { "confidence": 0.78833872079849243, "class": 1, "regularized": null }, "geometry": { "type": "Polygon", "coordinates": [ [ [ 402747.100712105806451, 3781897.965412003919482 ], [ 402746.490335707028862, 3781897.355035605374724 ], [ 402746.490335707028862, 3781895.218718209769577 ], [ 402746.185147507640067, 3781894.913530010264367 ], [ 402746.185147507640067, 3781894.608341810759157 ], [ 402745.879959308251273, 3781894.303153611253947 ], [ 402745.879959308251273, 3781893.997965412214398 ], [ 402745.269582909473684, 3781893.387589013203979 ], [ 402745.269582909473684, 3781891.86164801614359 ], [ 402745.574771108862478, 3781891.556459817104042 ], [ 402746.185147507640067, 3781891.556459817104042 ], [ 402746.490335707028862, 3781891.251271617598832 ], [ 402748.931841302139219, 3781891.251271617598832 ], [ 402748.931841302139219, 3781891.86164801614359 ], [ 402749.542217700916808, 3781892.47202441515401 ], [ 402749.847405900305603, 3781892.47202441515401 ], [ 402750.152594099694397, 3781892.77721261465922 ], [ 402750.457782299083192, 3781892.77721261465922 ], [ 402750.762970498471987, 3781893.082400813698769 ], [ 402753.509664292971138, 3781893.082400813698769 ], [ 402754.120040691748727, 3781893.692777212709188 ], [ 402754.120040691748727, 3781894.303153611253947 ], [ 402754.425228891137522, 3781894.608341810759157 ], [ 402754.425228891137522, 3781895.218718209769577 ], [ 402754.730417090526316, 3781895.523906408809125 ], [ 402754.730417090526316, 3781895.829094608314335 ], [ 402755.035605289915111, 3781896.134282807819545 ], [ 402755.035605289915111, 3781897.660223804879934 ], [ 402754.120040691748727, 3781897.660223804879934 ], [ 402753.814852492359933, 3781897.965412003919482 ], [ 402747.100712105806451, 3781897.965412003919482 ] ] ] } },
{ "type": "Feature", "properties": { "confidence": 0.78612369298934937, "class": 1, "regularized": null }, "geometry": { "type": "Polygon", "coordinates": [ [ [ 402883.825025432335678, 3782165.615462868940085 ], [ 402882.909460834169295, 3782164.699898270424455 ], [ 402882.909460834169295, 3782163.784333672374487 ], [ 402882.299084435391705, 3782163.173957273829728 ], [ 402881.993896236002911, 3782163.173957273829728 ], [ 402881.688708036614116, 3782162.868769074324518 ], [ 402880.773143438447732, 3782162.868769074324518 ], [ 402880.162767039670143, 3782162.258392675314099 ], [ 402880.162767039670143, 3782161.95320447627455 ], [ 402879.857578840281349, 3782161.64801627676934 ], [ 402879.857578840281349, 3782159.816887080203742 ], [ 402880.162767039670143, 3782159.511698881164193 ], [ 402880.467955239058938, 3782159.511698881164193 ], [ 402881.078331637836527, 3782158.901322482153773 ], [ 402881.383519837225322, 3782158.901322482153773 ], [ 402881.993896236002911, 3782158.290946083609015 ], [ 402883.214649033558089, 3782158.290946083609015 ], [ 402884.130213631724473, 3782159.206510681658983 ], [ 402884.435401831113268, 3782159.206510681658983 ], [ 402884.740590030502062, 3782159.511698881164193 ], [ 402885.045778229890857, 3782159.511698881164193 ], [ 402885.656154628668446, 3782160.122075279708952 ], [ 402885.961342828057241, 3782160.122075279708952 ], [ 402886.266531027446035, 3782160.427263479214162 ], [ 402886.266531027446035, 3782160.732451678719372 ], [ 402886.876907426223624, 3782161.34282807726413 ], [ 402886.876907426223624, 3782161.95320447627455 ], [ 402887.182095625612419, 3782162.258392675314099 ], [ 402887.182095625612419, 3782164.089521871879697 ], [ 402886.266531027446035, 3782165.005086469929665 ], [ 402885.961342828057241, 3782165.005086469929665 ], [ 402885.656154628668446, 3782165.310274669434875 ], [ 402884.435401831113268, 3782165.310274669434875 ], [ 402884.130213631724473, 3782165.615462868940085 ], [ 402883.825025432335678, 3782165.615462868940085 ] ] ] } },
{ "type": "Feature", "properties": { "confidence": 0.75554078817367554, "class": 1, "regularized": null }, "geometry": { "type": "Polygon", "coordinates": [ [ [ 403146.286876907397527, 3782069.48118006112054 ], [ 403145.981688708008733, 3782069.17599186161533 ], [ 403144.45574771106476, 3782069.17599186161533 ], [ 403144.150559511675965, 3782068.87080366211012 ], [ 403143.84537131228717, 3782068.87080366211012 ], [ 403142.929806714120787, 3782067.955239064060152 ], [ 403142.929806714120787, 3782067.650050864554942 ], [ 403142.624618514731992, 3782067.344862665515393 ], [ 403142.624618514731992, 3782067.039674466010183 ], [ 403142.014242115954403, 3782066.429298066999763 ], [ 403141.709053916565608, 3782066.429298066999763 ], [ 403141.403865717176814, 3782066.124109867960215 ], [ 403141.403865717176814, 3782065.818921668455005 ], [ 403141.098677517788019, 3782065.513733468949795 ], [ 403141.098677517788019, 3782064.598168870899826 ], [ 403140.793489318399224, 3782064.292980671394616 ], [ 403141.098677517788019, 3782063.987792471889406 ], [ 403141.098677517788019, 3782061.85147507628426 ], [ 403141.403865717176814, 3782061.54628687677905 ], [ 403141.403865717176814, 3782060.325534079223871 ], [ 403141.709053916565608, 3782060.020345880184323 ], [ 403142.319430315343197, 3782060.020345880184323 ], [ 403142.624618514731992, 3782059.715157680679113 ], [ 403144.760935910453554, 3782059.715157680679113 ], [ 403144.760935910453554, 3782060.325534079223871 ], [ 403145.066124109842349, 3782060.630722278729081 ], [ 403145.066124109842349, 3782061.241098677739501 ], [ 403145.371312309231143, 3782061.54628687677905 ], [ 403145.371312309231143, 3782061.85147507628426 ], [ 403145.676500508619938, 3782062.156663275789469 ], [ 403145.981688708008733, 3782062.156663275789469 ], [ 403145.981688708008733, 3782062.461851475294679 ], [ 403146.286876907397527, 3782062.767039674334228 ], [ 403146.59206510684453, 3782062.767039674334228 ], [ 403146.59206510684453, 3782063.072227873839438 ], [ 403147.507629705010913, 3782063.987792471889406 ], [ 403147.507629705010913, 3782064.292980671394616 ], [ 403147.812817904399708, 3782064.598168870899826 ], [ 403147.812817904399708, 3782064.903357070405036 ], [ 403148.118006103788503, 3782065.208545269444585 ], [ 403148.118006103788503, 3782066.124109867960215 ], [ 403148.423194303177297, 3782066.429298066999763 ], [ 403148.423194303177297, 3782068.565615463070571 ], [ 403148.118006103788503, 3782068.87080366211012 ], [ 403147.812817904399708, 3782068.87080366211012 ], [ 403147.507629705010913, 3782069.17599186161533 ], [ 403146.59206510684453, 3782069.17599186161533 ], [ 403146.286876907397527, 3782069.48118006112054 ] ] ] } },
{ "type": "Feature", "properties": { "confidence": 0.74529337882995605, "class": 1, "regularized": null }, "geometry": { "type": "Polygon", "coordinates": [ [ [ 402753.814852492359933, 3781945.269582909531891 ], [ 402753.509664292971138, 3781944.964394710026681 ], [ 402753.204476093582343, 3781944.964394710026681 ], [ 402752.899287894193549, 3781944.659206510521472 ], [ 402752.594099694804754, 3781944.659206510521472 ], [ 402752.594099694804754, 3781944.354018311481923 ], [ 402752.28891149541596, 3781944.048830111976713 ], [ 402752.28891149541596, 3781943.743641912471503 ], [ 402750.762970498471987, 3781942.217700915411115 ], [ 402750.762970498471987, 3781941.912512716371566 ], [ 402749.542217700916808, 3781940.691759918816388 ], [ 402749.542217700916808, 3781940.386571719311178 ], [ 402748.626653102750424, 3781939.471007121261209 ], [ 402748.626653102750424, 3781939.165818921755999 ], [ 402748.32146490336163, 3781938.860630722250789 ], [ 402748.32146490336163, 3781938.250254323706031 ], [ 402748.016276703972835, 3781937.945066124200821 ], [ 402748.016276703972835, 3781937.334689725190401 ], [ 402748.32146490336163, 3781937.029501526150852 ], [ 402748.32146490336163, 3781936.724313326645643 ], [ 402749.237029501528013, 3781935.808748728595674 ], [ 402749.847405900305603, 3781935.808748728595674 ], [ 402750.152594099694397, 3781935.503560529090464 ], [ 402750.762970498471987, 3781935.503560529090464 ], [ 402751.068158697860781, 3781935.808748728595674 ], [ 402751.983723296027165, 3781935.808748728595674 ], [ 402752.28891149541596, 3781935.503560529090464 ], [ 402753.204476093582343, 3781935.503560529090464 ], [ 402754.120040691748727, 3781936.419125127140433 ], [ 402754.120040691748727, 3781937.334689725190401 ], [ 402754.425228891137522, 3781937.639877924695611 ], [ 402754.425228891137522, 3781937.945066124200821 ], [ 402754.730417090526316, 3781938.250254323706031 ], [ 402754.730417090526316, 3781939.165818921755999 ], [ 402755.340793489303906, 3781939.776195320300758 ], [ 402755.340793489303906, 3781940.081383519805968 ], [ 402755.6459816886927, 3781940.386571719311178 ], [ 402755.951169888081495, 3781940.386571719311178 ], [ 402755.951169888081495, 3781944.964394710026681 ], [ 402755.6459816886927, 3781944.964394710026681 ], [ 402755.340793489303906, 3781945.269582909531891 ], [ 402753.814852492359933, 3781945.269582909531891 ] ] ] } },
{ "type": "Feature", "properties": { "confidence": 0.69789588451385498, "class": 1, "regularized": null }, "geometry": { "type": "Polygon", "coordinates": [ [ [ 402746.185147507640067, 3781907.731434384360909 ], [ 402745.879959308251273, 3781907.426246185321361 ], [ 402746.185147507640067, 3781907.121057985816151 ], [ 402746.185147507640067, 3781906.510681586805731 ], [ 402746.490335707028862, 3781906.205493387766182 ], [ 402746.490335707028862, 3781905.289928789250553 ], [ 402746.795523906417657, 3781904.984740590211004 ], [ 402746.795523906417657, 3781904.679552390705794 ], [ 402747.100712105806451, 3781904.374364191200584 ], [ 402750.762970498471987, 3781904.374364191200584 ], [ 402750.762970498471987, 3781906.815869786310941 ], [ 402750.457782299083192, 3781907.121057985816151 ], [ 402749.847405900305603, 3781907.121057985816151 ], [ 402749.542217700916808, 3781907.426246185321361 ], [ 402747.71108850458404, 3781907.426246185321361 ], [ 402747.405900305195246, 3781907.731434384360909 ], [ 402746.185147507640067, 3781907.731434384360909 ] ] ] } },
{ "type": "Feature", "properties": { "confidence": 0.63118147850036621, "class": 1, "regularized": null }, "geometry": { "type": "Polygon", "coordinates": [ [ [ 403022.380467955255881, 3781896.744659206364304 ], [ 403022.380467955255881, 3781896.439471007324755 ], [ 403022.075279755867086, 3781896.134282807819545 ], [ 403021.770091556478292, 3781896.134282807819545 ], [ 403021.464903357089497, 3781895.829094608314335 ], [ 403021.464903357089497, 3781894.913530010264367 ], [ 403021.159715157700703, 3781894.608341810759157 ], [ 403021.159715157700703, 3781893.387589013203979 ], [ 403020.549338758923113, 3781892.77721261465922 ], [ 403020.244150559534319, 3781892.77721261465922 ], [ 403020.244150559534319, 3781892.47202441515401 ], [ 403026.653102746699005, 3781892.47202441515401 ], [ 403026.653102746699005, 3781893.082400813698769 ], [ 403026.347914547310211, 3781893.082400813698769 ], [ 403025.432349949143827, 3781893.997965412214398 ], [ 403025.432349949143827, 3781894.608341810759157 ], [ 403023.906408952199854, 3781896.134282807819545 ], [ 403023.601220752811059, 3781896.134282807819545 ], [ 403023.296032553422265, 3781896.439471007324755 ], [ 403022.685656154644676, 3781896.439471007324755 ], [ 403022.380467955255881, 3781896.744659206364304 ] ] ] } },
{ "type": "Feature", "properties": { "confidence": 0.62817656993865967, "class": 1, "regularized": null }, "geometry": { "type": "Polygon", "coordinates": [ [ [ 403044.659206510696094, 3782342.929806713946164 ], [ 403044.3540183113073, 3782342.624618514906615 ], [ 403044.3540183113073, 3782341.403865717351437 ], [ 403044.659206510696094, 3782341.403865717351437 ], [ 403044.964394710084889, 3782341.098677517846227 ], [ 403044.964394710084889, 3782333.774160732515156 ], [ 403045.574771108862478, 3782333.163784333504736 ], [ 403045.574771108862478, 3782332.553407934959978 ], [ 403045.879959308251273, 3782332.248219735454768 ], [ 403047.405900305195246, 3782332.248219735454768 ], [ 403047.71108850458404, 3782331.943031535949558 ], [ 403048.32146490336163, 3782331.943031535949558 ], [ 403048.626653102750424, 3782332.248219735454768 ], [ 403051.068158697860781, 3782332.248219735454768 ], [ 403051.373346897249576, 3782332.553407934959978 ], [ 403051.373346897249576, 3782334.384537131059915 ], [ 403051.67853509663837, 3782334.689725330565125 ], [ 403051.67853509663837, 3782338.65717192273587 ], [ 403051.983723296027165, 3782338.96236012224108 ], [ 403051.67853509663837, 3782338.96236012224108 ], [ 403051.373346897249576, 3782339.267548321280628 ], [ 403051.068158697860781, 3782339.267548321280628 ], [ 403050.762970498471987, 3782339.572736520785838 ], [ 403050.152594099694397, 3782339.572736520785838 ], [ 403049.847405900305603, 3782339.877924720291048 ], [ 403049.542217700916808, 3782339.877924720291048 ], [ 403048.931841302139219, 3782340.488301118835807 ], [ 403048.626653102750424, 3782340.488301118835807 ], [ 403048.016276703972835, 3782341.098677517846227 ], [ 403047.71108850458404, 3782341.098677517846227 ], [ 403045.879959308251273, 3782342.929806713946164 ], [ 403044.659206510696094, 3782342.929806713946164 ] ] ] } },
{ "type": "Feature", "properties": { "confidence": 0.59736859798431396, "class": 1, "regularized": null }, "geometry": { "type": "Polygon", "coordinates": [ [ [ 403172.838250254339073, 3782197.355035605374724 ], [ 403172.533062054950278, 3782197.049847405869514 ], [ 403172.227873855561484, 3782197.049847405869514 ], [ 403171.922685656172689, 3782196.744659206364304 ], [ 403171.617497456783894, 3782196.744659206364304 ], [ 403171.617497456783894, 3782194.913530010264367 ], [ 403171.922685656172689, 3782194.608341810759157 ], [ 403171.922685656172689, 3782193.692777212709188 ], [ 403173.753814852505457, 3782193.692777212709188 ], [ 403174.059003051894251, 3782193.997965412214398 ], [ 403174.059003051894251, 3782194.303153611253947 ], [ 403174.66937945067184, 3782194.913530010264367 ], [ 403174.66937945067184, 3782195.523906408809125 ], [ 403174.974567650060635, 3782195.829094608314335 ], [ 403174.974567650060635, 3782197.049847405869514 ], [ 403174.66937945067184, 3782197.355035605374724 ], [ 403172.838250254339073, 3782197.355035605374724 ] ] ] } },
{ "type": "Feature", "properties": { "confidence": 0.51605468988418579, "class": 1, "regularized": null }, "geometry": { "type": "Polygon", "coordinates": [ [ [ 403097.456765005073976, 3782212.919633774086833 ], [ 403097.151576805685181, 3782212.614445574581623 ], [ 403096.541200406907592, 3782212.614445574581623 ], [ 403096.541200406907592, 3782212.309257375542074 ], [ 403096.236012207518797, 3782212.004069176036865 ], [ 403096.236012207518797, 3782210.783316378481686 ], [ 403095.930824008130003, 3782210.478128178976476 ], [ 403095.625635808741208, 3782210.478128178976476 ], [ 403095.625635808741208, 3782210.172939979471266 ], [ 403095.930824008130003, 3782209.867751780431718 ], [ 403095.930824008130003, 3782207.426246185321361 ], [ 403095.625635808741208, 3782207.121057985816151 ], [ 403095.625635808741208, 3782206.815869786310941 ], [ 403095.320447609352414, 3782206.510681586805731 ], [ 403095.015259409963619, 3782206.510681586805731 ], [ 403094.710071210574824, 3782206.205493387766182 ], [ 403095.015259409963619, 3782205.900305188260972 ], [ 403095.015259409963619, 3782205.595116988755763 ], [ 403095.625635808741208, 3782204.984740590211004 ], [ 403095.930824008130003, 3782204.984740590211004 ], [ 403096.236012207518797, 3782204.679552390705794 ], [ 403098.067141403851565, 3782204.679552390705794 ], [ 403098.37232960324036, 3782204.984740590211004 ], [ 403098.677517802629154, 3782204.984740590211004 ], [ 403100.508646998961922, 3782206.815869786310941 ], [ 403100.508646998961922, 3782207.121057985816151 ], [ 403100.813835198350716, 3782207.426246185321361 ], [ 403100.813835198350716, 3782207.731434384360909 ], [ 403102.339776195294689, 3782209.257375381421298 ], [ 403102.339776195294689, 3782210.478128178976476 ], [ 403102.034587995905895, 3782210.783316378481686 ], [ 403102.034587995905895, 3782211.088504577986896 ], [ 403101.7293997965171, 3782211.088504577986896 ], [ 403101.424211597128306, 3782211.393692777026445 ], [ 403100.813835198350716, 3782211.393692777026445 ], [ 403099.593082400795538, 3782212.614445574581623 ], [ 403098.982706002017949, 3782212.614445574581623 ], [ 403098.677517802629154, 3782212.919633774086833 ], [ 403097.456765005073976, 3782212.919633774086833 ] ] ] } },
{ "type": "Feature", "properties": { "confidence": 0.4657769501209259, "class": 1, "regularized": null }, "geometry": { "type": "Polygon", "coordinates": [ [ [ 402780.061037639854476, 3782138.758901322260499 ], [ 402779.755849440465681, 3782138.45371312322095 ], [ 402779.450661241076887, 3782138.45371312322095 ], [ 402779.450661241076887, 3782133.265513733495027 ], [ 402779.145473041688092, 3782132.960325533989817 ], [ 402779.145473041688092, 3782132.655137334484607 ], [ 402778.840284842299297, 3782132.349949135445058 ], [ 402778.840284842299297, 3782131.12919633788988 ], [ 402779.145473041688092, 3782130.82400813838467 ], [ 402779.145473041688092, 3782130.21363173937425 ], [ 402779.450661241076887, 3782129.908443540334702 ], [ 402779.450661241076887, 3782129.298067141324282 ], [ 402779.755849440465681, 3782128.992878941819072 ], [ 402780.061037639854476, 3782128.992878941819072 ], [ 402780.36622583924327, 3782128.687690742779523 ], [ 402783.11291963380063, 3782128.687690742779523 ], [ 402783.418107833189424, 3782128.992878941819072 ], [ 402783.418107833189424, 3782131.12919633788988 ], [ 402783.723296032578219, 3782131.434384536929429 ], [ 402783.723296032578219, 3782131.739572736434639 ], [ 402784.028484231967013, 3782132.044760935939848 ], [ 402784.028484231967013, 3782134.181078331544995 ], [ 402784.333672431355808, 3782134.486266531050205 ], [ 402784.333672431355808, 3782135.707019328605384 ], [ 402784.028484231967013, 3782136.012207528110594 ], [ 402784.028484231967013, 3782136.622583926655352 ], [ 402783.723296032578219, 3782136.927772126160562 ], [ 402783.723296032578219, 3782137.232960325665772 ], [ 402783.418107833189424, 3782137.538148524705321 ], [ 402781.892166836187243, 3782137.538148524705321 ], [ 402781.281790437409654, 3782138.14852492371574 ], [ 402780.97660223802086, 3782138.14852492371574 ], [ 402780.671414038632065, 3782138.45371312322095 ], [ 402780.36622583924327, 3782138.45371312322095 ], [ 402780.061037639854476, 3782138.758901322260499 ] ] ] } },
{ "type": "Feature", "properties": { "confidence": 0.44414970278739929, "class": 1, "regularized": null }, "geometry": { "type": "Polygon", "coordinates": [ [ [ 402717.802644964365754, 3781899.79654120048508 ], [ 402717.49745676497696, 3781899.491353000979871 ], [ 402717.192268565588165, 3781899.491353000979871 ], [ 402717.192268565588165, 3781894.608341810759157 ], [ 402717.49745676497696, 3781894.608341810759157 ], [ 402717.802644964365754, 3781894.303153611253947 ], [ 402717.802644964365754, 3781893.082400813698769 ], [ 402718.107833163812757, 3781892.77721261465922 ], [ 402718.107833163812757, 3781892.47202441515401 ], [ 402718.413021363201551, 3781892.1668362156488 ], [ 402718.413021363201551, 3781891.86164801614359 ], [ 402718.718209562590346, 3781891.556459817104042 ], [ 402718.718209562590346, 3781891.251271617598832 ], [ 402721.770091556478292, 3781891.251271617598832 ], [ 402721.770091556478292, 3781891.556459817104042 ], [ 402722.075279755867086, 3781891.86164801614359 ], [ 402722.075279755867086, 3781892.1668362156488 ], [ 402722.380467955255881, 3781892.47202441515401 ], [ 402722.380467955255881, 3781894.303153611253947 ], [ 402722.075279755867086, 3781894.608341810759157 ], [ 402722.075279755867086, 3781895.218718209769577 ], [ 402721.770091556478292, 3781895.523906408809125 ], [ 402721.770091556478292, 3781895.829094608314335 ], [ 402721.464903357089497, 3781896.134282807819545 ], [ 402721.464903357089497, 3781896.439471007324755 ], [ 402721.159715157700703, 3781896.744659206364304 ], [ 402721.159715157700703, 3781897.049847405869514 ], [ 402719.938962360145524, 3781898.270600203424692 ], [ 402719.938962360145524, 3781898.575788402929902 ], [ 402719.328585961367935, 3781899.186164801474661 ], [ 402719.02339776197914, 3781899.186164801474661 ], [ 402718.413021363201551, 3781899.79654120048508 ], [ 402717.802644964365754, 3781899.79654120048508 ] ] ] } },
{ "type": "Feature", "properties": { "confidence": 0.44325831532478333, "class": 1, "regularized": null }, "geometry": { "type": "Polygon", "coordinates": [ [ [ 402910.376398779219016, 3781855.544252288993448 ], [ 402910.071210579830222, 3781855.239064089488238 ], [ 402909.460834181052633, 3781855.239064089488238 ], [ 402908.850457782275043, 3781854.62868769094348 ], [ 402908.850457782275043, 3781853.102746693883091 ], [ 402908.240081383497454, 3781852.492370294872671 ], [ 402908.240081383497454, 3781851.881993896327913 ], [ 402907.93489318410866, 3781851.576805696822703 ], [ 402907.93489318410866, 3781851.271617497317493 ], [ 402907.629704984719865, 3781850.966429298277944 ], [ 402907.629704984719865, 3781850.050864699762315 ], [ 402907.93489318410866, 3781849.745676500722766 ], [ 402908.240081383497454, 3781849.745676500722766 ], [ 402909.155645981663838, 3781848.830111902207136 ], [ 402909.460834181052633, 3781848.830111902207136 ], [ 402909.766022380441427, 3781848.524923703167588 ], [ 402910.071210579830222, 3781848.524923703167588 ], [ 402910.681586978607811, 3781847.914547304157168 ], [ 402911.597151576832402, 3781847.914547304157168 ], [ 402911.902339776221197, 3781847.609359104651958 ], [ 402912.817904374387581, 3781847.609359104651958 ], [ 402913.123092573776376, 3781847.304170905612409 ], [ 402913.733468972553965, 3781847.304170905612409 ], [ 402914.038657171942759, 3781846.998982706107199 ], [ 402915.564598168886732, 3781846.998982706107199 ], [ 402915.869786368275527, 3781847.304170905612409 ], [ 402916.174974567664322, 3781847.304170905612409 ], [ 402916.174974567664322, 3781847.609359104651958 ], [ 402916.480162767053116, 3781847.914547304157168 ], [ 402916.480162767053116, 3781848.524923703167588 ], [ 402916.174974567664322, 3781848.830111902207136 ], [ 402916.174974567664322, 3781850.356052899267524 ], [ 402915.869786368275527, 3781850.661241098772734 ], [ 402915.869786368275527, 3781850.966429298277944 ], [ 402915.564598168886732, 3781851.271617497317493 ], [ 402915.564598168886732, 3781851.576805696822703 ], [ 402914.343845371331554, 3781852.797558494377881 ], [ 402914.343845371331554, 3781853.407934893388301 ], [ 402914.038657171942759, 3781853.71312309242785 ], [ 402914.038657171942759, 3781855.239064089488238 ], [ 402913.733468972553965, 3781855.239064089488238 ], [ 402913.42828077316517, 3781855.544252288993448 ], [ 402910.376398779219016, 3781855.544252288993448 ] ] ] } },
{ "type": "Feature", "properties": { "confidence": 0.41998505592346191, "class": 1, "regularized": null }, "geometry": { "type": "Polygon", "coordinates": [ [ [ 402747.405900305195246, 3782099.084435401950032 ], [ 402747.100712105806451, 3782098.779247202444822 ], [ 402746.185147507640067, 3782098.779247202444822 ], [ 402745.879959308251273, 3782098.474059002939612 ], [ 402745.269582909473684, 3782098.474059002939612 ], [ 402744.964394710084889, 3782098.168870803434402 ], [ 402744.3540183113073, 3782098.168870803434402 ], [ 402743.438453713140916, 3782097.253306205384433 ], [ 402743.133265513752121, 3782097.253306205384433 ], [ 402743.133265513752121, 3782096.948118005879223 ], [ 402742.828077314363327, 3782096.642929806839675 ], [ 402742.828077314363327, 3782096.337741607334465 ], [ 402742.522889114974532, 3782096.032553407829255 ], [ 402742.522889114974532, 3782094.201424211729318 ], [ 402742.828077314363327, 3782093.896236012224108 ], [ 402742.828077314363327, 3782093.591047812718898 ], [ 402744.3540183113073, 3782093.591047812718898 ], [ 402744.964394710084889, 3782094.201424211729318 ], [ 402745.269582909473684, 3782094.201424211729318 ], [ 402745.574771108862478, 3782094.506612410768867 ], [ 402745.879959308251273, 3782094.506612410768867 ], [ 402746.185147507640067, 3782094.811800610274076 ], [ 402747.71108850458404, 3782094.811800610274076 ], [ 402748.016276703972835, 3782095.116988809779286 ], [ 402748.32146490336163, 3782095.116988809779286 ], [ 402748.626653102750424, 3782095.422177009284496 ], [ 402748.931841302139219, 3782095.422177009284496 ], [ 402748.931841302139219, 3782095.727365208324045 ], [ 402749.237029501528013, 3782096.032553407829255 ], [ 402749.237029501528013, 3782098.168870803434402 ], [ 402748.626653102750424, 3782098.779247202444822 ], [ 402748.32146490336163, 3782098.779247202444822 ], [ 402748.016276703972835, 3782099.084435401950032 ], [ 402747.405900305195246, 3782099.084435401950032 ] ] ] } },
{ "type": "Feature", "properties": { "confidence": 0.41924247145652771, "class": 1, "regularized": null }, "geometry": { "type": "Polygon", "coordinates": [ [ [ 403056.561546286859084, 3782334.689725330565125 ], [ 403056.256358087470289, 3782334.384537131059915 ], [ 403055.340793489303906, 3782334.384537131059915 ], [ 403055.035605289915111, 3782334.079348932020366 ], [ 403054.730417090526316, 3782334.079348932020366 ], [ 403054.425228891137522, 3782333.774160732515156 ], [ 403054.120040691748727, 3782333.774160732515156 ], [ 403054.120040691748727, 3782332.553407934959978 ], [ 403053.814852492359933, 3782332.248219735454768 ], [ 403053.814852492359933, 3782331.02746693789959 ], [ 403054.120040691748727, 3782330.72227873839438 ], [ 403054.120040691748727, 3782330.417090539354831 ], [ 403054.425228891137522, 3782330.111902339849621 ], [ 403054.425228891137522, 3782329.806714140344411 ], [ 403054.730417090526316, 3782329.501525940839201 ], [ 403057.477110885025468, 3782329.501525940839201 ], [ 403057.477110885025468, 3782334.079348932020366 ], [ 403057.171922685636673, 3782334.384537131059915 ], [ 403056.866734486247879, 3782334.384537131059915 ], [ 403056.561546286859084, 3782334.689725330565125 ] ] ] } },
{ "type": "Feature", "properties": { "confidence": 0.38891667127609253, "class": 1, "regularized": null }, "geometry": { "type": "Polygon", "coordinates": [ [ [ 402863.377416073228233, 3782154.62868769094348 ], [ 402863.072227873839438, 3782154.32349949143827 ], [ 402861.546286876895465, 3782154.32349949143827 ], [ 402861.24109867750667, 3782154.01831129193306 ], [ 402861.24109867750667, 3782153.71312309242785 ], [ 402860.935910478117876, 3782153.407934893388301 ], [ 402861.24109867750667, 3782153.102746693883091 ], [ 402861.24109867750667, 3782152.492370294872671 ], [ 402862.461851475061849, 3782151.271617497317493 ], [ 402863.072227873839438, 3782151.271617497317493 ], [ 402863.682604272617027, 3782150.661241098772734 ], [ 402864.292980671394616, 3782150.661241098772734 ], [ 402864.598168870783411, 3782150.356052899267524 ], [ 402864.903357070172206, 3782150.356052899267524 ], [ 402865.513733468949795, 3782149.745676500722766 ], [ 402867.650050864671357, 3782149.745676500722766 ], [ 402867.650050864671357, 3782150.050864699762315 ], [ 402867.955239064118359, 3782150.356052899267524 ], [ 402868.565615462895948, 3782150.356052899267524 ], [ 402868.565615462895948, 3782150.661241098772734 ], [ 402869.175991861673538, 3782151.271617497317493 ], [ 402869.175991861673538, 3782152.492370294872671 ], [ 402868.870803662284743, 3782152.797558494377881 ], [ 402868.870803662284743, 3782153.102746693883091 ], [ 402867.955239064118359, 3782154.01831129193306 ], [ 402867.650050864671357, 3782154.01831129193306 ], [ 402867.344862665282562, 3782154.32349949143827 ], [ 402865.513733468949795, 3782154.32349949143827 ], [ 402865.208545269561, 3782154.62868769094348 ], [ 402863.377416073228233, 3782154.62868769094348 ] ] ] } },
{ "type": "Feature", "properties": { "confidence": 0.3664223849773407, "class": 1, "regularized": null }, "geometry": { "type": "Polygon", "coordinates": [ [ [ 402948.219735503545962, 3782222.38046795502305 ], [ 402947.914547304157168, 3782222.075279755983502 ], [ 402947.914547304157168, 3782220.244150559417903 ], [ 402948.219735503545962, 3782219.938962359912694 ], [ 402948.219735503545962, 3782219.633774160873145 ], [ 402948.524923702934757, 3782219.328585961367935 ], [ 402948.524923702934757, 3782219.023397761862725 ], [ 402949.745676500489935, 3782217.802644964307547 ], [ 402950.05086469987873, 3782217.802644964307547 ], [ 402950.966429298045114, 3782216.887080366257578 ], [ 402951.271617497433908, 3782216.887080366257578 ], [ 402951.576805696822703, 3782216.581892166752368 ], [ 402952.187182095600292, 3782216.581892166752368 ], [ 402952.492370294989087, 3782216.276703967247158 ], [ 402953.40793489315547, 3782216.276703967247158 ], [ 402953.713123092602473, 3782216.581892166752368 ], [ 402954.323499491380062, 3782216.581892166752368 ], [ 402954.628687690768857, 3782216.887080366257578 ], [ 402954.933875890157651, 3782216.887080366257578 ], [ 402955.54425228893524, 3782217.497456764802337 ], [ 402955.54425228893524, 3782218.107833163812757 ], [ 402955.849440488324035, 3782218.413021363317966 ], [ 402955.849440488324035, 3782219.328585961367935 ], [ 402955.239064089546446, 3782219.938962359912694 ], [ 402955.239064089546446, 3782220.244150559417903 ], [ 402954.933875890157651, 3782220.549338758923113 ], [ 402954.628687690768857, 3782220.549338758923113 ], [ 402954.323499491380062, 3782220.854526958428323 ], [ 402953.713123092602473, 3782220.854526958428323 ], [ 402953.40793489315547, 3782221.159715157467872 ], [ 402953.102746693766676, 3782221.159715157467872 ], [ 402952.492370294989087, 3782221.770091556478292 ], [ 402952.187182095600292, 3782221.770091556478292 ], [ 402951.881993896211497, 3782222.075279755983502 ], [ 402951.576805696822703, 3782222.075279755983502 ], [ 402951.271617497433908, 3782222.38046795502305 ], [ 402948.219735503545962, 3782222.38046795502305 ] ] ] } },
{ "type": "Feature", "properties": { "confidence": 0.32951915264129639, "class": 1, "regularized": "rectangle" }, "geometry": { "type": "Polygon", "coordinates": [ [ [ 402718.4375, 3781845.5 ], [ 402724.8125, 3781845.5 ], [ 402724.8125, 3781865.5 ], [ 402718.4375, 3781865.5 ], [ 402718.4375, 3781845.5 ] ] ] } },
{ "type": "Feature", "properties": { "confidence": 0.31742614507675171, "class": 1, "regularized": null }, "geometry": { "type": "Polygon", "coordinates": [ [ [ 402680.264496439485811, 3781925.432349949143827 ], [ 402679.959308240097016, 3781925.127161749638617 ], [ 402679.043743641930632, 3781925.127161749638617 ], [ 402679.043743641930632, 3781924.821973550133407 ], [ 402678.738555442541838, 3781924.516785351093858 ], [ 402678.433367243153043, 3781924.516785351093858 ], [ 402678.433367243153043, 3781924.211597151588649 ], [ 402678.128179043764248, 3781923.906408952083439 ], [ 402678.128179043764248, 3781923.601220752578229 ], [ 402677.822990844375454, 3781923.29603255353868 ], [ 402677.822990844375454, 3781921.464903356973082 ], [ 402678.128179043764248, 3781921.159715157467872 ], [ 402678.128179043764248, 3781920.854526958428323 ], [ 402678.433367243153043, 3781920.549338758923113 ], [ 402684.537131230928935, 3781920.549338758923113 ], [ 402684.84231943031773, 3781920.854526958428323 ], [ 402684.84231943031773, 3781921.159715157467872 ], [ 402685.147507629706524, 3781921.464903356973082 ], [ 402685.147507629706524, 3781921.770091556478292 ], [ 402685.452695829095319, 3781922.075279755983502 ], [ 402685.452695829095319, 3781924.821973550133407 ], [ 402685.147507629706524, 3781925.127161749638617 ], [ 402684.537131230928935, 3781925.127161749638617 ], [ 402684.231943031540141, 3781925.432349949143827 ], [ 402680.264496439485811, 3781925.432349949143827 ] ] ] } },
{ "type": "Feature", "properties": { "confidence": 0.31603646278381348, "class": 1, "regularized": null }, "geometry": { "type": "Polygon", "coordinates": [ [ [ 402757.171922685636673, 3781902.848423194140196 ], [ 402756.866734486247879, 3781902.543234995100647 ], [ 402756.866734486247879, 3781897.660223804879934 ], [ 402759.308240081358235, 3781897.660223804879934 ], [ 402759.61342828074703, 3781897.965412003919482 ], [ 402759.61342828074703, 3781898.270600203424692 ], [ 402759.918616480135825, 3781898.575788402929902 ], [ 402759.918616480135825, 3781898.880976602435112 ], [ 402760.223804679524619, 3781899.186164801474661 ], [ 402760.223804679524619, 3781900.10172939999029 ], [ 402760.528992878913414, 3781900.406917599029839 ], [ 402760.528992878913414, 3781902.238046795595437 ], [ 402760.223804679524619, 3781902.543234995100647 ], [ 402760.223804679524619, 3781902.848423194140196 ], [ 402757.171922685636673, 3781902.848423194140196 ] ] ] } },
{ "type": "Feature", "properties": { "confidence": 0.30813875794410706, "class": 1, "regularized": null }, "geometry": { "type": "Polygon", "coordinates": [ [ [ 402962.563580874877516, 3781897.049847405869514 ], [ 402962.258392675488722, 3781896.744659206364304 ], [ 402961.037639877933543, 3781896.744659206364304 ], [ 402961.037639877933543, 3781896.439471007324755 ], [ 402960.732451678544749, 3781896.134282807819545 ], [ 402960.732451678544749, 3781895.829094608314335 ], [ 402959.816887080378365, 3781894.913530010264367 ], [ 402959.816887080378365, 3781894.608341810759157 ], [ 402959.51169888098957, 3781894.303153611253947 ], [ 402959.51169888098957, 3781893.082400813698769 ], [ 402965.310274669376668, 3781893.082400813698769 ], [ 402965.615462868765462, 3781893.387589013203979 ], [ 402965.920651068154257, 3781893.387589013203979 ], [ 402966.225839267543051, 3781893.692777212709188 ], [ 402966.836215666320641, 3781893.692777212709188 ], [ 402966.836215666320641, 3781893.997965412214398 ], [ 402967.141403865709435, 3781894.303153611253947 ], [ 402967.141403865709435, 3781894.608341810759157 ], [ 402965.920651068154257, 3781895.829094608314335 ], [ 402965.920651068154257, 3781896.134282807819545 ], [ 402965.615462868765462, 3781896.439471007324755 ], [ 402965.310274669376668, 3781896.439471007324755 ], [ 402965.005086469987873, 3781896.744659206364304 ], [ 402963.784333672432695, 3781896.744659206364304 ], [ 402963.4791454730439, 3781897.049847405869514 ], [ 402962.563580874877516, 3781897.049847405869514 ] ] ] } },
{ "type": "Feature", "properties": { "confidence": 0.29531615972518921, "class": 1, "regularized": null }, "geometry": { "type": "Polygon", "coordinates": [ [ [ 402802.034587995905895, 3782251.983723295852542 ], [ 402801.424211597128306, 3782251.373346897307783 ], [ 402801.424211597128306, 3782251.068158697802573 ], [ 402800.508646998961922, 3782250.152594099752605 ], [ 402800.203458799573127, 3782250.152594099752605 ], [ 402798.982706002017949, 3782248.931841302197427 ], [ 402798.982706002017949, 3782248.626653102692217 ], [ 402798.677517802629154, 3782248.321464903187007 ], [ 402798.677517802629154, 3782246.49033570708707 ], [ 402798.37232960324036, 3782246.18514750758186 ], [ 402798.677517802629154, 3782245.87995930807665 ], [ 402798.677517802629154, 3782244.964394710026681 ], [ 402798.982706002017949, 3782244.964394710026681 ], [ 402799.287894201406743, 3782244.659206510521472 ], [ 402803.255340793461073, 3782244.659206510521472 ], [ 402803.560528992849868, 3782244.964394710026681 ], [ 402803.560528992849868, 3782245.574771109037101 ], [ 402803.255340793461073, 3782245.87995930807665 ], [ 402803.255340793461073, 3782246.79552390659228 ], [ 402803.560528992849868, 3782247.100712105631828 ], [ 402803.560528992849868, 3782249.237029501702636 ], [ 402803.86571719229687, 3782249.542217700742185 ], [ 402803.86571719229687, 3782251.678535096812993 ], [ 402803.560528992849868, 3782251.983723295852542 ], [ 402802.034587995905895, 3782251.983723295852542 ] ] ] } },
{ "type": "Feature", "properties": { "confidence": 0.2912786602973938, "class": 1, "regularized": null }, "geometry": { "type": "Polygon", "coordinates": [ [ [ 403045.269582909473684, 3782202.543234995100647 ], [ 403044.964394710084889, 3782202.238046795595437 ], [ 403044.659206510696094, 3782202.238046795595437 ], [ 403044.659206510696094, 3782200.406917599029839 ], [ 403044.3540183113073, 3782200.10172939999029 ], [ 403044.3540183113073, 3782197.049847405869514 ], [ 403044.964394710084889, 3782196.439471007324755 ], [ 403045.269582909473684, 3782196.439471007324755 ], [ 403045.574771108862478, 3782196.134282807819545 ], [ 403047.100712105806451, 3782196.134282807819545 ], [ 403047.405900305195246, 3782196.439471007324755 ], [ 403047.405900305195246, 3782197.049847405869514 ], [ 403047.71108850458404, 3782197.355035605374724 ], [ 403047.71108850458404, 3782198.575788402929902 ], [ 403048.016276703972835, 3782198.880976602435112 ], [ 403048.016276703972835, 3782199.186164801474661 ], [ 403047.71108850458404, 3782199.491353000979871 ], [ 403047.71108850458404, 3782201.017293998040259 ], [ 403047.405900305195246, 3782201.322482197545469 ], [ 403047.405900305195246, 3782201.627670396585017 ], [ 403046.795523906417657, 3782202.238046795595437 ], [ 403045.574771108862478, 3782202.238046795595437 ], [ 403045.269582909473684, 3782202.543234995100647 ] ] ] } },
{ "type": "Feature", "properties": { "confidence": 0.28788915276527405, "class": 1, "regularized": null }, "geometry": { "type": "Polygon", "coordinates": [ [ [ 402766.022380467969924, 3781930.315361139364541 ], [ 402765.71719226858113, 3781930.010172939859331 ], [ 402765.412004069192335, 3781930.010172939859331 ], [ 402765.412004069192335, 3781929.399796541314572 ], [ 402765.10681586980354, 3781929.094608341809362 ], [ 402765.10681586980354, 3781926.958290946204215 ], [ 402765.412004069192335, 3781926.653102746699005 ], [ 402765.71719226858113, 3781926.653102746699005 ], [ 402766.022380467969924, 3781926.347914547193795 ], [ 402769.07426246185787, 3781926.347914547193795 ], [ 402769.07426246185787, 3781927.263479145243764 ], [ 402769.379450661246665, 3781927.568667344748974 ], [ 402769.379450661246665, 3781927.873855544254184 ], [ 402769.989827060024254, 3781928.484231942798942 ], [ 402769.989827060024254, 3781930.010172939859331 ], [ 402769.684638860635459, 3781930.315361139364541 ], [ 402766.022380467969924, 3781930.315361139364541 ] ] ] } },
{ "type": "Feature", "properties": { "confidence": 0.28219643235206604, "class": 1, "regularized": null }, "geometry": { "type": "Polygon", "coordinates": [ [ [ 402717.802644964365754, 3782017.904374364297837 ], [ 402716.581892166810576, 3782016.683621566742659 ], [ 402716.581892166810576, 3782016.073245167732239 ], [ 402715.055951169866603, 3782014.547304171137512 ], [ 402715.055951169866603, 3782014.242115971632302 ], [ 402714.750762970477808, 3782013.936927772127092 ], [ 402714.445574771089014, 3782013.936927772127092 ], [ 402714.140386571700219, 3782013.631739572621882 ], [ 402714.140386571700219, 3782012.410986775066704 ], [ 402713.835198372311424, 3782012.105798575561494 ], [ 402713.53001017292263, 3782012.105798575561494 ], [ 402713.53001017292263, 3782011.800610376521945 ], [ 402713.224821973533835, 3782011.495422177016735 ], [ 402713.224821973533835, 3782010.885045778006315 ], [ 402713.53001017292263, 3782010.579857578966767 ], [ 402714.750762970477808, 3782010.579857578966767 ], [ 402715.055951169866603, 3782010.274669379461557 ], [ 402715.361139369255397, 3782010.579857578966767 ], [ 402716.276703967421781, 3782010.579857578966767 ], [ 402716.276703967421781, 3782011.190233977511525 ], [ 402716.88708036619937, 3782011.800610376521945 ], [ 402717.802644964365754, 3782011.800610376521945 ], [ 402718.107833163812757, 3782012.105798575561494 ], [ 402718.718209562590346, 3782012.105798575561494 ], [ 402719.02339776197914, 3782012.410986775066704 ], [ 402719.328585961367935, 3782012.410986775066704 ], [ 402719.938962360145524, 3782013.021363174077123 ], [ 402720.244150559534319, 3782013.021363174077123 ], [ 402720.854526958311908, 3782013.631739572621882 ], [ 402721.159715157700703, 3782013.631739572621882 ], [ 402721.770091556478292, 3782014.242115971632302 ], [ 402721.770091556478292, 3782016.378433367237449 ], [ 402721.159715157700703, 3782016.988809766247869 ], [ 402720.549338758923113, 3782016.988809766247869 ], [ 402720.244150559534319, 3782017.293997965287417 ], [ 402719.63377416075673, 3782017.293997965287417 ], [ 402719.02339776197914, 3782017.904374364297837 ], [ 402717.802644964365754, 3782017.904374364297837 ] ] ] } }
]
}
