{
"type": "FeatureCollection",
"name": "cell_00479_pre",
"crs": { "type": "name", "properties": { "name": "urn:ogc:def:crs:EPSG::32611" } },
"features": [
{ "type": "Feature", "properties": { "confidence": 0.68933254480361938, "class": 1 }, "geometry": { "type": "Polygon", "coordinates": [ [ [ 401187.894201424205676, 3786811.800610376521945 ], [ 401187.894201424205676, 3786809.664292980451137 ], [ 401195.523906408925541, 3786809.664292980451137 ], [ 401195.523906408925541, 3786810.274669379461557 ], [ 401194.608341810759157, 3786811.190233977511525 ], [ 401194.303153611370362, 3786811.190233977511525 ], [ 401193.997965411981568, 3786811.495422177016735 ], [ 401191.861648016260006, 3786811.495422177016735 ], [ 401191.556459816871211, 3786811.800610376521945 ], [ 401187.894201424205676, 3786811.800610376521945 ] ] ] } },
{ "type": "Feature", "properties": { "confidence": 0.67958325147628784, "class": 1 }, "geometry": { "type": "Polygon", "coordinates": [ [ [ 401375.890132248227019, 3786884.130213631782681 ], [ 401375.584944048838224, 3786883.825025432277471 ], [ 401375.584944048838224, 3786883.519837232772261 ], [ 401375.27975584944943, 3786883.214649033732712 ], [ 401375.27975584944943, 3786882.299084435217083 ], [ 401375.584944048838224, 3786881.993896236177534 ], [ 401375.584944048838224, 3786881.688708036672324 ], [ 401376.805696846393403, 3786880.467955239117146 ], [ 401377.110885045782197, 3786880.467955239117146 ], [ 401377.721261444559786, 3786879.857578840106726 ], [ 401378.026449643948581, 3786879.857578840106726 ], [ 401378.63682604272617, 3786879.247202441561967 ], [ 401380.162767039670143, 3786879.247202441561967 ], [ 401380.162767039670143, 3786879.552390641067177 ], [ 401380.467955239058938, 3786879.857578840106726 ], [ 401380.773143438447732, 3786879.857578840106726 ], [ 401381.078331637836527, 3786880.162767039611936 ], [ 401381.078331637836527, 3786881.078331637661904 ], [ 401380.773143438447732, 3786881.383519837167114 ], [ 401380.773143438447732, 3786881.688708036672324 ], [ 401380.467955239058938, 3786881.993896236177534 ], [ 401380.467955239058938, 3786882.604272634722292 ], [ 401380.162767039670143, 3786882.909460834227502 ], [ 401380.162767039670143, 3786883.214649033732712 ], [ 401379.552390640892554, 3786883.825025432277471 ], [ 401378.331637843337376, 3786883.825025432277471 ], [ 401378.026449643948581, 3786884.130213631782681 ], [ 401375.890132248227019, 3786884.130213631782681 ] ] ] } },
{ "type": "Feature", "properties": { "confidence": 0.66455590724945068, "class": 1 }, "geometry": { "type": "Polygon", "coordinates": [ [ [ 400911.393692777201068, 3787137.436419125180691 ], [ 400911.088504577812273, 3787137.131230925675482 ], [ 400911.088504577812273, 3787135.605289928615093 ], [ 400911.393692777201068, 3787135.300101729575545 ], [ 400911.393692777201068, 3787134.994913530070335 ], [ 400911.698880976589862, 3787134.994913530070335 ], [ 400912.309257375367451, 3787134.384537131059915 ], [ 400912.614445574756246, 3787134.384537131059915 ], [ 400912.919633774145041, 3787134.079348932020366 ], [ 400912.919633774145041, 3787133.774160732515156 ], [ 400915.055951169866603, 3787133.774160732515156 ], [ 400915.666327568644192, 3787134.384537131059915 ], [ 400915.361139369255397, 3787134.689725330565125 ], [ 400915.361139369255397, 3787134.994913530070335 ], [ 400914.750762970477808, 3787135.605289928615093 ], [ 400914.750762970477808, 3787135.910478128120303 ], [ 400914.445574771089014, 3787136.215666327625513 ], [ 400914.140386571700219, 3787136.215666327625513 ], [ 400913.835198372311424, 3787136.520854527130723 ], [ 400913.53001017292263, 3787136.520854527130723 ], [ 400912.919633774145041, 3787137.131230925675482 ], [ 400912.614445574756246, 3787137.131230925675482 ], [ 400912.309257375367451, 3787137.436419125180691 ], [ 400911.393692777201068, 3787137.436419125180691 ] ] ] } },
{ "type": "Feature", "properties": { "confidence": 0.59932887554168701, "class": 1 }, "geometry": { "type": "Polygon", "coordinates": [ [ [ 400925.127161749755032, 3786938.14852492371574 ], [ 400924.821973550366238, 3786937.843336724210531 ], [ 400924.821973550366238, 3786937.538148524705321 ], [ 400924.516785350977443, 3786937.232960325665772 ], [ 400924.821973550366238, 3786936.927772126160562 ], [ 400924.821973550366238, 3786936.012207528110594 ], [ 400924.516785350977443, 3786935.707019328605384 ], [ 400924.516785350977443, 3786935.096642929594964 ], [ 400924.211597151588649, 3786934.791454730555415 ], [ 400924.211597151588649, 3786933.570701933000237 ], [ 400924.516785350977443, 3786933.265513733495027 ], [ 400924.516785350977443, 3786932.960325533989817 ], [ 400925.432349949143827, 3786932.044760935939848 ], [ 400927.568667344865389, 3786932.044760935939848 ], [ 400927.873855544254184, 3786932.349949135445058 ], [ 400927.873855544254184, 3786932.655137334484607 ], [ 400928.179043743642978, 3786932.960325533989817 ], [ 400928.179043743642978, 3786933.265513733495027 ], [ 400930.315361139364541, 3786935.401831129100174 ], [ 400930.315361139364541, 3786936.927772126160562 ], [ 400929.399796541198157, 3786936.927772126160562 ], [ 400929.094608341809362, 3786937.232960325665772 ], [ 400928.484231943031773, 3786937.232960325665772 ], [ 400928.179043743642978, 3786937.538148524705321 ], [ 400927.568667344865389, 3786937.538148524705321 ], [ 400927.263479145476595, 3786937.843336724210531 ], [ 400926.042726347921416, 3786937.843336724210531 ], [ 400925.737538148532622, 3786938.14852492371574 ], [ 400925.127161749755032, 3786938.14852492371574 ] ] ] } },
{ "type": "Feature", "properties": { "confidence": 0.59781938791275024, "class": 1 }, "geometry": { "type": "Polygon", "coordinates": [ [ [ 400838.14852492371574, 3786909.460834180936217 ], [ 400837.843336724326946, 3786909.155645981896669 ], [ 400837.538148524938151, 3786909.155645981896669 ], [ 400837.232960325549357, 3786908.850457782391459 ], [ 400836.317395727382973, 3786908.850457782391459 ], [ 400836.012207527994178, 3786908.545269582886249 ], [ 400835.707019328605384, 3786908.545269582886249 ], [ 400835.401831129216589, 3786908.240081383381039 ], [ 400835.096642929827794, 3786908.240081383381039 ], [ 400834.791454730439, 3786907.93489318434149 ], [ 400834.486266531050205, 3786907.93489318434149 ], [ 400834.181078331661411, 3786907.62970498483628 ], [ 400833.570701932883821, 3786907.62970498483628 ], [ 400833.570701932883821, 3786907.32451678533107 ], [ 400833.265513733495027, 3786907.019328585825861 ], [ 400833.265513733495027, 3786906.714140386786312 ], [ 400832.960325534106232, 3786906.408952187281102 ], [ 400832.960325534106232, 3786905.188199389725924 ], [ 400833.265513733495027, 3786904.883011190220714 ], [ 400833.265513733495027, 3786904.577822990715504 ], [ 400833.570701932883821, 3786904.577822990715504 ], [ 400834.486266531050205, 3786903.662258392665535 ], [ 400834.791454730439, 3786903.662258392665535 ], [ 400835.096642929827794, 3786903.357070193160325 ], [ 400835.707019328605384, 3786903.357070193160325 ], [ 400836.012207527994178, 3786903.662258392665535 ], [ 400836.622583926771767, 3786903.662258392665535 ], [ 400836.927772126160562, 3786903.967446592170745 ], [ 400837.232960325549357, 3786903.967446592170745 ], [ 400837.538148524938151, 3786904.272634791675955 ], [ 400838.14852492371574, 3786904.272634791675955 ], [ 400838.453713123104535, 3786904.577822990715504 ], [ 400838.75890132249333, 3786904.577822990715504 ], [ 400839.064089521882124, 3786904.883011190220714 ], [ 400839.369277721270919, 3786904.883011190220714 ], [ 400839.369277721270919, 3786905.188199389725924 ], [ 400839.979654120048508, 3786905.798575788270682 ], [ 400839.979654120048508, 3786906.103763987775892 ], [ 400840.284842319437303, 3786906.408952187281102 ], [ 400840.284842319437303, 3786906.714140386786312 ], [ 400840.895218718214892, 3786907.32451678533107 ], [ 400840.895218718214892, 3786908.850457782391459 ], [ 400840.590030518826097, 3786909.155645981896669 ], [ 400839.064089521882124, 3786909.155645981896669 ], [ 400838.75890132249333, 3786909.460834180936217 ], [ 400838.14852492371574, 3786909.460834180936217 ] ] ] } },
{ "type": "Feature", "properties": { "confidence": 0.57995903491973877, "class": 1 }, "geometry": { "type": "Polygon", "coordinates": [ [ [ 400887.589013224816881, 3787067.853509664069861 ], [ 400887.283825025428087, 3787067.548321465030313 ], [ 400887.283825025428087, 3787066.327568667475134 ], [ 400887.589013224816881, 3787066.022380467969924 ], [ 400887.589013224816881, 3787065.412004068959504 ], [ 400888.19938962359447, 3787064.801627670414746 ], [ 400888.80976602237206, 3787064.801627670414746 ], [ 400889.114954221760854, 3787064.496439470909536 ], [ 400890.335707019316033, 3787064.496439470909536 ], [ 400890.640895218704827, 3787064.191251271404326 ], [ 400891.556459816871211, 3787064.191251271404326 ], [ 400891.861648016260006, 3787063.886063072364777 ], [ 400892.777212614426389, 3787063.886063072364777 ], [ 400893.082400813815184, 3787063.580874872859567 ], [ 400893.387589013203979, 3787063.580874872859567 ], [ 400893.692777212592773, 3787063.275686673354357 ], [ 400894.913530010147952, 3787063.275686673354357 ], [ 400894.913530010147952, 3787064.496439470909536 ], [ 400894.608341810759157, 3787064.801627670414746 ], [ 400894.608341810759157, 3787065.106815869919956 ], [ 400894.303153611370362, 3787065.412004068959504 ], [ 400894.303153611370362, 3787065.717192268464714 ], [ 400893.997965411981568, 3787065.717192268464714 ], [ 400893.692777212592773, 3787066.022380467969924 ], [ 400893.692777212592773, 3787066.327568667475134 ], [ 400893.082400813815184, 3787066.937945066019893 ], [ 400892.777212614426389, 3787066.937945066019893 ], [ 400892.472024415037595, 3787067.243133265525103 ], [ 400892.1668362156488, 3787067.243133265525103 ], [ 400891.861648016260006, 3787067.548321465030313 ], [ 400890.335707019316033, 3787067.548321465030313 ], [ 400890.030518819927238, 3787067.853509664069861 ], [ 400887.589013224816881, 3787067.853509664069861 ] ] ] } },
{ "type": "Feature", "properties": { "confidence": 0.54351520538330078, "class": 1 }, "geometry": { "type": "Polygon", "coordinates": [ [ [ 401158.596134282823186, 3787177.11088504595682 ], [ 401158.596134282823186, 3787175.890132248401642 ], [ 401158.901322482211981, 3787175.584944048896432 ], [ 401158.901322482211981, 3787174.974567649886012 ], [ 401159.206510681600776, 3787174.669379450846463 ], [ 401159.206510681600776, 3787174.364191251341254 ], [ 401159.51169888098957, 3787174.059003051836044 ], [ 401159.51169888098957, 3787173.753814852330834 ], [ 401160.122075279767159, 3787173.143438453786075 ], [ 401160.122075279767159, 3787172.838250254280865 ], [ 401162.563580874877516, 3787170.396744659170508 ], [ 401163.173957273655105, 3787170.396744659170508 ], [ 401163.4791454730439, 3787170.091556459665298 ], [ 401163.784333672432695, 3787170.396744659170508 ], [ 401164.089521871821489, 3787170.396744659170508 ], [ 401164.394710071210284, 3787170.701932858675718 ], [ 401164.394710071210284, 3787172.838250254280865 ], [ 401163.784333672432695, 3787173.448626653291285 ], [ 401163.784333672432695, 3787173.753814852330834 ], [ 401163.4791454730439, 3787173.753814852330834 ], [ 401163.173957273655105, 3787174.059003051836044 ], [ 401163.173957273655105, 3787174.364191251341254 ], [ 401162.868769074266311, 3787174.669379450846463 ], [ 401162.868769074266311, 3787174.974567649886012 ], [ 401162.258392675488722, 3787175.584944048896432 ], [ 401162.258392675488722, 3787175.890132248401642 ], [ 401161.953204476099927, 3787175.890132248401642 ], [ 401161.648016276711132, 3787176.19532044744119 ], [ 401161.648016276711132, 3787176.5005086469464 ], [ 401160.732451678544749, 3787176.5005086469464 ], [ 401160.122075279767159, 3787177.11088504595682 ], [ 401158.596134282823186, 3787177.11088504595682 ] ] ] } },
{ "type": "Feature", "properties": { "confidence": 0.48718428611755371, "class": 1 }, "geometry": { "type": "Polygon", "coordinates": [ [ [ 401293.489318413019646, 3786695.829094608314335 ], [ 401293.184130213630851, 3786695.523906408809125 ], [ 401292.573753814853262, 3786695.523906408809125 ], [ 401292.573753814853262, 3786695.218718209769577 ], [ 401291.047812817909289, 3786693.692777212709188 ], [ 401291.047812817909289, 3786693.387589013203979 ], [ 401290.742624618520495, 3786693.082400813698769 ], [ 401290.742624618520495, 3786692.47202441515401 ], [ 401296.846388606296387, 3786692.47202441515401 ], [ 401296.846388606296387, 3786693.387589013203979 ], [ 401296.541200406907592, 3786693.692777212709188 ], [ 401296.541200406907592, 3786694.608341810759157 ], [ 401295.625635808741208, 3786695.523906408809125 ], [ 401295.320447609352414, 3786695.523906408809125 ], [ 401295.015259409963619, 3786695.829094608314335 ], [ 401293.489318413019646, 3786695.829094608314335 ] ] ] } },
{ "type": "Feature", "properties": { "confidence": 0.46447309851646423, "class": 1 }, "geometry": { "type": "Polygon", "coordinates": [ [ [ 401058.189216683618724, 3786971.108850457705557 ], [ 401058.189216683618724, 3786970.803662258200347 ], [ 401057.88402848422993, 3786970.498474059160799 ], [ 401057.88402848422993, 3786968.667344862595201 ], [ 401058.189216683618724, 3786968.362156663089991 ], [ 401058.189216683618724, 3786967.751780264545232 ], [ 401058.494404883007519, 3786967.446592065040022 ], [ 401058.494404883007519, 3786967.141403865534812 ], [ 401058.799593082396314, 3786966.836215666495264 ], [ 401058.799593082396314, 3786965.920651067979634 ], [ 401060.020345879951492, 3786965.920651067979634 ], [ 401060.325534079340287, 3786966.225839267484844 ], [ 401060.630722278729081, 3786966.225839267484844 ], [ 401060.935910478117876, 3786966.531027466990054 ], [ 401061.24109867750667, 3786966.531027466990054 ], [ 401061.546286876895465, 3786966.836215666495264 ], [ 401061.546286876895465, 3786968.056968464050442 ], [ 401061.24109867750667, 3786968.362156663089991 ], [ 401061.24109867750667, 3786968.667344862595201 ], [ 401060.935910478117876, 3786968.97253306210041 ], [ 401060.935910478117876, 3786969.27772126160562 ], [ 401060.630722278729081, 3786969.582909460645169 ], [ 401060.630722278729081, 3786969.888097660150379 ], [ 401060.020345879951492, 3786970.498474059160799 ], [ 401059.715157680562697, 3786970.498474059160799 ], [ 401059.409969481173903, 3786970.803662258200347 ], [ 401058.799593082396314, 3786970.803662258200347 ], [ 401058.494404883007519, 3786971.108850457705557 ], [ 401058.189216683618724, 3786971.108850457705557 ] ] ] } },
{ "type": "Feature", "properties": { "confidence": 0.44944506883621216, "class": 1 }, "geometry": { "type": "Polygon", "coordinates": [ [ [ 400903.763987792481203, 3787136.215666327625513 ], [ 400903.763987792481203, 3787135.910478128120303 ], [ 400903.458799593092408, 3787135.605289928615093 ], [ 400903.458799593092408, 3787135.300101729575545 ], [ 400903.763987792481203, 3787134.994913530070335 ], [ 400903.763987792481203, 3787134.384537131059915 ], [ 400904.374364191258792, 3787133.774160732515156 ], [ 400904.679552390647586, 3787133.774160732515156 ], [ 400905.289928789425176, 3787133.163784333504736 ], [ 400905.59511698881397, 3787133.163784333504736 ], [ 400905.900305188202765, 3787132.858596134465188 ], [ 400906.510681586980354, 3787132.858596134465188 ], [ 400906.815869786369149, 3787132.553407934959978 ], [ 400907.731434384535532, 3787132.553407934959978 ], [ 400907.731434384535532, 3787133.163784333504736 ], [ 400907.426246185146738, 3787133.468972533009946 ], [ 400907.426246185146738, 3787134.079348932020366 ], [ 400907.121057985757943, 3787134.384537131059915 ], [ 400907.121057985757943, 3787134.689725330565125 ], [ 400905.900305188202765, 3787135.910478128120303 ], [ 400905.59511698881397, 3787135.910478128120303 ], [ 400905.289928789425176, 3787136.215666327625513 ], [ 400903.763987792481203, 3787136.215666327625513 ] ] ] } },
{ "type": "Feature", "properties": { "confidence": 0.40220534801483154, "class": 1 }, "geometry": { "type": "Polygon", "coordinates": [ [ [ 401281.892166836187243, 3786813.326551373116672 ], [ 401281.892166836187243, 3786812.410986775066704 ], [ 401282.197355035634246, 3786812.105798575561494 ], [ 401282.197355035634246, 3786811.800610376521945 ], [ 401282.50254323502304, 3786811.495422177016735 ], [ 401282.50254323502304, 3786809.664292980451137 ], [ 401288.301119023410138, 3786809.664292980451137 ], [ 401288.301119023410138, 3786809.969481179956347 ], [ 401287.995930824021343, 3786810.274669379461557 ], [ 401287.995930824021343, 3786810.579857578966767 ], [ 401287.690742624632549, 3786810.885045778006315 ], [ 401287.690742624632549, 3786811.190233977511525 ], [ 401286.775178026466165, 3786812.105798575561494 ], [ 401286.46998982707737, 3786812.105798575561494 ], [ 401286.164801627688576, 3786812.410986775066704 ], [ 401285.859613428299781, 3786812.410986775066704 ], [ 401285.554425228910986, 3786812.716174974571913 ], [ 401285.249237029522192, 3786812.716174974571913 ], [ 401284.944048830133397, 3786813.021363174077123 ], [ 401284.333672431355808, 3786813.021363174077123 ], [ 401284.028484231967013, 3786813.326551373116672 ], [ 401281.892166836187243, 3786813.326551373116672 ] ] ] } },
{ "type": "Feature", "properties": { "confidence": 0.37431564927101135, "class": 1 }, "geometry": { "type": "Polygon", "coordinates": [ [ [ 401307.527975584962405, 3787048.626653102692217 ], [ 401307.222787385573611, 3787048.321464903187007 ], [ 401306.612410986796021, 3787048.321464903187007 ], [ 401306.307222787407227, 3787048.016276704147458 ], [ 401306.002034588018432, 3787048.016276704147458 ], [ 401305.391658189240843, 3787047.405900305137038 ], [ 401305.391658189240843, 3787047.100712105631828 ], [ 401303.86571719229687, 3787045.574771109037101 ], [ 401303.86571719229687, 3787045.269582909531891 ], [ 401303.560528992908075, 3787044.964394710026681 ], [ 401303.560528992908075, 3787044.048830111976713 ], [ 401307.527975584962405, 3787044.048830111976713 ], [ 401307.527975584962405, 3787048.626653102692217 ] ] ] } },
{ "type": "Feature", "properties": { "confidence": 0.31612309813499451, "class": 1 }, "geometry": { "type": "Polygon", "coordinates": [ [ [ 401182.400813835207373, 3786928.992878941819072 ], [ 401182.095625635818578, 3786928.687690742779523 ], [ 401181.790437436429784, 3786928.687690742779523 ], [ 401181.180061037652194, 3786928.077314343769103 ], [ 401181.180061037652194, 3786926.856561546213925 ], [ 401186.673448626650497, 3786926.856561546213925 ], [ 401186.673448626650497, 3786928.687690742779523 ], [ 401186.368260427261703, 3786928.687690742779523 ], [ 401186.063072227872908, 3786928.992878941819072 ], [ 401182.400813835207373, 3786928.992878941819072 ] ] ] } },
{ "type": "Feature", "properties": { "confidence": 0.28830626606941223, "class": 1 }, "geometry": { "type": "Polygon", "coordinates": [ [ [ 400964.801627670414746, 3787134.994913530070335 ], [ 400964.191251271637157, 3787134.384537131059915 ], [ 400964.191251271637157, 3787133.468972533009946 ], [ 400964.496439471025951, 3787133.163784333504736 ], [ 400964.496439471025951, 3787132.248219735454768 ], [ 400966.022380467969924, 3787130.72227873839438 ], [ 400966.327568667358719, 3787130.72227873839438 ], [ 400966.632756866747513, 3787130.417090539354831 ], [ 400967.548321464913897, 3787130.417090539354831 ], [ 400967.853509664302692, 3787130.111902339849621 ], [ 400968.463886063080281, 3787130.111902339849621 ], [ 400968.769074262469076, 3787129.806714140344411 ], [ 400969.07426246185787, 3787129.806714140344411 ], [ 400969.379450661246665, 3787129.501525940839201 ], [ 400969.684638860635459, 3787129.501525940839201 ], [ 400969.989827060024254, 3787129.196337741799653 ], [ 400970.295015259413049, 3787129.196337741799653 ], [ 400970.600203458801843, 3787128.891149542294443 ], [ 400971.210579857579432, 3787128.891149542294443 ], [ 400971.515768056968227, 3787128.585961342789233 ], [ 400971.515768056968227, 3787128.280773143284023 ], [ 400971.820956256357022, 3787128.280773143284023 ], [ 400972.126144455745816, 3787127.975584944244474 ], [ 400972.126144455745816, 3787127.670396744739264 ], [ 400972.736520854523405, 3787127.670396744739264 ], [ 400973.0417090539122, 3787127.365208545234054 ], [ 400973.652085452689789, 3787127.365208545234054 ], [ 400973.652085452689789, 3787130.417090539354831 ], [ 400973.346897253300995, 3787130.72227873839438 ], [ 400973.346897253300995, 3787131.02746693789959 ], [ 400973.0417090539122, 3787131.02746693789959 ], [ 400972.736520854523405, 3787131.332655137404799 ], [ 400972.736520854523405, 3787131.637843336910009 ], [ 400972.126144455745816, 3787132.248219735454768 ], [ 400972.126144455745816, 3787132.553407934959978 ], [ 400971.820956256357022, 3787132.858596134465188 ], [ 400971.820956256357022, 3787133.163784333504736 ], [ 400971.210579857579432, 3787133.774160732515156 ], [ 400971.210579857579432, 3787134.079348932020366 ], [ 400970.905391658190638, 3787134.079348932020366 ], [ 400970.600203458801843, 3787134.384537131059915 ], [ 400970.295015259413049, 3787134.384537131059915 ], [ 400969.989827060024254, 3787134.689725330565125 ], [ 400968.158697863691486, 3787134.689725330565125 ], [ 400967.853509664302692, 3787134.994913530070335 ], [ 400964.801627670414746, 3787134.994913530070335 ] ] ] } },
{ "type": "Feature", "properties": { "confidence": 0.26253587007522583, "class": 1 }, "geometry": { "type": "Polygon", "coordinates": [ [ [ 401064.598168870783411, 3786974.465920650865883 ], [ 401064.292980671394616, 3786974.160732451826334 ], [ 401063.987792472005822, 3786974.160732451826334 ], [ 401063.987792472005822, 3786970.193285859655589 ], [ 401064.292980671394616, 3786969.888097660150379 ], [ 401064.292980671394616, 3786969.582909460645169 ], [ 401064.598168870783411, 3786969.582909460645169 ], [ 401064.903357070172206, 3786969.27772126160562 ], [ 401065.513733468949795, 3786969.27772126160562 ], [ 401065.818921668338589, 3786968.97253306210041 ], [ 401066.734486266504973, 3786968.97253306210041 ], [ 401067.039674465893768, 3786969.27772126160562 ], [ 401067.650050864671357, 3786969.27772126160562 ], [ 401067.955239064118359, 3786969.582909460645169 ], [ 401067.955239064118359, 3786970.803662258200347 ], [ 401068.260427263507154, 3786971.108850457705557 ], [ 401068.260427263507154, 3786973.855544252321124 ], [ 401067.650050864671357, 3786973.855544252321124 ], [ 401067.344862665282562, 3786974.160732451826334 ], [ 401067.039674465893768, 3786973.855544252321124 ], [ 401066.124109867727384, 3786973.855544252321124 ], [ 401065.818921668338589, 3786974.160732451826334 ], [ 401064.903357070172206, 3786974.160732451826334 ], [ 401064.598168870783411, 3786974.465920650865883 ] ] ] } }
]
}
