{
"type": "FeatureCollection",
"name": "cell_00074_pre",
"crs": { "type": "name", "properties": { "name": "urn:ogc:def:crs:EPSG::32611" } },
"features": [
{ "type": "Feature", "properties": { "confidence": 0.99827969074249268, "class": 1, "regularized": null }, "geometry": { "type": "Polygon", "coordinates": [ [ [ 349923.601220752811059, 3771367.446592065040022 ], [ 349923.296032553422265, 3771367.141403865534812 ], [ 349923.296032553422265, 3771365.005086469929665 ], [ 349922.99084435403347, 3771364.699898270424455 ], [ 349922.99084435403347, 3771358.596134282648563 ], [ 349926.347914547310211, 3771358.596134282648563 ], [ 349926.653102746699005, 3771358.290946083609015 ], [ 349927.873855544254184, 3771358.290946083609015 ], [ 349928.179043743642978, 3771358.596134282648563 ], [ 349928.789420142420568, 3771358.596134282648563 ], [ 349929.094608341809362, 3771358.901322482153773 ], [ 349929.094608341809362, 3771361.03763987775892 ], [ 349929.704984740586951, 3771361.64801627676934 ], [ 349929.704984740586951, 3771361.95320447627455 ], [ 349930.315361139364541, 3771362.563580874819309 ], [ 349930.315361139364541, 3771364.699898270424455 ], [ 349930.620549338753335, 3771365.005086469929665 ], [ 349930.620549338753335, 3771367.141403865534812 ], [ 349929.704984740586951, 3771367.141403865534812 ], [ 349929.399796541198157, 3771367.446592065040022 ], [ 349923.601220752811059, 3771367.446592065040022 ] ] ] } },
{ "type": "Feature", "properties": { "confidence": 0.9982573390007019, "class": 1, "regularized": "rectangle" }, "geometry": { "type": "Polygon", "coordinates": [ [ [ 350162.5625, 3771092.5 ], [ 350172.3125, 3771092.5 ], [ 350172.3125, 3771106.5 ], [ 350162.5625, 3771106.5 ], [ 350162.5625, 3771092.5 ] ] ] } },
{ "type": "Feature", "properties": { "confidence": 0.99325388669967651, "class": 1, "regularized": null }, "geometry": { "type": "Polygon", "coordinates": [ [ [ 350369.175991861673538, 3771491.047812818083912 ], [ 350368.870803662284743, 3771490.742624618578702 ], [ 350367.650050864671357, 3771490.742624618578702 ], [ 350367.039674465893768, 3771490.132248219568282 ], [ 350367.039674465893768, 3771489.827060020528734 ], [ 350366.429298067116179, 3771489.216683621518314 ], [ 350366.429298067116179, 3771488.301119023468345 ], [ 350366.124109867727384, 3771487.995930823963135 ], [ 350366.124109867727384, 3771486.164801627863199 ], [ 350366.429298067116179, 3771485.859613428357989 ], [ 350366.429298067116179, 3771484.94404883030802 ], [ 350367.039674465893768, 3771484.3336724312976 ], [ 350367.039674465893768, 3771484.02848423179239 ], [ 350367.344862665282562, 3771484.02848423179239 ], [ 350369.175991861673538, 3771482.197355035692453 ], [ 350369.175991861673538, 3771481.586978636682034 ], [ 350370.091556459839921, 3771480.671414038632065 ], [ 350371.922685656172689, 3771480.671414038632065 ], [ 350372.227873855561484, 3771480.976602238137275 ], [ 350372.838250254339073, 3771480.976602238137275 ], [ 350373.143438453727867, 3771481.281790437642485 ], [ 350375.27975584944943, 3771481.281790437642485 ], [ 350375.584944048838224, 3771481.586978636682034 ], [ 350375.584944048838224, 3771483.418107833247632 ], [ 350375.27975584944943, 3771483.723296032752842 ], [ 350375.27975584944943, 3771485.249237029347569 ], [ 350374.974567650060635, 3771485.554425228852779 ], [ 350374.974567650060635, 3771486.775178026407957 ], [ 350374.66937945067184, 3771487.080366225913167 ], [ 350374.66937945067184, 3771488.301119023468345 ], [ 350374.364191251283046, 3771488.606307222973555 ], [ 350374.364191251283046, 3771489.521871821023524 ], [ 350374.059003051894251, 3771489.827060020528734 ], [ 350374.059003051894251, 3771490.132248219568282 ], [ 350373.753814852505457, 3771490.437436419073492 ], [ 350373.448626653116662, 3771490.437436419073492 ], [ 350373.143438453727867, 3771490.742624618578702 ], [ 350371.007121058006305, 3771490.742624618578702 ], [ 350370.701932858617511, 3771491.047812818083912 ], [ 350369.175991861673538, 3771491.047812818083912 ] ] ] } },
{ "type": "Feature", "properties": { "confidence": 0.99310195446014404, "class": 1, "regularized": null }, "geometry": { "type": "Polygon", "coordinates": [ [ [ 350296.541200406907592, 3771025.635808748658746 ], [ 350296.236012207518797, 3771025.330620549153537 ], [ 350295.930824008130003, 3771025.330620549153537 ], [ 350295.625635808741208, 3771025.025432350113988 ], [ 350295.320447609352414, 3771025.025432350113988 ], [ 350294.710071210574824, 3771024.415055951103568 ], [ 350294.710071210574824, 3771022.88911495404318 ], [ 350294.40488301118603, 3771022.583926755003631 ], [ 350294.710071210574824, 3771022.278738555498421 ], [ 350294.710071210574824, 3771021.057985757943243 ], [ 350295.015259409963619, 3771020.752797558438033 ], [ 350295.015259409963619, 3771018.311291963327676 ], [ 350295.320447609352414, 3771018.006103763822466 ], [ 350295.320447609352414, 3771016.174974567722529 ], [ 350295.625635808741208, 3771015.869786368217319 ], [ 350295.625635808741208, 3771014.038657172117382 ], [ 350295.930824008130003, 3771013.733468972612172 ], [ 350295.930824008130003, 3771010.986775177996606 ], [ 350296.236012207518797, 3771010.681586978491396 ], [ 350296.236012207518797, 3771009.460834180936217 ], [ 350296.541200406907592, 3771009.155645981896669 ], [ 350296.541200406907592, 3771008.545269582886249 ], [ 350296.846388606296387, 3771008.240081383381039 ], [ 350296.846388606296387, 3771007.93489318434149 ], [ 350297.151576805685181, 3771007.93489318434149 ], [ 350297.76195320446277, 3771007.32451678533107 ], [ 350297.76195320446277, 3771007.019328585825861 ], [ 350298.067141403851565, 3771007.019328585825861 ], [ 350298.37232960324036, 3771006.714140386786312 ], [ 350300.813835198350716, 3771006.714140386786312 ], [ 350301.119023397739511, 3771007.019328585825861 ], [ 350301.119023397739511, 3771007.32451678533107 ], [ 350301.424211597128306, 3771007.62970498483628 ], [ 350301.424211597128306, 3771012.817904374562204 ], [ 350301.119023397739511, 3771013.123092573601753 ], [ 350301.119023397739511, 3771016.174974567722529 ], [ 350300.813835198350716, 3771016.480162767227739 ], [ 350300.813835198350716, 3771018.616480162832886 ], [ 350300.508646998961922, 3771018.921668362338096 ], [ 350300.508646998961922, 3771021.668362156488001 ], [ 350300.203458799573127, 3771021.973550355993211 ], [ 350300.203458799573127, 3771024.415055951103568 ], [ 350299.898270600184333, 3771024.720244150608778 ], [ 350299.898270600184333, 3771025.025432350113988 ], [ 350299.593082400795538, 3771025.330620549153537 ], [ 350297.456765005073976, 3771025.330620549153537 ], [ 350297.151576805685181, 3771025.635808748658746 ], [ 350296.541200406907592, 3771025.635808748658746 ] ] ] } },
{ "type": "Feature", "properties": { "confidence": 0.98111706972122192, "class": 1, "regularized": null }, "geometry": { "type": "Polygon", "coordinates": [ [ [ 349942.217700915585738, 3771349.440488301217556 ], [ 349941.912512716196943, 3771349.135300101712346 ], [ 349941.607324516808148, 3771349.135300101712346 ], [ 349941.302136317419354, 3771348.830111902207136 ], [ 349941.302136317419354, 3771347.914547304157168 ], [ 349940.996948118030559, 3771347.609359104651958 ], [ 349940.996948118030559, 3771345.473041709046811 ], [ 349941.607324516808148, 3771344.862665310502052 ], [ 349941.912512716196943, 3771344.862665310502052 ], [ 349942.217700915585738, 3771344.557477110996842 ], [ 349942.522889114974532, 3771344.557477110996842 ], [ 349943.133265513752121, 3771343.947100711986423 ], [ 349943.438453713140916, 3771343.947100711986423 ], [ 349943.743641912529711, 3771343.641912512946874 ], [ 349944.048830111918505, 3771343.641912512946874 ], [ 349944.3540183113073, 3771343.336724313441664 ], [ 349944.659206510696094, 3771343.336724313441664 ], [ 349944.964394710084889, 3771343.031536113936454 ], [ 349945.269582909473684, 3771343.031536113936454 ], [ 349945.574771108862478, 3771342.726347914431244 ], [ 349945.879959308251273, 3771342.726347914431244 ], [ 349946.490335707028862, 3771342.115971515886486 ], [ 349948.016276703972835, 3771342.115971515886486 ], [ 349948.32146490336163, 3771342.421159714926034 ], [ 349948.626653102750424, 3771342.421159714926034 ], [ 349948.626653102750424, 3771342.726347914431244 ], [ 349948.931841302139219, 3771343.031536113936454 ], [ 349948.931841302139219, 3771343.947100711986423 ], [ 349949.237029501528013, 3771344.252288911491632 ], [ 349949.237029501528013, 3771345.473041709046811 ], [ 349949.542217700916808, 3771345.778229908552021 ], [ 349949.542217700916808, 3771346.083418108057231 ], [ 349948.626653102750424, 3771346.998982706107199 ], [ 349948.32146490336163, 3771346.998982706107199 ], [ 349947.71108850458404, 3771347.609359104651958 ], [ 349947.405900305195246, 3771347.609359104651958 ], [ 349947.100712105806451, 3771347.914547304157168 ], [ 349946.795523906417657, 3771347.914547304157168 ], [ 349946.490335707028862, 3771348.219735503662378 ], [ 349946.185147507640067, 3771348.219735503662378 ], [ 349945.269582909473684, 3771349.135300101712346 ], [ 349944.964394710084889, 3771349.135300101712346 ], [ 349944.659206510696094, 3771349.440488301217556 ], [ 349942.217700915585738, 3771349.440488301217556 ] ] ] } },
{ "type": "Feature", "properties": { "confidence": 0.96490412950515747, "class": 1, "regularized": null }, "geometry": { "type": "Polygon", "coordinates": [ [ [ 350254.120040691748727, 3771538.04679552372545 ], [ 350253.509664292971138, 3771537.436419125180691 ], [ 350253.509664292971138, 3771537.131230925675482 ], [ 350253.204476093582343, 3771536.826042726170272 ], [ 350253.204476093582343, 3771536.215666327625513 ], [ 350252.899287894193549, 3771535.910478128120303 ], [ 350252.899287894193549, 3771535.605289928615093 ], [ 350252.594099694804754, 3771535.300101729575545 ], [ 350252.28891149541596, 3771535.300101729575545 ], [ 350251.983723296027165, 3771534.994913530070335 ], [ 350251.983723296027165, 3771534.689725330565125 ], [ 350251.67853509663837, 3771534.384537131059915 ], [ 350251.67853509663837, 3771533.468972533009946 ], [ 350251.373346897249576, 3771533.163784333504736 ], [ 350251.373346897249576, 3771530.417090539354831 ], [ 350251.983723296027165, 3771529.806714140344411 ], [ 350254.730417090526316, 3771529.806714140344411 ], [ 350255.035605289915111, 3771530.111902339849621 ], [ 350255.340793489303906, 3771530.111902339849621 ], [ 350255.6459816886927, 3771530.417090539354831 ], [ 350255.951169888081495, 3771530.417090539354831 ], [ 350256.256358087470289, 3771530.72227873839438 ], [ 350256.561546286859084, 3771530.72227873839438 ], [ 350257.477110885025468, 3771531.637843336910009 ], [ 350257.782299084414262, 3771531.637843336910009 ], [ 350258.087487283803057, 3771531.943031535949558 ], [ 350258.392675483191852, 3771531.943031535949558 ], [ 350258.392675483191852, 3771532.553407934959978 ], [ 350259.003051881969441, 3771533.163784333504736 ], [ 350259.003051881969441, 3771535.605289928615093 ], [ 350258.697863682580646, 3771535.910478128120303 ], [ 350258.697863682580646, 3771536.215666327625513 ], [ 350258.087487283803057, 3771536.826042726170272 ], [ 350257.477110885025468, 3771536.826042726170272 ], [ 350256.866734486247879, 3771537.436419125180691 ], [ 350256.256358087470289, 3771537.436419125180691 ], [ 350255.951169888081495, 3771537.741607324685901 ], [ 350255.6459816886927, 3771537.741607324685901 ], [ 350255.340793489303906, 3771538.04679552372545 ], [ 350254.120040691748727, 3771538.04679552372545 ] ] ] } },
{ "type": "Feature", "properties": { "confidence": 0.95487833023071289, "class": 1, "regularized": null }, "geometry": { "type": "Polygon", "coordinates": [ [ [ 350372.838250254339073, 3771452.899287894368172 ], [ 350372.227873855561484, 3771452.288911495357752 ], [ 350371.922685656172689, 3771452.288911495357752 ], [ 350371.922685656172689, 3771451.068158697802573 ], [ 350372.227873855561484, 3771450.762970498297364 ], [ 350372.227873855561484, 3771450.152594099752605 ], [ 350372.838250254339073, 3771449.542217700742185 ], [ 350372.838250254339073, 3771449.237029501702636 ], [ 350373.143438453727867, 3771448.931841302197427 ], [ 350373.143438453727867, 3771448.321464903187007 ], [ 350373.448626653116662, 3771448.016276704147458 ], [ 350373.448626653116662, 3771447.711088504642248 ], [ 350373.753814852505457, 3771447.405900305137038 ], [ 350373.753814852505457, 3771447.100712105631828 ], [ 350374.059003051894251, 3771446.79552390659228 ], [ 350374.059003051894251, 3771445.87995930807665 ], [ 350374.364191251283046, 3771445.574771109037101 ], [ 350376.195320447615813, 3771445.574771109037101 ], [ 350376.500508647004608, 3771445.87995930807665 ], [ 350376.805696846393403, 3771445.87995930807665 ], [ 350377.110885045782197, 3771446.18514750758186 ], [ 350377.721261444559786, 3771446.18514750758186 ], [ 350378.026449643948581, 3771446.49033570708707 ], [ 350378.63682604272617, 3771446.49033570708707 ], [ 350378.942014242114965, 3771446.79552390659228 ], [ 350379.552390640892554, 3771446.79552390659228 ], [ 350379.857578840281349, 3771447.100712105631828 ], [ 350380.162767039670143, 3771447.100712105631828 ], [ 350380.467955239058938, 3771447.405900305137038 ], [ 350381.383519837225322, 3771447.405900305137038 ], [ 350382.299084435391705, 3771448.321464903187007 ], [ 350382.299084435391705, 3771448.626653102692217 ], [ 350381.993896236002911, 3771448.931841302197427 ], [ 350381.993896236002911, 3771449.542217700742185 ], [ 350381.688708036614116, 3771449.847405900247395 ], [ 350381.688708036614116, 3771450.457782299257815 ], [ 350381.383519837225322, 3771450.762970498297364 ], [ 350381.383519837225322, 3771451.068158697802573 ], [ 350380.467955239058938, 3771451.983723295852542 ], [ 350380.162767039670143, 3771451.983723295852542 ], [ 350379.857578840281349, 3771452.288911495357752 ], [ 350374.974567650060635, 3771452.288911495357752 ], [ 350374.66937945067184, 3771452.594099694862962 ], [ 350373.143438453727867, 3771452.594099694862962 ], [ 350372.838250254339073, 3771452.899287894368172 ] ] ] } },
{ "type": "Feature", "properties": { "confidence": 0.93390393257141113, "class": 1, "regularized": null }, "geometry": { "type": "Polygon", "coordinates": [ [ [ 350012.105798575794324, 3771303.051881994120777 ], [ 350011.495422177016735, 3771302.441505595110357 ], [ 350011.495422177016735, 3771302.136317395605147 ], [ 350011.19023397762794, 3771301.831129196565598 ], [ 350011.19023397762794, 3771301.525940997060388 ], [ 350010.885045778239146, 3771301.220752797555178 ], [ 350010.885045778239146, 3771298.779247202444822 ], [ 350011.19023397762794, 3771298.474059002939612 ], [ 350011.19023397762794, 3771296.948118005879223 ], [ 350011.80061037640553, 3771296.337741607334465 ], [ 350011.80061037640553, 3771296.032553407829255 ], [ 350012.410986775183119, 3771296.032553407829255 ], [ 350013.021363173960708, 3771295.422177009284496 ], [ 350013.326551373349503, 3771295.422177009284496 ], [ 350013.936927772127092, 3771294.811800610274076 ], [ 350014.242115971515886, 3771294.811800610274076 ], [ 350014.547304170904681, 3771294.506612410768867 ], [ 350014.852492370293476, 3771294.506612410768867 ], [ 350015.15768056968227, 3771294.201424211729318 ], [ 350015.15768056968227, 3771293.896236012224108 ], [ 350015.768056968459859, 3771293.285859613213688 ], [ 350016.378433367237449, 3771293.285859613213688 ], [ 350016.683621566626243, 3771293.591047812718898 ], [ 350016.683621566626243, 3771294.506612410768867 ], [ 350018.209562563570216, 3771296.032553407829255 ], [ 350018.209562563570216, 3771296.337741607334465 ], [ 350018.514750762959011, 3771296.642929806839675 ], [ 350018.514750762959011, 3771297.253306205384433 ], [ 350018.819938962347806, 3771297.558494404889643 ], [ 350018.819938962347806, 3771298.168870803434402 ], [ 350018.514750762959011, 3771298.474059002939612 ], [ 350018.514750762959011, 3771299.084435401950032 ], [ 350018.209562563570216, 3771299.38962360098958 ], [ 350018.209562563570216, 3771299.69481180049479 ], [ 350017.599186164792627, 3771300.30518819950521 ], [ 350017.293997965403832, 3771300.30518819950521 ], [ 350016.988809766015038, 3771300.61037639901042 ], [ 350016.988809766015038, 3771300.915564598049968 ], [ 350016.683621566626243, 3771300.915564598049968 ], [ 350016.073245167848654, 3771301.525940997060388 ], [ 350015.768056968459859, 3771301.525940997060388 ], [ 350014.852492370293476, 3771302.441505595110357 ], [ 350014.547304170904681, 3771302.441505595110357 ], [ 350014.242115971515886, 3771302.746693794615567 ], [ 350013.936927772127092, 3771302.746693794615567 ], [ 350013.631739572738297, 3771303.051881994120777 ], [ 350012.105798575794324, 3771303.051881994120777 ] ] ] } },
{ "type": "Feature", "properties": { "confidence": 0.91568166017532349, "class": 1, "regularized": null }, "geometry": { "type": "Polygon", "coordinates": [ [ [ 349990.4374364191317, 3771330.51881993887946 ], [ 349990.132248219742905, 3771330.21363173937425 ], [ 349990.132248219742905, 3771328.077314343769103 ], [ 349989.827060020354111, 3771327.772126144263893 ], [ 349989.827060020354111, 3771326.856561546213925 ], [ 349995.015259409963619, 3771326.856561546213925 ], [ 349995.015259409963619, 3771327.772126144263893 ], [ 349993.489318413019646, 3771329.298067141324282 ], [ 349993.489318413019646, 3771329.603255340829492 ], [ 349993.184130213630851, 3771329.908443540334702 ], [ 349993.184130213630851, 3771330.21363173937425 ], [ 349992.878942014242057, 3771330.51881993887946 ], [ 349990.4374364191317, 3771330.51881993887946 ] ] ] } },
{ "type": "Feature", "properties": { "confidence": 0.88809597492218018, "class": 1, "regularized": null }, "geometry": { "type": "Polygon", "coordinates": [ [ [ 350003.255340793461073, 3771337.232960325665772 ], [ 350002.950152594072279, 3771336.927772126160562 ], [ 350002.034587995905895, 3771336.927772126160562 ], [ 350001.7293997965171, 3771336.622583926655352 ], [ 350001.424211597128306, 3771336.622583926655352 ], [ 350001.119023397739511, 3771336.317395727150142 ], [ 350000.813835198350716, 3771336.317395727150142 ], [ 350000.508646998961922, 3771336.012207528110594 ], [ 350000.508646998961922, 3771334.181078331544995 ], [ 350000.813835198350716, 3771333.875890132039785 ], [ 350001.424211597128306, 3771333.875890132039785 ], [ 350001.7293997965171, 3771333.570701933000237 ], [ 350003.255340793461073, 3771333.570701933000237 ], [ 350003.560528992849868, 3771333.875890132039785 ], [ 350003.86571719229687, 3771333.875890132039785 ], [ 350003.86571719229687, 3771334.181078331544995 ], [ 350004.781281790463254, 3771335.096642929594964 ], [ 350004.781281790463254, 3771335.707019328605384 ], [ 350005.086469989852048, 3771336.012207528110594 ], [ 350004.781281790463254, 3771336.317395727150142 ], [ 350004.781281790463254, 3771336.622583926655352 ], [ 350004.476093591074459, 3771336.927772126160562 ], [ 350003.86571719229687, 3771336.927772126160562 ], [ 350003.560528992849868, 3771337.232960325665772 ], [ 350003.255340793461073, 3771337.232960325665772 ] ] ] } },
{ "type": "Feature", "properties": { "confidence": 0.88393706083297729, "class": 1, "regularized": null }, "geometry": { "type": "Polygon", "coordinates": [ [ [ 350369.481180061062332, 3771345.473041709046811 ], [ 350368.565615462895948, 3771344.557477110996842 ], [ 350368.565615462895948, 3771343.947100711986423 ], [ 350368.260427263507154, 3771343.641912512946874 ], [ 350368.260427263507154, 3771341.200406917370856 ], [ 350368.565615462895948, 3771340.895218718331307 ], [ 350368.565615462895948, 3771340.590030518826097 ], [ 350368.870803662284743, 3771340.590030518826097 ], [ 350369.786368260451127, 3771339.674465920776129 ], [ 350370.396744659228716, 3771339.674465920776129 ], [ 350370.701932858617511, 3771339.369277721270919 ], [ 350372.227873855561484, 3771339.369277721270919 ], [ 350372.838250254339073, 3771338.758901322260499 ], [ 350373.143438453727867, 3771338.758901322260499 ], [ 350374.364191251283046, 3771339.979654119815677 ], [ 350374.364191251283046, 3771344.252288911491632 ], [ 350374.059003051894251, 3771344.557477110996842 ], [ 350373.448626653116662, 3771344.557477110996842 ], [ 350373.143438453727867, 3771344.862665310502052 ], [ 350372.227873855561484, 3771344.862665310502052 ], [ 350371.922685656172689, 3771345.167853509541601 ], [ 350371.007121058006305, 3771345.167853509541601 ], [ 350370.701932858617511, 3771345.473041709046811 ], [ 350369.481180061062332, 3771345.473041709046811 ] ] ] } },
{ "type": "Feature", "properties": { "confidence": 0.78183847665786743, "class": 1, "regularized": null }, "geometry": { "type": "Polygon", "coordinates": [ [ [ 350187.894201424205676, 3771131.230925737414509 ], [ 350187.894201424205676, 3771130.92573753837496 ], [ 350187.589013224816881, 3771130.62054933886975 ], [ 350186.978636826039292, 3771130.62054933886975 ], [ 350186.673448626650497, 3771130.315361139364541 ], [ 350186.368260427261703, 3771130.315361139364541 ], [ 350185.757884028484114, 3771129.704984740819782 ], [ 350185.452695829095319, 3771129.704984740819782 ], [ 350185.452695829095319, 3771129.399796541314572 ], [ 350183.621566632762551, 3771127.568667344748974 ], [ 350183.621566632762551, 3771126.958290946204215 ], [ 350183.316378433373757, 3771126.653102746699005 ], [ 350183.316378433373757, 3771126.042726347688586 ], [ 350183.621566632762551, 3771125.737538148649037 ], [ 350183.926754832151346, 3771125.737538148649037 ], [ 350184.231943031540141, 3771125.432349949143827 ], [ 350184.84231943031773, 3771125.432349949143827 ], [ 350185.757884028484114, 3771124.516785351093858 ], [ 350185.757884028484114, 3771124.211597151588649 ], [ 350186.063072227872908, 3771123.906408952083439 ], [ 350186.368260427261703, 3771123.906408952083439 ], [ 350186.673448626650497, 3771123.601220752578229 ], [ 350187.894201424205676, 3771123.601220752578229 ], [ 350188.19938962359447, 3771123.29603255353868 ], [ 350190.335707019316033, 3771123.29603255353868 ], [ 350190.335707019316033, 3771131.230925737414509 ], [ 350187.894201424205676, 3771131.230925737414509 ] ] ] } },
{ "type": "Feature", "properties": { "confidence": 0.77766811847686768, "class": 1, "regularized": "rectangle" }, "geometry": { "type": "Polygon", "coordinates": [ [ [ 349989.25, 3771296.0 ], [ 350003.875, 3771296.0 ], [ 350003.875, 3771310.5 ], [ 349989.25, 3771310.5 ], [ 349989.25, 3771296.0 ] ] ] } },
{ "type": "Feature", "properties": { "confidence": 0.7628980278968811, "class": 1, "regularized": null }, "geometry": { "type": "Polygon", "coordinates": [ [ [ 350270.295015259413049, 3771519.735503560397774 ], [ 350269.989827060024254, 3771519.430315361358225 ], [ 350269.989827060024254, 3771519.125127161853015 ], [ 350269.684638860635459, 3771518.819938962347806 ], [ 350269.379450661246665, 3771518.819938962347806 ], [ 350269.07426246185787, 3771518.514750762842596 ], [ 350268.769074262469076, 3771518.514750762842596 ], [ 350268.769074262469076, 3771509.969481179956347 ], [ 350269.07426246185787, 3771509.969481179956347 ], [ 350269.684638860635459, 3771509.359104781411588 ], [ 350269.989827060024254, 3771509.359104781411588 ], [ 350270.295015259413049, 3771509.053916581906378 ], [ 350270.600203458801843, 3771509.359104781411588 ], [ 350271.515768056968227, 3771509.359104781411588 ], [ 350271.820956256357022, 3771509.664292980451137 ], [ 350272.126144455745816, 3771509.664292980451137 ], [ 350272.736520854523405, 3771510.274669379461557 ], [ 350272.736520854523405, 3771510.579857578966767 ], [ 350273.346897253300995, 3771511.190233977511525 ], [ 350273.346897253300995, 3771511.800610376521945 ], [ 350274.262461851467378, 3771512.716174974571913 ], [ 350274.262461851467378, 3771513.936927772127092 ], [ 350273.652085452689789, 3771514.547304171137512 ], [ 350273.652085452689789, 3771515.15768056968227 ], [ 350273.346897253300995, 3771515.46286876918748 ], [ 350273.346897253300995, 3771516.073245167732239 ], [ 350273.0417090539122, 3771516.378433367237449 ], [ 350273.0417090539122, 3771517.904374364297837 ], [ 350272.736520854523405, 3771517.904374364297837 ], [ 350270.905391658190638, 3771519.735503560397774 ], [ 350270.295015259413049, 3771519.735503560397774 ] ] ] } },
{ "type": "Feature", "properties": { "confidence": 0.74067085981369019, "class": 1, "regularized": null }, "geometry": { "type": "Polygon", "coordinates": [ [ [ 350348.118006103788503, 3771360.122075279708952 ], [ 350347.507629705010913, 3771359.511698881164193 ], [ 350347.507629705010913, 3771358.901322482153773 ], [ 350346.897253306233324, 3771358.290946083609015 ], [ 350346.897253306233324, 3771357.680569684598595 ], [ 350347.202441505622119, 3771357.375381485093385 ], [ 350347.202441505622119, 3771356.765005086548626 ], [ 350347.507629705010913, 3771356.459816887043417 ], [ 350347.507629705010913, 3771354.01831129193306 ], [ 350347.812817904399708, 3771353.71312309242785 ], [ 350347.812817904399708, 3771353.407934893388301 ], [ 350348.423194303177297, 3771352.797558494377881 ], [ 350350.864699898287654, 3771352.797558494377881 ], [ 350351.169888097676449, 3771352.492370294872671 ], [ 350352.085452695842832, 3771352.492370294872671 ], [ 350352.390640895231627, 3771352.187182095833123 ], [ 350353.9165818921756, 3771352.187182095833123 ], [ 350354.221770091564395, 3771351.881993896327913 ], [ 350354.832146490341984, 3771351.881993896327913 ], [ 350355.442522889119573, 3771351.271617497317493 ], [ 350355.747711088508368, 3771351.271617497317493 ], [ 350356.052899287897162, 3771350.966429298277944 ], [ 350356.358087487285957, 3771350.966429298277944 ], [ 350356.968463886063546, 3771351.576805696822703 ], [ 350356.968463886063546, 3771352.187182095833123 ], [ 350357.88402848422993, 3771353.102746693883091 ], [ 350358.189216683618724, 3771353.102746693883091 ], [ 350358.799593082396314, 3771353.71312309242785 ], [ 350359.104781281785108, 3771353.71312309242785 ], [ 350359.409969481173903, 3771354.01831129193306 ], [ 350359.409969481173903, 3771354.32349949143827 ], [ 350360.020345879951492, 3771354.933875889983028 ], [ 350360.020345879951492, 3771356.459816887043417 ], [ 350359.715157680562697, 3771356.765005086548626 ], [ 350359.715157680562697, 3771357.375381485093385 ], [ 350359.104781281785108, 3771357.985757884103805 ], [ 350358.799593082396314, 3771357.985757884103805 ], [ 350358.494404883007519, 3771358.290946083609015 ], [ 350358.189216683618724, 3771358.290946083609015 ], [ 350357.88402848422993, 3771358.596134282648563 ], [ 350357.273652085452341, 3771358.596134282648563 ], [ 350356.968463886063546, 3771358.901322482153773 ], [ 350355.442522889119573, 3771358.901322482153773 ], [ 350355.137334689730778, 3771359.206510681658983 ], [ 350353.9165818921756, 3771359.206510681658983 ], [ 350353.611393692786805, 3771359.511698881164193 ], [ 350353.001017294009216, 3771359.511698881164193 ], [ 350352.695829094620422, 3771359.816887080203742 ], [ 350350.254323499510065, 3771359.816887080203742 ], [ 350349.94913530012127, 3771360.122075279708952 ], [ 350348.118006103788503, 3771360.122075279708952 ] ] ] } },
{ "type": "Feature", "properties": { "confidence": 0.70824164152145386, "class": 1, "regularized": null }, "geometry": { "type": "Polygon", "coordinates": [ [ [ 350230.010172939975746, 3771329.603255340829492 ], [ 350229.704984740586951, 3771329.298067141324282 ], [ 350229.399796541198157, 3771329.298067141324282 ], [ 350229.094608341809362, 3771328.992878941819072 ], [ 350229.094608341809362, 3771328.687690742779523 ], [ 350228.484231943031773, 3771328.077314343769103 ], [ 350228.484231943031773, 3771326.856561546213925 ], [ 350234.89318413019646, 3771326.856561546213925 ], [ 350234.89318413019646, 3771328.382502543274313 ], [ 350234.28280773141887, 3771328.382502543274313 ], [ 350233.977619532030076, 3771328.687690742779523 ], [ 350233.367243133252487, 3771328.687690742779523 ], [ 350233.062054933863692, 3771328.992878941819072 ], [ 350232.756866734474897, 3771328.992878941819072 ], [ 350232.451678535086103, 3771329.298067141324282 ], [ 350232.146490335697308, 3771329.298067141324282 ], [ 350231.841302136308514, 3771329.603255340829492 ], [ 350230.010172939975746, 3771329.603255340829492 ] ] ] } },
{ "type": "Feature", "properties": { "confidence": 0.58766061067581177, "class": 1, "regularized": null }, "geometry": { "type": "Polygon", "coordinates": [ [ [ 350219.02339776197914, 3771556.052899288013577 ], [ 350219.02339776197914, 3771553.916581891942769 ], [ 350219.328585961367935, 3771553.611393692903221 ], [ 350219.63377416075673, 3771553.611393692903221 ], [ 350219.938962360145524, 3771553.306205493398011 ], [ 350219.938962360145524, 3771553.001017293892801 ], [ 350220.549338758923113, 3771552.390640895348042 ], [ 350220.549338758923113, 3771552.085452695842832 ], [ 350220.854526958311908, 3771551.780264496337622 ], [ 350220.854526958311908, 3771551.475076296832412 ], [ 350221.159715157700703, 3771551.475076296832412 ], [ 350221.464903357089497, 3771551.169888097792864 ], [ 350221.464903357089497, 3771550.864699898287654 ], [ 350221.770091556478292, 3771550.864699898287654 ], [ 350222.380467955255881, 3771550.254323499277234 ], [ 350222.99084435403347, 3771550.254323499277234 ], [ 350223.296032553422265, 3771549.949135300237685 ], [ 350225.737538148532622, 3771549.949135300237685 ], [ 350226.042726347921416, 3771550.254323499277234 ], [ 350226.653102746699005, 3771550.254323499277234 ], [ 350226.9582909460878, 3771550.559511698782444 ], [ 350228.179043743642978, 3771550.559511698782444 ], [ 350228.484231943031773, 3771550.864699898287654 ], [ 350228.789420142420568, 3771550.864699898287654 ], [ 350229.094608341809362, 3771551.169888097792864 ], [ 350229.094608341809362, 3771552.390640895348042 ], [ 350228.789420142420568, 3771552.695829094387591 ], [ 350228.789420142420568, 3771553.001017293892801 ], [ 350228.179043743642978, 3771553.001017293892801 ], [ 350227.873855544254184, 3771553.306205493398011 ], [ 350226.653102746699005, 3771553.306205493398011 ], [ 350226.347914547310211, 3771553.611393692903221 ], [ 350226.042726347921416, 3771553.611393692903221 ], [ 350225.737538148532622, 3771553.916581891942769 ], [ 350225.127161749755032, 3771553.916581891942769 ], [ 350224.821973550366238, 3771554.221770091447979 ], [ 350224.516785350977443, 3771554.221770091447979 ], [ 350223.601220752811059, 3771555.137334689497948 ], [ 350223.296032553422265, 3771555.137334689497948 ], [ 350222.99084435403347, 3771555.442522889003158 ], [ 350222.380467955255881, 3771555.442522889003158 ], [ 350222.075279755867086, 3771555.747711088508368 ], [ 350221.464903357089497, 3771555.747711088508368 ], [ 350221.159715157700703, 3771556.052899288013577 ], [ 350219.02339776197914, 3771556.052899288013577 ] ] ] } },
{ "type": "Feature", "properties": { "confidence": 0.53457748889923096, "class": 1, "regularized": null }, "geometry": { "type": "Polygon", "coordinates": [ [ [ 349920.244150559534319, 3771480.061037640087306 ], [ 349919.328585961367935, 3771479.145473041571677 ], [ 349918.718209562590346, 3771479.145473041571677 ], [ 349917.49745676497696, 3771477.924720244016498 ], [ 349917.192268565588165, 3771477.924720244016498 ], [ 349917.192268565588165, 3771474.567650050856173 ], [ 349917.802644964365754, 3771474.567650050856173 ], [ 349918.107833163812757, 3771474.262461851350963 ], [ 349918.107833163812757, 3771470.905391658190638 ], [ 349917.802644964365754, 3771470.600203458685428 ], [ 349917.192268565588165, 3771470.600203458685428 ], [ 349917.192268565588165, 3771464.496439470909536 ], [ 349917.802644964365754, 3771464.496439470909536 ], [ 349918.107833163812757, 3771464.191251271404326 ], [ 349918.107833163812757, 3771463.886063072364777 ], [ 349918.413021363201551, 3771463.886063072364777 ], [ 349918.718209562590346, 3771463.580874872859567 ], [ 349919.02339776197914, 3771463.580874872859567 ], [ 349919.938962360145524, 3771464.496439470909536 ], [ 349920.244150559534319, 3771464.496439470909536 ], [ 349920.854526958311908, 3771465.106815869919956 ], [ 349920.854526958311908, 3771465.717192268464714 ], [ 349921.159715157700703, 3771466.022380467969924 ], [ 349921.159715157700703, 3771466.327568667475134 ], [ 349921.464903357089497, 3771466.632756866514683 ], [ 349921.464903357089497, 3771467.243133265525103 ], [ 349922.075279755867086, 3771467.853509664069861 ], [ 349922.075279755867086, 3771468.158697863575071 ], [ 349922.380467955255881, 3771468.463886063080281 ], [ 349922.685656154644676, 3771468.463886063080281 ], [ 349922.685656154644676, 3771468.769074262585491 ], [ 349923.296032553422265, 3771469.37945066113025 ], [ 349923.296032553422265, 3771469.684638860635459 ], [ 349923.601220752811059, 3771469.989827060140669 ], [ 349923.601220752811059, 3771470.600203458685428 ], [ 349923.906408952199854, 3771470.905391658190638 ], [ 349923.906408952199854, 3771471.515768057201058 ], [ 349924.211597151588649, 3771471.820956256240606 ], [ 349924.211597151588649, 3771477.31434384547174 ], [ 349923.906408952199854, 3771477.61953204497695 ], [ 349923.906408952199854, 3771477.924720244016498 ], [ 349923.296032553422265, 3771478.535096643026918 ], [ 349922.685656154644676, 3771478.535096643026918 ], [ 349922.075279755867086, 3771479.145473041571677 ], [ 349921.770091556478292, 3771479.145473041571677 ], [ 349921.464903357089497, 3771479.450661241076887 ], [ 349921.159715157700703, 3771479.450661241076887 ], [ 349920.854526958311908, 3771479.755849440582097 ], [ 349920.549338758923113, 3771479.755849440582097 ], [ 349920.244150559534319, 3771480.061037640087306 ] ] ] } },
{ "type": "Feature", "properties": { "confidence": 0.47154361009597778, "class": 1, "regularized": null }, "geometry": { "type": "Polygon", "coordinates": [ [ [ 349917.192268565588165, 3771181.281790437642485 ], [ 349917.192268565588165, 3771175.483214648906142 ], [ 349919.63377416075673, 3771175.483214648906142 ], [ 349919.938962360145524, 3771175.788402848411351 ], [ 349919.938962360145524, 3771176.093591047916561 ], [ 349920.854526958311908, 3771177.00915564596653 ], [ 349920.854526958311908, 3771178.229908443521708 ], [ 349920.244150559534319, 3771178.840284842532128 ], [ 349920.244150559534319, 3771179.145473041571677 ], [ 349919.938962360145524, 3771179.450661241076887 ], [ 349919.938962360145524, 3771179.755849440582097 ], [ 349918.718209562590346, 3771180.976602238137275 ], [ 349918.107833163812757, 3771180.976602238137275 ], [ 349917.802644964365754, 3771181.281790437642485 ], [ 349917.192268565588165, 3771181.281790437642485 ] ] ] } },
{ "type": "Feature", "properties": { "confidence": 0.46514871716499329, "class": 1, "regularized": null }, "geometry": { "type": "Polygon", "coordinates": [ [ [ 349987.995930824021343, 3771430.315361139364541 ], [ 349987.385554425243754, 3771429.704984740819782 ], [ 349987.080366225854959, 3771429.704984740819782 ], [ 349986.46998982707737, 3771429.094608341809362 ], [ 349986.164801627688576, 3771429.094608341809362 ], [ 349985.859613428299781, 3771428.789420142304152 ], [ 349985.859613428299781, 3771428.484231942798942 ], [ 349985.554425228910986, 3771428.179043743759394 ], [ 349985.859613428299781, 3771427.873855544254184 ], [ 349985.859613428299781, 3771426.958290946204215 ], [ 349985.554425228910986, 3771426.653102746699005 ], [ 349985.859613428299781, 3771426.347914547193795 ], [ 349985.859613428299781, 3771425.737538148649037 ], [ 349986.164801627688576, 3771425.432349949143827 ], [ 349986.46998982707737, 3771425.432349949143827 ], [ 349986.775178026466165, 3771425.127161749638617 ], [ 349987.690742624632549, 3771425.127161749638617 ], [ 349988.301119023410138, 3771424.516785351093858 ], [ 349988.301119023410138, 3771423.906408952083439 ], [ 349988.606307222798932, 3771423.601220752578229 ], [ 349989.521871820965316, 3771423.601220752578229 ], [ 349989.827060020354111, 3771423.906408952083439 ], [ 349989.827060020354111, 3771424.516785351093858 ], [ 349990.132248219742905, 3771424.821973550133407 ], [ 349990.132248219742905, 3771425.127161749638617 ], [ 349991.353001017298084, 3771426.347914547193795 ], [ 349991.658189216686878, 3771426.347914547193795 ], [ 349991.658189216686878, 3771426.653102746699005 ], [ 349991.963377416075673, 3771426.958290946204215 ], [ 349991.963377416075673, 3771427.263479145243764 ], [ 349992.268565615464468, 3771427.568667344748974 ], [ 349991.963377416075673, 3771427.873855544254184 ], [ 349991.963377416075673, 3771428.179043743759394 ], [ 349991.047812817909289, 3771428.179043743759394 ], [ 349990.132248219742905, 3771429.094608341809362 ], [ 349990.132248219742905, 3771429.399796541314572 ], [ 349989.827060020354111, 3771429.704984740819782 ], [ 349989.521871820965316, 3771429.704984740819782 ], [ 349989.216683621576522, 3771430.010172939859331 ], [ 349988.911495422187727, 3771430.010172939859331 ], [ 349988.606307222798932, 3771430.315361139364541 ], [ 349987.995930824021343, 3771430.315361139364541 ] ] ] } },
{ "type": "Feature", "properties": { "confidence": 0.41991817951202393, "class": 1, "regularized": null }, "geometry": { "type": "Polygon", "coordinates": [ [ [ 349895.218718209536746, 3771361.95320447627455 ], [ 349894.913530010147952, 3771361.64801627676934 ], [ 349894.913530010147952, 3771361.34282807726413 ], [ 349894.608341810759157, 3771361.03763987775892 ], [ 349894.608341810759157, 3771360.122075279708952 ], [ 349894.913530010147952, 3771359.816887080203742 ], [ 349894.913530010147952, 3771359.511698881164193 ], [ 349895.523906408925541, 3771358.901322482153773 ], [ 349896.13428280770313, 3771358.901322482153773 ], [ 349896.439471007150132, 3771358.596134282648563 ], [ 349896.744659206538927, 3771358.596134282648563 ], [ 349897.049847405927721, 3771358.901322482153773 ], [ 349897.660223804705311, 3771358.901322482153773 ], [ 349897.660223804705311, 3771359.206510681658983 ], [ 349898.575788402871694, 3771360.122075279708952 ], [ 349898.575788402871694, 3771361.03763987775892 ], [ 349898.2706002034829, 3771361.34282807726413 ], [ 349898.2706002034829, 3771361.64801627676934 ], [ 349897.965412004094105, 3771361.95320447627455 ], [ 349895.218718209536746, 3771361.95320447627455 ] ] ] } },
{ "type": "Feature", "properties": { "confidence": 0.41441681981086731, "class": 1, "regularized": null }, "geometry": { "type": "Polygon", "coordinates": [ [ [ 350263.886063072248362, 3771526.449643947184086 ], [ 350263.275686673470773, 3771525.839267548173666 ], [ 350263.275686673470773, 3771525.534079349134117 ], [ 350262.665310274693184, 3771524.923702950123698 ], [ 350262.665310274693184, 3771524.618514750618488 ], [ 350262.360122075304389, 3771524.313326551578939 ], [ 350262.360122075304389, 3771523.702950152568519 ], [ 350262.665310274693184, 3771523.397761953063309 ], [ 350262.665310274693184, 3771523.092573754023761 ], [ 350262.970498474081978, 3771522.787385554518551 ], [ 350262.970498474081978, 3771522.482197355013341 ], [ 350263.275686673470773, 3771522.177009155508131 ], [ 350263.275686673470773, 3771521.871820956468582 ], [ 350263.580874872859567, 3771521.566632756963372 ], [ 350263.580874872859567, 3771521.261444557458162 ], [ 350264.191251271637157, 3771520.651068158913404 ], [ 350264.496439471025951, 3771520.651068158913404 ], [ 350266.022380467969924, 3771519.125127161853015 ], [ 350266.327568667358719, 3771519.430315361358225 ], [ 350266.327568667358719, 3771521.566632756963372 ], [ 350266.632756866747513, 3771521.871820956468582 ], [ 350266.632756866747513, 3771524.618514750618488 ], [ 350266.327568667358719, 3771524.923702950123698 ], [ 350266.327568667358719, 3771525.228891149628907 ], [ 350266.022380467969924, 3771525.534079349134117 ], [ 350266.022380467969924, 3771525.839267548173666 ], [ 350265.412004069192335, 3771526.449643947184086 ], [ 350263.886063072248362, 3771526.449643947184086 ] ] ] } },
{ "type": "Feature", "properties": { "confidence": 0.38220369815826416, "class": 1, "regularized": null }, "geometry": { "type": "Polygon", "coordinates": [ [ [ 350046.59206510684453, 3771358.901322482153773 ], [ 350045.981688708008733, 3771358.290946083609015 ], [ 350045.981688708008733, 3771357.680569684598595 ], [ 350045.676500508619938, 3771357.375381485093385 ], [ 350045.676500508619938, 3771355.544252288993448 ], [ 350045.371312309231143, 3771355.239064089488238 ], [ 350045.371312309231143, 3771351.271617497317493 ], [ 350045.676500508619938, 3771350.966429298277944 ], [ 350045.981688708008733, 3771350.966429298277944 ], [ 350046.286876907397527, 3771350.661241098772734 ], [ 350048.118006103788503, 3771350.661241098772734 ], [ 350048.423194303177297, 3771350.966429298277944 ], [ 350048.728382502566092, 3771350.966429298277944 ], [ 350049.94913530012127, 3771352.187182095833123 ], [ 350050.254323499510065, 3771352.187182095833123 ], [ 350050.254323499510065, 3771352.492370294872671 ], [ 350050.559511698898859, 3771352.797558494377881 ], [ 350050.864699898287654, 3771352.797558494377881 ], [ 350050.864699898287654, 3771353.407934893388301 ], [ 350051.169888097676449, 3771353.71312309242785 ], [ 350051.169888097676449, 3771354.01831129193306 ], [ 350050.864699898287654, 3771354.32349949143827 ], [ 350050.864699898287654, 3771354.62868769094348 ], [ 350050.559511698898859, 3771354.933875889983028 ], [ 350050.559511698898859, 3771355.239064089488238 ], [ 350049.94913530012127, 3771355.849440488498658 ], [ 350049.94913530012127, 3771356.154628687538207 ], [ 350049.643947100732476, 3771356.459816887043417 ], [ 350049.643947100732476, 3771356.765005086548626 ], [ 350048.423194303177297, 3771357.985757884103805 ], [ 350048.423194303177297, 3771358.290946083609015 ], [ 350047.812817904399708, 3771358.901322482153773 ], [ 350046.59206510684453, 3771358.901322482153773 ] ] ] } },
{ "type": "Feature", "properties": { "confidence": 0.37154862284660339, "class": 1, "regularized": null }, "geometry": { "type": "Polygon", "coordinates": [ [ [ 349903.458799593092408, 3771365.615462868940085 ], [ 349903.458799593092408, 3771362.868769074324518 ], [ 349903.763987792481203, 3771362.563580874819309 ], [ 349904.679552390647586, 3771362.563580874819309 ], [ 349904.984740590036381, 3771362.258392675314099 ], [ 349905.900305188202765, 3771362.258392675314099 ], [ 349906.205493387591559, 3771361.95320447627455 ], [ 349906.510681586980354, 3771361.95320447627455 ], [ 349906.815869786369149, 3771361.64801627676934 ], [ 349907.121057985757943, 3771361.64801627676934 ], [ 349908.036622583924327, 3771360.732451678719372 ], [ 349908.036622583924327, 3771360.427263479214162 ], [ 349908.646998982701916, 3771359.816887080203742 ], [ 349909.257375381479505, 3771359.816887080203742 ], [ 349909.5625635808683, 3771359.511698881164193 ], [ 349909.867751780257095, 3771359.511698881164193 ], [ 349910.172939979645889, 3771359.206510681658983 ], [ 349910.783316378423478, 3771359.206510681658983 ], [ 349911.088504577812273, 3771358.901322482153773 ], [ 349911.393692777201068, 3771358.901322482153773 ], [ 349912.004069175978657, 3771358.290946083609015 ], [ 349912.919633774145041, 3771358.290946083609015 ], [ 349913.224821973533835, 3771357.985757884103805 ], [ 349913.835198372311424, 3771357.985757884103805 ], [ 349914.140386571700219, 3771357.680569684598595 ], [ 349915.055951169866603, 3771357.680569684598595 ], [ 349915.361139369255397, 3771357.985757884103805 ], [ 349915.971515768032987, 3771357.985757884103805 ], [ 349916.276703967421781, 3771358.290946083609015 ], [ 349916.88708036619937, 3771358.290946083609015 ], [ 349916.88708036619937, 3771358.596134282648563 ], [ 349917.192268565588165, 3771358.901322482153773 ], [ 349917.802644964365754, 3771358.901322482153773 ], [ 349917.802644964365754, 3771359.206510681658983 ], [ 349918.107833163812757, 3771359.511698881164193 ], [ 349918.718209562590346, 3771359.511698881164193 ], [ 349919.63377416075673, 3771360.427263479214162 ], [ 349919.63377416075673, 3771360.732451678719372 ], [ 349919.938962360145524, 3771361.03763987775892 ], [ 349919.938962360145524, 3771363.784333672374487 ], [ 349919.63377416075673, 3771364.089521871879697 ], [ 349916.581892166810576, 3771364.089521871879697 ], [ 349916.276703967421781, 3771364.394710071384907 ], [ 349915.971515768032987, 3771364.394710071384907 ], [ 349915.666327568644192, 3771364.699898270424455 ], [ 349915.361139369255397, 3771364.699898270424455 ], [ 349914.750762970477808, 3771365.310274669434875 ], [ 349914.750762970477808, 3771365.615462868940085 ], [ 349903.458799593092408, 3771365.615462868940085 ] ] ] } },
{ "type": "Feature", "properties": { "confidence": 0.32990962266921997, "class": 1, "regularized": null }, "geometry": { "type": "Polygon", "coordinates": [ [ [ 350009.053916581906378, 3771324.109867751598358 ], [ 350008.748728382517584, 3771323.80467955255881 ], [ 350008.443540183128789, 3771323.80467955255881 ], [ 350008.138351983739994, 3771323.4994913530536 ], [ 350008.138351983739994, 3771321.363173957448453 ], [ 350008.443540183128789, 3771321.057985757943243 ], [ 350008.443540183128789, 3771320.752797558438033 ], [ 350008.748728382517584, 3771320.447609358932823 ], [ 350009.053916581906378, 3771320.447609358932823 ], [ 350009.359104781295173, 3771320.142421159893274 ], [ 350009.664292980683967, 3771320.142421159893274 ], [ 350009.969481180072762, 3771319.837232960388064 ], [ 350011.495422177016735, 3771319.837232960388064 ], [ 350012.105798575794324, 3771320.447609358932823 ], [ 350012.105798575794324, 3771322.88911495404318 ], [ 350011.80061037640553, 3771323.19430315354839 ], [ 350011.80061037640553, 3771323.4994913530536 ], [ 350011.495422177016735, 3771323.80467955255881 ], [ 350010.579857578850351, 3771323.80467955255881 ], [ 350010.274669379461557, 3771324.109867751598358 ], [ 350009.053916581906378, 3771324.109867751598358 ] ] ] } },
{ "type": "Feature", "properties": { "confidence": 0.31743457913398743, "class": 1, "regularized": null }, "geometry": { "type": "Polygon", "coordinates": [ [ [ 349993.489318413019646, 3771422.38046795502305 ], [ 349992.878942014242057, 3771421.770091556478292 ], [ 349992.878942014242057, 3771421.464903356973082 ], [ 349992.268565615464468, 3771420.854526958428323 ], [ 349992.268565615464468, 3771420.549338758923113 ], [ 349991.963377416075673, 3771420.244150559417903 ], [ 349991.963377416075673, 3771419.938962359912694 ], [ 349991.658189216686878, 3771419.633774160873145 ], [ 349991.658189216686878, 3771419.328585961367935 ], [ 349991.353001017298084, 3771419.023397761862725 ], [ 349991.353001017298084, 3771418.718209562357515 ], [ 349991.047812817909289, 3771418.413021363317966 ], [ 349991.047812817909289, 3771418.107833163812757 ], [ 349990.742624618520495, 3771417.802644964307547 ], [ 349990.742624618520495, 3771417.497456764802337 ], [ 349990.132248219742905, 3771416.887080366257578 ], [ 349990.132248219742905, 3771415.05595116969198 ], [ 349991.047812817909289, 3771415.05595116969198 ], [ 349993.489318413019646, 3771417.497456764802337 ], [ 349993.794506612408441, 3771417.497456764802337 ], [ 349995.015259409963619, 3771418.718209562357515 ], [ 349995.015259409963619, 3771419.023397761862725 ], [ 349995.625635808741208, 3771419.633774160873145 ], [ 349995.625635808741208, 3771420.244150559417903 ], [ 349996.236012207518797, 3771420.854526958428323 ], [ 349996.236012207518797, 3771422.38046795502305 ], [ 349993.489318413019646, 3771422.38046795502305 ] ] ] } },
{ "type": "Feature", "properties": { "confidence": 0.30074784159660339, "class": 1, "regularized": null }, "geometry": { "type": "Polygon", "coordinates": [ [ [ 350039.267548321455251, 3771365.005086469929665 ], [ 350038.962360122066457, 3771364.699898270424455 ], [ 350038.351983723288868, 3771364.699898270424455 ], [ 350038.046795523900073, 3771364.394710071384907 ], [ 350037.741607324511278, 3771364.394710071384907 ], [ 350037.741607324511278, 3771364.089521871879697 ], [ 350037.436419125122484, 3771363.784333672374487 ], [ 350037.131230925733689, 3771363.784333672374487 ], [ 350035.910478128178511, 3771362.563580874819309 ], [ 350035.910478128178511, 3771361.64801627676934 ], [ 350036.215666327567305, 3771361.34282807726413 ], [ 350036.215666327567305, 3771361.03763987775892 ], [ 350036.5208545269561, 3771360.732451678719372 ], [ 350036.5208545269561, 3771360.122075279708952 ], [ 350037.131230925733689, 3771359.511698881164193 ], [ 350037.436419125122484, 3771359.511698881164193 ], [ 350037.741607324511278, 3771359.206510681658983 ], [ 350040.183112919621635, 3771359.206510681658983 ], [ 350040.48830111901043, 3771358.901322482153773 ], [ 350043.84537131228717, 3771358.901322482153773 ], [ 350044.150559511675965, 3771359.206510681658983 ], [ 350044.760935910453554, 3771359.206510681658983 ], [ 350046.286876907397527, 3771360.732451678719372 ], [ 350046.59206510684453, 3771360.732451678719372 ], [ 350046.59206510684453, 3771361.03763987775892 ], [ 350046.897253306233324, 3771361.34282807726413 ], [ 350046.897253306233324, 3771364.089521871879697 ], [ 350046.59206510684453, 3771364.394710071384907 ], [ 350045.981688708008733, 3771364.394710071384907 ], [ 350045.676500508619938, 3771364.699898270424455 ], [ 350041.709053916565608, 3771364.699898270424455 ], [ 350041.403865717176814, 3771365.005086469929665 ], [ 350039.267548321455251, 3771365.005086469929665 ] ] ] } },
{ "type": "Feature", "properties": { "confidence": 0.26685389876365662, "class": 1, "regularized": null }, "geometry": { "type": "Polygon", "coordinates": [ [ [ 350262.360122075304389, 3771095.218718209769577 ], [ 350262.054933875915594, 3771094.913530010264367 ], [ 350260.528992878913414, 3771094.913530010264367 ], [ 350260.223804679524619, 3771094.608341810759157 ], [ 350260.223804679524619, 3771093.997965412214398 ], [ 350259.918616480135825, 3771093.692777212709188 ], [ 350259.918616480135825, 3771093.082400813698769 ], [ 350259.61342828074703, 3771092.77721261465922 ], [ 350259.61342828074703, 3771092.47202441515401 ], [ 350266.327568667358719, 3771092.47202441515401 ], [ 350266.327568667358719, 3771093.082400813698769 ], [ 350266.022380467969924, 3771093.387589013203979 ], [ 350266.022380467969924, 3771093.997965412214398 ], [ 350265.71719226858113, 3771093.997965412214398 ], [ 350265.10681586980354, 3771094.608341810759157 ], [ 350264.801627670414746, 3771094.608341810759157 ], [ 350264.496439471025951, 3771094.913530010264367 ], [ 350263.886063072248362, 3771094.913530010264367 ], [ 350263.580874872859567, 3771095.218718209769577 ], [ 350262.360122075304389, 3771095.218718209769577 ] ] ] } }
]
}
