{
"type": "FeatureCollection",
"name": "cell_00126_pre",
"crs": { "type": "name", "properties": { "name": "urn:ogc:def:crs:EPSG::32611" } },
"features": [
{ "type": "Feature", "properties": { "confidence": 0.57497638463973999, "class": 1 }, "geometry": { "type": "Polygon", "coordinates": [ [ [ 353778.433367243153043, 3772123.092573754023761 ], [ 353777.822990844375454, 3772122.482197355013341 ], [ 353777.517802644986659, 3772122.482197355013341 ], [ 353776.297049847431481, 3772121.261444557458162 ], [ 353776.297049847431481, 3772120.345879959408194 ], [ 353775.991861648042686, 3772120.040691759902984 ], [ 353775.991861648042686, 3772117.599186164792627 ], [ 353776.90742624620907, 3772116.683621566742659 ], [ 353778.433367243153043, 3772116.683621566742659 ], [ 353778.738555442541838, 3772116.378433367237449 ], [ 353779.348931841319427, 3772116.378433367237449 ], [ 353779.654120040708221, 3772116.073245167732239 ], [ 353779.959308240097016, 3772116.073245167732239 ], [ 353781.790437436429784, 3772114.242115971632302 ], [ 353782.095625635818578, 3772114.242115971632302 ], [ 353783.011190233984962, 3772113.326551373116672 ], [ 353785.757884028484114, 3772113.326551373116672 ], [ 353786.063072227872908, 3772113.631739572621882 ], [ 353786.063072227872908, 3772115.76805696869269 ], [ 353786.368260427261703, 3772116.073245167732239 ], [ 353786.368260427261703, 3772117.599186164792627 ], [ 353786.673448626650497, 3772117.904374364297837 ], [ 353786.673448626650497, 3772122.177009155508131 ], [ 353786.063072227872908, 3772122.787385554518551 ], [ 353785.147507629706524, 3772122.787385554518551 ], [ 353784.84231943031773, 3772123.092573754023761 ], [ 353783.926754832151346, 3772123.092573754023761 ], [ 353783.621566632762551, 3772122.787385554518551 ], [ 353781.180061037652194, 3772122.787385554518551 ], [ 353780.8748728382634, 3772123.092573754023761 ], [ 353778.433367243153043, 3772123.092573754023761 ] ] ] } },
{ "type": "Feature", "properties": { "confidence": 0.56884199380874634, "class": 1 }, "geometry": { "type": "Polygon", "coordinates": [ [ [ 353418.616480162774678, 3771746.79552390659228 ], [ 353418.311291963385884, 3771746.49033570708707 ], [ 353418.311291963385884, 3771744.354018311481923 ], [ 353418.616480162774678, 3771744.048830111976713 ], [ 353418.616480162774678, 3771741.912512716371566 ], [ 353418.921668362163473, 3771741.607324516866356 ], [ 353418.921668362163473, 3771738.860630722250789 ], [ 353419.226856561552268, 3771738.555442522745579 ], [ 353419.226856561552268, 3771738.250254323706031 ], [ 353419.837232960329857, 3771737.639877924695611 ], [ 353420.447609359107446, 3771737.639877924695611 ], [ 353420.752797558496241, 3771737.334689725190401 ], [ 353421.057985757885035, 3771737.334689725190401 ], [ 353421.36317395727383, 3771737.029501526150852 ], [ 353421.973550356051419, 3771737.029501526150852 ], [ 353422.278738555440214, 3771736.724313326645643 ], [ 353425.940996948105749, 3771736.724313326645643 ], [ 353426.246185147494543, 3771737.029501526150852 ], [ 353426.246185147494543, 3771741.302136317361146 ], [ 353425.940996948105749, 3771741.607324516866356 ], [ 353425.940996948105749, 3771742.217700915411115 ], [ 353425.635808748716954, 3771742.522889114916325 ], [ 353425.635808748716954, 3771742.828077314421535 ], [ 353425.33062054932816, 3771743.133265513926744 ], [ 353425.33062054932816, 3771743.743641912471503 ], [ 353425.025432349939365, 3771744.048830111976713 ], [ 353425.025432349939365, 3771744.659206510521472 ], [ 353424.72024415055057, 3771744.964394710026681 ], [ 353424.72024415055057, 3771745.269582909531891 ], [ 353424.415055951161776, 3771745.574771109037101 ], [ 353424.109867751772981, 3771745.574771109037101 ], [ 353423.804679552384187, 3771745.87995930807665 ], [ 353422.889114954217803, 3771745.87995930807665 ], [ 353422.583926754829008, 3771746.18514750758186 ], [ 353421.973550356051419, 3771746.18514750758186 ], [ 353421.668362156662624, 3771746.49033570708707 ], [ 353421.057985757885035, 3771746.49033570708707 ], [ 353420.752797558496241, 3771746.79552390659228 ], [ 353418.616480162774678, 3771746.79552390659228 ] ] ] } },
{ "type": "Feature", "properties": { "confidence": 0.46746858954429626, "class": 1 }, "geometry": { "type": "Polygon", "coordinates": [ [ [ 353511.088504577812273, 3772017.192268565762788 ], [ 353510.783316378423478, 3772016.887080366257578 ], [ 353510.478128179034684, 3772016.887080366257578 ], [ 353509.867751780257095, 3772016.276703967247158 ], [ 353509.867751780257095, 3772012.919633774086833 ], [ 353510.172939979645889, 3772012.614445574581623 ], [ 353510.172939979645889, 3772012.309257375542074 ], [ 353510.478128179034684, 3772012.004069176036865 ], [ 353510.478128179034684, 3772011.698880976531655 ], [ 353511.088504577812273, 3772011.088504577986896 ], [ 353512.614445574756246, 3772011.088504577986896 ], [ 353512.919633774145041, 3772010.783316378481686 ], [ 353516.276703967421781, 3772010.783316378481686 ], [ 353516.581892166810576, 3772011.088504577986896 ], [ 353516.581892166810576, 3772011.393692777026445 ], [ 353516.276703967421781, 3772011.698880976531655 ], [ 353516.276703967421781, 3772012.614445574581623 ], [ 353516.581892166810576, 3772012.919633774086833 ], [ 353516.581892166810576, 3772013.224821973592043 ], [ 353516.276703967421781, 3772013.530010173097253 ], [ 353516.276703967421781, 3772015.97151576820761 ], [ 353515.971515768032987, 3772016.276703967247158 ], [ 353515.971515768032987, 3772016.581892166752368 ], [ 353515.361139369255397, 3772016.581892166752368 ], [ 353515.055951169866603, 3772016.887080366257578 ], [ 353512.614445574756246, 3772016.887080366257578 ], [ 353512.309257375367451, 3772017.192268565762788 ], [ 353511.088504577812273, 3772017.192268565762788 ] ] ] } }
]
}
