{
"type": "FeatureCollection",
"name": "cell_00537_pre",
"crs": { "type": "name", "properties": { "name": "urn:ogc:def:crs:EPSG::32611" } },
"features": [
{ "type": "Feature", "properties": { "confidence": 0.98879110813140869, "class": 1 }, "geometry": { "type": "Polygon", "coordinates": [ [ [ 404520.854526958311908, 3784955.340793489478528 ], [ 404520.854526958311908, 3784955.035605289973319 ], [ 404520.549338758923113, 3784954.730417090468109 ], [ 404520.549338758923113, 3784954.425228890962899 ], [ 404520.854526958311908, 3784954.12004069192335 ], [ 404520.854526958311908, 3784952.899287894368172 ], [ 404521.770091556478292, 3784951.983723295852542 ], [ 404522.075279755867086, 3784951.983723295852542 ], [ 404522.685656154644676, 3784951.373346897307783 ], [ 404522.99084435403347, 3784951.373346897307783 ], [ 404523.296032553422265, 3784951.068158697802573 ], [ 404523.601220752811059, 3784951.068158697802573 ], [ 404524.211597151588649, 3784950.457782299257815 ], [ 404526.653102746699005, 3784950.457782299257815 ], [ 404526.653102746699005, 3784950.762970498297364 ], [ 404526.9582909460878, 3784951.068158697802573 ], [ 404526.9582909460878, 3784951.983723295852542 ], [ 404526.653102746699005, 3784952.288911495357752 ], [ 404526.653102746699005, 3784952.594099694862962 ], [ 404526.347914547310211, 3784952.899287894368172 ], [ 404526.042726347921416, 3784952.899287894368172 ], [ 404524.821973550366238, 3784954.12004069192335 ], [ 404524.516785350977443, 3784954.12004069192335 ], [ 404524.211597151588649, 3784954.425228890962899 ], [ 404523.601220752811059, 3784954.425228890962899 ], [ 404522.99084435403347, 3784955.035605289973319 ], [ 404522.685656154644676, 3784955.035605289973319 ], [ 404522.380467955255881, 3784955.340793489478528 ], [ 404520.854526958311908, 3784955.340793489478528 ] ] ] } },
{ "type": "Feature", "properties": { "confidence": 0.85571593046188354, "class": 1 }, "geometry": { "type": "Polygon", "coordinates": [ [ [ 404571.515768056968227, 3785295.015259409788996 ], [ 404571.210579857579432, 3785294.710071210749447 ], [ 404570.905391658190638, 3785294.710071210749447 ], [ 404570.600203458801843, 3785294.404883011244237 ], [ 404570.295015259413049, 3785294.404883011244237 ], [ 404569.379450661246665, 3785293.489318413194269 ], [ 404569.379450661246665, 3785290.437436419073492 ], [ 404569.684638860635459, 3785290.132248219568282 ], [ 404569.684638860635459, 3785289.216683621518314 ], [ 404569.989827060024254, 3785288.911495422013104 ], [ 404569.989827060024254, 3785287.690742624457926 ], [ 404569.684638860635459, 3785287.385554425418377 ], [ 404569.989827060024254, 3785287.080366225913167 ], [ 404569.989827060024254, 3785286.775178026407957 ], [ 404570.295015259413049, 3785286.775178026407957 ], [ 404570.600203458801843, 3785286.469989826902747 ], [ 404571.210579857579432, 3785286.469989826902747 ], [ 404571.515768056968227, 3785286.775178026407957 ], [ 404572.126144455745816, 3785286.775178026407957 ], [ 404572.736520854523405, 3785287.385554425418377 ], [ 404573.0417090539122, 3785287.385554425418377 ], [ 404573.0417090539122, 3785287.690742624457926 ], [ 404573.346897253300995, 3785287.995930823963135 ], [ 404573.346897253300995, 3785288.301119023468345 ], [ 404573.652085452689789, 3785288.606307222973555 ], [ 404573.957273652078584, 3785288.606307222973555 ], [ 404574.567650050856173, 3785289.216683621518314 ], [ 404574.567650050856173, 3785289.521871821023524 ], [ 404575.178026449633762, 3785290.132248219568282 ], [ 404575.178026449633762, 3785290.437436419073492 ], [ 404575.788402848411351, 3785291.047812818083912 ], [ 404575.788402848411351, 3785291.353001017123461 ], [ 404576.093591047800146, 3785291.658189216628671 ], [ 404576.093591047800146, 3785292.878942014183849 ], [ 404575.788402848411351, 3785293.184130213689059 ], [ 404575.788402848411351, 3785293.489318413194269 ], [ 404574.262461851467378, 3785295.015259409788996 ], [ 404571.515768056968227, 3785295.015259409788996 ] ] ] } },
{ "type": "Feature", "properties": { "confidence": 0.79718416929244995, "class": 1 }, "geometry": { "type": "Polygon", "coordinates": [ [ [ 404558.392675483191852, 3785155.239064089488238 ], [ 404557.782299084414262, 3785154.62868769094348 ], [ 404557.782299084414262, 3785153.71312309242785 ], [ 404558.392675483191852, 3785153.102746693883091 ], [ 404558.392675483191852, 3785152.187182095833123 ], [ 404558.697863682580646, 3785151.881993896327913 ], [ 404558.697863682580646, 3785151.576805696822703 ], [ 404559.003051881969441, 3785151.271617497317493 ], [ 404559.003051881969441, 3785150.966429298277944 ], [ 404559.61342828074703, 3785150.356052899267524 ], [ 404559.918616480135825, 3785150.356052899267524 ], [ 404561.139369277749211, 3785149.135300101712346 ], [ 404561.444557477138005, 3785149.135300101712346 ], [ 404562.054933875915594, 3785148.524923703167588 ], [ 404562.360122075304389, 3785148.524923703167588 ], [ 404562.665310274693184, 3785148.219735503662378 ], [ 404563.275686673470773, 3785148.219735503662378 ], [ 404563.580874872859567, 3785147.914547304157168 ], [ 404565.10681586980354, 3785147.914547304157168 ], [ 404565.412004069192335, 3785147.609359104651958 ], [ 404566.022380467969924, 3785148.219735503662378 ], [ 404566.022380467969924, 3785148.830111902207136 ], [ 404565.71719226858113, 3785149.135300101712346 ], [ 404565.71719226858113, 3785149.745676500722766 ], [ 404565.412004069192335, 3785150.050864699762315 ], [ 404565.412004069192335, 3785150.356052899267524 ], [ 404564.191251271637157, 3785151.576805696822703 ], [ 404564.191251271637157, 3785151.881993896327913 ], [ 404563.886063072248362, 3785152.187182095833123 ], [ 404563.886063072248362, 3785152.492370294872671 ], [ 404562.054933875915594, 3785154.32349949143827 ], [ 404561.7497456765268, 3785154.32349949143827 ], [ 404561.139369277749211, 3785154.933875889983028 ], [ 404560.834181078360416, 3785154.933875889983028 ], [ 404560.528992878913414, 3785155.239064089488238 ], [ 404558.392675483191852, 3785155.239064089488238 ] ] ] } },
{ "type": "Feature", "properties": { "confidence": 0.76921558380126953, "class": 1 }, "geometry": { "type": "Polygon", "coordinates": [ [ [ 404562.665310274693184, 3785175.991861647926271 ], [ 404562.360122075304389, 3785175.686673448421061 ], [ 404562.054933875915594, 3785175.686673448421061 ], [ 404562.054933875915594, 3785172.939979654271156 ], [ 404562.360122075304389, 3785172.634791454765946 ], [ 404562.360122075304389, 3785172.329603255260736 ], [ 404562.970498474081978, 3785171.719226856715977 ], [ 404562.970498474081978, 3785171.414038657210767 ], [ 404563.275686673470773, 3785171.414038657210767 ], [ 404563.580874872859567, 3785171.108850457705557 ], [ 404566.632756866747513, 3785171.108850457705557 ], [ 404566.937945066136308, 3785171.414038657210767 ], [ 404566.937945066136308, 3785172.939979654271156 ], [ 404566.632756866747513, 3785173.245167853310704 ], [ 404566.632756866747513, 3785173.550356052815914 ], [ 404566.327568667358719, 3785173.550356052815914 ], [ 404566.022380467969924, 3785173.855544252321124 ], [ 404566.022380467969924, 3785174.160732451826334 ], [ 404565.10681586980354, 3785175.076297049876302 ], [ 404564.801627670414746, 3785175.076297049876302 ], [ 404564.496439471025951, 3785175.381485249381512 ], [ 404564.191251271637157, 3785175.381485249381512 ], [ 404563.886063072248362, 3785175.686673448421061 ], [ 404563.275686673470773, 3785175.686673448421061 ], [ 404562.970498474081978, 3785175.991861647926271 ], [ 404562.665310274693184, 3785175.991861647926271 ] ] ] } },
{ "type": "Feature", "properties": { "confidence": 0.75247907638549805, "class": 1 }, "geometry": { "type": "Polygon", "coordinates": [ [ [ 404527.568667344865389, 3785360.020345880184323 ], [ 404527.263479145476595, 3785359.715157680679113 ], [ 404526.9582909460878, 3785359.715157680679113 ], [ 404526.9582909460878, 3785357.884028484113514 ], [ 404527.873855544254184, 3785356.968463886063546 ], [ 404528.179043743642978, 3785356.968463886063546 ], [ 404529.399796541198157, 3785355.747711088508368 ], [ 404529.704984740586951, 3785355.747711088508368 ], [ 404530.010172939975746, 3785355.442522889003158 ], [ 404530.620549338753335, 3785355.442522889003158 ], [ 404530.92573753814213, 3785355.747711088508368 ], [ 404531.230925737530924, 3785355.747711088508368 ], [ 404531.536113936919719, 3785356.052899288013577 ], [ 404532.146490335697308, 3785356.052899288013577 ], [ 404532.146490335697308, 3785356.358087487053126 ], [ 404532.451678535086103, 3785356.663275686558336 ], [ 404532.451678535086103, 3785357.578840285073966 ], [ 404532.146490335697308, 3785357.884028484113514 ], [ 404532.146490335697308, 3785358.189216683618724 ], [ 404531.841302136308514, 3785358.189216683618724 ], [ 404531.230925737530924, 3785358.799593082629144 ], [ 404531.230925737530924, 3785359.104781281668693 ], [ 404530.620549338753335, 3785359.104781281668693 ], [ 404530.315361139364541, 3785359.409969481173903 ], [ 404530.010172939975746, 3785359.409969481173903 ], [ 404529.704984740586951, 3785359.715157680679113 ], [ 404529.094608341809362, 3785359.715157680679113 ], [ 404528.789420142420568, 3785360.020345880184323 ], [ 404527.568667344865389, 3785360.020345880184323 ] ] ] } },
{ "type": "Feature", "properties": { "confidence": 0.63871395587921143, "class": 1 }, "geometry": { "type": "Polygon", "coordinates": [ [ [ 404529.704984740586951, 3784957.171922685578465 ], [ 404529.094608341809362, 3784956.561546287033707 ], [ 404529.094608341809362, 3784956.256358087528497 ], [ 404528.789420142420568, 3784955.951169888023287 ], [ 404528.789420142420568, 3784951.373346897307783 ], [ 404529.399796541198157, 3784950.762970498297364 ], [ 404529.704984740586951, 3784950.762970498297364 ], [ 404530.010172939975746, 3784950.457782299257815 ], [ 404530.92573753814213, 3784950.457782299257815 ], [ 404531.230925737530924, 3784950.152594099752605 ], [ 404532.451678535086103, 3784950.152594099752605 ], [ 404532.756866734474897, 3784949.847405900247395 ], [ 404533.062054933863692, 3784949.847405900247395 ], [ 404533.367243133252487, 3784949.542217700742185 ], [ 404535.198372329585254, 3784949.542217700742185 ], [ 404535.198372329585254, 3784949.847405900247395 ], [ 404535.503560528974049, 3784950.152594099752605 ], [ 404535.503560528974049, 3784950.457782299257815 ], [ 404535.808748728362843, 3784950.762970498297364 ], [ 404536.113936927751638, 3784950.762970498297364 ], [ 404536.113936927751638, 3784951.068158697802573 ], [ 404536.419125127140433, 3784951.373346897307783 ], [ 404536.419125127140433, 3784951.678535096812993 ], [ 404536.724313326529227, 3784951.983723295852542 ], [ 404536.419125127140433, 3784952.288911495357752 ], [ 404536.419125127140433, 3784954.425228890962899 ], [ 404536.113936927751638, 3784954.730417090468109 ], [ 404535.503560528974049, 3784954.730417090468109 ], [ 404534.89318413019646, 3784955.340793489478528 ], [ 404534.587995930807665, 3784955.340793489478528 ], [ 404533.977619532030076, 3784955.951169888023287 ], [ 404533.672431332641281, 3784955.951169888023287 ], [ 404532.756866734474897, 3784956.866734486073256 ], [ 404531.841302136308514, 3784956.866734486073256 ], [ 404531.536113936919719, 3784957.171922685578465 ], [ 404529.704984740586951, 3784957.171922685578465 ] ] ] } },
{ "type": "Feature", "properties": { "confidence": 0.61680704355239868, "class": 1 }, "geometry": { "type": "Polygon", "coordinates": [ [ [ 404425.33062054932816, 3785233.977619532030076 ], [ 404425.33062054932816, 3785231.841302136424929 ], [ 404425.025432349939365, 3785231.536113936919719 ], [ 404425.025432349939365, 3785230.010172939859331 ], [ 404425.33062054932816, 3785229.704984740819782 ], [ 404425.33062054932816, 3785229.399796541314572 ], [ 404427.161749745660927, 3785229.399796541314572 ], [ 404427.466937945049722, 3785229.704984740819782 ], [ 404427.772126144438516, 3785229.704984740819782 ], [ 404428.382502543216106, 3785230.315361139364541 ], [ 404428.382502543216106, 3785232.146490335930139 ], [ 404428.077314343827311, 3785232.451678534969687 ], [ 404428.077314343827311, 3785233.062054933980107 ], [ 404427.772126144438516, 3785233.367243133485317 ], [ 404427.161749745660927, 3785233.367243133485317 ], [ 404426.856561546272133, 3785233.672431332524866 ], [ 404425.635808748716954, 3785233.672431332524866 ], [ 404425.33062054932816, 3785233.977619532030076 ] ] ] } },
{ "type": "Feature", "properties": { "confidence": 0.60285377502441406, "class": 1 }, "geometry": { "type": "Polygon", "coordinates": [ [ [ 404456.765005086490419, 3785095.727365208324045 ], [ 404456.459816887101624, 3785095.422177009284496 ], [ 404456.15462868771283, 3785095.422177009284496 ], [ 404456.15462868771283, 3785094.811800610274076 ], [ 404456.459816887101624, 3785094.506612410768867 ], [ 404456.459816887101624, 3785092.67548321466893 ], [ 404456.765005086490419, 3785092.37029501516372 ], [ 404456.765005086490419, 3785091.759918616618961 ], [ 404457.070193285879213, 3785091.454730417113751 ], [ 404457.070193285879213, 3785091.149542217608541 ], [ 404457.375381485268008, 3785090.844354018103331 ], [ 404457.375381485268008, 3785090.233977619558573 ], [ 404458.290946083434392, 3785089.318413021508604 ], [ 404458.596134282823186, 3785089.318413021508604 ], [ 404458.901322482211981, 3785089.013224822003394 ], [ 404459.206510681600776, 3785089.013224822003394 ], [ 404459.51169888098957, 3785088.708036622498184 ], [ 404460.732451678544749, 3785088.708036622498184 ], [ 404461.037639877933543, 3785089.013224822003394 ], [ 404461.953204476099927, 3785089.013224822003394 ], [ 404461.953204476099927, 3785090.233977619558573 ], [ 404461.648016276711132, 3785090.539165819063783 ], [ 404461.648016276711132, 3785090.844354018103331 ], [ 404461.037639877933543, 3785091.454730417113751 ], [ 404461.037639877933543, 3785091.759918616618961 ], [ 404460.732451678544749, 3785092.06510681565851 ], [ 404460.732451678544749, 3785092.37029501516372 ], [ 404460.427263479155954, 3785092.67548321466893 ], [ 404460.427263479155954, 3785092.980671414174139 ], [ 404460.122075279767159, 3785093.285859613213688 ], [ 404460.122075279767159, 3785093.591047812718898 ], [ 404459.51169888098957, 3785094.201424211729318 ], [ 404459.51169888098957, 3785094.506612410768867 ], [ 404458.596134282823186, 3785095.422177009284496 ], [ 404457.375381485268008, 3785095.422177009284496 ], [ 404457.070193285879213, 3785095.727365208324045 ], [ 404456.765005086490419, 3785095.727365208324045 ] ] ] } },
{ "type": "Feature", "properties": { "confidence": 0.49712827801704407, "class": 1 }, "geometry": { "type": "Polygon", "coordinates": [ [ [ 404492.472024415037595, 3785291.963377416133881 ], [ 404491.556459816871211, 3785291.047812818083912 ], [ 404491.556459816871211, 3785290.742624618578702 ], [ 404491.251271617482416, 3785290.437436419073492 ], [ 404491.251271617482416, 3785288.911495422013104 ], [ 404490.946083418093622, 3785288.606307222973555 ], [ 404490.946083418093622, 3785287.385554425418377 ], [ 404490.640895218704827, 3785287.080366225913167 ], [ 404490.640895218704827, 3785286.469989826902747 ], [ 404490.335707019316033, 3785286.164801627863199 ], [ 404490.335707019316033, 3785284.3336724312976 ], [ 404490.640895218704827, 3785284.02848423179239 ], [ 404490.946083418093622, 3785284.02848423179239 ], [ 404491.251271617482416, 3785283.723296032752842 ], [ 404491.251271617482416, 3785282.197355035692453 ], [ 404491.861648016260006, 3785281.586978636682034 ], [ 404492.1668362156488, 3785281.586978636682034 ], [ 404492.472024415037595, 3785281.281790437642485 ], [ 404492.777212614426389, 3785281.281790437642485 ], [ 404493.082400813815184, 3785281.586978636682034 ], [ 404493.692777212592773, 3785281.586978636682034 ], [ 404493.997965411981568, 3785281.892166836187243 ], [ 404494.303153611370362, 3785281.892166836187243 ], [ 404494.608341810759157, 3785282.197355035692453 ], [ 404495.218718209536746, 3785282.197355035692453 ], [ 404495.523906408925541, 3785282.502543235197663 ], [ 404495.523906408925541, 3785283.723296032752842 ], [ 404495.829094608314335, 3785284.02848423179239 ], [ 404495.829094608314335, 3785285.859613428357989 ], [ 404496.13428280770313, 3785286.164801627863199 ], [ 404496.13428280770313, 3785287.385554425418377 ], [ 404496.439471007150132, 3785287.690742624457926 ], [ 404496.439471007150132, 3785288.301119023468345 ], [ 404496.744659206538927, 3785288.606307222973555 ], [ 404496.744659206538927, 3785289.827060020528734 ], [ 404496.439471007150132, 3785290.132248219568282 ], [ 404496.439471007150132, 3785290.742624618578702 ], [ 404495.523906408925541, 3785291.658189216628671 ], [ 404494.608341810759157, 3785291.658189216628671 ], [ 404494.303153611370362, 3785291.963377416133881 ], [ 404492.472024415037595, 3785291.963377416133881 ] ] ] } },
{ "type": "Feature", "properties": { "confidence": 0.41366422176361084, "class": 1 }, "geometry": { "type": "Polygon", "coordinates": [ [ [ 404474.160732451651711, 3785090.844354018103331 ], [ 404473.855544252262916, 3785090.539165819063783 ], [ 404473.855544252262916, 3785089.318413021508604 ], [ 404474.7711088504293, 3785088.402848422992975 ], [ 404475.076297049876302, 3785088.402848422992975 ], [ 404476.297049847431481, 3785087.182095625437796 ], [ 404477.212614445597865, 3785087.182095625437796 ], [ 404477.517802644986659, 3785086.876907426398247 ], [ 404479.043743641930632, 3785086.876907426398247 ], [ 404479.348931841319427, 3785087.182095625437796 ], [ 404479.348931841319427, 3785088.402848422992975 ], [ 404479.043743641930632, 3785088.708036622498184 ], [ 404479.043743641930632, 3785089.013224822003394 ], [ 404478.738555442541838, 3785089.318413021508604 ], [ 404478.738555442541838, 3785089.623601220548153 ], [ 404478.433367243153043, 3785089.928789420053363 ], [ 404478.433367243153043, 3785090.233977619558573 ], [ 404478.128179043764248, 3785090.539165819063783 ], [ 404477.517802644986659, 3785090.539165819063783 ], [ 404477.212614445597865, 3785090.844354018103331 ], [ 404474.160732451651711, 3785090.844354018103331 ] ] ] } },
{ "type": "Feature", "properties": { "confidence": 0.39983728528022766, "class": 1 }, "geometry": { "type": "Polygon", "coordinates": [ [ [ 404425.635808748716954, 3785111.291963377501816 ], [ 404425.025432349939365, 3785110.681586978491396 ], [ 404425.025432349939365, 3785110.376398779451847 ], [ 404424.72024415055057, 3785110.071210579946637 ], [ 404424.72024415055057, 3785109.766022380441427 ], [ 404424.415055951161776, 3785109.460834180936217 ], [ 404424.415055951161776, 3785106.714140386786312 ], [ 404424.72024415055057, 3785106.408952187281102 ], [ 404424.72024415055057, 3785100.61037639901042 ], [ 404424.415055951161776, 3785100.30518819950521 ], [ 404424.72024415055057, 3785100.30518819950521 ], [ 404425.025432349939365, 3785100.0 ], [ 404425.33062054932816, 3785100.0 ], [ 404425.635808748716954, 3785099.69481180049479 ], [ 404425.940996948105749, 3785099.69481180049479 ], [ 404426.246185147494543, 3785099.38962360098958 ], [ 404426.551373346883338, 3785099.38962360098958 ], [ 404428.077314343827311, 3785097.863682604394853 ], [ 404428.992878941993695, 3785097.863682604394853 ], [ 404429.298067141382489, 3785097.558494404889643 ], [ 404431.129196337715257, 3785097.558494404889643 ], [ 404431.434384537104052, 3785097.863682604394853 ], [ 404431.739572736492846, 3785097.863682604394853 ], [ 404432.655137334717438, 3785098.779247202444822 ], [ 404432.655137334717438, 3785100.0 ], [ 404432.960325534106232, 3785100.30518819950521 ], [ 404432.655137334717438, 3785100.61037639901042 ], [ 404432.655137334717438, 3785102.746693794615567 ], [ 404432.349949135328643, 3785103.051881994120777 ], [ 404432.349949135328643, 3785103.357070193160325 ], [ 404431.434384537104052, 3785104.272634791675955 ], [ 404431.434384537104052, 3785104.577822990715504 ], [ 404431.129196337715257, 3785104.883011190220714 ], [ 404431.129196337715257, 3785105.798575788270682 ], [ 404431.434384537104052, 3785106.103763987775892 ], [ 404431.434384537104052, 3785107.019328585825861 ], [ 404431.739572736492846, 3785107.32451678533107 ], [ 404431.739572736492846, 3785107.93489318434149 ], [ 404432.044760935881641, 3785108.240081383381039 ], [ 404431.434384537104052, 3785108.850457782391459 ], [ 404431.434384537104052, 3785109.766022380441427 ], [ 404430.213631739548873, 3785110.986775177996606 ], [ 404429.908443540160079, 3785110.986775177996606 ], [ 404429.603255340771284, 3785111.291963377501816 ], [ 404425.635808748716954, 3785111.291963377501816 ] ] ] } },
{ "type": "Feature", "properties": { "confidence": 0.38450014591217041, "class": 1 }, "geometry": { "type": "Polygon", "coordinates": [ [ [ 404446.693794506601989, 3785036.215666327625513 ], [ 404446.388606307213195, 3785035.910478128120303 ], [ 404444.862665310269222, 3785035.910478128120303 ], [ 404444.557477110880427, 3785035.605289928615093 ], [ 404444.252288911491632, 3785035.605289928615093 ], [ 404443.947100712102838, 3785035.300101729575545 ], [ 404443.641912512714043, 3785035.300101729575545 ], [ 404443.641912512714043, 3785034.994913530070335 ], [ 404443.336724313325249, 3785034.689725330565125 ], [ 404443.336724313325249, 3785034.384537131059915 ], [ 404441.810783316381276, 3785032.858596134465188 ], [ 404441.810783316381276, 3785031.943031535949558 ], [ 404441.505595116992481, 3785031.637843336910009 ], [ 404441.505595116992481, 3785030.72227873839438 ], [ 404442.11597151577007, 3785030.111902339849621 ], [ 404443.641912512714043, 3785030.111902339849621 ], [ 404444.252288911491632, 3785030.72227873839438 ], [ 404444.557477110880427, 3785030.72227873839438 ], [ 404444.862665310269222, 3785031.02746693789959 ], [ 404445.473041709046811, 3785031.02746693789959 ], [ 404445.778229908435605, 3785031.332655137404799 ], [ 404446.998982705990784, 3785031.332655137404799 ], [ 404447.304170905379578, 3785031.637843336910009 ], [ 404447.609359104768373, 3785031.637843336910009 ], [ 404447.914547304157168, 3785031.943031535949558 ], [ 404448.219735503545962, 3785031.943031535949558 ], [ 404448.830111902323551, 3785032.553407934959978 ], [ 404448.830111902323551, 3785034.079348932020366 ], [ 404448.524923702934757, 3785034.384537131059915 ], [ 404448.524923702934757, 3785034.689725330565125 ], [ 404448.219735503545962, 3785034.994913530070335 ], [ 404448.219735503545962, 3785035.300101729575545 ], [ 404447.914547304157168, 3785035.605289928615093 ], [ 404447.914547304157168, 3785035.910478128120303 ], [ 404446.998982705990784, 3785035.910478128120303 ], [ 404446.693794506601989, 3785036.215666327625513 ] ] ] } },
{ "type": "Feature", "properties": { "confidence": 0.2505248486995697, "class": 1 }, "geometry": { "type": "Polygon", "coordinates": [ [ [ 404551.373346897249576, 3784930.010172939859331 ], [ 404551.373346897249576, 3784929.704984740819782 ], [ 404551.068158697860781, 3784929.399796541314572 ], [ 404551.068158697860781, 3784924.516785351093858 ], [ 404551.373346897249576, 3784924.516785351093858 ], [ 404551.67853509663837, 3784924.211597151588649 ], [ 404551.67853509663837, 3784923.906408952083439 ], [ 404551.983723296027165, 3784923.906408952083439 ], [ 404552.28891149541596, 3784923.601220752578229 ], [ 404552.594099694804754, 3784923.906408952083439 ], [ 404553.204476093582343, 3784923.906408952083439 ], [ 404553.814852492359933, 3784924.516785351093858 ], [ 404554.730417090526316, 3784924.516785351093858 ], [ 404555.035605289915111, 3784924.821973550133407 ], [ 404555.951169888081495, 3784924.821973550133407 ], [ 404555.951169888081495, 3784928.179043743759394 ], [ 404555.340793489303906, 3784928.179043743759394 ], [ 404555.035605289915111, 3784928.484231942798942 ], [ 404554.730417090526316, 3784928.484231942798942 ], [ 404554.425228891137522, 3784928.789420142304152 ], [ 404553.509664292971138, 3784928.789420142304152 ], [ 404552.594099694804754, 3784929.704984740819782 ], [ 404552.28891149541596, 3784929.704984740819782 ], [ 404551.983723296027165, 3784930.010172939859331 ], [ 404551.373346897249576, 3784930.010172939859331 ] ] ] } }
]
}
