{
"type": "FeatureCollection",
"name": "cell_00372_pre",
"crs": { "type": "name", "properties": { "name": "urn:ogc:def:crs:EPSG::32611" } },
"features": [
{ "type": "Feature", "properties": { "confidence": 0.59989023208618164, "class": 1 }, "geometry": { "type": "Polygon", "coordinates": [ [ [ 395783.316378433373757, 3787291.86164801614359 ], [ 395782.706002034596168, 3787291.251271617598832 ], [ 395782.706002034596168, 3787290.640895218588412 ], [ 395782.400813835207373, 3787290.335707019548863 ], [ 395782.400813835207373, 3787288.199389623478055 ], [ 395782.095625635818578, 3787287.894201424438506 ], [ 395782.095625635818578, 3787286.673448626883328 ], [ 395782.400813835207373, 3787286.368260427378118 ], [ 395782.400813835207373, 3787285.14750762982294 ], [ 395782.706002034596168, 3787284.84231943031773 ], [ 395782.706002034596168, 3787284.53713123081252 ], [ 395783.011190233984962, 3787284.23194303130731 ], [ 395783.011190233984962, 3787283.926754832267761 ], [ 395783.621566632762551, 3787283.316378433257341 ], [ 395783.926754832151346, 3787283.316378433257341 ], [ 395784.231943031540141, 3787283.011190233752131 ], [ 395784.84231943031773, 3787283.011190233752131 ], [ 395785.147507629706524, 3787282.706002034712583 ], [ 395785.757884028484114, 3787282.706002034712583 ], [ 395786.063072227872908, 3787283.011190233752131 ], [ 395788.19938962359447, 3787283.011190233752131 ], [ 395788.504577822983265, 3787283.316378433257341 ], [ 395788.504577822983265, 3787287.283825025428087 ], [ 395788.19938962359447, 3787287.589013224933296 ], [ 395788.19938962359447, 3787289.725330620538443 ], [ 395787.894201424205676, 3787290.030518820043653 ], [ 395787.894201424205676, 3787290.335707019548863 ], [ 395786.978636826039292, 3787291.251271617598832 ], [ 395786.368260427261703, 3787291.251271617598832 ], [ 395786.063072227872908, 3787291.556459817104042 ], [ 395785.147507629706524, 3787291.556459817104042 ], [ 395784.84231943031773, 3787291.86164801614359 ], [ 395783.316378433373757, 3787291.86164801614359 ] ] ] } },
{ "type": "Feature", "properties": { "confidence": 0.54569387435913086, "class": 1 }, "geometry": { "type": "Polygon", "coordinates": [ [ [ 395976.500508647004608, 3787404.170905391685665 ], [ 395976.195320447615813, 3787403.865717192180455 ], [ 395974.66937945067184, 3787403.865717192180455 ], [ 395974.364191251283046, 3787403.560528992675245 ], [ 395973.753814852505457, 3787403.560528992675245 ], [ 395973.448626653116662, 3787403.255340793635696 ], [ 395973.143438453727867, 3787403.255340793635696 ], [ 395972.838250254339073, 3787402.950152594130486 ], [ 395972.533062054950278, 3787402.950152594130486 ], [ 395972.533062054950278, 3787402.644964394625276 ], [ 395972.227873855561484, 3787402.339776195120066 ], [ 395972.227873855561484, 3787401.424211597070098 ], [ 395971.617497456783894, 3787400.813835198525339 ], [ 395971.617497456783894, 3787399.593082400970161 ], [ 395971.922685656172689, 3787399.287894201464951 ], [ 395971.922685656172689, 3787398.982706001959741 ], [ 395972.533062054950278, 3787398.372329603414983 ], [ 395972.533062054950278, 3787398.067141403909773 ], [ 395972.838250254339073, 3787397.761953204404563 ], [ 395972.838250254339073, 3787397.151576805859804 ], [ 395973.143438453727867, 3787396.846388606354594 ], [ 395973.143438453727867, 3787396.236012207344174 ], [ 395973.448626653116662, 3787396.236012207344174 ], [ 395973.753814852505457, 3787395.930824008304626 ], [ 395973.753814852505457, 3787395.625635808799416 ], [ 395974.059003051894251, 3787395.320447609294206 ], [ 395974.059003051894251, 3787395.015259409788996 ], [ 395974.364191251283046, 3787394.710071210749447 ], [ 395974.974567650060635, 3787394.710071210749447 ], [ 395975.27975584944943, 3787394.404883011244237 ], [ 395975.890132248227019, 3787394.404883011244237 ], [ 395976.195320447615813, 3787394.099694811739028 ], [ 395976.805696846393403, 3787394.099694811739028 ], [ 395977.110885045782197, 3787393.794506612233818 ], [ 395978.63682604272617, 3787393.794506612233818 ], [ 395979.552390640892554, 3787394.710071210749447 ], [ 395979.552390640892554, 3787398.372329603414983 ], [ 395979.247202441503759, 3787398.677517802454531 ], [ 395979.247202441503759, 3787399.89827060000971 ], [ 395978.942014242114965, 3787400.20345879951492 ], [ 395978.942014242114965, 3787400.813835198525339 ], [ 395978.63682604272617, 3787401.119023397564888 ], [ 395978.63682604272617, 3787401.424211597070098 ], [ 395978.026449643948581, 3787402.034587996080518 ], [ 395978.026449643948581, 3787402.644964394625276 ], [ 395977.416073245170992, 3787403.255340793635696 ], [ 395977.416073245170992, 3787403.560528992675245 ], [ 395977.110885045782197, 3787403.865717192180455 ], [ 395976.805696846393403, 3787403.865717192180455 ], [ 395976.500508647004608, 3787404.170905391685665 ] ] ] } },
{ "type": "Feature", "properties": { "confidence": 0.50464677810668945, "class": 1 }, "geometry": { "type": "Polygon", "coordinates": [ [ [ 395774.465920651040506, 3787508.545269582886249 ], [ 395774.160732451651711, 3787508.240081383381039 ], [ 395773.855544252262916, 3787508.240081383381039 ], [ 395773.855544252262916, 3787507.93489318434149 ], [ 395773.550356052874122, 3787507.62970498483628 ], [ 395773.550356052874122, 3787506.103763987775892 ], [ 395773.855544252262916, 3787505.798575788270682 ], [ 395774.465920651040506, 3787505.798575788270682 ], [ 395774.7711088504293, 3787505.493387589231133 ], [ 395775.076297049876302, 3787505.493387589231133 ], [ 395775.381485249265097, 3787505.188199389725924 ], [ 395775.991861648042686, 3787505.188199389725924 ], [ 395776.297049847431481, 3787504.883011190220714 ], [ 395776.90742624620907, 3787504.883011190220714 ], [ 395777.212614445597865, 3787504.577822990715504 ], [ 395778.128179043764248, 3787504.577822990715504 ], [ 395778.433367243153043, 3787504.883011190220714 ], [ 395778.433367243153043, 3787505.493387589231133 ], [ 395776.602238046820275, 3787507.32451678533107 ], [ 395776.602238046820275, 3787507.62970498483628 ], [ 395775.991861648042686, 3787508.240081383381039 ], [ 395775.686673448653892, 3787508.240081383381039 ], [ 395775.381485249265097, 3787508.545269582886249 ], [ 395774.465920651040506, 3787508.545269582886249 ] ] ] } },
{ "type": "Feature", "properties": { "confidence": 0.45724058151245117, "class": 1 }, "geometry": { "type": "Polygon", "coordinates": [ [ [ 395787.283825025428087, 3787391.963377416133881 ], [ 395786.978636826039292, 3787391.658189216628671 ], [ 395785.757884028484114, 3787391.658189216628671 ], [ 395785.452695829095319, 3787391.353001017123461 ], [ 395785.147507629706524, 3787391.353001017123461 ], [ 395784.537131230928935, 3787390.742624618578702 ], [ 395784.231943031540141, 3787390.742624618578702 ], [ 395784.231943031540141, 3787390.437436419073492 ], [ 395783.926754832151346, 3787390.132248219568282 ], [ 395783.926754832151346, 3787388.911495422013104 ], [ 395784.231943031540141, 3787388.606307222973555 ], [ 395784.231943031540141, 3787386.469989826902747 ], [ 395784.537131230928935, 3787386.164801627863199 ], [ 395784.537131230928935, 3787385.859613428357989 ], [ 395785.452695829095319, 3787384.94404883030802 ], [ 395785.757884028484114, 3787384.94404883030802 ], [ 395787.589013224816881, 3787383.112919633742422 ], [ 395787.589013224816881, 3787382.807731434237212 ], [ 395787.894201424205676, 3787382.502543235197663 ], [ 395788.19938962359447, 3787382.502543235197663 ], [ 395788.80976602237206, 3787381.892166836187243 ], [ 395789.114954221760854, 3787381.892166836187243 ], [ 395789.420142421149649, 3787381.586978636682034 ], [ 395790.030518819927238, 3787381.586978636682034 ], [ 395790.335707019316033, 3787381.892166836187243 ], [ 395790.335707019316033, 3787383.418107833247632 ], [ 395791.861648016260006, 3787384.94404883030802 ], [ 395792.1668362156488, 3787384.94404883030802 ], [ 395792.472024415037595, 3787385.249237029347569 ], [ 395792.472024415037595, 3787385.859613428357989 ], [ 395792.777212614426389, 3787386.164801627863199 ], [ 395792.472024415037595, 3787386.469989826902747 ], [ 395792.472024415037595, 3787388.301119023468345 ], [ 395792.1668362156488, 3787388.606307222973555 ], [ 395792.1668362156488, 3787389.216683621518314 ], [ 395791.861648016260006, 3787389.521871821023524 ], [ 395791.861648016260006, 3787390.132248219568282 ], [ 395791.556459816871211, 3787390.437436419073492 ], [ 395791.556459816871211, 3787390.742624618578702 ], [ 395791.251271617482416, 3787390.742624618578702 ], [ 395790.640895218704827, 3787391.353001017123461 ], [ 395790.640895218704827, 3787391.658189216628671 ], [ 395789.725330620538443, 3787391.658189216628671 ], [ 395789.420142421149649, 3787391.963377416133881 ], [ 395787.283825025428087, 3787391.963377416133881 ] ] ] } },
{ "type": "Feature", "properties": { "confidence": 0.42555433511734009, "class": 1 }, "geometry": { "type": "Polygon", "coordinates": [ [ [ 395762.563580874877516, 3787414.547304171137512 ], [ 395762.258392675488722, 3787414.242115971632302 ], [ 395762.258392675488722, 3787413.936927772127092 ], [ 395761.953204476099927, 3787413.631739572621882 ], [ 395761.953204476099927, 3787411.495422177016735 ], [ 395762.258392675488722, 3787411.190233977511525 ], [ 395762.258392675488722, 3787410.274669379461557 ], [ 395766.836215666320641, 3787410.274669379461557 ], [ 395766.225839267543051, 3787410.885045778006315 ], [ 395766.225839267543051, 3787411.190233977511525 ], [ 395765.615462868765462, 3787411.800610376521945 ], [ 395765.615462868765462, 3787412.105798575561494 ], [ 395765.005086469987873, 3787412.716174974571913 ], [ 395765.005086469987873, 3787413.021363174077123 ], [ 395764.089521871821489, 3787413.936927772127092 ], [ 395764.089521871821489, 3787414.242115971632302 ], [ 395763.784333672432695, 3787414.242115971632302 ], [ 395763.4791454730439, 3787414.547304171137512 ], [ 395762.563580874877516, 3787414.547304171137512 ] ] ] } },
{ "type": "Feature", "properties": { "confidence": 0.41850852966308594, "class": 1 }, "geometry": { "type": "Polygon", "coordinates": [ [ [ 395895.625635808741208, 3787648.016276704147458 ], [ 395895.320447609352414, 3787647.711088504642248 ], [ 395895.015259409963619, 3787647.711088504642248 ], [ 395895.015259409963619, 3787647.405900305137038 ], [ 395894.710071210574824, 3787647.100712105631828 ], [ 395894.710071210574824, 3787646.79552390659228 ], [ 395894.40488301118603, 3787646.49033570708707 ], [ 395894.099694811797235, 3787646.49033570708707 ], [ 395893.794506612408441, 3787646.18514750758186 ], [ 395893.489318413019646, 3787646.18514750758186 ], [ 395893.184130213630851, 3787645.87995930807665 ], [ 395892.878942014242057, 3787645.87995930807665 ], [ 395892.573753814853262, 3787645.574771109037101 ], [ 395892.268565615464468, 3787645.574771109037101 ], [ 395891.658189216686878, 3787644.964394710026681 ], [ 395891.658189216686878, 3787644.354018311481923 ], [ 395891.353001017298084, 3787644.048830111976713 ], [ 395905.086469989852048, 3787644.048830111976713 ], [ 395904.781281790463254, 3787644.354018311481923 ], [ 395904.781281790463254, 3787644.964394710026681 ], [ 395904.476093591074459, 3787645.269582909531891 ], [ 395904.476093591074459, 3787645.574771109037101 ], [ 395904.170905391685665, 3787645.574771109037101 ], [ 395903.255340793461073, 3787646.49033570708707 ], [ 395902.950152594072279, 3787646.49033570708707 ], [ 395902.034587995905895, 3787647.405900305137038 ], [ 395901.424211597128306, 3787647.405900305137038 ], [ 395900.813835198350716, 3787648.016276704147458 ], [ 395895.625635808741208, 3787648.016276704147458 ] ] ] } },
{ "type": "Feature", "properties": { "confidence": 0.40443190932273865, "class": 1 }, "geometry": { "type": "Polygon", "coordinates": [ [ [ 395712.817904374387581, 3787461.54628687677905 ], [ 395712.512716174998786, 3787461.241098677739501 ], [ 395710.376398779219016, 3787461.241098677739501 ], [ 395710.376398779219016, 3787460.935910478234291 ], [ 395710.071210579830222, 3787460.630722278729081 ], [ 395710.376398779219016, 3787460.325534079223871 ], [ 395710.376398779219016, 3787456.663275686558336 ], [ 395710.681586978607811, 3787456.663275686558336 ], [ 395710.986775178054813, 3787456.358087487053126 ], [ 395713.123092573776376, 3787456.358087487053126 ], [ 395713.42828077316517, 3787456.052899288013577 ], [ 395714.038657171942759, 3787456.052899288013577 ], [ 395714.649033570720349, 3787455.442522889003158 ], [ 395714.954221770109143, 3787455.442522889003158 ], [ 395715.259409969497938, 3787455.137334689497948 ], [ 395715.259409969497938, 3787454.832146490458399 ], [ 395715.564598168886732, 3787454.832146490458399 ], [ 395716.174974567664322, 3787454.221770091447979 ], [ 395716.174974567664322, 3787453.916581891942769 ], [ 395716.480162767053116, 3787453.916581891942769 ], [ 395717.090539165830705, 3787453.306205493398011 ], [ 395717.3957273652195, 3787453.306205493398011 ], [ 395717.700915564608295, 3787453.001017293892801 ], [ 395718.006103763997089, 3787453.001017293892801 ], [ 395718.311291963385884, 3787453.306205493398011 ], [ 395718.921668362163473, 3787453.306205493398011 ], [ 395719.226856561552268, 3787453.611393692903221 ], [ 395719.226856561552268, 3787454.832146490458399 ], [ 395718.921668362163473, 3787455.137334689497948 ], [ 395718.921668362163473, 3787455.442522889003158 ], [ 395718.616480162774678, 3787455.747711088508368 ], [ 395718.616480162774678, 3787456.052899288013577 ], [ 395718.311291963385884, 3787456.358087487053126 ], [ 395718.311291963385884, 3787456.968463886063546 ], [ 395718.006103763997089, 3787457.273652085568756 ], [ 395718.006103763997089, 3787457.578840285073966 ], [ 395717.700915564608295, 3787457.884028484113514 ], [ 395717.700915564608295, 3787458.189216683618724 ], [ 395717.3957273652195, 3787458.189216683618724 ], [ 395715.869786368275527, 3787459.715157680679113 ], [ 395715.869786368275527, 3787460.020345880184323 ], [ 395715.564598168886732, 3787460.325534079223871 ], [ 395715.564598168886732, 3787460.935910478234291 ], [ 395715.259409969497938, 3787461.241098677739501 ], [ 395714.954221770109143, 3787461.241098677739501 ], [ 395714.649033570720349, 3787461.54628687677905 ], [ 395712.817904374387581, 3787461.54628687677905 ] ] ] } },
{ "type": "Feature", "properties": { "confidence": 0.38047373294830322, "class": 1 }, "geometry": { "type": "Polygon", "coordinates": [ [ [ 395549.542217700916808, 3787560.732451678719372 ], [ 395549.237029501528013, 3787560.427263479214162 ], [ 395548.931841302139219, 3787560.427263479214162 ], [ 395548.32146490336163, 3787559.816887080203742 ], [ 395548.016276703972835, 3787559.816887080203742 ], [ 395547.405900305195246, 3787559.206510681658983 ], [ 395547.405900305195246, 3787558.901322482153773 ], [ 395547.100712105806451, 3787558.596134282648563 ], [ 395547.100712105806451, 3787558.290946083609015 ], [ 395546.795523906417657, 3787557.985757884103805 ], [ 395546.795523906417657, 3787557.680569684598595 ], [ 395546.490335707028862, 3787557.375381485093385 ], [ 395546.490335707028862, 3787557.070193286053836 ], [ 395546.185147507640067, 3787556.765005086548626 ], [ 395546.185147507640067, 3787555.239064089488238 ], [ 395547.100712105806451, 3787554.32349949143827 ], [ 395547.71108850458404, 3787554.32349949143827 ], [ 395548.016276703972835, 3787554.01831129193306 ], [ 395548.32146490336163, 3787554.32349949143827 ], [ 395548.626653102750424, 3787554.32349949143827 ], [ 395548.931841302139219, 3787554.62868769094348 ], [ 395549.237029501528013, 3787554.62868769094348 ], [ 395549.542217700916808, 3787554.933875889983028 ], [ 395549.847405900305603, 3787554.933875889983028 ], [ 395550.152594099694397, 3787555.239064089488238 ], [ 395551.67853509663837, 3787555.239064089488238 ], [ 395551.983723296027165, 3787554.933875889983028 ], [ 395553.204476093582343, 3787554.933875889983028 ], [ 395553.814852492359933, 3787555.544252288993448 ], [ 395553.814852492359933, 3787555.849440488498658 ], [ 395554.120040691748727, 3787556.154628687538207 ], [ 395554.120040691748727, 3787557.070193286053836 ], [ 395553.814852492359933, 3787557.375381485093385 ], [ 395553.814852492359933, 3787557.985757884103805 ], [ 395553.509664292971138, 3787558.290946083609015 ], [ 395553.509664292971138, 3787558.596134282648563 ], [ 395551.983723296027165, 3787560.122075279708952 ], [ 395551.67853509663837, 3787560.122075279708952 ], [ 395551.068158697860781, 3787560.732451678719372 ], [ 395549.542217700916808, 3787560.732451678719372 ] ] ] } },
{ "type": "Feature", "properties": { "confidence": 0.36213764548301697, "class": 1 }, "geometry": { "type": "Polygon", "coordinates": [ [ [ 395990.539165818947367, 3787377.31434384547174 ], [ 395990.233977619558573, 3787377.00915564596653 ], [ 395989.928789420169778, 3787377.00915564596653 ], [ 395989.623601220780984, 3787376.70396744646132 ], [ 395989.623601220780984, 3787374.262461851350963 ], [ 395990.233977619558573, 3787373.652085452806205 ], [ 395991.149542217724957, 3787373.652085452806205 ], [ 395991.454730417113751, 3787373.346897253300995 ], [ 395994.811800610390492, 3787373.346897253300995 ], [ 395994.811800610390492, 3787373.652085452806205 ], [ 395994.201424211612903, 3787374.262461851350963 ], [ 395994.201424211612903, 3787374.567650050856173 ], [ 395991.759918616502546, 3787377.00915564596653 ], [ 395991.759918616502546, 3787377.31434384547174 ], [ 395990.539165818947367, 3787377.31434384547174 ] ] ] } },
{ "type": "Feature", "properties": { "confidence": 0.33722338080406189, "class": 1 }, "geometry": { "type": "Polygon", "coordinates": [ [ [ 395901.7293997965171, 3787302.543234995100647 ], [ 395901.424211597128306, 3787302.238046795595437 ], [ 395900.508646998961922, 3787302.238046795595437 ], [ 395899.898270600184333, 3787301.627670396585017 ], [ 395899.898270600184333, 3787296.744659206364304 ], [ 395900.203458799573127, 3787296.439471007324755 ], [ 395900.203458799573127, 3787295.523906408809125 ], [ 395901.119023397739511, 3787294.608341810759157 ], [ 395903.86571719229687, 3787294.608341810759157 ], [ 395904.170905391685665, 3787294.913530010264367 ], [ 395904.170905391685665, 3787296.439471007324755 ], [ 395904.476093591074459, 3787296.744659206364304 ], [ 395904.476093591074459, 3787297.049847405869514 ], [ 395904.781281790463254, 3787297.355035605374724 ], [ 395904.781281790463254, 3787298.880976602435112 ], [ 395905.086469989852048, 3787299.186164801474661 ], [ 395905.086469989852048, 3787299.79654120048508 ], [ 395905.391658189240843, 3787300.10172939999029 ], [ 395905.391658189240843, 3787301.017293998040259 ], [ 395905.086469989852048, 3787301.322482197545469 ], [ 395905.086469989852048, 3787301.627670396585017 ], [ 395904.781281790463254, 3787301.932858596090227 ], [ 395904.476093591074459, 3787301.932858596090227 ], [ 395904.170905391685665, 3787302.238046795595437 ], [ 395903.560528992908075, 3787302.238046795595437 ], [ 395903.255340793461073, 3787302.543234995100647 ], [ 395901.7293997965171, 3787302.543234995100647 ] ] ] } },
{ "type": "Feature", "properties": { "confidence": 0.33079999685287476, "class": 1 }, "geometry": { "type": "Polygon", "coordinates": [ [ [ 395896.846388606296387, 3787262.563580874819309 ], [ 395896.236012207518797, 3787261.95320447627455 ], [ 395895.930824008130003, 3787261.95320447627455 ], [ 395895.625635808741208, 3787261.64801627676934 ], [ 395895.320447609352414, 3787261.64801627676934 ], [ 395893.794506612408441, 3787260.122075279708952 ], [ 395893.794506612408441, 3787259.816887080203742 ], [ 395892.878942014242057, 3787258.901322482153773 ], [ 395892.878942014242057, 3787258.596134282648563 ], [ 395892.573753814853262, 3787258.290946083609015 ], [ 395892.573753814853262, 3787257.985757884103805 ], [ 395892.268565615464468, 3787257.680569684598595 ], [ 395892.268565615464468, 3787256.459816887043417 ], [ 395892.573753814853262, 3787256.154628687538207 ], [ 395892.573753814853262, 3787255.849440488498658 ], [ 395893.184130213630851, 3787255.239064089488238 ], [ 395894.099694811797235, 3787255.239064089488238 ], [ 395894.40488301118603, 3787254.933875889983028 ], [ 395895.930824008130003, 3787254.933875889983028 ], [ 395896.236012207518797, 3787255.239064089488238 ], [ 395897.151576805685181, 3787255.239064089488238 ], [ 395899.287894201406743, 3787257.375381485093385 ], [ 395899.287894201406743, 3787257.680569684598595 ], [ 395899.593082400795538, 3787257.985757884103805 ], [ 395899.593082400795538, 3787259.816887080203742 ], [ 395899.287894201406743, 3787260.122075279708952 ], [ 395899.287894201406743, 3787261.34282807726413 ], [ 395898.067141403851565, 3787262.563580874819309 ], [ 395896.846388606296387, 3787262.563580874819309 ] ] ] } },
{ "type": "Feature", "properties": { "confidence": 0.31253659725189209, "class": 1 }, "geometry": { "type": "Polygon", "coordinates": [ [ [ 395921.261444557458162, 3787421.566632756963372 ], [ 395920.956256358069368, 3787421.261444557458162 ], [ 395920.345879959291779, 3787421.261444557458162 ], [ 395920.040691759902984, 3787420.956256357952952 ], [ 395919.735503560514189, 3787420.956256357952952 ], [ 395919.1251271617366, 3787420.345879959408194 ], [ 395918.514750762959011, 3787420.345879959408194 ], [ 395918.209562563570216, 3787420.040691759902984 ], [ 395917.904374364181422, 3787420.040691759902984 ], [ 395917.599186164792627, 3787419.735503560397774 ], [ 395917.293997965403832, 3787419.735503560397774 ], [ 395916.988809766015038, 3787419.430315361358225 ], [ 395916.988809766015038, 3787417.904374364297837 ], [ 395917.599186164792627, 3787417.293997965287417 ], [ 395917.599186164792627, 3787416.988809766247869 ], [ 395919.1251271617366, 3787415.46286876918748 ], [ 395921.566632756846957, 3787415.46286876918748 ], [ 395921.871820956235752, 3787415.76805696869269 ], [ 395922.177009155624546, 3787415.76805696869269 ], [ 395922.177009155624546, 3787417.904374364297837 ], [ 395921.871820956235752, 3787418.209562563803047 ], [ 395921.871820956235752, 3787419.735503560397774 ], [ 395922.177009155624546, 3787420.040691759902984 ], [ 395921.871820956235752, 3787420.345879959408194 ], [ 395921.871820956235752, 3787421.261444557458162 ], [ 395921.566632756846957, 3787421.261444557458162 ], [ 395921.261444557458162, 3787421.566632756963372 ] ] ] } },
{ "type": "Feature", "properties": { "confidence": 0.289213627576828, "class": 1 }, "geometry": { "type": "Polygon", "coordinates": [ [ [ 395763.4791454730439, 3787397.151576805859804 ], [ 395762.868769074266311, 3787396.541200406849384 ], [ 395762.868769074266311, 3787395.015259409788996 ], [ 395762.563580874877516, 3787394.710071210749447 ], [ 395762.563580874877516, 3787394.404883011244237 ], [ 395762.868769074266311, 3787394.099694811739028 ], [ 395762.868769074266311, 3787393.794506612233818 ], [ 395763.173957273655105, 3787393.489318413194269 ], [ 395763.173957273655105, 3787392.878942014183849 ], [ 395763.784333672432695, 3787392.268565615639091 ], [ 395763.784333672432695, 3787391.658189216628671 ], [ 395764.089521871821489, 3787391.658189216628671 ], [ 395765.615462868765462, 3787390.132248219568282 ], [ 395765.615462868765462, 3787389.827060020528734 ], [ 395765.920651068154257, 3787389.827060020528734 ], [ 395766.531027466931846, 3787389.216683621518314 ], [ 395768.972533062042203, 3787389.216683621518314 ], [ 395769.277721261430997, 3787389.521871821023524 ], [ 395769.582909460819792, 3787389.521871821023524 ], [ 395769.888097660208587, 3787389.827060020528734 ], [ 395769.888097660208587, 3787391.963377416133881 ], [ 395769.582909460819792, 3787392.268565615639091 ], [ 395769.582909460819792, 3787392.878942014183849 ], [ 395769.277721261430997, 3787392.878942014183849 ], [ 395768.972533062042203, 3787393.184130213689059 ], [ 395768.972533062042203, 3787393.489318413194269 ], [ 395765.920651068154257, 3787396.541200406849384 ], [ 395765.615462868765462, 3787396.541200406849384 ], [ 395765.310274669376668, 3787396.846388606354594 ], [ 395764.394710071210284, 3787396.846388606354594 ], [ 395764.089521871821489, 3787397.151576805859804 ], [ 395763.4791454730439, 3787397.151576805859804 ] ] ] } },
{ "type": "Feature", "properties": { "confidence": 0.28351697325706482, "class": 1 }, "geometry": { "type": "Polygon", "coordinates": [ [ [ 395635.605289928789716, 3787454.832146490458399 ], [ 395634.994913530012127, 3787454.221770091447979 ], [ 395634.994913530012127, 3787453.306205493398011 ], [ 395635.300101729400922, 3787453.001017293892801 ], [ 395635.300101729400922, 3787452.390640895348042 ], [ 395635.605289928789716, 3787452.085452695842832 ], [ 395635.605289928789716, 3787449.949135300237685 ], [ 395635.910478128178511, 3787449.643947100732476 ], [ 395635.910478128178511, 3787449.033570701722056 ], [ 395636.215666327567305, 3787448.728382502682507 ], [ 395636.215666327567305, 3787447.507629705127329 ], [ 395637.131230925733689, 3787446.592065106611699 ], [ 395638.962360122066457, 3787446.592065106611699 ], [ 395639.267548321455251, 3787446.897253306116909 ], [ 395639.267548321455251, 3787447.202441505622119 ], [ 395639.572736520844046, 3787447.507629705127329 ], [ 395639.572736520844046, 3787448.118006103672087 ], [ 395639.877924720232841, 3787448.423194303177297 ], [ 395639.877924720232841, 3787450.559511698782444 ], [ 395639.572736520844046, 3787450.864699898287654 ], [ 395639.572736520844046, 3787451.169888097792864 ], [ 395639.267548321455251, 3787451.475076296832412 ], [ 395639.267548321455251, 3787451.780264496337622 ], [ 395638.962360122066457, 3787452.085452695842832 ], [ 395638.962360122066457, 3787452.390640895348042 ], [ 395638.657171922677662, 3787452.695829094387591 ], [ 395638.657171922677662, 3787453.001017293892801 ], [ 395638.046795523900073, 3787453.611393692903221 ], [ 395638.046795523900073, 3787453.916581891942769 ], [ 395637.741607324511278, 3787453.916581891942769 ], [ 395637.131230925733689, 3787454.526958290953189 ], [ 395636.826042726344895, 3787454.526958290953189 ], [ 395636.5208545269561, 3787454.832146490458399 ], [ 395635.605289928789716, 3787454.832146490458399 ] ] ] } },
{ "type": "Feature", "properties": { "confidence": 0.27863588929176331, "class": 1 }, "geometry": { "type": "Polygon", "coordinates": [ [ [ 395783.011190233984962, 3787294.608341810759157 ], [ 395782.706002034596168, 3787294.303153611253947 ], [ 395781.790437436429784, 3787294.303153611253947 ], [ 395780.8748728382634, 3787293.387589013203979 ], [ 395780.8748728382634, 3787292.47202441515401 ], [ 395787.894201424205676, 3787292.47202441515401 ], [ 395787.894201424205676, 3787293.082400813698769 ], [ 395787.283825025428087, 3787293.082400813698769 ], [ 395786.978636826039292, 3787293.387589013203979 ], [ 395786.063072227872908, 3787293.387589013203979 ], [ 395785.757884028484114, 3787293.692777212709188 ], [ 395785.147507629706524, 3787293.692777212709188 ], [ 395784.84231943031773, 3787293.997965412214398 ], [ 395784.537131230928935, 3787293.997965412214398 ], [ 395784.231943031540141, 3787294.303153611253947 ], [ 395783.316378433373757, 3787294.303153611253947 ], [ 395783.011190233984962, 3787294.608341810759157 ] ] ] } },
{ "type": "Feature", "properties": { "confidence": 0.27065181732177734, "class": 1 }, "geometry": { "type": "Polygon", "coordinates": [ [ [ 395726.551373346883338, 3787409.664292980451137 ], [ 395725.940996948105749, 3787409.053916581906378 ], [ 395725.940996948105749, 3787406.612410986796021 ], [ 395726.246185147494543, 3787406.307222787290812 ], [ 395726.551373346883338, 3787406.307222787290812 ], [ 395727.161749745660927, 3787405.696846388746053 ], [ 395727.466937945049722, 3787405.696846388746053 ], [ 395727.772126144438516, 3787405.391658189240843 ], [ 395728.077314343827311, 3787405.391658189240843 ], [ 395728.382502543216106, 3787405.086469989735633 ], [ 395728.6876907426049, 3787405.086469989735633 ], [ 395729.298067141382489, 3787404.476093591190875 ], [ 395729.908443540160079, 3787404.476093591190875 ], [ 395730.518819938937668, 3787403.865717192180455 ], [ 395730.824008138326462, 3787403.865717192180455 ], [ 395731.129196337715257, 3787403.560528992675245 ], [ 395731.739572736492846, 3787403.560528992675245 ], [ 395732.044760935881641, 3787403.865717192180455 ], [ 395732.044760935881641, 3787404.170905391685665 ], [ 395732.349949135328643, 3787404.476093591190875 ], [ 395732.044760935881641, 3787404.781281790230423 ], [ 395732.044760935881641, 3787405.086469989735633 ], [ 395731.434384537104052, 3787405.696846388746053 ], [ 395731.129196337715257, 3787405.696846388746053 ], [ 395730.518819938937668, 3787406.307222787290812 ], [ 395730.518819938937668, 3787406.612410986796021 ], [ 395728.6876907426049, 3787408.443540182895958 ], [ 395728.6876907426049, 3787408.748728382401168 ], [ 395728.382502543216106, 3787409.053916581906378 ], [ 395728.382502543216106, 3787409.359104781411588 ], [ 395728.077314343827311, 3787409.359104781411588 ], [ 395727.772126144438516, 3787409.664292980451137 ], [ 395726.551373346883338, 3787409.664292980451137 ] ] ] } }
]
}
