{
"type": "FeatureCollection",
"name": "cell_00526_pre",
"crs": { "type": "name", "properties": { "name": "urn:ogc:def:crs:EPSG::32611" } },
"features": [
{ "type": "Feature", "properties": { "confidence": 0.99550074338912964, "class": 1 }, "geometry": { "type": "Polygon", "coordinates": [ [ [ 404362.156663275673054, 3782962.767039674334228 ], [ 404361.85147507628426, 3782962.461851475294679 ], [ 404361.24109867750667, 3782962.461851475294679 ], [ 404360.935910478117876, 3782962.156663275789469 ], [ 404360.935910478117876, 3782961.85147507628426 ], [ 404360.630722278729081, 3782961.54628687677905 ], [ 404360.630722278729081, 3782960.325534079223871 ], [ 404360.325534079340287, 3782960.020345880184323 ], [ 404360.325534079340287, 3782959.409969481173903 ], [ 404360.020345879951492, 3782959.104781281668693 ], [ 404360.020345879951492, 3782958.494404883123934 ], [ 404359.715157680562697, 3782958.189216683618724 ], [ 404359.715157680562697, 3782957.884028484113514 ], [ 404359.409969481173903, 3782957.578840285073966 ], [ 404359.409969481173903, 3782955.442522889003158 ], [ 404359.715157680562697, 3782955.137334689497948 ], [ 404359.715157680562697, 3782954.832146490458399 ], [ 404360.325534079340287, 3782954.221770091447979 ], [ 404360.630722278729081, 3782954.221770091447979 ], [ 404360.935910478117876, 3782953.916581891942769 ], [ 404362.461851475061849, 3782953.916581891942769 ], [ 404362.767039674450643, 3782953.611393692903221 ], [ 404364.598168870783411, 3782953.611393692903221 ], [ 404364.598168870783411, 3782953.916581891942769 ], [ 404364.903357070172206, 3782954.221770091447979 ], [ 404364.903357070172206, 3782955.137334689497948 ], [ 404365.208545269561, 3782955.442522889003158 ], [ 404365.208545269561, 3782955.747711088508368 ], [ 404365.818921668338589, 3782956.358087487053126 ], [ 404365.818921668338589, 3782956.968463886063546 ], [ 404366.124109867727384, 3782957.273652085568756 ], [ 404366.124109867727384, 3782961.241098677739501 ], [ 404365.513733468949795, 3782961.85147507628426 ], [ 404365.513733468949795, 3782962.156663275789469 ], [ 404365.208545269561, 3782962.156663275789469 ], [ 404364.598168870783411, 3782962.767039674334228 ], [ 404362.156663275673054, 3782962.767039674334228 ] ] ] } },
{ "type": "Feature", "properties": { "confidence": 0.99455797672271729, "class": 1 }, "geometry": { "type": "Polygon", "coordinates": [ [ [ 404129.603255340771284, 3782470.803662258200347 ], [ 404129.298067141382489, 3782470.498474059160799 ], [ 404128.382502543216106, 3782470.498474059160799 ], [ 404128.077314343827311, 3782470.193285859655589 ], [ 404128.077314343827311, 3782469.27772126160562 ], [ 404128.382502543216106, 3782468.97253306210041 ], [ 404128.382502543216106, 3782468.056968464050442 ], [ 404128.6876907426049, 3782467.751780264545232 ], [ 404128.6876907426049, 3782467.446592065040022 ], [ 404128.992878941993695, 3782467.141403865534812 ], [ 404128.992878941993695, 3782466.836215666495264 ], [ 404129.603255340771284, 3782466.225839267484844 ], [ 404129.908443540160079, 3782466.225839267484844 ], [ 404130.213631739548873, 3782465.920651067979634 ], [ 404130.518819938937668, 3782465.920651067979634 ], [ 404131.129196337715257, 3782465.310274669434875 ], [ 404131.434384537104052, 3782465.310274669434875 ], [ 404131.739572736492846, 3782465.005086469929665 ], [ 404132.044760935881641, 3782465.005086469929665 ], [ 404132.349949135328643, 3782464.699898270424455 ], [ 404133.570701932883821, 3782464.699898270424455 ], [ 404133.875890132272616, 3782464.394710071384907 ], [ 404135.401831129216589, 3782464.394710071384907 ], [ 404135.707019328605384, 3782464.699898270424455 ], [ 404136.012207527994178, 3782464.699898270424455 ], [ 404136.012207527994178, 3782465.920651067979634 ], [ 404135.707019328605384, 3782466.225839267484844 ], [ 404135.707019328605384, 3782466.531027466990054 ], [ 404135.401831129216589, 3782466.836215666495264 ], [ 404135.401831129216589, 3782467.141403865534812 ], [ 404135.096642929827794, 3782467.141403865534812 ], [ 404134.791454730439, 3782467.446592065040022 ], [ 404134.791454730439, 3782467.751780264545232 ], [ 404134.181078331661411, 3782468.362156663089991 ], [ 404133.875890132272616, 3782468.362156663089991 ], [ 404133.265513733495027, 3782468.97253306210041 ], [ 404132.960325534106232, 3782468.97253306210041 ], [ 404131.434384537104052, 3782470.498474059160799 ], [ 404130.824008138326462, 3782470.498474059160799 ], [ 404130.518819938937668, 3782470.803662258200347 ], [ 404129.603255340771284, 3782470.803662258200347 ] ] ] } },
{ "type": "Feature", "properties": { "confidence": 0.98506563901901245, "class": 1 }, "geometry": { "type": "Polygon", "coordinates": [ [ [ 404252.899287894193549, 3782455.544252288993448 ], [ 404252.594099694804754, 3782455.239064089488238 ], [ 404251.373346897249576, 3782455.239064089488238 ], [ 404251.068158697860781, 3782454.933875889983028 ], [ 404251.068158697860781, 3782454.62868769094348 ], [ 404250.762970498471987, 3782454.32349949143827 ], [ 404250.762970498471987, 3782453.407934893388301 ], [ 404251.068158697860781, 3782453.102746693883091 ], [ 404251.068158697860781, 3782451.881993896327913 ], [ 404250.762970498471987, 3782451.576805696822703 ], [ 404250.762970498471987, 3782450.356052899267524 ], [ 404250.457782299083192, 3782450.050864699762315 ], [ 404250.457782299083192, 3782448.219735503662378 ], [ 404250.762970498471987, 3782447.914547304157168 ], [ 404251.068158697860781, 3782447.914547304157168 ], [ 404251.67853509663837, 3782447.304170905612409 ], [ 404251.983723296027165, 3782447.304170905612409 ], [ 404252.594099694804754, 3782446.693794506601989 ], [ 404253.204476093582343, 3782446.693794506601989 ], [ 404254.120040691748727, 3782447.609359104651958 ], [ 404254.120040691748727, 3782447.914547304157168 ], [ 404254.425228891137522, 3782448.219735503662378 ], [ 404254.425228891137522, 3782448.524923703167588 ], [ 404254.730417090526316, 3782448.830111902207136 ], [ 404255.035605289915111, 3782448.830111902207136 ], [ 404255.035605289915111, 3782449.135300101712346 ], [ 404255.6459816886927, 3782449.745676500722766 ], [ 404255.951169888081495, 3782449.745676500722766 ], [ 404256.561546286859084, 3782450.356052899267524 ], [ 404256.866734486247879, 3782450.356052899267524 ], [ 404257.171922685636673, 3782450.661241098772734 ], [ 404257.171922685636673, 3782452.492370294872671 ], [ 404256.866734486247879, 3782452.797558494377881 ], [ 404256.866734486247879, 3782454.01831129193306 ], [ 404256.256358087470289, 3782454.62868769094348 ], [ 404255.951169888081495, 3782454.62868769094348 ], [ 404255.6459816886927, 3782454.933875889983028 ], [ 404255.340793489303906, 3782454.62868769094348 ], [ 404254.425228891137522, 3782454.62868769094348 ], [ 404253.814852492359933, 3782455.239064089488238 ], [ 404253.204476093582343, 3782455.239064089488238 ], [ 404252.899287894193549, 3782455.544252288993448 ] ] ] } },
{ "type": "Feature", "properties": { "confidence": 0.98341828584671021, "class": 1 }, "geometry": { "type": "Polygon", "coordinates": [ [ [ 404092.06510681589134, 3782441.505595116876066 ], [ 404091.759918616502546, 3782441.200406917370856 ], [ 404091.759918616502546, 3782440.895218718331307 ], [ 404091.454730417113751, 3782440.590030518826097 ], [ 404091.454730417113751, 3782437.843336724210531 ], [ 404091.759918616502546, 3782437.538148524705321 ], [ 404091.759918616502546, 3782436.317395727150142 ], [ 404092.06510681589134, 3782436.012207528110594 ], [ 404092.370295015280135, 3782436.012207528110594 ], [ 404092.67548321466893, 3782435.707019328605384 ], [ 404092.980671414057724, 3782435.707019328605384 ], [ 404093.285859613446519, 3782435.401831129100174 ], [ 404093.591047812835313, 3782435.401831129100174 ], [ 404093.896236012224108, 3782435.096642929594964 ], [ 404094.201424211612903, 3782435.096642929594964 ], [ 404094.506612411001697, 3782434.791454730555415 ], [ 404094.811800610390492, 3782434.791454730555415 ], [ 404095.116988809779286, 3782434.486266531050205 ], [ 404097.558494404889643, 3782434.486266531050205 ], [ 404097.863682604278438, 3782434.181078331544995 ], [ 404099.389623601222411, 3782434.181078331544995 ], [ 404099.694811800611205, 3782434.486266531050205 ], [ 404100.0, 3782434.486266531050205 ], [ 404100.305188199388795, 3782434.791454730555415 ], [ 404100.305188199388795, 3782437.843336724210531 ], [ 404100.0, 3782438.14852492371574 ], [ 404100.0, 3782438.45371312322095 ], [ 404099.694811800611205, 3782438.758901322260499 ], [ 404099.084435401833616, 3782438.758901322260499 ], [ 404098.474059003056027, 3782439.369277721270919 ], [ 404098.168870803667232, 3782439.369277721270919 ], [ 404097.863682604278438, 3782439.674465920776129 ], [ 404097.558494404889643, 3782439.674465920776129 ], [ 404096.948118006112054, 3782440.284842319320887 ], [ 404096.948118006112054, 3782440.590030518826097 ], [ 404096.642929806723259, 3782440.590030518826097 ], [ 404096.03255340794567, 3782441.200406917370856 ], [ 404095.727365208556876, 3782441.200406917370856 ], [ 404095.422177009168081, 3782441.505595116876066 ], [ 404092.06510681589134, 3782441.505595116876066 ] ] ] } },
{ "type": "Feature", "properties": { "confidence": 0.98318523168563843, "class": 1 }, "geometry": { "type": "Polygon", "coordinates": [ [ [ 404324.618514750734903, 3782601.119023397564888 ], [ 404324.313326551346108, 3782600.813835198525339 ], [ 404323.702950152568519, 3782600.813835198525339 ], [ 404323.397761953179725, 3782600.508646999020129 ], [ 404323.09257375379093, 3782600.508646999020129 ], [ 404322.787385554402135, 3782600.20345879951492 ], [ 404322.482197355013341, 3782600.20345879951492 ], [ 404321.566632756846957, 3782599.287894201464951 ], [ 404321.566632756846957, 3782598.677517802454531 ], [ 404321.261444557458162, 3782598.372329603414983 ], [ 404321.261444557458162, 3782597.456765004899353 ], [ 404321.871820956235752, 3782596.846388606354594 ], [ 404321.871820956235752, 3782596.541200406849384 ], [ 404322.177009155624546, 3782596.541200406849384 ], [ 404323.09257375379093, 3782595.625635808799416 ], [ 404323.397761953179725, 3782595.625635808799416 ], [ 404324.313326551346108, 3782594.710071210749447 ], [ 404324.618514750734903, 3782594.710071210749447 ], [ 404325.2288911495707, 3782594.099694811739028 ], [ 404326.754832146514673, 3782594.099694811739028 ], [ 404327.365208545292262, 3782594.710071210749447 ], [ 404327.365208545292262, 3782595.015259409788996 ], [ 404328.891149542236235, 3782596.541200406849384 ], [ 404328.891149542236235, 3782596.846388606354594 ], [ 404329.19633774162503, 3782597.151576805859804 ], [ 404329.19633774162503, 3782598.067141403909773 ], [ 404329.501525941013824, 3782598.372329603414983 ], [ 404329.501525941013824, 3782600.20345879951492 ], [ 404329.19633774162503, 3782600.508646999020129 ], [ 404328.891149542236235, 3782600.508646999020129 ], [ 404328.58596134284744, 3782600.813835198525339 ], [ 404326.144455747737084, 3782600.813835198525339 ], [ 404325.839267548348289, 3782601.119023397564888 ], [ 404324.618514750734903, 3782601.119023397564888 ] ] ] } },
{ "type": "Feature", "properties": { "confidence": 0.9796939492225647, "class": 1 }, "geometry": { "type": "Polygon", "coordinates": [ [ [ 404062.767039674450643, 3782445.778229908552021 ], [ 404062.461851475061849, 3782445.473041709046811 ], [ 404061.85147507628426, 3782445.473041709046811 ], [ 404061.24109867750667, 3782444.862665310502052 ], [ 404061.24109867750667, 3782444.252288911491632 ], [ 404061.546286876895465, 3782443.947100711986423 ], [ 404061.546286876895465, 3782443.031536113936454 ], [ 404061.85147507628426, 3782442.726347914431244 ], [ 404061.85147507628426, 3782442.421159714926034 ], [ 404062.156663275673054, 3782442.421159714926034 ], [ 404062.767039674450643, 3782441.810783316381276 ], [ 404063.072227873839438, 3782441.810783316381276 ], [ 404063.377416073228233, 3782441.505595116876066 ], [ 404064.903357070172206, 3782441.505595116876066 ], [ 404064.903357070172206, 3782441.810783316381276 ], [ 404065.208545269561, 3782442.115971515886486 ], [ 404065.208545269561, 3782444.252288911491632 ], [ 404064.292980671394616, 3782445.167853509541601 ], [ 404063.987792472005822, 3782445.167853509541601 ], [ 404063.377416073228233, 3782445.778229908552021 ], [ 404062.767039674450643, 3782445.778229908552021 ] ] ] } },
{ "type": "Feature", "properties": { "confidence": 0.97613584995269775, "class": 1 }, "geometry": { "type": "Polygon", "coordinates": [ [ [ 404306.612410986796021, 3782848.626653102692217 ], [ 404306.307222787407227, 3782848.321464903187007 ], [ 404305.086469989852048, 3782848.321464903187007 ], [ 404304.781281790463254, 3782848.016276704147458 ], [ 404304.476093591074459, 3782848.016276704147458 ], [ 404303.255340793461073, 3782846.79552390659228 ], [ 404303.255340793461073, 3782846.49033570708707 ], [ 404302.034587995905895, 3782845.269582909531891 ], [ 404302.034587995905895, 3782844.964394710026681 ], [ 404301.7293997965171, 3782844.659206510521472 ], [ 404301.7293997965171, 3782844.048830111976713 ], [ 404307.527975584962405, 3782844.048830111976713 ], [ 404307.527975584962405, 3782848.626653102692217 ], [ 404306.612410986796021, 3782848.626653102692217 ] ] ] } },
{ "type": "Feature", "properties": { "confidence": 0.96994149684906006, "class": 1 }, "geometry": { "type": "Polygon", "coordinates": [ [ [ 404287.080366225854959, 3782836.113936927635223 ], [ 404287.080366225854959, 3782835.808748728595674 ], [ 404286.46998982707737, 3782835.198372329585254 ], [ 404286.46998982707737, 3782834.282807731535286 ], [ 404286.164801627688576, 3782833.977619532030076 ], [ 404286.164801627688576, 3782832.146490335930139 ], [ 404286.46998982707737, 3782831.841302136424929 ], [ 404286.46998982707737, 3782831.536113936919719 ], [ 404286.775178026466165, 3782831.841302136424929 ], [ 404287.690742624632549, 3782831.841302136424929 ], [ 404287.995930824021343, 3782831.536113936919719 ], [ 404290.132248219742905, 3782831.536113936919719 ], [ 404290.4374364191317, 3782831.230925737414509 ], [ 404290.4374364191317, 3782830.92573753837496 ], [ 404291.047812817909289, 3782830.92573753837496 ], [ 404291.047812817909289, 3782831.230925737414509 ], [ 404291.353001017298084, 3782831.536113936919719 ], [ 404291.353001017298084, 3782832.146490335930139 ], [ 404291.658189216686878, 3782832.451678534969687 ], [ 404291.658189216686878, 3782832.756866734474897 ], [ 404291.353001017298084, 3782833.062054933980107 ], [ 404291.353001017298084, 3782834.893184130080044 ], [ 404291.047812817909289, 3782834.893184130080044 ], [ 404290.4374364191317, 3782835.503560529090464 ], [ 404289.521871820965316, 3782835.503560529090464 ], [ 404289.216683621576522, 3782835.808748728595674 ], [ 404288.911495422187727, 3782835.808748728595674 ], [ 404288.606307222798932, 3782836.113936927635223 ], [ 404287.080366225854959, 3782836.113936927635223 ] ] ] } },
{ "type": "Feature", "properties": { "confidence": 0.96309006214141846, "class": 1 }, "geometry": { "type": "Polygon", "coordinates": [ [ [ 404281.281790437409654, 3782442.421159714926034 ], [ 404280.671414038632065, 3782441.810783316381276 ], [ 404280.671414038632065, 3782441.200406917370856 ], [ 404280.061037639854476, 3782440.590030518826097 ], [ 404280.061037639854476, 3782439.979654119815677 ], [ 404279.755849440465681, 3782439.674465920776129 ], [ 404279.755849440465681, 3782437.538148524705321 ], [ 404280.061037639854476, 3782437.232960325665772 ], [ 404280.061037639854476, 3782436.927772126160562 ], [ 404280.36622583924327, 3782436.927772126160562 ], [ 404280.671414038632065, 3782436.622583926655352 ], [ 404280.97660223802086, 3782436.622583926655352 ], [ 404281.281790437409654, 3782436.317395727150142 ], [ 404282.807731434411835, 3782436.317395727150142 ], [ 404283.11291963380063, 3782436.622583926655352 ], [ 404284.638860630744603, 3782436.622583926655352 ], [ 404285.249237029522192, 3782437.232960325665772 ], [ 404285.554425228910986, 3782437.232960325665772 ], [ 404285.554425228910986, 3782437.843336724210531 ], [ 404285.859613428299781, 3782438.14852492371574 ], [ 404285.859613428299781, 3782439.674465920776129 ], [ 404285.554425228910986, 3782439.979654119815677 ], [ 404285.554425228910986, 3782440.590030518826097 ], [ 404284.638860630744603, 3782441.505595116876066 ], [ 404284.333672431355808, 3782441.505595116876066 ], [ 404284.028484231967013, 3782441.810783316381276 ], [ 404283.723296032578219, 3782441.810783316381276 ], [ 404283.418107833189424, 3782442.115971515886486 ], [ 404283.11291963380063, 3782442.115971515886486 ], [ 404282.807731434411835, 3782442.421159714926034 ], [ 404281.281790437409654, 3782442.421159714926034 ] ] ] } },
{ "type": "Feature", "properties": { "confidence": 0.96118593215942383, "class": 1 }, "geometry": { "type": "Polygon", "coordinates": [ [ [ 404155.239064089546446, 3782508.952187181916088 ], [ 404154.933875890157651, 3782508.646998982876539 ], [ 404154.628687690768857, 3782508.646998982876539 ], [ 404154.323499491380062, 3782508.341810783371329 ], [ 404153.713123092602473, 3782508.341810783371329 ], [ 404153.40793489315547, 3782508.036622583866119 ], [ 404153.102746693766676, 3782508.036622583866119 ], [ 404152.492370294989087, 3782507.426246185321361 ], [ 404152.492370294989087, 3782506.205493387766182 ], [ 404152.797558494377881, 3782505.900305188260972 ], [ 404152.797558494377881, 3782504.069175991695374 ], [ 404153.102746693766676, 3782503.763987792655826 ], [ 404153.102746693766676, 3782502.238046795595437 ], [ 404154.018311291991267, 3782501.322482197545469 ], [ 404155.54425228893524, 3782501.322482197545469 ], [ 404155.849440488324035, 3782501.627670396585017 ], [ 404156.15462868771283, 3782501.627670396585017 ], [ 404156.765005086490419, 3782502.238046795595437 ], [ 404157.070193285879213, 3782502.238046795595437 ], [ 404157.070193285879213, 3782502.543234995100647 ], [ 404157.375381485268008, 3782502.848423194140196 ], [ 404157.680569684656803, 3782502.848423194140196 ], [ 404157.985757884045597, 3782503.153611393645406 ], [ 404158.290946083434392, 3782503.153611393645406 ], [ 404158.290946083434392, 3782503.763987792655826 ], [ 404158.596134282823186, 3782504.069175991695374 ], [ 404158.596134282823186, 3782506.205493387766182 ], [ 404158.290946083434392, 3782506.510681586805731 ], [ 404158.290946083434392, 3782507.121057985816151 ], [ 404157.985757884045597, 3782507.426246185321361 ], [ 404157.985757884045597, 3782507.731434384360909 ], [ 404157.070193285879213, 3782508.646998982876539 ], [ 404156.765005086490419, 3782508.646998982876539 ], [ 404156.459816887101624, 3782508.952187181916088 ], [ 404155.239064089546446, 3782508.952187181916088 ] ] ] } },
{ "type": "Feature", "properties": { "confidence": 0.95772093534469604, "class": 1 }, "geometry": { "type": "Polygon", "coordinates": [ [ [ 404306.917599186184816, 3782436.317395727150142 ], [ 404306.002034588018432, 3782435.401831129100174 ], [ 404305.696846388629638, 3782435.401831129100174 ], [ 404305.086469989852048, 3782434.791454730555415 ], [ 404305.086469989852048, 3782434.486266531050205 ], [ 404303.86571719229687, 3782433.265513733495027 ], [ 404303.86571719229687, 3782431.12919633788988 ], [ 404304.476093591074459, 3782430.51881993887946 ], [ 404304.476093591074459, 3782430.21363173937425 ], [ 404304.781281790463254, 3782429.908443540334702 ], [ 404304.781281790463254, 3782429.603255340829492 ], [ 404305.086469989852048, 3782429.298067141324282 ], [ 404305.086469989852048, 3782428.992878941819072 ], [ 404305.391658189240843, 3782428.687690742779523 ], [ 404306.612410986796021, 3782428.687690742779523 ], [ 404306.917599186184816, 3782428.382502543274313 ], [ 404307.527975584962405, 3782428.382502543274313 ], [ 404307.527975584962405, 3782436.317395727150142 ], [ 404306.917599186184816, 3782436.317395727150142 ] ] ] } },
{ "type": "Feature", "properties": { "confidence": 0.94742059707641602, "class": 1 }, "geometry": { "type": "Polygon", "coordinates": [ [ [ 404305.086469989852048, 3782848.321464903187007 ], [ 404304.781281790463254, 3782848.016276704147458 ], [ 404304.476093591074459, 3782848.016276704147458 ], [ 404303.86571719229687, 3782847.405900305137038 ], [ 404303.560528992908075, 3782847.405900305137038 ], [ 404303.560528992908075, 3782847.100712105631828 ], [ 404302.950152594072279, 3782846.49033570708707 ], [ 404302.950152594072279, 3782845.574771109037101 ], [ 404302.644964394683484, 3782845.269582909531891 ], [ 404302.644964394683484, 3782844.964394710026681 ], [ 404302.339776195294689, 3782844.659206510521472 ], [ 404302.339776195294689, 3782842.828077314421535 ], [ 404302.950152594072279, 3782842.217700915411115 ], [ 404303.255340793461073, 3782842.217700915411115 ], [ 404305.696846388629638, 3782839.776195320300758 ], [ 404307.8331637843512, 3782839.776195320300758 ], [ 404308.443540183128789, 3782840.386571719311178 ], [ 404308.748728382517584, 3782840.386571719311178 ], [ 404308.748728382517584, 3782840.691759918816388 ], [ 404309.969481180072762, 3782841.912512716371566 ], [ 404309.969481180072762, 3782844.964394710026681 ], [ 404306.917599186184816, 3782848.016276704147458 ], [ 404306.612410986796021, 3782848.016276704147458 ], [ 404306.307222787407227, 3782848.321464903187007 ], [ 404305.086469989852048, 3782848.321464903187007 ] ] ] } },
{ "type": "Feature", "properties": { "confidence": 0.93752509355545044, "class": 1 }, "geometry": { "type": "Polygon", "coordinates": [ [ [ 404216.88708036619937, 3782574.872838250361383 ], [ 404216.276703967421781, 3782574.262461851350963 ], [ 404216.276703967421781, 3782572.736520854756236 ], [ 404217.192268565588165, 3782571.820956256240606 ], [ 404217.49745676497696, 3782571.820956256240606 ], [ 404218.413021363201551, 3782570.905391658190638 ], [ 404218.718209562590346, 3782570.905391658190638 ], [ 404219.02339776197914, 3782570.600203458685428 ], [ 404219.328585961367935, 3782570.600203458685428 ], [ 404219.938962360145524, 3782569.989827060140669 ], [ 404220.854526958311908, 3782569.989827060140669 ], [ 404221.159715157700703, 3782569.684638860635459 ], [ 404222.685656154644676, 3782569.684638860635459 ], [ 404223.296032553422265, 3782570.295015259180218 ], [ 404223.296032553422265, 3782571.820956256240606 ], [ 404222.99084435403347, 3782571.820956256240606 ], [ 404222.685656154644676, 3782572.126144455745816 ], [ 404222.380467955255881, 3782572.126144455745816 ], [ 404222.075279755867086, 3782572.431332655251026 ], [ 404221.770091556478292, 3782572.431332655251026 ], [ 404221.464903357089497, 3782572.736520854756236 ], [ 404220.854526958311908, 3782572.736520854756236 ], [ 404220.549338758923113, 3782573.041709053795785 ], [ 404220.244150559534319, 3782573.041709053795785 ], [ 404219.938962360145524, 3782573.346897253300995 ], [ 404219.63377416075673, 3782573.346897253300995 ], [ 404219.02339776197914, 3782573.957273652311414 ], [ 404218.718209562590346, 3782573.957273652311414 ], [ 404218.413021363201551, 3782574.262461851350963 ], [ 404218.107833163812757, 3782574.262461851350963 ], [ 404217.49745676497696, 3782574.872838250361383 ], [ 404216.88708036619937, 3782574.872838250361383 ] ] ] } },
{ "type": "Feature", "properties": { "confidence": 0.92584013938903809, "class": 1 }, "geometry": { "type": "Polygon", "coordinates": [ [ [ 404027.975584944069851, 3782452.187182095833123 ], [ 404027.670396744681057, 3782451.881993896327913 ], [ 404027.365208545292262, 3782451.881993896327913 ], [ 404026.754832146514673, 3782451.271617497317493 ], [ 404026.754832146514673, 3782448.830111902207136 ], [ 404027.060020345903467, 3782448.524923703167588 ], [ 404027.060020345903467, 3782448.219735503662378 ], [ 404027.365208545292262, 3782447.914547304157168 ], [ 404027.365208545292262, 3782447.609359104651958 ], [ 404027.975584944069851, 3782446.998982706107199 ], [ 404027.975584944069851, 3782446.388606307096779 ], [ 404028.280773143458646, 3782446.388606307096779 ], [ 404028.58596134284744, 3782446.083418108057231 ], [ 404028.58596134284744, 3782445.778229908552021 ], [ 404029.501525941013824, 3782444.862665310502052 ], [ 404030.417090539180208, 3782444.862665310502052 ], [ 404030.417090539180208, 3782445.167853509541601 ], [ 404031.027466937957797, 3782445.778229908552021 ], [ 404031.027466937957797, 3782446.083418108057231 ], [ 404031.332655137346592, 3782446.388606307096779 ], [ 404031.943031536124181, 3782446.388606307096779 ], [ 404033.468972533068154, 3782447.914547304157168 ], [ 404033.468972533068154, 3782449.745676500722766 ], [ 404033.163784333679359, 3782450.050864699762315 ], [ 404033.163784333679359, 3782450.356052899267524 ], [ 404032.858596134290565, 3782450.661241098772734 ], [ 404032.55340793490177, 3782450.661241098772734 ], [ 404031.332655137346592, 3782451.881993896327913 ], [ 404030.722278738569003, 3782451.881993896327913 ], [ 404030.417090539180208, 3782452.187182095833123 ], [ 404027.975584944069851, 3782452.187182095833123 ] ] ] } },
{ "type": "Feature", "properties": { "confidence": 0.90630561113357544, "class": 1 }, "geometry": { "type": "Polygon", "coordinates": [ [ [ 404246.185147507640067, 3782507.426246185321361 ], [ 404245.879959308251273, 3782507.121057985816151 ], [ 404245.574771108862478, 3782507.121057985816151 ], [ 404245.269582909473684, 3782506.815869786310941 ], [ 404244.659206510696094, 3782506.815869786310941 ], [ 404244.3540183113073, 3782506.510681586805731 ], [ 404239.776195320475381, 3782506.510681586805731 ], [ 404239.165818921639584, 3782505.900305188260972 ], [ 404238.860630722250789, 3782505.900305188260972 ], [ 404238.860630722250789, 3782505.289928789250553 ], [ 404238.555442522861995, 3782504.984740590211004 ], [ 404238.860630722250789, 3782504.679552390705794 ], [ 404238.860630722250789, 3782504.374364191200584 ], [ 404239.471007121086586, 3782503.763987792655826 ], [ 404239.776195320475381, 3782503.763987792655826 ], [ 404240.081383519864175, 3782503.458799593150616 ], [ 404240.691759918641765, 3782503.458799593150616 ], [ 404240.996948118030559, 3782503.153611393645406 ], [ 404241.607324516808148, 3782503.153611393645406 ], [ 404241.912512716196943, 3782502.848423194140196 ], [ 404242.217700915585738, 3782502.848423194140196 ], [ 404242.522889114974532, 3782502.543234995100647 ], [ 404245.879959308251273, 3782502.543234995100647 ], [ 404246.185147507640067, 3782502.848423194140196 ], [ 404246.490335707028862, 3782502.848423194140196 ], [ 404247.100712105806451, 3782503.458799593150616 ], [ 404247.405900305195246, 3782503.458799593150616 ], [ 404248.016276703972835, 3782504.069175991695374 ], [ 404248.32146490336163, 3782504.069175991695374 ], [ 404248.931841302139219, 3782504.679552390705794 ], [ 404249.237029501528013, 3782504.679552390705794 ], [ 404249.847405900305603, 3782505.289928789250553 ], [ 404249.847405900305603, 3782505.595116988755763 ], [ 404250.152594099694397, 3782505.900305188260972 ], [ 404250.152594099694397, 3782506.815869786310941 ], [ 404249.847405900305603, 3782507.121057985816151 ], [ 404249.237029501528013, 3782507.121057985816151 ], [ 404248.931841302139219, 3782507.426246185321361 ], [ 404246.185147507640067, 3782507.426246185321361 ] ] ] } },
{ "type": "Feature", "properties": { "confidence": 0.88881468772888184, "class": 1 }, "geometry": { "type": "Polygon", "coordinates": [ [ [ 404284.638860630744603, 3782848.016276704147458 ], [ 404284.333672431355808, 3782847.711088504642248 ], [ 404281.281790437409654, 3782847.711088504642248 ], [ 404281.281790437409654, 3782846.79552390659228 ], [ 404281.586978636798449, 3782846.49033570708707 ], [ 404281.586978636798449, 3782845.574771109037101 ], [ 404281.281790437409654, 3782845.269582909531891 ], [ 404281.281790437409654, 3782844.659206510521472 ], [ 404280.97660223802086, 3782844.354018311481923 ], [ 404280.97660223802086, 3782844.048830111976713 ], [ 404287.385554425243754, 3782844.048830111976713 ], [ 404287.385554425243754, 3782844.354018311481923 ], [ 404286.164801627688576, 3782845.574771109037101 ], [ 404286.164801627688576, 3782846.18514750758186 ], [ 404285.859613428299781, 3782846.49033570708707 ], [ 404285.859613428299781, 3782846.79552390659228 ], [ 404285.554425228910986, 3782847.100712105631828 ], [ 404285.554425228910986, 3782847.405900305137038 ], [ 404285.249237029522192, 3782847.711088504642248 ], [ 404284.944048830133397, 3782847.711088504642248 ], [ 404284.638860630744603, 3782848.016276704147458 ] ] ] } },
{ "type": "Feature", "properties": { "confidence": 0.87488853931427002, "class": 1 }, "geometry": { "type": "Polygon", "coordinates": [ [ [ 404137.843336724326946, 3782485.14750762982294 ], [ 404137.232960325549357, 3782484.53713123081252 ], [ 404136.927772126160562, 3782484.53713123081252 ], [ 404136.622583926771767, 3782484.23194303130731 ], [ 404134.486266531050205, 3782484.23194303130731 ], [ 404134.181078331661411, 3782484.53713123081252 ], [ 404133.570701932883821, 3782484.53713123081252 ], [ 404132.960325534106232, 3782483.926754832267761 ], [ 404132.960325534106232, 3782483.316378433257341 ], [ 404132.655137334717438, 3782483.011190233752131 ], [ 404132.655137334717438, 3782482.706002034712583 ], [ 404132.960325534106232, 3782482.400813835207373 ], [ 404132.960325534106232, 3782481.485249237157404 ], [ 404133.265513733495027, 3782481.180061037652194 ], [ 404133.265513733495027, 3782480.569684638641775 ], [ 404133.570701932883821, 3782480.264496439602226 ], [ 404133.875890132272616, 3782480.264496439602226 ], [ 404134.181078331661411, 3782479.959308240097016 ], [ 404134.791454730439, 3782479.959308240097016 ], [ 404135.096642929827794, 3782479.654120040591806 ], [ 404136.622583926771767, 3782479.654120040591806 ], [ 404136.927772126160562, 3782479.348931841086596 ], [ 404137.232960325549357, 3782479.654120040591806 ], [ 404137.232960325549357, 3782479.959308240097016 ], [ 404137.538148524938151, 3782480.264496439602226 ], [ 404137.843336724326946, 3782480.264496439602226 ], [ 404138.453713123104535, 3782480.874872838146985 ], [ 404139.064089521882124, 3782480.874872838146985 ], [ 404139.369277721270919, 3782481.180061037652194 ], [ 404139.674465920659713, 3782481.180061037652194 ], [ 404139.979654120048508, 3782481.485249237157404 ], [ 404140.284842319437303, 3782481.485249237157404 ], [ 404140.590030518826097, 3782481.790437436196953 ], [ 404140.895218718214892, 3782481.790437436196953 ], [ 404141.200406917603686, 3782482.095625635702163 ], [ 404141.200406917603686, 3782484.53713123081252 ], [ 404140.590030518826097, 3782485.14750762982294 ], [ 404137.843336724326946, 3782485.14750762982294 ] ] ] } },
{ "type": "Feature", "properties": { "confidence": 0.86616045236587524, "class": 1 }, "geometry": { "type": "Polygon", "coordinates": [ [ [ 404313.936927772127092, 3782432.349949135445058 ], [ 404313.631739572738297, 3782432.044760935939848 ], [ 404313.021363173960708, 3782432.044760935939848 ], [ 404312.716174974571913, 3782431.739572736434639 ], [ 404312.410986775183119, 3782431.739572736434639 ], [ 404312.105798575794324, 3782431.434384536929429 ], [ 404311.80061037640553, 3782431.434384536929429 ], [ 404311.80061037640553, 3782431.12919633788988 ], [ 404311.19023397762794, 3782430.51881993887946 ], [ 404311.19023397762794, 3782429.908443540334702 ], [ 404310.885045778239146, 3782429.603255340829492 ], [ 404310.885045778239146, 3782428.687690742779523 ], [ 404311.495422177016735, 3782428.077314343769103 ], [ 404311.495422177016735, 3782427.772126144263893 ], [ 404311.80061037640553, 3782427.772126144263893 ], [ 404312.410986775183119, 3782427.161749745719135 ], [ 404312.716174974571913, 3782427.466937945224345 ], [ 404313.021363173960708, 3782427.466937945224345 ], [ 404313.326551373349503, 3782427.772126144263893 ], [ 404313.936927772127092, 3782427.772126144263893 ], [ 404314.242115971515886, 3782427.466937945224345 ], [ 404316.073245167848654, 3782427.466937945224345 ], [ 404316.378433367237449, 3782427.772126144263893 ], [ 404317.599186164792627, 3782427.772126144263893 ], [ 404317.904374364181422, 3782428.077314343769103 ], [ 404318.209562563570216, 3782428.077314343769103 ], [ 404318.209562563570216, 3782430.82400813838467 ], [ 404317.599186164792627, 3782431.434384536929429 ], [ 404317.293997965403832, 3782431.434384536929429 ], [ 404316.988809766015038, 3782431.739572736434639 ], [ 404316.073245167848654, 3782431.739572736434639 ], [ 404315.768056968459859, 3782432.044760935939848 ], [ 404315.462868769071065, 3782432.044760935939848 ], [ 404315.15768056968227, 3782432.349949135445058 ], [ 404313.936927772127092, 3782432.349949135445058 ] ] ] } },
{ "type": "Feature", "properties": { "confidence": 0.84080451726913452, "class": 1 }, "geometry": { "type": "Polygon", "coordinates": [ [ [ 404337.436419125122484, 3782643.540183112956583 ], [ 404337.131230925733689, 3782643.234994913451374 ], [ 404335.300101729400922, 3782643.234994913451374 ], [ 404334.994913530012127, 3782642.929806713946164 ], [ 404334.689725330623332, 3782642.929806713946164 ], [ 404334.384537131234538, 3782642.624618514906615 ], [ 404334.384537131234538, 3782642.319430315401405 ], [ 404333.774160732456949, 3782641.709053916390985 ], [ 404333.774160732456949, 3782641.098677517846227 ], [ 404333.468972533068154, 3782640.793489318341017 ], [ 404333.468972533068154, 3782640.488301118835807 ], [ 404333.163784333679359, 3782640.183112919796258 ], [ 404332.858596134290565, 3782640.183112919796258 ], [ 404332.858596134290565, 3782638.65717192273587 ], [ 404332.55340793490177, 3782638.35198372323066 ], [ 404332.55340793490177, 3782635.910478128120303 ], [ 404332.858596134290565, 3782635.605289928615093 ], [ 404334.994913530012127, 3782635.605289928615093 ], [ 404334.994913530012127, 3782635.910478128120303 ], [ 404335.910478128178511, 3782636.826042726170272 ], [ 404335.910478128178511, 3782637.131230925675482 ], [ 404336.215666327567305, 3782637.436419125180691 ], [ 404336.5208545269561, 3782637.436419125180691 ], [ 404337.131230925733689, 3782638.04679552372545 ], [ 404338.046795523900073, 3782638.04679552372545 ], [ 404338.046795523900073, 3782638.35198372323066 ], [ 404338.351983723288868, 3782638.65717192273587 ], [ 404338.351983723288868, 3782643.234994913451374 ], [ 404338.046795523900073, 3782643.540183112956583 ], [ 404337.436419125122484, 3782643.540183112956583 ] ] ] } },
{ "type": "Feature", "properties": { "confidence": 0.84031468629837036, "class": 1 }, "geometry": { "type": "Polygon", "coordinates": [ [ [ 404251.983723296027165, 3782620.956256357952952 ], [ 404251.67853509663837, 3782620.651068158913404 ], [ 404251.373346897249576, 3782620.651068158913404 ], [ 404250.762970498471987, 3782620.040691759902984 ], [ 404250.762970498471987, 3782617.904374364297837 ], [ 404251.068158697860781, 3782617.599186164792627 ], [ 404251.068158697860781, 3782616.988809766247869 ], [ 404251.373346897249576, 3782616.683621566742659 ], [ 404251.373346897249576, 3782616.073245167732239 ], [ 404251.67853509663837, 3782615.76805696869269 ], [ 404251.67853509663837, 3782615.46286876918748 ], [ 404251.983723296027165, 3782615.15768056968227 ], [ 404251.983723296027165, 3782614.547304171137512 ], [ 404252.28891149541596, 3782614.242115971632302 ], [ 404252.28891149541596, 3782613.936927772127092 ], [ 404252.899287894193549, 3782613.326551373116672 ], [ 404252.899287894193549, 3782613.021363174077123 ], [ 404253.204476093582343, 3782612.716174974571913 ], [ 404255.035605289915111, 3782612.716174974571913 ], [ 404255.340793489303906, 3782613.021363174077123 ], [ 404255.035605289915111, 3782613.326551373116672 ], [ 404255.035605289915111, 3782615.76805696869269 ], [ 404255.340793489303906, 3782616.073245167732239 ], [ 404255.6459816886927, 3782616.073245167732239 ], [ 404255.951169888081495, 3782616.378433367237449 ], [ 404256.866734486247879, 3782616.378433367237449 ], [ 404257.477110885025468, 3782616.988809766247869 ], [ 404257.477110885025468, 3782619.125127161853015 ], [ 404257.171922685636673, 3782619.125127161853015 ], [ 404256.561546286859084, 3782619.735503560397774 ], [ 404256.256358087470289, 3782619.735503560397774 ], [ 404255.6459816886927, 3782620.345879959408194 ], [ 404255.340793489303906, 3782620.345879959408194 ], [ 404255.035605289915111, 3782620.651068158913404 ], [ 404254.730417090526316, 3782620.651068158913404 ], [ 404254.425228891137522, 3782620.956256357952952 ], [ 404251.983723296027165, 3782620.956256357952952 ] ] ] } },
{ "type": "Feature", "properties": { "confidence": 0.83387869596481323, "class": 1 }, "geometry": { "type": "Polygon", "coordinates": [ [ [ 404273.346897253300995, 3782844.354018311481923 ], [ 404273.346897253300995, 3782844.048830111976713 ], [ 404273.0417090539122, 3782843.743641912471503 ], [ 404273.0417090539122, 3782843.438453712966293 ], [ 404273.652085452689789, 3782842.828077314421535 ], [ 404273.652085452689789, 3782842.522889114916325 ], [ 404273.957273652078584, 3782842.522889114916325 ], [ 404274.262461851467378, 3782842.217700915411115 ], [ 404274.567650050856173, 3782842.217700915411115 ], [ 404275.483214649022557, 3782841.302136317361146 ], [ 404277.00915564596653, 3782841.302136317361146 ], [ 404277.314343845355324, 3782840.996948117855936 ], [ 404277.619532044744119, 3782841.302136317361146 ], [ 404278.229908443521708, 3782841.302136317361146 ], [ 404278.535096642910503, 3782841.607324516866356 ], [ 404278.840284842299297, 3782841.607324516866356 ], [ 404278.840284842299297, 3782841.912512716371566 ], [ 404279.145473041688092, 3782842.217700915411115 ], [ 404279.145473041688092, 3782842.522889114916325 ], [ 404278.840284842299297, 3782842.828077314421535 ], [ 404278.840284842299297, 3782843.438453712966293 ], [ 404278.535096642910503, 3782843.743641912471503 ], [ 404278.229908443521708, 3782843.743641912471503 ], [ 404277.924720244132914, 3782844.048830111976713 ], [ 404275.178026449633762, 3782844.048830111976713 ], [ 404274.872838250244968, 3782844.354018311481923 ], [ 404273.346897253300995, 3782844.354018311481923 ] ] ] } },
{ "type": "Feature", "properties": { "confidence": 0.82775324583053589, "class": 1 }, "geometry": { "type": "Polygon", "coordinates": [ [ [ 404171.41403865715256, 3782730.21363173937425 ], [ 404171.108850457763765, 3782729.908443540334702 ], [ 404171.108850457763765, 3782729.603255340829492 ], [ 404170.80366225837497, 3782729.298067141324282 ], [ 404170.498474058986176, 3782729.298067141324282 ], [ 404169.888097660208587, 3782728.687690742779523 ], [ 404169.888097660208587, 3782728.382502543274313 ], [ 404169.582909460819792, 3782728.077314343769103 ], [ 404169.582909460819792, 3782727.466937945224345 ], [ 404169.888097660208587, 3782727.161749745719135 ], [ 404169.888097660208587, 3782726.856561546213925 ], [ 404175.076297049876302, 3782726.856561546213925 ], [ 404174.7711088504293, 3782727.161749745719135 ], [ 404174.7711088504293, 3782727.772126144263893 ], [ 404174.465920651040506, 3782728.077314343769103 ], [ 404174.465920651040506, 3782728.687690742779523 ], [ 404173.550356052874122, 3782729.603255340829492 ], [ 404173.550356052874122, 3782729.908443540334702 ], [ 404173.245167853485327, 3782730.21363173937425 ], [ 404171.41403865715256, 3782730.21363173937425 ] ] ] } },
{ "type": "Feature", "properties": { "confidence": 0.79070490598678589, "class": 1 }, "geometry": { "type": "Polygon", "coordinates": [ [ [ 404245.574771108862478, 3782580.366225839126855 ], [ 404245.269582909473684, 3782580.061037640087306 ], [ 404244.964394710084889, 3782580.061037640087306 ], [ 404244.048830111918505, 3782579.145473041571677 ], [ 404243.743641912529711, 3782579.145473041571677 ], [ 404243.743641912529711, 3782576.70396744646132 ], [ 404244.048830111918505, 3782576.70396744646132 ], [ 404244.3540183113073, 3782576.398779247421771 ], [ 404244.3540183113073, 3782575.483214648906142 ], [ 404244.659206510696094, 3782575.178026449866593 ], [ 404244.659206510696094, 3782573.957273652311414 ], [ 404245.574771108862478, 3782573.041709053795785 ], [ 404245.574771108862478, 3782572.736520854756236 ], [ 404245.879959308251273, 3782572.736520854756236 ], [ 404246.185147507640067, 3782572.431332655251026 ], [ 404246.490335707028862, 3782572.431332655251026 ], [ 404246.795523906417657, 3782572.126144455745816 ], [ 404249.542217700916808, 3782572.126144455745816 ], [ 404249.847405900305603, 3782572.431332655251026 ], [ 404250.152594099694397, 3782572.431332655251026 ], [ 404250.457782299083192, 3782572.736520854756236 ], [ 404250.457782299083192, 3782573.041709053795785 ], [ 404250.762970498471987, 3782573.346897253300995 ], [ 404250.762970498471987, 3782576.398779247421771 ], [ 404250.457782299083192, 3782576.70396744646132 ], [ 404250.457782299083192, 3782578.840284842532128 ], [ 404249.847405900305603, 3782579.450661241076887 ], [ 404249.542217700916808, 3782579.450661241076887 ], [ 404249.237029501528013, 3782579.755849440582097 ], [ 404249.237029501528013, 3782580.061037640087306 ], [ 404248.626653102750424, 3782580.061037640087306 ], [ 404248.32146490336163, 3782580.366225839126855 ], [ 404245.574771108862478, 3782580.366225839126855 ] ] ] } },
{ "type": "Feature", "properties": { "confidence": 0.77261358499526978, "class": 1 }, "geometry": { "type": "Polygon", "coordinates": [ [ [ 404252.594099694804754, 3782591.963377416133881 ], [ 404252.28891149541596, 3782591.658189216628671 ], [ 404251.068158697860781, 3782591.658189216628671 ], [ 404250.762970498471987, 3782591.353001017123461 ], [ 404250.762970498471987, 3782590.742624618578702 ], [ 404250.457782299083192, 3782590.437436419073492 ], [ 404250.457782299083192, 3782587.080366225913167 ], [ 404250.762970498471987, 3782586.775178026407957 ], [ 404250.762970498471987, 3782586.469989826902747 ], [ 404251.068158697860781, 3782586.469989826902747 ], [ 404252.594099694804754, 3782584.94404883030802 ], [ 404252.594099694804754, 3782584.3336724312976 ], [ 404252.899287894193549, 3782584.3336724312976 ], [ 404253.509664292971138, 3782583.723296032752842 ], [ 404255.035605289915111, 3782583.723296032752842 ], [ 404255.035605289915111, 3782584.02848423179239 ], [ 404255.340793489303906, 3782584.3336724312976 ], [ 404255.340793489303906, 3782584.94404883030802 ], [ 404255.951169888081495, 3782585.554425228852779 ], [ 404255.951169888081495, 3782586.469989826902747 ], [ 404256.256358087470289, 3782586.775178026407957 ], [ 404256.256358087470289, 3782587.995930823963135 ], [ 404256.561546286859084, 3782588.301119023468345 ], [ 404256.561546286859084, 3782591.353001017123461 ], [ 404256.256358087470289, 3782591.658189216628671 ], [ 404255.340793489303906, 3782591.658189216628671 ], [ 404255.035605289915111, 3782591.963377416133881 ], [ 404252.594099694804754, 3782591.963377416133881 ] ] ] } },
{ "type": "Feature", "properties": { "confidence": 0.76422297954559326, "class": 1 }, "geometry": { "type": "Polygon", "coordinates": [ [ [ 404130.824008138326462, 3782679.552390641067177 ], [ 404130.518819938937668, 3782679.247202441561967 ], [ 404129.908443540160079, 3782679.247202441561967 ], [ 404129.603255340771284, 3782678.942014242056757 ], [ 404129.298067141382489, 3782678.942014242056757 ], [ 404128.992878941993695, 3782678.636826042551547 ], [ 404128.992878941993695, 3782678.331637843511999 ], [ 404128.6876907426049, 3782678.026449644006789 ], [ 404128.6876907426049, 3782677.721261444501579 ], [ 404128.382502543216106, 3782677.416073244996369 ], [ 404128.382502543216106, 3782674.669379450846463 ], [ 404128.6876907426049, 3782674.364191251341254 ], [ 404128.6876907426049, 3782674.059003051836044 ], [ 404128.992878941993695, 3782673.753814852330834 ], [ 404128.992878941993695, 3782673.448626653291285 ], [ 404131.434384537104052, 3782671.007121058180928 ], [ 404131.739572736492846, 3782671.007121058180928 ], [ 404132.044760935881641, 3782670.701932858675718 ], [ 404132.960325534106232, 3782670.701932858675718 ], [ 404133.265513733495027, 3782670.396744659170508 ], [ 404133.875890132272616, 3782670.396744659170508 ], [ 404134.181078331661411, 3782670.701932858675718 ], [ 404134.791454730439, 3782670.701932858675718 ], [ 404135.096642929827794, 3782671.007121058180928 ], [ 404135.707019328605384, 3782671.007121058180928 ], [ 404136.012207527994178, 3782671.312309257220477 ], [ 404136.317395727382973, 3782671.312309257220477 ], [ 404136.927772126160562, 3782671.922685656230897 ], [ 404136.927772126160562, 3782673.448626653291285 ], [ 404137.232960325549357, 3782673.753814852330834 ], [ 404137.232960325549357, 3782675.279755849391222 ], [ 404136.927772126160562, 3782675.584944048896432 ], [ 404136.927772126160562, 3782676.19532044744119 ], [ 404136.622583926771767, 3782676.5005086469464 ], [ 404136.622583926771767, 3782676.80569684645161 ], [ 404136.012207527994178, 3782677.416073244996369 ], [ 404135.401831129216589, 3782677.416073244996369 ], [ 404134.791454730439, 3782678.026449644006789 ], [ 404134.486266531050205, 3782678.026449644006789 ], [ 404134.181078331661411, 3782678.331637843511999 ], [ 404133.570701932883821, 3782678.331637843511999 ], [ 404133.265513733495027, 3782678.636826042551547 ], [ 404132.960325534106232, 3782678.636826042551547 ], [ 404132.655137334717438, 3782678.942014242056757 ], [ 404132.349949135328643, 3782678.942014242056757 ], [ 404132.044760935881641, 3782679.247202441561967 ], [ 404131.129196337715257, 3782679.247202441561967 ], [ 404130.824008138326462, 3782679.552390641067177 ] ] ] } },
{ "type": "Feature", "properties": { "confidence": 0.73518657684326172, "class": 1 }, "geometry": { "type": "Polygon", "coordinates": [ [ [ 403888.504577822983265, 3782446.388606307096779 ], [ 403888.19938962359447, 3782446.083418108057231 ], [ 403888.19938962359447, 3782445.778229908552021 ], [ 403887.894201424205676, 3782445.473041709046811 ], [ 403887.894201424205676, 3782444.252288911491632 ], [ 403888.19938962359447, 3782443.947100711986423 ], [ 403888.19938962359447, 3782443.641912512946874 ], [ 403888.504577822983265, 3782443.336724313441664 ], [ 403888.504577822983265, 3782443.031536113936454 ], [ 403888.80976602237206, 3782443.031536113936454 ], [ 403889.725330620538443, 3782442.115971515886486 ], [ 403890.030518819927238, 3782442.115971515886486 ], [ 403890.946083418093622, 3782441.200406917370856 ], [ 403890.946083418093622, 3782440.895218718331307 ], [ 403891.556459816871211, 3782440.895218718331307 ], [ 403891.861648016260006, 3782440.590030518826097 ], [ 403893.082400813815184, 3782440.590030518826097 ], [ 403893.387589013203979, 3782440.895218718331307 ], [ 403893.387589013203979, 3782442.421159714926034 ], [ 403893.082400813815184, 3782442.726347914431244 ], [ 403893.082400813815184, 3782443.031536113936454 ], [ 403891.556459816871211, 3782444.557477110996842 ], [ 403891.556459816871211, 3782444.862665310502052 ], [ 403890.640895218704827, 3782445.778229908552021 ], [ 403890.335707019316033, 3782445.778229908552021 ], [ 403890.030518819927238, 3782446.083418108057231 ], [ 403889.725330620538443, 3782446.083418108057231 ], [ 403889.420142421149649, 3782446.388606307096779 ], [ 403888.504577822983265, 3782446.388606307096779 ] ] ] } },
{ "type": "Feature", "properties": { "confidence": 0.68390035629272461, "class": 1 }, "geometry": { "type": "Polygon", "coordinates": [ [ [ 404287.690742624632549, 3782436.622583926655352 ], [ 404287.080366225854959, 3782436.012207528110594 ], [ 404287.385554425243754, 3782435.707019328605384 ], [ 404287.385554425243754, 3782435.096642929594964 ], [ 404287.690742624632549, 3782434.791454730555415 ], [ 404287.690742624632549, 3782434.181078331544995 ], [ 404287.995930824021343, 3782433.875890132039785 ], [ 404287.995930824021343, 3782433.570701933000237 ], [ 404288.606307222798932, 3782432.960325533989817 ], [ 404289.216683621576522, 3782432.960325533989817 ], [ 404289.521871820965316, 3782432.655137334484607 ], [ 404290.4374364191317, 3782432.655137334484607 ], [ 404290.742624618520495, 3782432.960325533989817 ], [ 404290.742624618520495, 3782435.096642929594964 ], [ 404290.4374364191317, 3782435.401831129100174 ], [ 404290.4374364191317, 3782436.012207528110594 ], [ 404290.132248219742905, 3782436.317395727150142 ], [ 404289.827060020354111, 3782436.317395727150142 ], [ 404289.521871820965316, 3782436.622583926655352 ], [ 404287.690742624632549, 3782436.622583926655352 ] ] ] } },
{ "type": "Feature", "properties": { "confidence": 0.62372410297393799, "class": 1 }, "geometry": { "type": "Polygon", "coordinates": [ [ [ 404279.755849440465681, 3782590.742624618578702 ], [ 404279.450661241076887, 3782590.437436419073492 ], [ 404279.145473041688092, 3782590.437436419073492 ], [ 404278.535096642910503, 3782589.827060020528734 ], [ 404278.535096642910503, 3782588.606307222973555 ], [ 404278.229908443521708, 3782588.301119023468345 ], [ 404278.229908443521708, 3782585.859613428357989 ], [ 404279.145473041688092, 3782584.94404883030802 ], [ 404279.145473041688092, 3782584.63886063080281 ], [ 404280.061037639854476, 3782584.63886063080281 ], [ 404280.36622583924327, 3782584.3336724312976 ], [ 404280.97660223802086, 3782584.3336724312976 ], [ 404282.197355035634246, 3782583.112919633742422 ], [ 404282.50254323502304, 3782583.112919633742422 ], [ 404283.11291963380063, 3782582.502543235197663 ], [ 404283.418107833189424, 3782582.502543235197663 ], [ 404283.723296032578219, 3782582.197355035692453 ], [ 404284.944048830133397, 3782582.197355035692453 ], [ 404284.944048830133397, 3782582.502543235197663 ], [ 404285.249237029522192, 3782582.807731434237212 ], [ 404285.249237029522192, 3782584.02848423179239 ], [ 404284.028484231967013, 3782585.249237029347569 ], [ 404284.028484231967013, 3782585.554425228852779 ], [ 404283.723296032578219, 3782585.859613428357989 ], [ 404283.723296032578219, 3782586.469989826902747 ], [ 404283.418107833189424, 3782586.775178026407957 ], [ 404283.418107833189424, 3782588.301119023468345 ], [ 404283.11291963380063, 3782588.606307222973555 ], [ 404283.11291963380063, 3782589.521871821023524 ], [ 404283.418107833189424, 3782589.827060020528734 ], [ 404283.418107833189424, 3782590.437436419073492 ], [ 404283.11291963380063, 3782590.742624618578702 ], [ 404279.755849440465681, 3782590.742624618578702 ] ] ] } },
{ "type": "Feature", "properties": { "confidence": 0.58546042442321777, "class": 1 }, "geometry": { "type": "Polygon", "coordinates": [ [ [ 404367.955239064118359, 3782879.145473041571677 ], [ 404367.650050864671357, 3782878.840284842532128 ], [ 404367.344862665282562, 3782878.840284842532128 ], [ 404366.429298067116179, 3782877.924720244016498 ], [ 404366.429298067116179, 3782877.61953204497695 ], [ 404366.124109867727384, 3782877.31434384547174 ], [ 404366.124109867727384, 3782876.093591047916561 ], [ 404366.429298067116179, 3782875.788402848411351 ], [ 404366.429298067116179, 3782875.483214648906142 ], [ 404366.734486266504973, 3782875.483214648906142 ], [ 404367.039674465893768, 3782875.178026449866593 ], [ 404367.344862665282562, 3782875.178026449866593 ], [ 404367.650050864671357, 3782874.872838250361383 ], [ 404369.786368260451127, 3782874.872838250361383 ], [ 404369.786368260451127, 3782875.178026449866593 ], [ 404370.091556459839921, 3782875.483214648906142 ], [ 404370.701932858617511, 3782875.483214648906142 ], [ 404371.007121058006305, 3782875.788402848411351 ], [ 404371.3123092573951, 3782875.788402848411351 ], [ 404372.227873855561484, 3782876.70396744646132 ], [ 404372.227873855561484, 3782878.229908443521708 ], [ 404371.922685656172689, 3782878.229908443521708 ], [ 404371.617497456783894, 3782878.535096643026918 ], [ 404370.701932858617511, 3782878.535096643026918 ], [ 404370.396744659228716, 3782878.840284842532128 ], [ 404369.786368260451127, 3782878.840284842532128 ], [ 404369.481180061062332, 3782879.145473041571677 ], [ 404367.955239064118359, 3782879.145473041571677 ] ] ] } },
{ "type": "Feature", "properties": { "confidence": 0.58401244878768921, "class": 1 }, "geometry": { "type": "Polygon", "coordinates": [ [ [ 404121.973550356051419, 3782688.097660223953426 ], [ 404121.668362156662624, 3782687.792472024448216 ], [ 404121.057985757885035, 3782687.792472024448216 ], [ 404120.752797558496241, 3782687.487283824943006 ], [ 404120.447609359107446, 3782687.487283824943006 ], [ 404119.837232960329857, 3782686.876907426398247 ], [ 404119.837232960329857, 3782686.571719226893038 ], [ 404119.532044760941062, 3782686.266531027387828 ], [ 404119.532044760941062, 3782685.961342827882618 ], [ 404119.226856561552268, 3782685.656154628843069 ], [ 404119.226856561552268, 3782685.045778229832649 ], [ 404118.921668362163473, 3782684.740590030327439 ], [ 404118.921668362163473, 3782682.909460834227502 ], [ 404119.226856561552268, 3782682.604272634722292 ], [ 404119.226856561552268, 3782682.299084435217083 ], [ 404119.837232960329857, 3782681.688708036672324 ], [ 404119.837232960329857, 3782681.383519837167114 ], [ 404121.057985757885035, 3782680.162767039611936 ], [ 404121.36317395727383, 3782680.162767039611936 ], [ 404121.973550356051419, 3782679.552390641067177 ], [ 404122.889114954217803, 3782679.552390641067177 ], [ 404123.194303153606597, 3782679.247202441561967 ], [ 404124.415055951161776, 3782679.247202441561967 ], [ 404124.72024415055057, 3782679.552390641067177 ], [ 404124.72024415055057, 3782681.078331637661904 ], [ 404125.025432349939365, 3782681.383519837167114 ], [ 404125.025432349939365, 3782684.130213631782681 ], [ 404125.33062054932816, 3782684.435401831287891 ], [ 404125.33062054932816, 3782685.656154628843069 ], [ 404125.025432349939365, 3782685.961342827882618 ], [ 404125.025432349939365, 3782687.792472024448216 ], [ 404123.194303153606597, 3782687.792472024448216 ], [ 404122.889114954217803, 3782688.097660223953426 ], [ 404121.973550356051419, 3782688.097660223953426 ] ] ] } },
{ "type": "Feature", "properties": { "confidence": 0.58399319648742676, "class": 1 }, "geometry": { "type": "Polygon", "coordinates": [ [ [ 404072.838250254339073, 3782462.868769074324518 ], [ 404072.533062054950278, 3782462.563580874819309 ], [ 404072.227873855561484, 3782462.563580874819309 ], [ 404071.922685656172689, 3782462.258392675314099 ], [ 404071.617497456783894, 3782462.258392675314099 ], [ 404071.3123092573951, 3782461.95320447627455 ], [ 404071.007121058006305, 3782461.95320447627455 ], [ 404070.701932858617511, 3782461.64801627676934 ], [ 404069.786368260451127, 3782461.64801627676934 ], [ 404069.481180061062332, 3782461.34282807726413 ], [ 404068.565615462895948, 3782461.34282807726413 ], [ 404068.260427263507154, 3782461.03763987775892 ], [ 404068.260427263507154, 3782460.427263479214162 ], [ 404067.955239064118359, 3782460.122075279708952 ], [ 404067.955239064118359, 3782458.901322482153773 ], [ 404067.650050864671357, 3782458.596134282648563 ], [ 404067.650050864671357, 3782457.375381485093385 ], [ 404067.955239064118359, 3782457.070193286053836 ], [ 404067.955239064118359, 3782456.459816887043417 ], [ 404068.260427263507154, 3782456.154628687538207 ], [ 404068.260427263507154, 3782455.849440488498658 ], [ 404068.565615462895948, 3782455.849440488498658 ], [ 404069.175991861673538, 3782455.239064089488238 ], [ 404069.175991861673538, 3782454.933875889983028 ], [ 404069.481180061062332, 3782454.933875889983028 ], [ 404070.396744659228716, 3782454.01831129193306 ], [ 404070.396744659228716, 3782453.71312309242785 ], [ 404070.701932858617511, 3782453.407934893388301 ], [ 404071.007121058006305, 3782453.407934893388301 ], [ 404071.3123092573951, 3782453.102746693883091 ], [ 404071.617497456783894, 3782453.102746693883091 ], [ 404071.922685656172689, 3782452.797558494377881 ], [ 404072.227873855561484, 3782452.797558494377881 ], [ 404072.533062054950278, 3782452.492370294872671 ], [ 404073.143438453727867, 3782452.492370294872671 ], [ 404073.143438453727867, 3782462.868769074324518 ], [ 404072.838250254339073, 3782462.868769074324518 ] ] ] } },
{ "type": "Feature", "properties": { "confidence": 0.58012968301773071, "class": 1 }, "geometry": { "type": "Polygon", "coordinates": [ [ [ 404267.548321464913897, 3782433.570701933000237 ], [ 404266.937945066136308, 3782432.960325533989817 ], [ 404266.937945066136308, 3782432.655137334484607 ], [ 404266.632756866747513, 3782432.349949135445058 ], [ 404266.632756866747513, 3782430.51881993887946 ], [ 404267.243133265525103, 3782429.908443540334702 ], [ 404268.463886063080281, 3782429.908443540334702 ], [ 404269.07426246185787, 3782430.51881993887946 ], [ 404269.07426246185787, 3782430.82400813838467 ], [ 404269.379450661246665, 3782431.12919633788988 ], [ 404269.379450661246665, 3782431.434384536929429 ], [ 404269.684638860635459, 3782431.739572736434639 ], [ 404269.684638860635459, 3782433.265513733495027 ], [ 404269.379450661246665, 3782433.570701933000237 ], [ 404267.548321464913897, 3782433.570701933000237 ] ] ] } },
{ "type": "Feature", "properties": { "confidence": 0.55856466293334961, "class": 1 }, "geometry": { "type": "Polygon", "coordinates": [ [ [ 404079.857578840281349, 3782495.218718209769577 ], [ 404079.552390640892554, 3782494.913530010264367 ], [ 404078.942014242114965, 3782494.913530010264367 ], [ 404078.63682604272617, 3782494.608341810759157 ], [ 404078.63682604272617, 3782494.303153611253947 ], [ 404078.331637843337376, 3782493.997965412214398 ], [ 404078.331637843337376, 3782493.692777212709188 ], [ 404078.026449643948581, 3782493.387589013203979 ], [ 404078.026449643948581, 3782492.47202441515401 ], [ 404083.825025432335678, 3782492.47202441515401 ], [ 404083.825025432335678, 3782493.692777212709188 ], [ 404082.909460834169295, 3782494.608341810759157 ], [ 404082.6042726347805, 3782494.608341810759157 ], [ 404082.299084435391705, 3782494.913530010264367 ], [ 404081.993896236002911, 3782494.913530010264367 ], [ 404081.688708036614116, 3782495.218718209769577 ], [ 404079.857578840281349, 3782495.218718209769577 ] ] ] } },
{ "type": "Feature", "properties": { "confidence": 0.55664759874343872, "class": 1 }, "geometry": { "type": "Polygon", "coordinates": [ [ [ 404292.573753814853262, 3782730.51881993887946 ], [ 404292.268565615464468, 3782730.21363173937425 ], [ 404291.353001017298084, 3782730.21363173937425 ], [ 404291.047812817909289, 3782729.908443540334702 ], [ 404290.132248219742905, 3782729.908443540334702 ], [ 404289.827060020354111, 3782729.603255340829492 ], [ 404289.216683621576522, 3782729.603255340829492 ], [ 404288.606307222798932, 3782728.992878941819072 ], [ 404288.301119023410138, 3782728.992878941819072 ], [ 404287.385554425243754, 3782728.077314343769103 ], [ 404287.385554425243754, 3782727.772126144263893 ], [ 404287.080366225854959, 3782727.466937945224345 ], [ 404286.775178026466165, 3782727.466937945224345 ], [ 404286.775178026466165, 3782726.856561546213925 ], [ 404294.40488301118603, 3782726.856561546213925 ], [ 404294.40488301118603, 3782730.21363173937425 ], [ 404294.099694811797235, 3782730.51881993887946 ], [ 404292.573753814853262, 3782730.51881993887946 ] ] ] } },
{ "type": "Feature", "properties": { "confidence": 0.55473613739013672, "class": 1 }, "geometry": { "type": "Polygon", "coordinates": [ [ [ 404385.961342828057241, 3782496.439471007324755 ], [ 404385.656154628668446, 3782496.134282807819545 ], [ 404385.045778229890857, 3782496.134282807819545 ], [ 404384.435401831113268, 3782495.523906408809125 ], [ 404384.435401831113268, 3782495.218718209769577 ], [ 404383.825025432335678, 3782494.608341810759157 ], [ 404383.825025432335678, 3782492.47202441515401 ], [ 404390.539165818947367, 3782492.47202441515401 ], [ 404390.539165818947367, 3782493.082400813698769 ], [ 404389.928789420169778, 3782493.692777212709188 ], [ 404389.928789420169778, 3782494.303153611253947 ], [ 404388.708036622556392, 3782495.523906408809125 ], [ 404388.402848423167598, 3782495.523906408809125 ], [ 404388.097660223778803, 3782495.829094608314335 ], [ 404387.792472024390008, 3782495.829094608314335 ], [ 404387.487283825001214, 3782496.134282807819545 ], [ 404386.876907426223624, 3782496.134282807819545 ], [ 404386.57171922683483, 3782496.439471007324755 ], [ 404385.961342828057241, 3782496.439471007324755 ] ] ] } },
{ "type": "Feature", "properties": { "confidence": 0.54687494039535522, "class": 1 }, "geometry": { "type": "Polygon", "coordinates": [ [ [ 404269.989827060024254, 3782505.595116988755763 ], [ 404269.684638860635459, 3782505.289928789250553 ], [ 404268.769074262469076, 3782505.289928789250553 ], [ 404268.769074262469076, 3782500.10172939999029 ], [ 404269.07426246185787, 3782500.10172939999029 ], [ 404269.379450661246665, 3782500.406917599029839 ], [ 404269.989827060024254, 3782500.406917599029839 ], [ 404270.295015259413049, 3782500.712105798535049 ], [ 404270.600203458801843, 3782500.712105798535049 ], [ 404270.905391658190638, 3782501.017293998040259 ], [ 404271.210579857579432, 3782501.017293998040259 ], [ 404271.210579857579432, 3782501.322482197545469 ], [ 404271.515768056968227, 3782501.627670396585017 ], [ 404271.515768056968227, 3782502.543234995100647 ], [ 404271.820956256357022, 3782502.848423194140196 ], [ 404271.820956256357022, 3782503.458799593150616 ], [ 404271.515768056968227, 3782503.763987792655826 ], [ 404271.515768056968227, 3782504.374364191200584 ], [ 404271.210579857579432, 3782504.679552390705794 ], [ 404271.210579857579432, 3782505.595116988755763 ], [ 404269.989827060024254, 3782505.595116988755763 ] ] ] } },
{ "type": "Feature", "properties": { "confidence": 0.52672940492630005, "class": 1 }, "geometry": { "type": "Polygon", "coordinates": [ [ [ 404284.944048830133397, 3782859.003051882144064 ], [ 404284.638860630744603, 3782858.697863682638854 ], [ 404284.028484231967013, 3782858.697863682638854 ], [ 404283.723296032578219, 3782858.392675483133644 ], [ 404283.418107833189424, 3782858.392675483133644 ], [ 404282.50254323502304, 3782857.477110885083675 ], [ 404282.50254323502304, 3782856.256358087528497 ], [ 404283.11291963380063, 3782855.645981688518077 ], [ 404283.418107833189424, 3782855.645981688518077 ], [ 404284.028484231967013, 3782855.035605289973319 ], [ 404284.333672431355808, 3782855.035605289973319 ], [ 404284.638860630744603, 3782854.730417090468109 ], [ 404285.859613428299781, 3782854.730417090468109 ], [ 404286.164801627688576, 3782855.035605289973319 ], [ 404286.46998982707737, 3782855.035605289973319 ], [ 404287.385554425243754, 3782855.951169888023287 ], [ 404287.385554425243754, 3782856.256358087528497 ], [ 404287.690742624632549, 3782856.561546287033707 ], [ 404287.690742624632549, 3782858.087487283628434 ], [ 404287.080366225854959, 3782858.697863682638854 ], [ 404285.859613428299781, 3782858.697863682638854 ], [ 404285.554425228910986, 3782859.003051882144064 ], [ 404284.944048830133397, 3782859.003051882144064 ] ] ] } },
{ "type": "Feature", "properties": { "confidence": 0.49412962794303894, "class": 1 }, "geometry": { "type": "Polygon", "coordinates": [ [ [ 404028.58596134284744, 3782648.423194303177297 ], [ 404028.58596134284744, 3782647.202441505622119 ], [ 404028.891149542236235, 3782646.897253306116909 ], [ 404028.891149542236235, 3782645.67650050856173 ], [ 404029.19633774162503, 3782645.37131230905652 ], [ 404029.19633774162503, 3782645.066124110016972 ], [ 404029.501525941013824, 3782645.066124110016972 ], [ 404029.806714140402619, 3782644.760935910511762 ], [ 404030.111902339791413, 3782644.760935910511762 ], [ 404030.417090539180208, 3782644.455747711006552 ], [ 404031.637843336735386, 3782644.455747711006552 ], [ 404031.943031536124181, 3782644.760935910511762 ], [ 404032.858596134290565, 3782644.760935910511762 ], [ 404033.163784333679359, 3782645.066124110016972 ], [ 404033.163784333679359, 3782648.423194303177297 ], [ 404028.58596134284744, 3782648.423194303177297 ] ] ] } },
{ "type": "Feature", "properties": { "confidence": 0.39027795195579529, "class": 1 }, "geometry": { "type": "Polygon", "coordinates": [ [ [ 404394.811800610390492, 3782849.237029501702636 ], [ 404393.896236012224108, 3782848.321464903187007 ], [ 404393.591047812835313, 3782848.321464903187007 ], [ 404393.285859613446519, 3782848.016276704147458 ], [ 404391.759918616502546, 3782848.016276704147458 ], [ 404391.454730417113751, 3782847.711088504642248 ], [ 404391.149542217724957, 3782847.711088504642248 ], [ 404390.844354018336162, 3782847.405900305137038 ], [ 404390.844354018336162, 3782844.659206510521472 ], [ 404390.539165818947367, 3782844.354018311481923 ], [ 404390.539165818947367, 3782842.828077314421535 ], [ 404390.844354018336162, 3782842.522889114916325 ], [ 404390.844354018336162, 3782839.165818921755999 ], [ 404391.149542217724957, 3782838.860630722250789 ], [ 404392.370295015280135, 3782838.860630722250789 ], [ 404392.67548321466893, 3782839.165818921755999 ], [ 404392.980671414057724, 3782839.165818921755999 ], [ 404392.980671414057724, 3782839.471007121261209 ], [ 404393.591047812835313, 3782840.081383519805968 ], [ 404393.591047812835313, 3782840.386571719311178 ], [ 404393.896236012224108, 3782840.691759918816388 ], [ 404394.201424211612903, 3782840.691759918816388 ], [ 404395.422177009168081, 3782841.912512716371566 ], [ 404395.727365208556876, 3782841.912512716371566 ], [ 404396.03255340794567, 3782842.217700915411115 ], [ 404396.03255340794567, 3782842.522889114916325 ], [ 404396.337741607334465, 3782842.828077314421535 ], [ 404396.337741607334465, 3782847.405900305137038 ], [ 404396.642929806723259, 3782847.711088504642248 ], [ 404396.337741607334465, 3782848.016276704147458 ], [ 404396.337741607334465, 3782848.626653102692217 ], [ 404396.03255340794567, 3782848.931841302197427 ], [ 404396.03255340794567, 3782849.237029501702636 ], [ 404394.811800610390492, 3782849.237029501702636 ] ] ] } },
{ "type": "Feature", "properties": { "confidence": 0.38813298940658569, "class": 1 }, "geometry": { "type": "Polygon", "coordinates": [ [ [ 404088.708036622556392, 3782664.598168870899826 ], [ 404088.402848423167598, 3782664.292980671394616 ], [ 404088.097660223778803, 3782664.292980671394616 ], [ 404088.097660223778803, 3782663.987792471889406 ], [ 404087.792472024390008, 3782663.682604272849858 ], [ 404087.792472024390008, 3782662.767039674334228 ], [ 404088.097660223778803, 3782662.461851475294679 ], [ 404088.097660223778803, 3782662.156663275789469 ], [ 404088.402848423167598, 3782661.85147507628426 ], [ 404088.708036622556392, 3782661.85147507628426 ], [ 404089.013224821945187, 3782661.54628687677905 ], [ 404089.318413021392189, 3782661.54628687677905 ], [ 404089.623601220780984, 3782661.241098677739501 ], [ 404089.928789420169778, 3782661.241098677739501 ], [ 404090.233977619558573, 3782660.935910478234291 ], [ 404090.539165818947367, 3782660.935910478234291 ], [ 404090.844354018336162, 3782660.630722278729081 ], [ 404092.06510681589134, 3782660.630722278729081 ], [ 404092.370295015280135, 3782660.325534079223871 ], [ 404093.896236012224108, 3782660.325534079223871 ], [ 404094.201424211612903, 3782660.630722278729081 ], [ 404094.201424211612903, 3782660.935910478234291 ], [ 404093.896236012224108, 3782661.241098677739501 ], [ 404093.896236012224108, 3782661.85147507628426 ], [ 404093.285859613446519, 3782662.461851475294679 ], [ 404093.285859613446519, 3782662.767039674334228 ], [ 404092.980671414057724, 3782663.072227873839438 ], [ 404092.980671414057724, 3782663.377416073344648 ], [ 404092.06510681589134, 3782664.292980671394616 ], [ 404091.454730417113751, 3782664.292980671394616 ], [ 404091.149542217724957, 3782664.598168870899826 ], [ 404088.708036622556392, 3782664.598168870899826 ] ] ] } },
{ "type": "Feature", "properties": { "confidence": 0.38576489686965942, "class": 1 }, "geometry": { "type": "Polygon", "coordinates": [ [ [ 404245.879959308251273, 3782579.755849440582097 ], [ 404245.574771108862478, 3782579.450661241076887 ], [ 404243.743641912529711, 3782579.450661241076887 ], [ 404243.438453713140916, 3782579.145473041571677 ], [ 404243.133265513752121, 3782579.145473041571677 ], [ 404242.828077314363327, 3782578.840284842532128 ], [ 404242.522889114974532, 3782578.840284842532128 ], [ 404242.217700915585738, 3782578.535096643026918 ], [ 404240.38657171925297, 3782578.535096643026918 ], [ 404240.081383519864175, 3782578.229908443521708 ], [ 404238.860630722250789, 3782578.229908443521708 ], [ 404238.555442522861995, 3782577.924720244016498 ], [ 404238.2502543234732, 3782577.924720244016498 ], [ 404238.2502543234732, 3782575.178026449866593 ], [ 404238.555442522861995, 3782574.872838250361383 ], [ 404238.555442522861995, 3782574.567650050856173 ], [ 404238.860630722250789, 3782574.262461851350963 ], [ 404238.860630722250789, 3782573.957273652311414 ], [ 404239.165818921639584, 3782573.957273652311414 ], [ 404239.471007121086586, 3782573.652085452806205 ], [ 404240.38657171925297, 3782573.652085452806205 ], [ 404240.691759918641765, 3782573.346897253300995 ], [ 404245.269582909473684, 3782573.346897253300995 ], [ 404245.574771108862478, 3782573.041709053795785 ], [ 404245.574771108862478, 3782572.736520854756236 ], [ 404248.626653102750424, 3782572.736520854756236 ], [ 404249.237029501528013, 3782573.346897253300995 ], [ 404249.237029501528013, 3782573.652085452806205 ], [ 404249.542217700916808, 3782573.957273652311414 ], [ 404249.542217700916808, 3782574.872838250361383 ], [ 404249.847405900305603, 3782575.178026449866593 ], [ 404249.847405900305603, 3782578.840284842532128 ], [ 404249.237029501528013, 3782579.450661241076887 ], [ 404248.016276703972835, 3782579.450661241076887 ], [ 404247.71108850458404, 3782579.755849440582097 ], [ 404245.879959308251273, 3782579.755849440582097 ] ] ] } },
{ "type": "Feature", "properties": { "confidence": 0.37684899568557739, "class": 1 }, "geometry": { "type": "Polygon", "coordinates": [ [ [ 404320.956256358069368, 3782453.102746693883091 ], [ 404320.956256358069368, 3782452.797558494377881 ], [ 404320.345879959291779, 3782452.187182095833123 ], [ 404320.345879959291779, 3782451.881993896327913 ], [ 404320.040691759902984, 3782451.576805696822703 ], [ 404320.040691759902984, 3782451.271617497317493 ], [ 404319.735503560514189, 3782450.966429298277944 ], [ 404319.735503560514189, 3782450.356052899267524 ], [ 404320.345879959291779, 3782449.745676500722766 ], [ 404320.651068158680573, 3782449.745676500722766 ], [ 404321.566632756846957, 3782448.830111902207136 ], [ 404323.397761953179725, 3782448.830111902207136 ], [ 404323.702950152568519, 3782449.135300101712346 ], [ 404324.313326551346108, 3782449.135300101712346 ], [ 404324.618514750734903, 3782449.440488301217556 ], [ 404324.923702950123698, 3782449.440488301217556 ], [ 404325.2288911495707, 3782449.745676500722766 ], [ 404325.534079348959494, 3782449.745676500722766 ], [ 404325.534079348959494, 3782450.050864699762315 ], [ 404325.839267548348289, 3782450.356052899267524 ], [ 404325.839267548348289, 3782452.187182095833123 ], [ 404325.534079348959494, 3782452.492370294872671 ], [ 404325.2288911495707, 3782452.492370294872671 ], [ 404324.923702950123698, 3782452.797558494377881 ], [ 404324.008138351957314, 3782452.797558494377881 ], [ 404323.702950152568519, 3782453.102746693883091 ], [ 404320.956256358069368, 3782453.102746693883091 ] ] ] } },
{ "type": "Feature", "properties": { "confidence": 0.35457485914230347, "class": 1 }, "geometry": { "type": "Polygon", "coordinates": [ [ [ 404140.590030518826097, 3782714.954221770167351 ], [ 404140.284842319437303, 3782714.649033570662141 ], [ 404139.979654120048508, 3782714.649033570662141 ], [ 404139.674465920659713, 3782714.343845371156931 ], [ 404139.064089521882124, 3782714.343845371156931 ], [ 404138.75890132249333, 3782714.038657172117382 ], [ 404138.14852492371574, 3782714.038657172117382 ], [ 404137.843336724326946, 3782713.733468972612172 ], [ 404137.843336724326946, 3782712.207527975551784 ], [ 404138.14852492371574, 3782711.902339776046574 ], [ 404138.14852492371574, 3782711.597151577007025 ], [ 404138.453713123104535, 3782711.291963377501816 ], [ 404139.064089521882124, 3782711.291963377501816 ], [ 404139.369277721270919, 3782710.986775177996606 ], [ 404140.895218718214892, 3782710.986775177996606 ], [ 404141.200406917603686, 3782710.681586978491396 ], [ 404144.252288911491632, 3782710.681586978491396 ], [ 404144.557477110880427, 3782710.986775177996606 ], [ 404144.862665310269222, 3782710.986775177996606 ], [ 404145.167853509658016, 3782711.291963377501816 ], [ 404145.778229908435605, 3782711.291963377501816 ], [ 404146.388606307213195, 3782711.902339776046574 ], [ 404146.388606307213195, 3782712.512716175056994 ], [ 404145.473041709046811, 3782713.428280773106962 ], [ 404145.473041709046811, 3782713.733468972612172 ], [ 404144.557477110880427, 3782714.649033570662141 ], [ 404144.252288911491632, 3782714.649033570662141 ], [ 404143.947100712102838, 3782714.954221770167351 ], [ 404140.590030518826097, 3782714.954221770167351 ] ] ] } },
{ "type": "Feature", "properties": { "confidence": 0.3391781747341156, "class": 1 }, "geometry": { "type": "Polygon", "coordinates": [ [ [ 404348.423194303177297, 3782772.634791454765946 ], [ 404348.118006103788503, 3782772.329603255260736 ], [ 404346.286876907397527, 3782772.329603255260736 ], [ 404345.981688708008733, 3782772.024415055755526 ], [ 404345.981688708008733, 3782771.719226856715977 ], [ 404345.676500508619938, 3782771.414038657210767 ], [ 404345.676500508619938, 3782769.888097660150379 ], [ 404345.981688708008733, 3782769.582909460645169 ], [ 404346.286876907397527, 3782769.582909460645169 ], [ 404346.59206510684453, 3782769.27772126160562 ], [ 404346.897253306233324, 3782769.27772126160562 ], [ 404347.202441505622119, 3782768.97253306210041 ], [ 404347.812817904399708, 3782768.97253306210041 ], [ 404348.118006103788503, 3782768.667344862595201 ], [ 404349.643947100732476, 3782768.667344862595201 ], [ 404349.94913530012127, 3782768.97253306210041 ], [ 404350.559511698898859, 3782768.97253306210041 ], [ 404351.780264496454038, 3782770.193285859655589 ], [ 404351.780264496454038, 3782770.803662258200347 ], [ 404352.085452695842832, 3782771.108850457705557 ], [ 404352.085452695842832, 3782772.024415055755526 ], [ 404351.780264496454038, 3782772.329603255260736 ], [ 404350.864699898287654, 3782772.329603255260736 ], [ 404350.559511698898859, 3782772.634791454765946 ], [ 404348.423194303177297, 3782772.634791454765946 ] ] ] } },
{ "type": "Feature", "properties": { "confidence": 0.29881313443183899, "class": 1 }, "geometry": { "type": "Polygon", "coordinates": [ [ [ 404324.313326551346108, 3782861.444557477254421 ], [ 404322.787385554402135, 3782859.918616480194032 ], [ 404322.482197355013341, 3782859.918616480194032 ], [ 404321.871820956235752, 3782859.308240081183612 ], [ 404321.566632756846957, 3782859.308240081183612 ], [ 404320.956256358069368, 3782858.697863682638854 ], [ 404320.956256358069368, 3782858.392675483133644 ], [ 404320.345879959291779, 3782857.782299084588885 ], [ 404320.345879959291779, 3782856.866734486073256 ], [ 404320.651068158680573, 3782856.866734486073256 ], [ 404320.956256358069368, 3782856.561546287033707 ], [ 404321.261444557458162, 3782856.561546287033707 ], [ 404321.871820956235752, 3782855.951169888023287 ], [ 404323.702950152568519, 3782855.951169888023287 ], [ 404324.008138351957314, 3782856.256358087528497 ], [ 404324.313326551346108, 3782856.256358087528497 ], [ 404325.2288911495707, 3782857.171922685578465 ], [ 404325.534079348959494, 3782857.171922685578465 ], [ 404327.975584944069851, 3782859.613428280688822 ], [ 404327.975584944069851, 3782859.918616480194032 ], [ 404328.280773143458646, 3782860.223804679699242 ], [ 404328.280773143458646, 3782860.528992878738791 ], [ 404327.670396744681057, 3782861.139369277749211 ], [ 404326.754832146514673, 3782861.139369277749211 ], [ 404326.449643947125878, 3782861.444557477254421 ], [ 404324.313326551346108, 3782861.444557477254421 ] ] ] } },
{ "type": "Feature", "properties": { "confidence": 0.29126784205436707, "class": 1 }, "geometry": { "type": "Polygon", "coordinates": [ [ [ 404249.542217700916808, 3782850.762970498297364 ], [ 404249.237029501528013, 3782850.457782299257815 ], [ 404248.626653102750424, 3782850.457782299257815 ], [ 404248.32146490336163, 3782850.152594099752605 ], [ 404247.71108850458404, 3782850.152594099752605 ], [ 404247.405900305195246, 3782849.847405900247395 ], [ 404247.100712105806451, 3782849.847405900247395 ], [ 404246.795523906417657, 3782849.542217700742185 ], [ 404246.795523906417657, 3782848.931841302197427 ], [ 404246.490335707028862, 3782848.626653102692217 ], [ 404246.490335707028862, 3782847.405900305137038 ], [ 404246.185147507640067, 3782847.100712105631828 ], [ 404246.185147507640067, 3782846.49033570708707 ], [ 404245.879959308251273, 3782846.18514750758186 ], [ 404245.879959308251273, 3782844.048830111976713 ], [ 404250.457782299083192, 3782844.048830111976713 ], [ 404250.457782299083192, 3782844.964394710026681 ], [ 404250.762970498471987, 3782845.269582909531891 ], [ 404250.762970498471987, 3782845.574771109037101 ], [ 404251.068158697860781, 3782845.87995930807665 ], [ 404251.068158697860781, 3782849.847405900247395 ], [ 404250.762970498471987, 3782850.152594099752605 ], [ 404250.762970498471987, 3782850.457782299257815 ], [ 404250.152594099694397, 3782850.457782299257815 ], [ 404249.847405900305603, 3782850.762970498297364 ], [ 404249.542217700916808, 3782850.762970498297364 ] ] ] } },
{ "type": "Feature", "properties": { "confidence": 0.29009893536567688, "class": 1 }, "geometry": { "type": "Polygon", "coordinates": [ [ [ 403928.789420142420568, 3782499.186164801474661 ], [ 403928.484231943031773, 3782498.880976602435112 ], [ 403927.873855544254184, 3782498.880976602435112 ], [ 403927.568667344865389, 3782498.575788402929902 ], [ 403927.263479145476595, 3782498.575788402929902 ], [ 403926.9582909460878, 3782498.270600203424692 ], [ 403926.653102746699005, 3782498.270600203424692 ], [ 403926.347914547310211, 3782497.965412003919482 ], [ 403926.042726347921416, 3782497.965412003919482 ], [ 403924.516785350977443, 3782496.439471007324755 ], [ 403924.211597151588649, 3782496.439471007324755 ], [ 403924.211597151588649, 3782496.134282807819545 ], [ 403923.296032553422265, 3782495.218718209769577 ], [ 403923.296032553422265, 3782494.913530010264367 ], [ 403922.99084435403347, 3782494.608341810759157 ], [ 403922.99084435403347, 3782494.303153611253947 ], [ 403922.685656154644676, 3782493.997965412214398 ], [ 403922.685656154644676, 3782493.082400813698769 ], [ 403922.99084435403347, 3782492.77721261465922 ], [ 403922.99084435403347, 3782492.47202441515401 ], [ 403941.302136317419354, 3782492.47202441515401 ], [ 403941.302136317419354, 3782492.77721261465922 ], [ 403941.607324516808148, 3782493.082400813698769 ], [ 403941.607324516808148, 3782493.692777212709188 ], [ 403941.302136317419354, 3782493.997965412214398 ], [ 403940.691759918641765, 3782493.997965412214398 ], [ 403940.38657171925297, 3782494.303153611253947 ], [ 403939.471007121086586, 3782494.303153611253947 ], [ 403939.165818921639584, 3782494.608341810759157 ], [ 403939.165818921639584, 3782495.829094608314335 ], [ 403938.860630722250789, 3782496.134282807819545 ], [ 403938.860630722250789, 3782496.439471007324755 ], [ 403938.2502543234732, 3782496.439471007324755 ], [ 403937.639877924695611, 3782497.049847405869514 ], [ 403937.334689725306816, 3782497.049847405869514 ], [ 403937.029501525918022, 3782497.355035605374724 ], [ 403936.724313326529227, 3782497.355035605374724 ], [ 403936.419125127140433, 3782497.660223804879934 ], [ 403935.503560528974049, 3782497.660223804879934 ], [ 403935.198372329585254, 3782497.965412003919482 ], [ 403933.672431332641281, 3782497.965412003919482 ], [ 403933.367243133252487, 3782498.270600203424692 ], [ 403932.451678535086103, 3782498.270600203424692 ], [ 403932.146490335697308, 3782498.575788402929902 ], [ 403931.841302136308514, 3782498.575788402929902 ], [ 403931.536113936919719, 3782498.880976602435112 ], [ 403931.230925737530924, 3782498.880976602435112 ], [ 403930.92573753814213, 3782499.186164801474661 ], [ 403928.789420142420568, 3782499.186164801474661 ] ] ] } },
{ "type": "Feature", "properties": { "confidence": 0.27901607751846313, "class": 1 }, "geometry": { "type": "Polygon", "coordinates": [ [ [ 404273.652085452689789, 3782576.398779247421771 ], [ 404273.346897253300995, 3782576.093591047916561 ], [ 404273.0417090539122, 3782576.093591047916561 ], [ 404272.736520854523405, 3782575.788402848411351 ], [ 404272.736520854523405, 3782573.041709053795785 ], [ 404273.0417090539122, 3782572.736520854756236 ], [ 404273.0417090539122, 3782572.431332655251026 ], [ 404273.346897253300995, 3782572.126144455745816 ], [ 404273.346897253300995, 3782571.820956256240606 ], [ 404275.483214649022557, 3782571.820956256240606 ], [ 404276.093591047800146, 3782572.431332655251026 ], [ 404276.398779247188941, 3782572.431332655251026 ], [ 404276.703967446577735, 3782572.736520854756236 ], [ 404277.314343845355324, 3782572.736520854756236 ], [ 404277.924720244132914, 3782573.346897253300995 ], [ 404277.924720244132914, 3782573.652085452806205 ], [ 404277.00915564596653, 3782574.567650050856173 ], [ 404277.00915564596653, 3782574.872838250361383 ], [ 404276.703967446577735, 3782574.872838250361383 ], [ 404275.483214649022557, 3782576.093591047916561 ], [ 404275.178026449633762, 3782576.093591047916561 ], [ 404274.872838250244968, 3782576.398779247421771 ], [ 404273.652085452689789, 3782576.398779247421771 ] ] ] } },
{ "type": "Feature", "properties": { "confidence": 0.2781769335269928, "class": 1 }, "geometry": { "type": "Polygon", "coordinates": [ [ [ 404253.814852492359933, 3782506.205493387766182 ], [ 404253.509664292971138, 3782505.900305188260972 ], [ 404252.899287894193549, 3782505.900305188260972 ], [ 404252.594099694804754, 3782505.595116988755763 ], [ 404252.28891149541596, 3782505.595116988755763 ], [ 404252.28891149541596, 3782505.289928789250553 ], [ 404251.67853509663837, 3782504.679552390705794 ], [ 404251.67853509663837, 3782501.627670396585017 ], [ 404251.983723296027165, 3782501.322482197545469 ], [ 404251.983723296027165, 3782500.406917599029839 ], [ 404252.28891149541596, 3782500.406917599029839 ], [ 404252.899287894193549, 3782499.79654120048508 ], [ 404255.035605289915111, 3782499.79654120048508 ], [ 404255.340793489303906, 3782500.10172939999029 ], [ 404256.561546286859084, 3782500.10172939999029 ], [ 404256.866734486247879, 3782500.406917599029839 ], [ 404257.171922685636673, 3782500.406917599029839 ], [ 404257.782299084414262, 3782501.017293998040259 ], [ 404257.782299084414262, 3782501.627670396585017 ], [ 404258.087487283803057, 3782501.932858596090227 ], [ 404258.087487283803057, 3782503.763987792655826 ], [ 404257.782299084414262, 3782504.069175991695374 ], [ 404257.782299084414262, 3782504.679552390705794 ], [ 404257.477110885025468, 3782504.984740590211004 ], [ 404257.477110885025468, 3782505.289928789250553 ], [ 404256.866734486247879, 3782505.900305188260972 ], [ 404255.6459816886927, 3782505.900305188260972 ], [ 404255.340793489303906, 3782506.205493387766182 ], [ 404253.814852492359933, 3782506.205493387766182 ] ] ] } },
{ "type": "Feature", "properties": { "confidence": 0.25182104110717773, "class": 1 }, "geometry": { "type": "Polygon", "coordinates": [ [ [ 404248.931841302139219, 3782850.762970498297364 ], [ 404248.626653102750424, 3782850.457782299257815 ], [ 404248.016276703972835, 3782850.457782299257815 ], [ 404247.405900305195246, 3782849.847405900247395 ], [ 404247.405900305195246, 3782847.711088504642248 ], [ 404249.237029501528013, 3782847.711088504642248 ], [ 404249.542217700916808, 3782847.405900305137038 ], [ 404251.068158697860781, 3782847.405900305137038 ], [ 404251.068158697860781, 3782850.152594099752605 ], [ 404250.457782299083192, 3782850.762970498297364 ], [ 404248.931841302139219, 3782850.762970498297364 ] ] ] } }
]
}
