{
"type": "FeatureCollection",
"name": "cell_00057_pre",
"crs": { "type": "name", "properties": { "name": "urn:ogc:def:crs:EPSG::32611" } },
"features": [
{ "type": "Feature", "properties": { "confidence": 0.64821493625640869, "class": 1 }, "geometry": { "type": "Polygon", "coordinates": [ [ [ 349032.146490335697308, 3772192.06510681565851 ], [ 349031.841302136308514, 3772191.759918616618961 ], [ 349031.536113936919719, 3772191.759918616618961 ], [ 349031.230925737530924, 3772191.454730417113751 ], [ 349030.620549338753335, 3772191.454730417113751 ], [ 349030.010172939975746, 3772190.844354018103331 ], [ 349030.010172939975746, 3772190.539165819063783 ], [ 349029.704984740586951, 3772190.233977619558573 ], [ 349029.704984740586951, 3772189.623601220548153 ], [ 349031.230925737530924, 3772188.097660223953426 ], [ 349031.536113936919719, 3772188.097660223953426 ], [ 349033.367243133252487, 3772186.266531027387828 ], [ 349035.198372329585254, 3772186.266531027387828 ], [ 349035.808748728362843, 3772186.876907426398247 ], [ 349036.113936927751638, 3772186.876907426398247 ], [ 349036.419125127140433, 3772187.182095625437796 ], [ 349037.029501525918022, 3772187.182095625437796 ], [ 349037.334689725306816, 3772187.487283824943006 ], [ 349037.639877924695611, 3772187.487283824943006 ], [ 349037.945066124084406, 3772187.792472024448216 ], [ 349038.555442522861995, 3772187.792472024448216 ], [ 349038.555442522861995, 3772188.097660223953426 ], [ 349038.860630722250789, 3772188.402848422992975 ], [ 349038.860630722250789, 3772188.708036622498184 ], [ 349039.165818921639584, 3772189.013224822003394 ], [ 349039.165818921639584, 3772189.318413021508604 ], [ 349039.471007121086586, 3772189.623601220548153 ], [ 349039.471007121086586, 3772191.454730417113751 ], [ 349038.860630722250789, 3772191.454730417113751 ], [ 349038.555442522861995, 3772191.759918616618961 ], [ 349037.029501525918022, 3772191.759918616618961 ], [ 349036.724313326529227, 3772192.06510681565851 ], [ 349032.146490335697308, 3772192.06510681565851 ] ] ] } },
{ "type": "Feature", "properties": { "confidence": 0.62234312295913696, "class": 1 }, "geometry": { "type": "Polygon", "coordinates": [ [ [ 348693.997965411981568, 3771695.218718209769577 ], [ 348693.692777212592773, 3771694.913530010264367 ], [ 348692.777212614426389, 3771694.913530010264367 ], [ 348692.472024415037595, 3771694.608341810759157 ], [ 348692.472024415037595, 3771692.47202441515401 ], [ 348698.2706002034829, 3771692.47202441515401 ], [ 348698.2706002034829, 3771694.608341810759157 ], [ 348697.965412004094105, 3771694.913530010264367 ], [ 348696.744659206538927, 3771694.913530010264367 ], [ 348696.439471007150132, 3771695.218718209769577 ], [ 348693.997965411981568, 3771695.218718209769577 ] ] ] } },
{ "type": "Feature", "properties": { "confidence": 0.53921675682067871, "class": 1 }, "geometry": { "type": "Polygon", "coordinates": [ [ [ 349189.013224821945187, 3772120.651068158913404 ], [ 349188.708036622556392, 3772120.345879959408194 ], [ 349186.57171922683483, 3772120.345879959408194 ], [ 349186.266531027446035, 3772120.040691759902984 ], [ 349184.435401831113268, 3772120.040691759902984 ], [ 349184.130213631724473, 3772119.735503560397774 ], [ 349183.825025432335678, 3772119.735503560397774 ], [ 349183.519837232946884, 3772119.430315361358225 ], [ 349183.519837232946884, 3772119.125127161853015 ], [ 349183.214649033558089, 3772118.819938962347806 ], [ 349183.214649033558089, 3772117.293997965287417 ], [ 349183.519837232946884, 3772116.988809766247869 ], [ 349183.519837232946884, 3772116.073245167732239 ], [ 349183.825025432335678, 3772115.76805696869269 ], [ 349183.825025432335678, 3772115.46286876918748 ], [ 349184.435401831113268, 3772114.85249237017706 ], [ 349184.740590030502062, 3772114.85249237017706 ], [ 349185.045778229890857, 3772114.547304171137512 ], [ 349185.656154628668446, 3772114.547304171137512 ], [ 349185.961342828057241, 3772114.242115971632302 ], [ 349186.57171922683483, 3772114.242115971632302 ], [ 349186.876907426223624, 3772113.936927772127092 ], [ 349188.708036622556392, 3772113.936927772127092 ], [ 349189.013224821945187, 3772114.242115971632302 ], [ 349191.149542217724957, 3772114.242115971632302 ], [ 349191.454730417113751, 3772114.547304171137512 ], [ 349192.67548321466893, 3772114.547304171137512 ], [ 349192.980671414057724, 3772114.85249237017706 ], [ 349193.591047812835313, 3772114.85249237017706 ], [ 349194.201424211612903, 3772115.46286876918748 ], [ 349194.201424211612903, 3772116.378433367237449 ], [ 349193.896236012224108, 3772116.683621566742659 ], [ 349193.896236012224108, 3772117.599186164792627 ], [ 349193.591047812835313, 3772117.904374364297837 ], [ 349193.591047812835313, 3772118.209562563803047 ], [ 349191.759918616502546, 3772120.040691759902984 ], [ 349191.454730417113751, 3772120.040691759902984 ], [ 349191.149542217724957, 3772120.345879959408194 ], [ 349190.844354018336162, 3772120.345879959408194 ], [ 349190.539165818947367, 3772120.651068158913404 ], [ 349189.013224821945187, 3772120.651068158913404 ] ] ] } },
{ "type": "Feature", "properties": { "confidence": 0.46036407351493835, "class": 1 }, "geometry": { "type": "Polygon", "coordinates": [ [ [ 349102.034587995905895, 3771703.153611393645406 ], [ 349101.424211597128306, 3771702.543234995100647 ], [ 349101.424211597128306, 3771701.322482197545469 ], [ 349101.119023397739511, 3771701.017293998040259 ], [ 349101.119023397739511, 3771697.049847405869514 ], [ 349101.424211597128306, 3771696.744659206364304 ], [ 349101.424211597128306, 3771695.829094608314335 ], [ 349101.7293997965171, 3771695.523906408809125 ], [ 349102.034587995905895, 3771695.523906408809125 ], [ 349102.339776195294689, 3771695.218718209769577 ], [ 349103.560528992908075, 3771695.218718209769577 ], [ 349103.86571719229687, 3771694.913530010264367 ], [ 349104.781281790463254, 3771694.913530010264367 ], [ 349104.781281790463254, 3771695.218718209769577 ], [ 349105.391658189240843, 3771695.829094608314335 ], [ 349105.391658189240843, 3771696.134282807819545 ], [ 349105.696846388629638, 3771696.439471007324755 ], [ 349105.696846388629638, 3771696.744659206364304 ], [ 349106.002034588018432, 3771697.049847405869514 ], [ 349106.002034588018432, 3771697.660223804879934 ], [ 349106.307222787407227, 3771697.965412003919482 ], [ 349106.307222787407227, 3771699.491353000979871 ], [ 349106.002034588018432, 3771699.79654120048508 ], [ 349106.002034588018432, 3771700.406917599029839 ], [ 349105.696846388629638, 3771700.712105798535049 ], [ 349105.696846388629638, 3771701.017293998040259 ], [ 349105.391658189240843, 3771701.322482197545469 ], [ 349105.391658189240843, 3771701.932858596090227 ], [ 349104.170905391685665, 3771703.153611393645406 ], [ 349102.034587995905895, 3771703.153611393645406 ] ] ] } },
{ "type": "Feature", "properties": { "confidence": 0.34153208136558533, "class": 1 }, "geometry": { "type": "Polygon", "coordinates": [ [ [ 349002.543234994926024, 3772048.931841302197427 ], [ 349002.23804679553723, 3772048.626653102692217 ], [ 349001.322482197370846, 3772048.626653102692217 ], [ 349001.017293997982051, 3772048.321464903187007 ], [ 349000.712105798593257, 3772048.321464903187007 ], [ 349000.712105798593257, 3772047.711088504642248 ], [ 349000.406917599204462, 3772047.405900305137038 ], [ 349000.406917599204462, 3772046.18514750758186 ], [ 349000.101729399815667, 3772045.87995930807665 ], [ 349000.101729399815667, 3772045.574771109037101 ], [ 348999.796541200426873, 3772045.269582909531891 ], [ 348999.796541200426873, 3772044.964394710026681 ], [ 348999.186164801649284, 3772044.354018311481923 ], [ 348999.186164801649284, 3772043.438453712966293 ], [ 348998.880976602260489, 3772043.133265513926744 ], [ 348998.880976602260489, 3772042.828077314421535 ], [ 348999.186164801649284, 3772042.522889114916325 ], [ 348999.186164801649284, 3772042.217700915411115 ], [ 349000.712105798593257, 3772042.217700915411115 ], [ 349002.23804679553723, 3772043.743641912471503 ], [ 349002.543234994926024, 3772043.743641912471503 ], [ 349003.153611393703613, 3772044.354018311481923 ], [ 349003.458799593092408, 3772044.354018311481923 ], [ 349003.763987792481203, 3772044.659206510521472 ], [ 349004.069175991869997, 3772044.659206510521472 ], [ 349004.374364191258792, 3772044.964394710026681 ], [ 349004.679552390647586, 3772044.964394710026681 ], [ 349005.289928789425176, 3772045.574771109037101 ], [ 349005.289928789425176, 3772047.100712105631828 ], [ 349004.984740590036381, 3772047.405900305137038 ], [ 349004.984740590036381, 3772047.711088504642248 ], [ 349004.069175991869997, 3772048.626653102692217 ], [ 349002.848423194314819, 3772048.626653102692217 ], [ 349002.543234994926024, 3772048.931841302197427 ] ] ] } },
{ "type": "Feature", "properties": { "confidence": 0.30452361702919006, "class": 1 }, "geometry": { "type": "Polygon", "coordinates": [ [ [ 349039.776195320475381, 3771826.144455747678876 ], [ 349039.471007121086586, 3771825.839267548173666 ], [ 349039.471007121086586, 3771825.228891149628907 ], [ 349038.2502543234732, 3771824.008138352073729 ], [ 349038.2502543234732, 3771822.482197355013341 ], [ 349038.555442522861995, 3771822.177009155508131 ], [ 349038.555442522861995, 3771821.871820956468582 ], [ 349038.860630722250789, 3771821.566632756963372 ], [ 349040.996948118030559, 3771821.566632756963372 ], [ 349041.302136317419354, 3771821.871820956468582 ], [ 349041.302136317419354, 3771822.482197355013341 ], [ 349041.607324516808148, 3771822.787385554518551 ], [ 349041.607324516808148, 3771823.092573754023761 ], [ 349041.912512716196943, 3771823.397761953063309 ], [ 349041.912512716196943, 3771823.702950152568519 ], [ 349042.522889114974532, 3771824.313326551578939 ], [ 349042.522889114974532, 3771824.618514750618488 ], [ 349042.828077314363327, 3771824.923702950123698 ], [ 349042.828077314363327, 3771825.228891149628907 ], [ 349042.522889114974532, 3771825.534079349134117 ], [ 349042.522889114974532, 3771825.839267548173666 ], [ 349042.217700915585738, 3771826.144455747678876 ], [ 349039.776195320475381, 3771826.144455747678876 ] ] ] } },
{ "type": "Feature", "properties": { "confidence": 0.27659475803375244, "class": 1 }, "geometry": { "type": "Polygon", "coordinates": [ [ [ 349047.100712105806451, 3772038.555442522745579 ], [ 349046.795523906417657, 3772038.250254323706031 ], [ 349046.490335707028862, 3772038.250254323706031 ], [ 349046.185147507640067, 3772037.945066124200821 ], [ 349045.879959308251273, 3772037.945066124200821 ], [ 349045.879959308251273, 3772037.639877924695611 ], [ 349045.574771108862478, 3772037.334689725190401 ], [ 349045.574771108862478, 3772037.029501526150852 ], [ 349045.269582909473684, 3772036.724313326645643 ], [ 349045.269582909473684, 3772035.503560529090464 ], [ 349044.964394710084889, 3772035.198372329585254 ], [ 349044.964394710084889, 3772034.587995931040496 ], [ 349045.269582909473684, 3772034.282807731535286 ], [ 349045.269582909473684, 3772033.977619532030076 ], [ 349045.574771108862478, 3772033.672431332524866 ], [ 349045.879959308251273, 3772033.672431332524866 ], [ 349046.185147507640067, 3772033.367243133485317 ], [ 349047.405900305195246, 3772033.367243133485317 ], [ 349047.71108850458404, 3772033.062054933980107 ], [ 349048.016276703972835, 3772033.062054933980107 ], [ 349048.32146490336163, 3772032.756866734474897 ], [ 349050.762970498471987, 3772032.756866734474897 ], [ 349051.068158697860781, 3772033.062054933980107 ], [ 349051.373346897249576, 3772033.062054933980107 ], [ 349051.67853509663837, 3772033.367243133485317 ], [ 349051.67853509663837, 3772033.977619532030076 ], [ 349051.983723296027165, 3772034.282807731535286 ], [ 349051.983723296027165, 3772037.639877924695611 ], [ 349051.373346897249576, 3772038.250254323706031 ], [ 349051.068158697860781, 3772038.250254323706031 ], [ 349050.762970498471987, 3772038.555442522745579 ], [ 349047.100712105806451, 3772038.555442522745579 ] ] ] } }
]
}
