{
"type": "FeatureCollection",
"name": "cell_00189_pre",
"crs": { "type": "name", "properties": { "name": "urn:ogc:def:crs:EPSG::32611" } },
"features": [
{ "type": "Feature", "properties": { "confidence": 0.81414198875427246, "class": 1 }, "geometry": { "type": "Polygon", "coordinates": [ [ [ 356704.272634791443124, 3773786.978636825922877 ], [ 356703.96744659205433, 3773786.673448626883328 ], [ 356703.662258392665535, 3773786.673448626883328 ], [ 356703.051881993887946, 3773786.063072227872908 ], [ 356703.051881993887946, 3773785.757884028367698 ], [ 356701.831129196332768, 3773784.53713123081252 ], [ 356701.525940996943973, 3773784.53713123081252 ], [ 356701.220752797555178, 3773784.23194303130731 ], [ 356701.220752797555178, 3773782.706002034712583 ], [ 356701.525940996943973, 3773782.400813835207373 ], [ 356701.525940996943973, 3773780.874872838146985 ], [ 356701.831129196332768, 3773780.569684638641775 ], [ 356701.831129196332768, 3773779.959308240097016 ], [ 356702.136317395721562, 3773779.654120040591806 ], [ 356702.136317395721562, 3773778.433367243036628 ], [ 356701.831129196332768, 3773778.128179043531418 ], [ 356701.831129196332768, 3773777.517802644986659 ], [ 356701.525940996943973, 3773777.212614445481449 ], [ 356702.136317395721562, 3773776.602238046936691 ], [ 356702.441505595110357, 3773776.602238046936691 ], [ 356702.746693794499151, 3773776.297049847431481 ], [ 356703.96744659205433, 3773776.297049847431481 ], [ 356704.272634791443124, 3773775.991861647926271 ], [ 356705.798575788387097, 3773775.991861647926271 ], [ 356706.103763987775892, 3773776.297049847431481 ], [ 356707.32451678533107, 3773776.297049847431481 ], [ 356707.93489318410866, 3773776.907426245976239 ], [ 356708.240081383497454, 3773776.907426245976239 ], [ 356708.545269582886249, 3773777.212614445481449 ], [ 356708.545269582886249, 3773780.874872838146985 ], [ 356707.93489318410866, 3773781.485249237157404 ], [ 356707.93489318410866, 3773783.316378433257341 ], [ 356707.629704984719865, 3773783.621566632762551 ], [ 356707.629704984719865, 3773785.14750762982294 ], [ 356707.32451678533107, 3773785.452695828862488 ], [ 356707.32451678533107, 3773785.757884028367698 ], [ 356707.019328585942276, 3773786.063072227872908 ], [ 356706.714140386553481, 3773786.063072227872908 ], [ 356706.408952187164687, 3773786.368260427378118 ], [ 356705.798575788387097, 3773786.368260427378118 ], [ 356705.493387588998303, 3773786.673448626883328 ], [ 356705.188199389609508, 3773786.673448626883328 ], [ 356704.883011190220714, 3773786.978636825922877 ], [ 356704.272634791443124, 3773786.978636825922877 ] ] ] } },
{ "type": "Feature", "properties": { "confidence": 0.75122207403182983, "class": 1 }, "geometry": { "type": "Polygon", "coordinates": [ [ [ 356800.406917599204462, 3773509.867751780431718 ], [ 356799.491353001038078, 3773508.952187181916088 ], [ 356799.186164801649284, 3773508.952187181916088 ], [ 356798.880976602260489, 3773508.646998982876539 ], [ 356798.880976602260489, 3773508.341810783371329 ], [ 356798.575788402871694, 3773508.036622583866119 ], [ 356798.575788402871694, 3773507.731434384360909 ], [ 356798.2706002034829, 3773507.426246185321361 ], [ 356798.2706002034829, 3773507.121057985816151 ], [ 356797.965412004094105, 3773506.815869786310941 ], [ 356797.965412004094105, 3773505.900305188260972 ], [ 356797.660223804705311, 3773505.595116988755763 ], [ 356797.660223804705311, 3773502.848423194140196 ], [ 356797.965412004094105, 3773502.543234995100647 ], [ 356797.965412004094105, 3773502.238046795595437 ], [ 356800.101729399815667, 3773502.238046795595437 ], [ 356800.406917599204462, 3773502.543234995100647 ], [ 356800.712105798593257, 3773502.543234995100647 ], [ 356801.017293997982051, 3773502.848423194140196 ], [ 356801.932858596148435, 3773502.848423194140196 ], [ 356801.932858596148435, 3773503.153611393645406 ], [ 356802.23804679553723, 3773503.458799593150616 ], [ 356802.543234994926024, 3773503.458799593150616 ], [ 356803.153611393703613, 3773504.069175991695374 ], [ 356803.153611393703613, 3773504.374364191200584 ], [ 356803.458799593092408, 3773504.679552390705794 ], [ 356803.458799593092408, 3773504.984740590211004 ], [ 356803.763987792481203, 3773505.289928789250553 ], [ 356803.763987792481203, 3773505.595116988755763 ], [ 356804.069175991869997, 3773505.900305188260972 ], [ 356804.069175991869997, 3773508.036622583866119 ], [ 356803.763987792481203, 3773508.341810783371329 ], [ 356803.763987792481203, 3773508.646998982876539 ], [ 356802.848423194314819, 3773509.562563580926508 ], [ 356802.543234994926024, 3773509.562563580926508 ], [ 356802.23804679553723, 3773509.867751780431718 ], [ 356800.406917599204462, 3773509.867751780431718 ] ] ] } },
{ "type": "Feature", "properties": { "confidence": 0.54849880933761597, "class": 1 }, "geometry": { "type": "Polygon", "coordinates": [ [ [ 356743.641912512714043, 3773730.82400813838467 ], [ 356743.336724313325249, 3773730.51881993887946 ], [ 356743.031536113936454, 3773730.51881993887946 ], [ 356742.421159715158865, 3773729.908443540334702 ], [ 356742.11597151577007, 3773729.908443540334702 ], [ 356741.810783316381276, 3773729.603255340829492 ], [ 356739.979654120048508, 3773729.603255340829492 ], [ 356739.674465920659713, 3773729.908443540334702 ], [ 356738.75890132249333, 3773729.908443540334702 ], [ 356738.453713123104535, 3773729.603255340829492 ], [ 356738.14852492371574, 3773729.603255340829492 ], [ 356737.538148524938151, 3773728.992878941819072 ], [ 356737.538148524938151, 3773728.687690742779523 ], [ 356736.927772126160562, 3773728.077314343769103 ], [ 356736.927772126160562, 3773726.856561546213925 ], [ 356745.167853509658016, 3773726.856561546213925 ], [ 356745.167853509658016, 3773727.466937945224345 ], [ 356745.473041709046811, 3773727.772126144263893 ], [ 356745.473041709046811, 3773730.51881993887946 ], [ 356745.167853509658016, 3773730.82400813838467 ], [ 356743.641912512714043, 3773730.82400813838467 ] ] ] } },
{ "type": "Feature", "properties": { "confidence": 0.54721587896347046, "class": 1 }, "geometry": { "type": "Polygon", "coordinates": [ [ [ 356467.141403865709435, 3773497.049847405869514 ], [ 356467.141403865709435, 3773496.744659206364304 ], [ 356466.531027466931846, 3773496.134282807819545 ], [ 356466.531027466931846, 3773495.523906408809125 ], [ 356466.225839267543051, 3773495.218718209769577 ], [ 356466.225839267543051, 3773494.303153611253947 ], [ 356465.920651068154257, 3773493.997965412214398 ], [ 356465.920651068154257, 3773493.082400813698769 ], [ 356465.615462868765462, 3773492.77721261465922 ], [ 356465.615462868765462, 3773491.556459817104042 ], [ 356465.310274669376668, 3773491.251271617598832 ], [ 356465.310274669376668, 3773490.640895218588412 ], [ 356465.005086469987873, 3773490.335707019548863 ], [ 356465.005086469987873, 3773490.030518820043653 ], [ 356464.699898270599078, 3773489.725330620538443 ], [ 356464.699898270599078, 3773488.504577822983265 ], [ 356465.005086469987873, 3773488.199389623478055 ], [ 356465.005086469987873, 3773487.894201424438506 ], [ 356465.310274669376668, 3773487.589013224933296 ], [ 356468.362156663264614, 3773487.589013224933296 ], [ 356468.667344862653408, 3773487.894201424438506 ], [ 356468.667344862653408, 3773488.199389623478055 ], [ 356468.972533062042203, 3773488.504577822983265 ], [ 356469.277721261430997, 3773488.504577822983265 ], [ 356469.277721261430997, 3773488.809766022488475 ], [ 356469.582909460819792, 3773489.114954221993685 ], [ 356469.888097660208587, 3773489.114954221993685 ], [ 356470.193285859597381, 3773489.420142421033233 ], [ 356470.498474058986176, 3773489.420142421033233 ], [ 356470.498474058986176, 3773490.030518820043653 ], [ 356470.80366225837497, 3773490.335707019548863 ], [ 356471.108850457763765, 3773490.335707019548863 ], [ 356471.108850457763765, 3773490.640895218588412 ], [ 356471.41403865715256, 3773490.946083418093622 ], [ 356471.41403865715256, 3773491.556459817104042 ], [ 356471.719226856541354, 3773491.86164801614359 ], [ 356472.024415055930149, 3773491.86164801614359 ], [ 356472.024415055930149, 3773492.47202441515401 ], [ 356472.634791454707738, 3773493.082400813698769 ], [ 356472.634791454707738, 3773495.523906408809125 ], [ 356472.329603255318943, 3773495.829094608314335 ], [ 356472.329603255318943, 3773496.134282807819545 ], [ 356471.719226856541354, 3773496.134282807819545 ], [ 356471.41403865715256, 3773496.439471007324755 ], [ 356470.193285859597381, 3773496.439471007324755 ], [ 356469.888097660208587, 3773496.744659206364304 ], [ 356468.972533062042203, 3773496.744659206364304 ], [ 356468.667344862653408, 3773497.049847405869514 ], [ 356467.141403865709435, 3773497.049847405869514 ] ] ] } },
{ "type": "Feature", "properties": { "confidence": 0.50382781028747559, "class": 1 }, "geometry": { "type": "Polygon", "coordinates": [ [ [ 356682.6042726347805, 3773729.908443540334702 ], [ 356682.299084435391705, 3773729.603255340829492 ], [ 356681.383519837225322, 3773729.603255340829492 ], [ 356681.078331637836527, 3773729.298067141324282 ], [ 356679.857578840281349, 3773729.298067141324282 ], [ 356679.552390640892554, 3773728.992878941819072 ], [ 356679.247202441503759, 3773728.992878941819072 ], [ 356679.247202441503759, 3773728.077314343769103 ], [ 356679.552390640892554, 3773727.772126144263893 ], [ 356679.552390640892554, 3773726.856561546213925 ], [ 356684.130213631724473, 3773726.856561546213925 ], [ 356684.130213631724473, 3773728.382502543274313 ], [ 356684.435401831113268, 3773728.687690742779523 ], [ 356684.435401831113268, 3773729.298067141324282 ], [ 356684.130213631724473, 3773729.298067141324282 ], [ 356683.825025432335678, 3773729.603255340829492 ], [ 356683.214649033558089, 3773729.603255340829492 ], [ 356682.909460834169295, 3773729.908443540334702 ], [ 356682.6042726347805, 3773729.908443540334702 ] ] ] } },
{ "type": "Feature", "properties": { "confidence": 0.35574936866760254, "class": 1 }, "geometry": { "type": "Polygon", "coordinates": [ [ [ 356779.654120040708221, 3773547.711088504642248 ], [ 356779.348931841319427, 3773547.405900305137038 ], [ 356779.043743641930632, 3773547.405900305137038 ], [ 356778.738555442541838, 3773547.100712105631828 ], [ 356778.433367243153043, 3773547.100712105631828 ], [ 356777.822990844375454, 3773546.49033570708707 ], [ 356777.822990844375454, 3773544.048830111976713 ], [ 356777.517802644986659, 3773543.743641912471503 ], [ 356777.517802644986659, 3773542.217700915411115 ], [ 356777.212614445597865, 3773541.912512716371566 ], [ 356777.212614445597865, 3773541.302136317361146 ], [ 356776.602238046820275, 3773540.691759918816388 ], [ 356776.602238046820275, 3773538.860630722250789 ], [ 356776.90742624620907, 3773538.555442522745579 ], [ 356779.348931841319427, 3773538.555442522745579 ], [ 356779.654120040708221, 3773538.860630722250789 ], [ 356779.959308240097016, 3773538.860630722250789 ], [ 356780.264496439485811, 3773539.165818921755999 ], [ 356780.569684638874605, 3773539.165818921755999 ], [ 356780.8748728382634, 3773539.471007121261209 ], [ 356780.8748728382634, 3773539.776195320300758 ], [ 356781.790437436429784, 3773540.691759918816388 ], [ 356782.095625635818578, 3773540.691759918816388 ], [ 356782.706002034596168, 3773541.302136317361146 ], [ 356783.011190233984962, 3773541.302136317361146 ], [ 356783.011190233984962, 3773541.607324516866356 ], [ 356783.316378433373757, 3773541.912512716371566 ], [ 356783.316378433373757, 3773542.217700915411115 ], [ 356783.621566632762551, 3773542.522889114916325 ], [ 356783.621566632762551, 3773544.659206510521472 ], [ 356783.316378433373757, 3773544.964394710026681 ], [ 356783.316378433373757, 3773545.574771109037101 ], [ 356781.180061037652194, 3773547.711088504642248 ], [ 356779.654120040708221, 3773547.711088504642248 ] ] ] } },
{ "type": "Feature", "properties": { "confidence": 0.25231575965881348, "class": 1 }, "geometry": { "type": "Polygon", "coordinates": [ [ [ 356579.450661241076887, 3773845.87995930807665 ], [ 356579.145473041688092, 3773845.574771109037101 ], [ 356578.840284842299297, 3773845.574771109037101 ], [ 356578.535096642910503, 3773845.269582909531891 ], [ 356578.535096642910503, 3773844.048830111976713 ], [ 356584.333672431355808, 3773844.048830111976713 ], [ 356584.333672431355808, 3773845.269582909531891 ], [ 356584.028484231967013, 3773845.269582909531891 ], [ 356583.723296032578219, 3773845.574771109037101 ], [ 356583.418107833189424, 3773845.574771109037101 ], [ 356583.11291963380063, 3773845.87995930807665 ], [ 356579.450661241076887, 3773845.87995930807665 ] ] ] } }
]
}
