{
"type": "FeatureCollection",
"name": "cell_00091_pre",
"crs": { "type": "name", "properties": { "name": "urn:ogc:def:crs:EPSG::32611" } },
"features": [
{ "type": "Feature", "properties": { "confidence": 0.65606796741485596, "class": 1 }, "geometry": { "type": "Polygon", "coordinates": [ [ [ 351496.236012207518797, 3771756.256358087528497 ], [ 351496.236012207518797, 3771755.951169888023287 ], [ 351495.930824008130003, 3771755.645981688518077 ], [ 351495.625635808741208, 3771755.645981688518077 ], [ 351495.625635808741208, 3771755.340793489478528 ], [ 351495.320447609352414, 3771755.035605289973319 ], [ 351495.015259409963619, 3771755.035605289973319 ], [ 351495.015259409963619, 3771752.594099694862962 ], [ 351496.236012207518797, 3771751.373346897307783 ], [ 351496.541200406907592, 3771751.373346897307783 ], [ 351496.846388606296387, 3771751.068158697802573 ], [ 351497.76195320446277, 3771751.068158697802573 ], [ 351498.067141403851565, 3771750.762970498297364 ], [ 351499.593082400795538, 3771750.762970498297364 ], [ 351499.898270600184333, 3771750.457782299257815 ], [ 351501.424211597128306, 3771750.457782299257815 ], [ 351501.7293997965171, 3771750.152594099752605 ], [ 351502.644964394683484, 3771750.152594099752605 ], [ 351502.950152594072279, 3771750.457782299257815 ], [ 351503.86571719229687, 3771750.457782299257815 ], [ 351504.170905391685665, 3771750.762970498297364 ], [ 351504.476093591074459, 3771750.762970498297364 ], [ 351505.086469989852048, 3771751.373346897307783 ], [ 351505.086469989852048, 3771751.678535096812993 ], [ 351505.391658189240843, 3771751.983723295852542 ], [ 351505.391658189240843, 3771752.288911495357752 ], [ 351505.696846388629638, 3771752.594099694862962 ], [ 351505.696846388629638, 3771755.340793489478528 ], [ 351505.086469989852048, 3771755.951169888023287 ], [ 351505.086469989852048, 3771756.256358087528497 ], [ 351496.236012207518797, 3771756.256358087528497 ] ] ] } }
]
}
