{
"type": "FeatureCollection",
"name": "cell_00460_pre",
"crs": { "type": "name", "properties": { "name": "urn:ogc:def:crs:EPSG::32611" } },
"features": [
{ "type": "Feature", "properties": { "confidence": 0.92237728834152222, "class": 1 }, "geometry": { "type": "Polygon", "coordinates": [ [ [ 400211.291963377443608, 3784111.190233977511525 ], [ 400210.986775178054813, 3784110.885045778006315 ], [ 400210.376398779219016, 3784110.885045778006315 ], [ 400210.071210579830222, 3784110.579857578966767 ], [ 400209.766022380441427, 3784110.579857578966767 ], [ 400208.850457782275043, 3784109.664292980451137 ], [ 400208.545269582886249, 3784109.664292980451137 ], [ 400207.629704984719865, 3784108.748728382401168 ], [ 400207.629704984719865, 3784108.443540182895958 ], [ 400207.32451678533107, 3784108.13835198385641 ], [ 400207.32451678533107, 3784107.8331637843512 ], [ 400207.019328585942276, 3784107.52797558484599 ], [ 400207.019328585942276, 3784106.612410986796021 ], [ 400208.240081383497454, 3784105.391658189240843 ], [ 400208.545269582886249, 3784105.391658189240843 ], [ 400209.460834181052633, 3784104.476093591190875 ], [ 400209.766022380441427, 3784104.476093591190875 ], [ 400210.071210579830222, 3784104.170905391685665 ], [ 400211.902339776221197, 3784104.170905391685665 ], [ 400212.512716174998786, 3784104.781281790230423 ], [ 400212.817904374387581, 3784104.781281790230423 ], [ 400213.123092573776376, 3784105.086469989735633 ], [ 400213.42828077316517, 3784105.086469989735633 ], [ 400214.038657171942759, 3784105.696846388746053 ], [ 400214.343845371331554, 3784105.696846388746053 ], [ 400214.649033570720349, 3784106.002034587785602 ], [ 400214.954221770109143, 3784106.002034587785602 ], [ 400215.564598168886732, 3784106.612410986796021 ], [ 400215.564598168886732, 3784107.8331637843512 ], [ 400215.259409969497938, 3784108.13835198385641 ], [ 400215.259409969497938, 3784108.443540182895958 ], [ 400214.343845371331554, 3784109.359104781411588 ], [ 400214.343845371331554, 3784109.664292980451137 ], [ 400214.038657171942759, 3784109.664292980451137 ], [ 400213.733468972553965, 3784109.969481179956347 ], [ 400213.733468972553965, 3784110.274669379461557 ], [ 400213.42828077316517, 3784110.274669379461557 ], [ 400213.123092573776376, 3784110.579857578966767 ], [ 400212.817904374387581, 3784110.579857578966767 ], [ 400212.512716174998786, 3784110.885045778006315 ], [ 400211.902339776221197, 3784110.885045778006315 ], [ 400211.597151576832402, 3784111.190233977511525 ], [ 400211.291963377443608, 3784111.190233977511525 ] ] ] } },
{ "type": "Feature", "properties": { "confidence": 0.6543651819229126, "class": 1 }, "geometry": { "type": "Polygon", "coordinates": [ [ [ 400548.524923702934757, 3783970.803662258200347 ], [ 400548.219735503545962, 3783970.498474059160799 ], [ 400547.304170905379578, 3783970.498474059160799 ], [ 400546.998982705990784, 3783970.193285859655589 ], [ 400546.388606307213195, 3783970.193285859655589 ], [ 400546.0834181078244, 3783969.888097660150379 ], [ 400545.778229908435605, 3783969.888097660150379 ], [ 400545.167853509658016, 3783969.27772126160562 ], [ 400545.167853509658016, 3783968.97253306210041 ], [ 400544.862665310269222, 3783968.667344862595201 ], [ 400544.862665310269222, 3783968.362156663089991 ], [ 400544.557477110880427, 3783968.056968464050442 ], [ 400544.252288911491632, 3783968.056968464050442 ], [ 400544.252288911491632, 3783967.751780264545232 ], [ 400543.031536113936454, 3783966.531027466990054 ], [ 400543.031536113936454, 3783965.920651067979634 ], [ 400542.726347914547659, 3783965.615462868940085 ], [ 400542.726347914547659, 3783963.784333672374487 ], [ 400543.031536113936454, 3783963.784333672374487 ], [ 400543.336724313325249, 3783963.479145472869277 ], [ 400544.252288911491632, 3783963.479145472869277 ], [ 400544.557477110880427, 3783963.173957273829728 ], [ 400544.862665310269222, 3783963.479145472869277 ], [ 400545.778229908435605, 3783963.479145472869277 ], [ 400546.0834181078244, 3783963.784333672374487 ], [ 400546.0834181078244, 3783964.089521871879697 ], [ 400546.388606307213195, 3783964.394710071384907 ], [ 400546.693794506601989, 3783964.394710071384907 ], [ 400547.304170905379578, 3783965.005086469929665 ], [ 400547.609359104768373, 3783965.005086469929665 ], [ 400547.914547304157168, 3783965.310274669434875 ], [ 400548.524923702934757, 3783965.310274669434875 ], [ 400548.830111902323551, 3783965.615462868940085 ], [ 400549.440488301101141, 3783965.615462868940085 ], [ 400549.745676500489935, 3783965.920651067979634 ], [ 400551.271617497433908, 3783965.920651067979634 ], [ 400551.576805696822703, 3783966.225839267484844 ], [ 400552.187182095600292, 3783966.225839267484844 ], [ 400553.102746693766676, 3783967.141403865534812 ], [ 400553.102746693766676, 3783967.751780264545232 ], [ 400552.797558494377881, 3783968.056968464050442 ], [ 400552.797558494377881, 3783969.582909460645169 ], [ 400552.187182095600292, 3783970.193285859655589 ], [ 400551.576805696822703, 3783970.193285859655589 ], [ 400551.271617497433908, 3783970.498474059160799 ], [ 400550.661241098656319, 3783970.498474059160799 ], [ 400550.356052899267524, 3783970.803662258200347 ], [ 400548.524923702934757, 3783970.803662258200347 ] ] ] } },
{ "type": "Feature", "properties": { "confidence": 0.5984833836555481, "class": 1 }, "geometry": { "type": "Polygon", "coordinates": [ [ [ 400211.291963377443608, 3784047.100712105631828 ], [ 400210.376398779219016, 3784046.18514750758186 ], [ 400210.376398779219016, 3784045.269582909531891 ], [ 400210.071210579830222, 3784044.964394710026681 ], [ 400210.071210579830222, 3784044.048830111976713 ], [ 400214.038657171942759, 3784044.048830111976713 ], [ 400214.038657171942759, 3784044.659206510521472 ], [ 400213.733468972553965, 3784044.964394710026681 ], [ 400213.733468972553965, 3784046.18514750758186 ], [ 400213.42828077316517, 3784046.49033570708707 ], [ 400213.42828077316517, 3784046.79552390659228 ], [ 400213.123092573776376, 3784047.100712105631828 ], [ 400211.291963377443608, 3784047.100712105631828 ] ] ] } },
{ "type": "Feature", "properties": { "confidence": 0.50699144601821899, "class": 1 }, "geometry": { "type": "Polygon", "coordinates": [ [ [ 400532.349949135328643, 3783865.208545269444585 ], [ 400532.044760935881641, 3783864.903357070405036 ], [ 400532.044760935881641, 3783864.598168870899826 ], [ 400531.739572736492846, 3783864.292980671394616 ], [ 400531.739572736492846, 3783863.682604272849858 ], [ 400532.044760935881641, 3783863.377416073344648 ], [ 400532.044760935881641, 3783862.156663275789469 ], [ 400532.349949135328643, 3783861.85147507628426 ], [ 400532.349949135328643, 3783861.241098677739501 ], [ 400533.875890132272616, 3783859.715157680679113 ], [ 400534.486266531050205, 3783859.715157680679113 ], [ 400535.096642929827794, 3783859.104781281668693 ], [ 400535.401831129216589, 3783859.104781281668693 ], [ 400535.707019328605384, 3783858.799593082629144 ], [ 400536.012207527994178, 3783858.799593082629144 ], [ 400536.317395727382973, 3783858.494404883123934 ], [ 400538.453713123104535, 3783858.494404883123934 ], [ 400538.453713123104535, 3783858.799593082629144 ], [ 400538.75890132249333, 3783859.104781281668693 ], [ 400538.75890132249333, 3783859.715157680679113 ], [ 400536.317395727382973, 3783862.156663275789469 ], [ 400536.317395727382973, 3783862.461851475294679 ], [ 400534.181078331661411, 3783864.598168870899826 ], [ 400533.875890132272616, 3783864.598168870899826 ], [ 400533.570701932883821, 3783864.903357070405036 ], [ 400533.570701932883821, 3783865.208545269444585 ], [ 400532.349949135328643, 3783865.208545269444585 ] ] ] } },
{ "type": "Feature", "properties": { "confidence": 0.46682682633399963, "class": 1 }, "geometry": { "type": "Polygon", "coordinates": [ [ [ 400519.226856561552268, 3783936.012207528110594 ], [ 400518.311291963385884, 3783935.096642929594964 ], [ 400518.311291963385884, 3783934.486266531050205 ], [ 400518.006103763997089, 3783934.181078331544995 ], [ 400518.006103763997089, 3783933.265513733495027 ], [ 400517.700915564608295, 3783932.960325533989817 ], [ 400517.700915564608295, 3783932.655137334484607 ], [ 400517.3957273652195, 3783932.349949135445058 ], [ 400517.3957273652195, 3783930.21363173937425 ], [ 400517.090539165830705, 3783929.908443540334702 ], [ 400517.090539165830705, 3783929.298067141324282 ], [ 400517.700915564608295, 3783928.687690742779523 ], [ 400518.006103763997089, 3783928.687690742779523 ], [ 400518.311291963385884, 3783928.382502543274313 ], [ 400518.616480162774678, 3783928.382502543274313 ], [ 400518.921668362163473, 3783928.687690742779523 ], [ 400519.226856561552268, 3783928.687690742779523 ], [ 400519.532044760941062, 3783928.992878941819072 ], [ 400519.837232960329857, 3783928.992878941819072 ], [ 400520.447609359107446, 3783929.603255340829492 ], [ 400520.752797558496241, 3783929.603255340829492 ], [ 400521.668362156662624, 3783930.51881993887946 ], [ 400521.973550356051419, 3783930.51881993887946 ], [ 400522.278738555440214, 3783930.82400813838467 ], [ 400522.583926754829008, 3783930.82400813838467 ], [ 400523.194303153606597, 3783931.434384536929429 ], [ 400523.194303153606597, 3783931.739572736434639 ], [ 400523.499491352995392, 3783932.044760935939848 ], [ 400523.499491352995392, 3783933.875890132039785 ], [ 400523.194303153606597, 3783934.181078331544995 ], [ 400523.194303153606597, 3783934.486266531050205 ], [ 400522.278738555440214, 3783935.401831129100174 ], [ 400521.973550356051419, 3783935.401831129100174 ], [ 400521.668362156662624, 3783935.707019328605384 ], [ 400520.752797558496241, 3783935.707019328605384 ], [ 400520.447609359107446, 3783936.012207528110594 ], [ 400519.226856561552268, 3783936.012207528110594 ] ] ] } },
{ "type": "Feature", "properties": { "confidence": 0.43111491203308105, "class": 1 }, "geometry": { "type": "Polygon", "coordinates": [ [ [ 400559.816887080378365, 3783883.519837232772261 ], [ 400559.51169888098957, 3783883.214649033732712 ], [ 400558.901322482211981, 3783883.214649033732712 ], [ 400558.596134282823186, 3783882.909460834227502 ], [ 400558.596134282823186, 3783881.993896236177534 ], [ 400559.816887080378365, 3783880.773143438622355 ], [ 400560.122075279767159, 3783880.773143438622355 ], [ 400560.427263479155954, 3783880.467955239117146 ], [ 400560.732451678544749, 3783880.467955239117146 ], [ 400561.342828077322338, 3783879.857578840106726 ], [ 400564.089521871821489, 3783879.857578840106726 ], [ 400564.394710071210284, 3783880.162767039611936 ], [ 400564.699898270599078, 3783880.162767039611936 ], [ 400564.699898270599078, 3783880.467955239117146 ], [ 400565.005086469987873, 3783880.773143438622355 ], [ 400565.005086469987873, 3783882.299084435217083 ], [ 400564.699898270599078, 3783882.604272634722292 ], [ 400562.258392675488722, 3783882.604272634722292 ], [ 400561.953204476099927, 3783882.909460834227502 ], [ 400561.342828077322338, 3783882.909460834227502 ], [ 400561.037639877933543, 3783883.214649033732712 ], [ 400560.122075279767159, 3783883.214649033732712 ], [ 400559.816887080378365, 3783883.519837232772261 ] ] ] } },
{ "type": "Feature", "properties": { "confidence": 0.42628061771392822, "class": 1 }, "geometry": { "type": "Polygon", "coordinates": [ [ [ 400545.473041709046811, 3783865.513733468949795 ], [ 400545.167853509658016, 3783865.208545269444585 ], [ 400543.947100712102838, 3783865.208545269444585 ], [ 400543.336724313325249, 3783864.598168870899826 ], [ 400543.336724313325249, 3783864.292980671394616 ], [ 400543.031536113936454, 3783863.987792471889406 ], [ 400543.031536113936454, 3783862.461851475294679 ], [ 400543.336724313325249, 3783862.156663275789469 ], [ 400543.336724313325249, 3783861.85147507628426 ], [ 400543.947100712102838, 3783861.85147507628426 ], [ 400544.252288911491632, 3783861.54628687677905 ], [ 400545.778229908435605, 3783861.54628687677905 ], [ 400546.0834181078244, 3783861.85147507628426 ], [ 400546.388606307213195, 3783861.85147507628426 ], [ 400546.693794506601989, 3783862.156663275789469 ], [ 400551.881993896211497, 3783862.156663275789469 ], [ 400552.187182095600292, 3783862.461851475294679 ], [ 400552.187182095600292, 3783862.767039674334228 ], [ 400550.966429298045114, 3783863.987792471889406 ], [ 400550.661241098656319, 3783863.987792471889406 ], [ 400549.745676500489935, 3783864.903357070405036 ], [ 400549.745676500489935, 3783865.208545269444585 ], [ 400549.440488301101141, 3783865.513733468949795 ], [ 400545.473041709046811, 3783865.513733468949795 ] ] ] } },
{ "type": "Feature", "properties": { "confidence": 0.41082552075386047, "class": 1 }, "geometry": { "type": "Polygon", "coordinates": [ [ [ 400504.272634791443124, 3783834.079348932020366 ], [ 400503.96744659205433, 3783833.774160732515156 ], [ 400503.662258392665535, 3783833.774160732515156 ], [ 400503.662258392665535, 3783832.858596134465188 ], [ 400503.357070193276741, 3783832.553407934959978 ], [ 400503.357070193276741, 3783831.02746693789959 ], [ 400503.051881993887946, 3783830.72227873839438 ], [ 400503.051881993887946, 3783830.111902339849621 ], [ 400502.746693794499151, 3783829.806714140344411 ], [ 400502.746693794499151, 3783829.501525940839201 ], [ 400502.441505595110357, 3783829.196337741799653 ], [ 400502.441505595110357, 3783828.891149542294443 ], [ 400502.136317395721562, 3783828.585961342789233 ], [ 400502.136317395721562, 3783827.975584944244474 ], [ 400502.441505595110357, 3783827.670396744739264 ], [ 400503.051881993887946, 3783827.670396744739264 ], [ 400503.357070193276741, 3783827.365208545234054 ], [ 400505.493387588998303, 3783827.365208545234054 ], [ 400506.408952187164687, 3783826.449643947184086 ], [ 400506.714140386553481, 3783826.449643947184086 ], [ 400507.019328585942276, 3783826.144455747678876 ], [ 400508.240081383497454, 3783826.144455747678876 ], [ 400508.545269582886249, 3783825.839267548173666 ], [ 400508.850457782275043, 3783825.839267548173666 ], [ 400509.155645981663838, 3783825.534079349134117 ], [ 400509.155645981663838, 3783825.228891149628907 ], [ 400509.460834181052633, 3783825.228891149628907 ], [ 400509.766022380441427, 3783824.923702950123698 ], [ 400510.071210579830222, 3783824.923702950123698 ], [ 400510.376398779219016, 3783825.228891149628907 ], [ 400510.376398779219016, 3783830.111902339849621 ], [ 400510.071210579830222, 3783830.417090539354831 ], [ 400510.071210579830222, 3783830.72227873839438 ], [ 400509.766022380441427, 3783831.02746693789959 ], [ 400509.460834181052633, 3783831.02746693789959 ], [ 400509.155645981663838, 3783831.332655137404799 ], [ 400508.850457782275043, 3783831.332655137404799 ], [ 400508.545269582886249, 3783831.637843336910009 ], [ 400508.240081383497454, 3783831.637843336910009 ], [ 400506.408952187164687, 3783833.468972533009946 ], [ 400506.408952187164687, 3783833.774160732515156 ], [ 400506.103763987775892, 3783834.079348932020366 ], [ 400504.272634791443124, 3783834.079348932020366 ] ] ] } },
{ "type": "Feature", "properties": { "confidence": 0.35733932256698608, "class": 1 }, "geometry": { "type": "Polygon", "coordinates": [ [ [ 400508.240081383497454, 3783931.434384536929429 ], [ 400507.019328585942276, 3783930.21363173937425 ], [ 400507.019328585942276, 3783929.908443540334702 ], [ 400506.714140386553481, 3783929.603255340829492 ], [ 400506.408952187164687, 3783929.603255340829492 ], [ 400505.493387588998303, 3783928.687690742779523 ], [ 400505.188199389609508, 3783928.687690742779523 ], [ 400504.577822990831919, 3783928.077314343769103 ], [ 400504.577822990831919, 3783926.856561546213925 ], [ 400512.512716174998786, 3783926.856561546213925 ], [ 400512.512716174998786, 3783927.161749745719135 ], [ 400512.207527975609992, 3783927.466937945224345 ], [ 400512.207527975609992, 3783929.908443540334702 ], [ 400511.902339776221197, 3783930.21363173937425 ], [ 400511.902339776221197, 3783930.82400813838467 ], [ 400511.597151576832402, 3783931.12919633788988 ], [ 400510.986775178054813, 3783931.12919633788988 ], [ 400510.681586978607811, 3783931.434384536929429 ], [ 400508.240081383497454, 3783931.434384536929429 ] ] ] } }
]
}
