{
"type": "FeatureCollection",
"name": "cell_00409_pre",
"crs": { "type": "name", "properties": { "name": "urn:ogc:def:crs:EPSG::32611" } },
"features": [
{ "type": "Feature", "properties": { "confidence": 0.98682981729507446, "class": 1, "regularized": null }, "geometry": { "type": "Polygon", "coordinates": [ [ [ 398280.97660223802086, 3786220.651068158913404 ], [ 398279.755849440465681, 3786219.430315361358225 ], [ 398279.145473041688092, 3786219.430315361358225 ], [ 398278.840284842299297, 3786219.125127161853015 ], [ 398277.924720244132914, 3786219.125127161853015 ], [ 398277.619532044744119, 3786218.819938962347806 ], [ 398277.314343845355324, 3786218.819938962347806 ], [ 398276.703967446577735, 3786218.209562563803047 ], [ 398276.703967446577735, 3786215.76805696869269 ], [ 398277.00915564596653, 3786215.46286876918748 ], [ 398277.00915564596653, 3786214.85249237017706 ], [ 398277.619532044744119, 3786214.242115971632302 ], [ 398281.586978636798449, 3786214.242115971632302 ], [ 398281.892166836187243, 3786214.547304171137512 ], [ 398283.11291963380063, 3786214.547304171137512 ], [ 398283.418107833189424, 3786214.85249237017706 ], [ 398284.333672431355808, 3786214.85249237017706 ], [ 398284.638860630744603, 3786214.547304171137512 ], [ 398286.164801627688576, 3786214.547304171137512 ], [ 398286.46998982707737, 3786214.85249237017706 ], [ 398286.46998982707737, 3786216.073245167732239 ], [ 398286.164801627688576, 3786216.378433367237449 ], [ 398286.164801627688576, 3786218.514750762842596 ], [ 398285.859613428299781, 3786218.819938962347806 ], [ 398285.859613428299781, 3786219.735503560397774 ], [ 398285.554425228910986, 3786220.040691759902984 ], [ 398285.249237029522192, 3786220.040691759902984 ], [ 398284.944048830133397, 3786220.345879959408194 ], [ 398284.333672431355808, 3786220.345879959408194 ], [ 398284.028484231967013, 3786220.651068158913404 ], [ 398280.97660223802086, 3786220.651068158913404 ] ] ] } },
{ "type": "Feature", "properties": { "confidence": 0.96489453315734863, "class": 1, "regularized": null }, "geometry": { "type": "Polygon", "coordinates": [ [ [ 398035.605289928789716, 3786127.263479145243764 ], [ 398035.300101729400922, 3786126.958290946204215 ], [ 398034.384537131234538, 3786126.958290946204215 ], [ 398034.384537131234538, 3786125.127161749638617 ], [ 398034.689725330623332, 3786125.127161749638617 ], [ 398034.994913530012127, 3786124.821973550133407 ], [ 398034.994913530012127, 3786123.601220752578229 ], [ 398035.300101729400922, 3786123.601220752578229 ], [ 398035.605289928789716, 3786123.29603255353868 ], [ 398035.605289928789716, 3786122.99084435403347 ], [ 398035.910478128178511, 3786122.68565615452826 ], [ 398035.910478128178511, 3786122.38046795502305 ], [ 398036.5208545269561, 3786122.38046795502305 ], [ 398036.826042726344895, 3786122.075279755983502 ], [ 398040.183112919621635, 3786122.075279755983502 ], [ 398040.183112919621635, 3786122.38046795502305 ], [ 398040.48830111901043, 3786122.68565615452826 ], [ 398040.48830111901043, 3786123.29603255353868 ], [ 398040.183112919621635, 3786123.601220752578229 ], [ 398040.183112919621635, 3786124.211597151588649 ], [ 398039.877924720232841, 3786124.516785351093858 ], [ 398039.877924720232841, 3786124.821973550133407 ], [ 398038.351983723288868, 3786126.347914547193795 ], [ 398038.046795523900073, 3786126.347914547193795 ], [ 398037.741607324511278, 3786126.653102746699005 ], [ 398037.436419125122484, 3786126.653102746699005 ], [ 398037.131230925733689, 3786126.958290946204215 ], [ 398036.215666327567305, 3786126.958290946204215 ], [ 398035.910478128178511, 3786127.263479145243764 ], [ 398035.605289928789716, 3786127.263479145243764 ] ] ] } },
{ "type": "Feature", "properties": { "confidence": 0.93635451793670654, "class": 1, "regularized": null }, "geometry": { "type": "Polygon", "coordinates": [ [ [ 398154.323499491380062, 3786395.218718209769577 ], [ 398154.018311291991267, 3786394.913530010264367 ], [ 398154.018311291991267, 3786394.608341810759157 ], [ 398154.323499491380062, 3786394.303153611253947 ], [ 398154.323499491380062, 3786393.387589013203979 ], [ 398155.239064089546446, 3786392.47202441515401 ], [ 398155.54425228893524, 3786392.47202441515401 ], [ 398155.849440488324035, 3786392.1668362156488 ], [ 398156.15462868771283, 3786392.1668362156488 ], [ 398156.459816887101624, 3786391.86164801614359 ], [ 398156.765005086490419, 3786391.86164801614359 ], [ 398157.375381485268008, 3786391.251271617598832 ], [ 398157.985757884045597, 3786391.251271617598832 ], [ 398158.290946083434392, 3786390.946083418093622 ], [ 398160.732451678544749, 3786390.946083418093622 ], [ 398161.037639877933543, 3786390.640895218588412 ], [ 398161.953204476099927, 3786390.640895218588412 ], [ 398162.258392675488722, 3786390.946083418093622 ], [ 398162.258392675488722, 3786392.47202441515401 ], [ 398161.953204476099927, 3786392.77721261465922 ], [ 398161.953204476099927, 3786393.387589013203979 ], [ 398161.648016276711132, 3786393.387589013203979 ], [ 398161.342828077322338, 3786393.692777212709188 ], [ 398161.037639877933543, 3786393.692777212709188 ], [ 398160.427263479155954, 3786394.303153611253947 ], [ 398158.901322482211981, 3786394.303153611253947 ], [ 398158.596134282823186, 3786394.608341810759157 ], [ 398157.375381485268008, 3786394.608341810759157 ], [ 398157.070193285879213, 3786394.913530010264367 ], [ 398156.459816887101624, 3786394.913530010264367 ], [ 398156.15462868771283, 3786395.218718209769577 ], [ 398154.323499491380062, 3786395.218718209769577 ] ] ] } },
{ "type": "Feature", "properties": { "confidence": 0.84661179780960083, "class": 1, "regularized": null }, "geometry": { "type": "Polygon", "coordinates": [ [ [ 398307.527975584962405, 3786215.15768056968227 ], [ 398307.222787385573611, 3786214.85249237017706 ], [ 398306.612410986796021, 3786214.85249237017706 ], [ 398306.307222787407227, 3786214.547304171137512 ], [ 398306.002034588018432, 3786214.547304171137512 ], [ 398306.002034588018432, 3786214.242115971632302 ], [ 398305.391658189240843, 3786213.631739572621882 ], [ 398305.086469989852048, 3786213.631739572621882 ], [ 398303.86571719229687, 3786212.410986775066704 ], [ 398303.86571719229687, 3786212.105798575561494 ], [ 398303.560528992908075, 3786211.800610376521945 ], [ 398303.560528992908075, 3786210.885045778006315 ], [ 398303.86571719229687, 3786210.579857578966767 ], [ 398303.86571719229687, 3786210.274669379461557 ], [ 398304.170905391685665, 3786209.969481179956347 ], [ 398304.170905391685665, 3786209.664292980451137 ], [ 398307.527975584962405, 3786209.664292980451137 ], [ 398307.527975584962405, 3786215.15768056968227 ] ] ] } },
{ "type": "Feature", "properties": { "confidence": 0.75612211227416992, "class": 1, "regularized": null }, "geometry": { "type": "Polygon", "coordinates": [ [ [ 398226.9582909460878, 3786447.405900305137038 ], [ 398226.653102746699005, 3786447.100712105631828 ], [ 398224.821973550366238, 3786447.100712105631828 ], [ 398224.516785350977443, 3786446.79552390659228 ], [ 398224.516785350977443, 3786446.49033570708707 ], [ 398224.211597151588649, 3786446.18514750758186 ], [ 398223.906408952199854, 3786446.18514750758186 ], [ 398222.99084435403347, 3786445.269582909531891 ], [ 398222.99084435403347, 3786444.659206510521472 ], [ 398229.704984740586951, 3786444.659206510521472 ], [ 398229.704984740586951, 3786447.100712105631828 ], [ 398229.399796541198157, 3786447.100712105631828 ], [ 398229.094608341809362, 3786447.405900305137038 ], [ 398226.9582909460878, 3786447.405900305137038 ] ] ] } },
{ "type": "Feature", "properties": { "confidence": 0.67046850919723511, "class": 1, "regularized": null }, "geometry": { "type": "Polygon", "coordinates": [ [ [ 397819.532044760941062, 3786054.01831129193306 ], [ 397819.226856561552268, 3786053.71312309242785 ], [ 397818.616480162774678, 3786053.71312309242785 ], [ 397818.616480162774678, 3786051.576805696822703 ], [ 397818.311291963385884, 3786051.271617497317493 ], [ 397818.311291963385884, 3786050.966429298277944 ], [ 397818.616480162774678, 3786050.661241098772734 ], [ 397818.616480162774678, 3786048.524923703167588 ], [ 397818.311291963385884, 3786048.219735503662378 ], [ 397818.616480162774678, 3786047.914547304157168 ], [ 397818.616480162774678, 3786047.304170905612409 ], [ 397818.921668362163473, 3786046.998982706107199 ], [ 397818.921668362163473, 3786046.693794506601989 ], [ 397819.226856561552268, 3786046.388606307096779 ], [ 397819.226856561552268, 3786046.083418108057231 ], [ 397819.532044760941062, 3786045.778229908552021 ], [ 397822.889114954217803, 3786045.778229908552021 ], [ 397823.194303153606597, 3786046.083418108057231 ], [ 397823.499491352995392, 3786046.083418108057231 ], [ 397823.499491352995392, 3786046.388606307096779 ], [ 397823.804679552384187, 3786046.693794506601989 ], [ 397823.804679552384187, 3786050.966429298277944 ], [ 397823.499491352995392, 3786051.271617497317493 ], [ 397823.499491352995392, 3786053.102746693883091 ], [ 397823.194303153606597, 3786053.407934893388301 ], [ 397822.889114954217803, 3786053.407934893388301 ], [ 397822.278738555440214, 3786054.01831129193306 ], [ 397819.532044760941062, 3786054.01831129193306 ] ] ] } },
{ "type": "Feature", "properties": { "confidence": 0.6236492395401001, "class": 1, "regularized": null }, "geometry": { "type": "Polygon", "coordinates": [ [ [ 398208.036622583924327, 3786171.210579857695848 ], [ 398207.731434384535532, 3786170.905391658190638 ], [ 398207.121057985757943, 3786170.905391658190638 ], [ 398206.510681586980354, 3786170.295015259180218 ], [ 398206.205493387591559, 3786170.295015259180218 ], [ 398206.205493387591559, 3786169.37945066113025 ], [ 398205.900305188202765, 3786169.07426246162504 ], [ 398205.900305188202765, 3786168.463886063080281 ], [ 398205.59511698881397, 3786168.158697863575071 ], [ 398205.59511698881397, 3786167.853509664069861 ], [ 398205.289928789425176, 3786167.548321465030313 ], [ 398205.289928789425176, 3786167.243133265525103 ], [ 398204.984740590036381, 3786166.937945066019893 ], [ 398204.984740590036381, 3786166.327568667475134 ], [ 398204.679552390647586, 3786166.022380467969924 ], [ 398204.679552390647586, 3786165.412004068959504 ], [ 398204.984740590036381, 3786165.106815869919956 ], [ 398206.510681586980354, 3786165.106815869919956 ], [ 398207.426246185146738, 3786166.022380467969924 ], [ 398208.341810783313122, 3786166.022380467969924 ], [ 398208.646998982701916, 3786166.327568667475134 ], [ 398208.646998982701916, 3786168.463886063080281 ], [ 398208.952187182090711, 3786168.769074262585491 ], [ 398208.952187182090711, 3786169.989827060140669 ], [ 398209.257375381479505, 3786170.295015259180218 ], [ 398209.257375381479505, 3786170.905391658190638 ], [ 398208.952187182090711, 3786171.210579857695848 ], [ 398208.036622583924327, 3786171.210579857695848 ] ] ] } },
{ "type": "Feature", "properties": { "confidence": 0.58981448411941528, "class": 1, "regularized": null }, "geometry": { "type": "Polygon", "coordinates": [ [ [ 398162.868769074266311, 3786103.153611393645406 ], [ 398162.563580874877516, 3786102.848423194140196 ], [ 398162.258392675488722, 3786102.848423194140196 ], [ 398161.953204476099927, 3786102.543234995100647 ], [ 398161.342828077322338, 3786102.543234995100647 ], [ 398161.037639877933543, 3786102.238046795595437 ], [ 398160.732451678544749, 3786102.238046795595437 ], [ 398159.51169888098957, 3786101.017293998040259 ], [ 398159.51169888098957, 3786100.712105798535049 ], [ 398159.206510681600776, 3786100.406917599029839 ], [ 398158.901322482211981, 3786100.406917599029839 ], [ 398158.901322482211981, 3786099.79654120048508 ], [ 398158.596134282823186, 3786099.491353000979871 ], [ 398158.596134282823186, 3786098.575788402929902 ], [ 398158.901322482211981, 3786098.270600203424692 ], [ 398158.901322482211981, 3786097.965412003919482 ], [ 398159.816887080378365, 3786097.965412003919482 ], [ 398160.122075279767159, 3786097.660223804879934 ], [ 398161.342828077322338, 3786097.660223804879934 ], [ 398161.648016276711132, 3786097.355035605374724 ], [ 398162.563580874877516, 3786097.355035605374724 ], [ 398162.868769074266311, 3786097.660223804879934 ], [ 398163.173957273655105, 3786097.660223804879934 ], [ 398163.4791454730439, 3786097.965412003919482 ], [ 398164.394710071210284, 3786097.965412003919482 ], [ 398164.699898270599078, 3786098.270600203424692 ], [ 398165.615462868765462, 3786098.270600203424692 ], [ 398165.920651068154257, 3786098.575788402929902 ], [ 398165.920651068154257, 3786100.406917599029839 ], [ 398165.615462868765462, 3786100.712105798535049 ], [ 398165.615462868765462, 3786101.322482197545469 ], [ 398165.310274669376668, 3786101.627670396585017 ], [ 398165.310274669376668, 3786101.932858596090227 ], [ 398164.089521871821489, 3786103.153611393645406 ], [ 398162.868769074266311, 3786103.153611393645406 ] ] ] } },
{ "type": "Feature", "properties": { "confidence": 0.4971519410610199, "class": 1, "regularized": null }, "geometry": { "type": "Polygon", "coordinates": [ [ [ 398269.684638860635459, 3786138.555442522745579 ], [ 398269.379450661246665, 3786138.250254323706031 ], [ 398268.769074262469076, 3786138.250254323706031 ], [ 398268.769074262469076, 3786136.113936927635223 ], [ 398269.07426246185787, 3786136.113936927635223 ], [ 398269.379450661246665, 3786135.808748728595674 ], [ 398269.684638860635459, 3786135.808748728595674 ], [ 398270.295015259413049, 3786135.198372329585254 ], [ 398270.600203458801843, 3786135.198372329585254 ], [ 398270.905391658190638, 3786134.893184130080044 ], [ 398271.210579857579432, 3786134.893184130080044 ], [ 398271.515768056968227, 3786134.587995931040496 ], [ 398272.126144455745816, 3786134.587995931040496 ], [ 398272.736520854523405, 3786135.198372329585254 ], [ 398272.736520854523405, 3786136.113936927635223 ], [ 398272.431332655134611, 3786136.419125127140433 ], [ 398272.431332655134611, 3786136.724313326645643 ], [ 398272.126144455745816, 3786136.724313326645643 ], [ 398271.820956256357022, 3786137.029501526150852 ], [ 398271.515768056968227, 3786137.029501526150852 ], [ 398271.210579857579432, 3786137.334689725190401 ], [ 398271.210579857579432, 3786137.639877924695611 ], [ 398270.600203458801843, 3786138.250254323706031 ], [ 398270.295015259413049, 3786138.250254323706031 ], [ 398269.989827060024254, 3786138.555442522745579 ], [ 398269.684638860635459, 3786138.555442522745579 ] ] ] } },
{ "type": "Feature", "properties": { "confidence": 0.46372523903846741, "class": 1, "regularized": null }, "geometry": { "type": "Polygon", "coordinates": [ [ [ 397983.418107833189424, 3786095.523906408809125 ], [ 397983.418107833189424, 3786092.47202441515401 ], [ 397988.606307222798932, 3786092.47202441515401 ], [ 397988.606307222798932, 3786093.387589013203979 ], [ 397988.301119023410138, 3786093.692777212709188 ], [ 397988.301119023410138, 3786093.997965412214398 ], [ 397987.385554425243754, 3786094.913530010264367 ], [ 397986.775178026466165, 3786094.913530010264367 ], [ 397986.46998982707737, 3786095.218718209769577 ], [ 397985.859613428299781, 3786095.218718209769577 ], [ 397985.554425228910986, 3786095.523906408809125 ], [ 397983.418107833189424, 3786095.523906408809125 ] ] ] } },
{ "type": "Feature", "properties": { "confidence": 0.45822939276695251, "class": 1, "regularized": null }, "geometry": { "type": "Polygon", "coordinates": [ [ [ 398029.806714140402619, 3786345.167853509541601 ], [ 398029.501525941013824, 3786344.862665310502052 ], [ 398029.19633774162503, 3786344.862665310502052 ], [ 398029.19633774162503, 3786344.557477110996842 ], [ 398028.891149542236235, 3786344.252288911491632 ], [ 398028.891149542236235, 3786343.641912512946874 ], [ 398028.58596134284744, 3786343.336724313441664 ], [ 398028.58596134284744, 3786341.810783316381276 ], [ 398028.891149542236235, 3786341.505595116876066 ], [ 398028.891149542236235, 3786341.200406917370856 ], [ 398029.19633774162503, 3786340.895218718331307 ], [ 398029.19633774162503, 3786340.590030518826097 ], [ 398029.806714140402619, 3786339.979654119815677 ], [ 398029.806714140402619, 3786339.674465920776129 ], [ 398030.417090539180208, 3786339.064089521765709 ], [ 398031.637843336735386, 3786339.064089521765709 ], [ 398032.858596134290565, 3786340.284842319320887 ], [ 398033.163784333679359, 3786340.284842319320887 ], [ 398034.079348931845743, 3786341.200406917370856 ], [ 398034.384537131234538, 3786341.200406917370856 ], [ 398034.384537131234538, 3786342.726347914431244 ], [ 398034.079348931845743, 3786343.031536113936454 ], [ 398034.079348931845743, 3786343.336724313441664 ], [ 398033.774160732456949, 3786343.641912512946874 ], [ 398033.774160732456949, 3786343.947100711986423 ], [ 398032.858596134290565, 3786344.862665310502052 ], [ 398031.943031536124181, 3786344.862665310502052 ], [ 398031.637843336735386, 3786345.167853509541601 ], [ 398029.806714140402619, 3786345.167853509541601 ] ] ] } },
{ "type": "Feature", "properties": { "confidence": 0.43825724720954895, "class": 1, "regularized": null }, "geometry": { "type": "Polygon", "coordinates": [ [ [ 398152.187182095600292, 3786017.090539165772498 ], [ 398152.187182095600292, 3786013.733468972612172 ], [ 398152.492370294989087, 3786013.428280773106962 ], [ 398152.492370294989087, 3786013.123092573601753 ], [ 398152.797558494377881, 3786012.817904374562204 ], [ 398152.797558494377881, 3786012.207527975551784 ], [ 398153.102746693766676, 3786011.902339776046574 ], [ 398153.102746693766676, 3786010.681586978491396 ], [ 398153.713123092602473, 3786010.071210579946637 ], [ 398154.628687690768857, 3786010.071210579946637 ], [ 398154.628687690768857, 3786010.376398779451847 ], [ 398155.239064089546446, 3786010.986775177996606 ], [ 398155.239064089546446, 3786011.597151577007025 ], [ 398155.54425228893524, 3786011.902339776046574 ], [ 398155.54425228893524, 3786013.733468972612172 ], [ 398155.239064089546446, 3786014.038657172117382 ], [ 398155.239064089546446, 3786014.649033570662141 ], [ 398154.933875890157651, 3786014.954221770167351 ], [ 398154.933875890157651, 3786015.259409969672561 ], [ 398153.40793489315547, 3786016.785350966267288 ], [ 398153.102746693766676, 3786016.785350966267288 ], [ 398152.797558494377881, 3786017.090539165772498 ], [ 398152.187182095600292, 3786017.090539165772498 ] ] ] } },
{ "type": "Feature", "properties": { "confidence": 0.34040200710296631, "class": 1, "regularized": null }, "geometry": { "type": "Polygon", "coordinates": [ [ [ 397955.951169888081495, 3786353.102746693883091 ], [ 397955.6459816886927, 3786352.797558494377881 ], [ 397955.340793489303906, 3786352.797558494377881 ], [ 397955.035605289915111, 3786352.492370294872671 ], [ 397955.035605289915111, 3786351.881993896327913 ], [ 397954.425228891137522, 3786351.271617497317493 ], [ 397954.425228891137522, 3786350.966429298277944 ], [ 397954.120040691748727, 3786350.661241098772734 ], [ 397954.120040691748727, 3786349.745676500722766 ], [ 397953.814852492359933, 3786349.440488301217556 ], [ 397953.814852492359933, 3786349.135300101712346 ], [ 397953.509664292971138, 3786348.830111902207136 ], [ 397953.509664292971138, 3786348.219735503662378 ], [ 397953.204476093582343, 3786347.914547304157168 ], [ 397953.204476093582343, 3786345.167853509541601 ], [ 397952.899287894193549, 3786344.862665310502052 ], [ 397953.509664292971138, 3786344.252288911491632 ], [ 397953.814852492359933, 3786344.252288911491632 ], [ 397954.120040691748727, 3786343.947100711986423 ], [ 397956.866734486247879, 3786343.947100711986423 ], [ 397956.866734486247879, 3786344.252288911491632 ], [ 397957.171922685636673, 3786344.557477110996842 ], [ 397957.171922685636673, 3786344.862665310502052 ], [ 397957.477110885025468, 3786345.167853509541601 ], [ 397957.477110885025468, 3786345.473041709046811 ], [ 397957.782299084414262, 3786345.778229908552021 ], [ 397957.782299084414262, 3786350.356052899267524 ], [ 397958.392675483191852, 3786350.966429298277944 ], [ 397958.392675483191852, 3786352.797558494377881 ], [ 397958.087487283803057, 3786352.797558494377881 ], [ 397957.782299084414262, 3786353.102746693883091 ], [ 397955.951169888081495, 3786353.102746693883091 ] ] ] } },
{ "type": "Feature", "properties": { "confidence": 0.28021299839019775, "class": 1, "regularized": null }, "geometry": { "type": "Polygon", "coordinates": [ [ [ 398246.490335707028862, 3786395.829094608314335 ], [ 398246.185147507640067, 3786395.523906408809125 ], [ 398245.879959308251273, 3786395.523906408809125 ], [ 398245.879959308251273, 3786389.420142421033233 ], [ 398245.574771108862478, 3786389.114954221993685 ], [ 398245.574771108862478, 3786387.589013224933296 ], [ 398246.185147507640067, 3786386.978636825922877 ], [ 398247.71108850458404, 3786386.978636825922877 ], [ 398248.016276703972835, 3786387.283825025428087 ], [ 398248.32146490336163, 3786387.283825025428087 ], [ 398248.626653102750424, 3786387.589013224933296 ], [ 398249.237029501528013, 3786387.589013224933296 ], [ 398249.237029501528013, 3786388.504577822983265 ], [ 398249.847405900305603, 3786389.114954221993685 ], [ 398249.847405900305603, 3786389.420142421033233 ], [ 398250.152594099694397, 3786389.725330620538443 ], [ 398250.152594099694397, 3786394.303153611253947 ], [ 398249.847405900305603, 3786394.608341810759157 ], [ 398249.847405900305603, 3786395.218718209769577 ], [ 398249.542217700916808, 3786395.523906408809125 ], [ 398248.626653102750424, 3786395.523906408809125 ], [ 398248.32146490336163, 3786395.829094608314335 ], [ 398246.490335707028862, 3786395.829094608314335 ] ] ] } },
{ "type": "Feature", "properties": { "confidence": 0.2596224844455719, "class": 1, "regularized": null }, "geometry": { "type": "Polygon", "coordinates": [ [ [ 398274.262461851467378, 3786234.384537131059915 ], [ 398273.957273652078584, 3786234.079348932020366 ], [ 398273.652085452689789, 3786234.079348932020366 ], [ 398273.346897253300995, 3786233.774160732515156 ], [ 398271.515768056968227, 3786233.774160732515156 ], [ 398271.210579857579432, 3786233.468972533009946 ], [ 398270.600203458801843, 3786233.468972533009946 ], [ 398269.989827060024254, 3786232.858596134465188 ], [ 398269.989827060024254, 3786231.943031535949558 ], [ 398269.684638860635459, 3786231.637843336910009 ], [ 398269.684638860635459, 3786231.02746693789959 ], [ 398269.379450661246665, 3786230.72227873839438 ], [ 398269.379450661246665, 3786227.975584944244474 ], [ 398269.684638860635459, 3786227.975584944244474 ], [ 398269.989827060024254, 3786227.670396744739264 ], [ 398269.989827060024254, 3786227.365208545234054 ], [ 398270.295015259413049, 3786227.365208545234054 ], [ 398270.905391658190638, 3786226.754832146689296 ], [ 398271.515768056968227, 3786226.754832146689296 ], [ 398271.820956256357022, 3786226.449643947184086 ], [ 398272.126144455745816, 3786226.449643947184086 ], [ 398272.431332655134611, 3786226.754832146689296 ], [ 398273.346897253300995, 3786226.754832146689296 ], [ 398273.652085452689789, 3786227.060020345728844 ], [ 398274.262461851467378, 3786227.060020345728844 ], [ 398274.872838250244968, 3786227.670396744739264 ], [ 398275.178026449633762, 3786227.670396744739264 ], [ 398275.483214649022557, 3786227.975584944244474 ], [ 398275.788402848411351, 3786227.975584944244474 ], [ 398276.093591047800146, 3786228.280773143284023 ], [ 398276.398779247188941, 3786228.280773143284023 ], [ 398276.398779247188941, 3786229.196337741799653 ], [ 398276.703967446577735, 3786229.501525940839201 ], [ 398276.398779247188941, 3786229.806714140344411 ], [ 398276.398779247188941, 3786231.332655137404799 ], [ 398276.093591047800146, 3786231.637843336910009 ], [ 398276.093591047800146, 3786232.248219735454768 ], [ 398275.788402848411351, 3786232.553407934959978 ], [ 398275.788402848411351, 3786232.858596134465188 ], [ 398275.483214649022557, 3786233.163784333504736 ], [ 398275.483214649022557, 3786233.774160732515156 ], [ 398275.178026449633762, 3786234.079348932020366 ], [ 398275.178026449633762, 3786234.384537131059915 ], [ 398274.262461851467378, 3786234.384537131059915 ] ] ] } },
{ "type": "Feature", "properties": { "confidence": 0.256512850522995, "class": 1, "regularized": "rectangle" }, "geometry": { "type": "Polygon", "coordinates": [ [ [ 398306.90625, 3786247.5 ], [ 398317.59375, 3786247.5 ], [ 398317.59375, 3786260.5 ], [ 398306.90625, 3786260.5 ], [ 398306.90625, 3786247.5 ] ] ] } }
]
}
