{
"type": "FeatureCollection",
"name": "cell_00139_pre",
"crs": { "type": "name", "properties": { "name": "urn:ogc:def:crs:EPSG::32611" } },
"features": [
{ "type": "Feature", "properties": { "confidence": 0.25787568092346191, "class": 1 }, "geometry": { "type": "Polygon", "coordinates": [ [ [ 354332.349949135328643, 3772824.109867751598358 ], [ 354332.044760935881641, 3772823.80467955255881 ], [ 354332.044760935881641, 3772823.4994913530536 ], [ 354331.739572736492846, 3772823.19430315354839 ], [ 354331.739572736492846, 3772822.88911495404318 ], [ 354331.434384537104052, 3772822.583926755003631 ], [ 354331.434384537104052, 3772820.447609358932823 ], [ 354331.739572736492846, 3772820.142421159893274 ], [ 354331.739572736492846, 3772819.532044760882854 ], [ 354332.044760935881641, 3772819.226856561377645 ], [ 354333.570701932883821, 3772819.226856561377645 ], [ 354334.486266531050205, 3772820.142421159893274 ], [ 354334.486266531050205, 3772820.752797558438033 ], [ 354334.791454730439, 3772821.057985757943243 ], [ 354334.791454730439, 3772821.668362156488001 ], [ 354335.096642929827794, 3772821.973550355993211 ], [ 354335.096642929827794, 3772823.4994913530536 ], [ 354334.791454730439, 3772823.80467955255881 ], [ 354334.791454730439, 3772824.109867751598358 ], [ 354332.349949135328643, 3772824.109867751598358 ] ] ] } }
]
}
