{
"type": "FeatureCollection",
"name": "cell_00150_pre",
"crs": { "type": "name", "properties": { "name": "urn:ogc:def:crs:EPSG::32611" } },
"features": [
{ "type": "Feature", "properties": { "confidence": 0.76989251375198364, "class": 1 }, "geometry": { "type": "Polygon", "coordinates": [ [ [ 354951.576805696822703, 3773039.572736520785838 ], [ 354951.576805696822703, 3773031.943031535949558 ], [ 354952.492370294989087, 3773031.943031535949558 ], [ 354952.797558494377881, 3773032.248219735454768 ], [ 354953.102746693766676, 3773032.248219735454768 ], [ 354953.40793489315547, 3773032.553407934959978 ], [ 354953.713123092602473, 3773032.553407934959978 ], [ 354953.713123092602473, 3773033.163784333504736 ], [ 354954.018311291991267, 3773033.468972533009946 ], [ 354954.018311291991267, 3773033.774160732515156 ], [ 354953.713123092602473, 3773034.079348932020366 ], [ 354953.713123092602473, 3773035.605289928615093 ], [ 354953.40793489315547, 3773035.910478128120303 ], [ 354953.40793489315547, 3773036.826042726170272 ], [ 354953.102746693766676, 3773037.131230925675482 ], [ 354953.102746693766676, 3773037.436419125180691 ], [ 354952.797558494377881, 3773037.741607324685901 ], [ 354952.797558494377881, 3773038.65717192273587 ], [ 354951.881993896211497, 3773039.572736520785838 ], [ 354951.576805696822703, 3773039.572736520785838 ] ] ] } }
]
}
