{
"type": "FeatureCollection",
"name": "cell_00451_pre",
"crs": { "type": "name", "properties": { "name": "urn:ogc:def:crs:EPSG::32611" } },
"features": [
{ "type": "Feature", "properties": { "confidence": 0.98323029279708862, "class": 1 }, "geometry": { "type": "Polygon", "coordinates": [ [ [ 400017.192268565588165, 3786727.263479145243764 ], [ 400016.88708036619937, 3786726.958290946204215 ], [ 400015.971515768032987, 3786726.958290946204215 ], [ 400015.666327568644192, 3786726.653102746699005 ], [ 400015.361139369255397, 3786726.653102746699005 ], [ 400015.055951169866603, 3786726.347914547193795 ], [ 400015.055951169866603, 3786726.042726347688586 ], [ 400014.445574771089014, 3786725.432349949143827 ], [ 400014.445574771089014, 3786725.127161749638617 ], [ 400014.140386571700219, 3786724.821973550133407 ], [ 400014.140386571700219, 3786724.516785351093858 ], [ 400013.224821973533835, 3786723.601220752578229 ], [ 400013.224821973533835, 3786723.29603255353868 ], [ 400012.919633774145041, 3786722.99084435403347 ], [ 400012.919633774145041, 3786719.023397761862725 ], [ 400013.835198372311424, 3786718.107833163812757 ], [ 400014.750762970477808, 3786718.107833163812757 ], [ 400015.055951169866603, 3786717.802644964307547 ], [ 400015.666327568644192, 3786717.802644964307547 ], [ 400015.971515768032987, 3786717.497456764802337 ], [ 400016.88708036619937, 3786717.497456764802337 ], [ 400017.192268565588165, 3786717.192268565762788 ], [ 400018.718209562590346, 3786717.192268565762788 ], [ 400019.02339776197914, 3786717.497456764802337 ], [ 400019.328585961367935, 3786717.497456764802337 ], [ 400019.63377416075673, 3786717.802644964307547 ], [ 400020.244150559534319, 3786717.802644964307547 ], [ 400021.159715157700703, 3786718.718209562357515 ], [ 400021.464903357089497, 3786718.718209562357515 ], [ 400022.685656154644676, 3786719.938962359912694 ], [ 400022.99084435403347, 3786719.938962359912694 ], [ 400023.601220752811059, 3786720.549338758923113 ], [ 400023.601220752811059, 3786721.159715157467872 ], [ 400023.906408952199854, 3786721.464903356973082 ], [ 400023.906408952199854, 3786725.127161749638617 ], [ 400023.601220752811059, 3786725.432349949143827 ], [ 400023.601220752811059, 3786725.737538148649037 ], [ 400023.296032553422265, 3786725.737538148649037 ], [ 400022.685656154644676, 3786726.347914547193795 ], [ 400022.075279755867086, 3786726.347914547193795 ], [ 400021.770091556478292, 3786726.653102746699005 ], [ 400020.244150559534319, 3786726.653102746699005 ], [ 400019.938962360145524, 3786726.958290946204215 ], [ 400018.718209562590346, 3786726.958290946204215 ], [ 400018.413021363201551, 3786727.263479145243764 ], [ 400017.192268565588165, 3786727.263479145243764 ] ] ] } },
{ "type": "Feature", "properties": { "confidence": 0.978424072265625, "class": 1 }, "geometry": { "type": "Polygon", "coordinates": [ [ [ 399924.109867751772981, 3787002.238046795595437 ], [ 399923.804679552384187, 3787001.932858596090227 ], [ 399921.973550356051419, 3787001.932858596090227 ], [ 399921.36317395727383, 3787001.322482197545469 ], [ 399921.36317395727383, 3786997.965412003919482 ], [ 399921.057985757885035, 3786997.660223804879934 ], [ 399921.057985757885035, 3786997.355035605374724 ], [ 399920.752797558496241, 3786997.049847405869514 ], [ 399920.752797558496241, 3786994.913530010264367 ], [ 399921.057985757885035, 3786994.608341810759157 ], [ 399921.057985757885035, 3786994.303153611253947 ], [ 399921.668362156662624, 3786993.692777212709188 ], [ 399922.583926754829008, 3786993.692777212709188 ], [ 399923.194303153606597, 3786994.303153611253947 ], [ 399925.940996948105749, 3786994.303153611253947 ], [ 399926.856561546272133, 3786995.218718209769577 ], [ 399926.856561546272133, 3786995.523906408809125 ], [ 399927.772126144438516, 3786996.439471007324755 ], [ 399928.077314343827311, 3786996.439471007324755 ], [ 399928.382502543216106, 3786996.744659206364304 ], [ 399928.382502543216106, 3786997.049847405869514 ], [ 399928.6876907426049, 3786997.355035605374724 ], [ 399928.6876907426049, 3786999.79654120048508 ], [ 399928.077314343827311, 3787000.406917599029839 ], [ 399928.077314343827311, 3787000.712105798535049 ], [ 399927.772126144438516, 3787001.017293998040259 ], [ 399927.466937945049722, 3787001.017293998040259 ], [ 399926.856561546272133, 3787001.627670396585017 ], [ 399926.551373346883338, 3787001.627670396585017 ], [ 399926.246185147494543, 3787001.932858596090227 ], [ 399925.635808748716954, 3787001.932858596090227 ], [ 399925.33062054932816, 3787002.238046795595437 ], [ 399924.109867751772981, 3787002.238046795595437 ] ] ] } },
{ "type": "Feature", "properties": { "confidence": 0.92834734916687012, "class": 1 }, "geometry": { "type": "Polygon", "coordinates": [ [ [ 399756.866734486247879, 3787095.625635808799416 ], [ 399756.256358087470289, 3787095.015259409788996 ], [ 399756.256358087470289, 3787094.710071210749447 ], [ 399755.951169888081495, 3787094.404883011244237 ], [ 399755.951169888081495, 3787090.132248219568282 ], [ 399756.256358087470289, 3787089.827060020528734 ], [ 399756.256358087470289, 3787089.216683621518314 ], [ 399756.561546286859084, 3787089.216683621518314 ], [ 399756.866734486247879, 3787088.911495422013104 ], [ 399756.866734486247879, 3787088.606307222973555 ], [ 399757.171922685636673, 3787088.606307222973555 ], [ 399757.782299084414262, 3787087.995930823963135 ], [ 399758.087487283803057, 3787087.995930823963135 ], [ 399758.392675483191852, 3787087.690742624457926 ], [ 399758.392675483191852, 3787087.385554425418377 ], [ 399759.308240081358235, 3787087.385554425418377 ], [ 399759.61342828074703, 3787087.080366225913167 ], [ 399760.223804679524619, 3787087.080366225913167 ], [ 399760.528992878913414, 3787086.775178026407957 ], [ 399761.7497456765268, 3787086.775178026407957 ], [ 399762.054933875915594, 3787087.080366225913167 ], [ 399763.886063072248362, 3787087.080366225913167 ], [ 399764.191251271637157, 3787086.775178026407957 ], [ 399764.496439471025951, 3787086.775178026407957 ], [ 399764.801627670414746, 3787087.080366225913167 ], [ 399765.10681586980354, 3787087.080366225913167 ], [ 399765.10681586980354, 3787087.690742624457926 ], [ 399765.412004069192335, 3787087.995930823963135 ], [ 399765.412004069192335, 3787088.911495422013104 ], [ 399765.10681586980354, 3787089.216683621518314 ], [ 399765.10681586980354, 3787091.963377416133881 ], [ 399764.801627670414746, 3787092.268565615639091 ], [ 399764.801627670414746, 3787092.573753814678639 ], [ 399762.665310274693184, 3787094.710071210749447 ], [ 399762.360122075304389, 3787094.710071210749447 ], [ 399762.054933875915594, 3787095.015259409788996 ], [ 399761.444557477138005, 3787095.015259409788996 ], [ 399761.139369277749211, 3787095.320447609294206 ], [ 399760.834181078360416, 3787095.320447609294206 ], [ 399760.528992878913414, 3787095.625635808799416 ], [ 399756.866734486247879, 3787095.625635808799416 ] ] ] } },
{ "type": "Feature", "properties": { "confidence": 0.88997781276702881, "class": 1 }, "geometry": { "type": "Polygon", "coordinates": [ [ [ 399947.609359104768373, 3786929.908443540334702 ], [ 399947.304170905379578, 3786929.603255340829492 ], [ 399946.693794506601989, 3786929.603255340829492 ], [ 399946.388606307213195, 3786929.298067141324282 ], [ 399946.0834181078244, 3786929.298067141324282 ], [ 399945.778229908435605, 3786928.992878941819072 ], [ 399945.473041709046811, 3786928.992878941819072 ], [ 399945.473041709046811, 3786928.687690742779523 ], [ 399945.167853509658016, 3786928.382502543274313 ], [ 399945.167853509658016, 3786927.466937945224345 ], [ 399944.862665310269222, 3786927.161749745719135 ], [ 399944.862665310269222, 3786926.856561546213925 ], [ 399951.576805696822703, 3786926.856561546213925 ], [ 399951.576805696822703, 3786927.466937945224345 ], [ 399951.271617497433908, 3786927.772126144263893 ], [ 399951.271617497433908, 3786928.077314343769103 ], [ 399950.966429298045114, 3786928.382502543274313 ], [ 399950.966429298045114, 3786928.687690742779523 ], [ 399950.661241098656319, 3786928.687690742779523 ], [ 399950.356052899267524, 3786928.992878941819072 ], [ 399950.05086469987873, 3786928.992878941819072 ], [ 399949.745676500489935, 3786929.298067141324282 ], [ 399949.440488301101141, 3786929.298067141324282 ], [ 399949.135300101712346, 3786929.603255340829492 ], [ 399948.524923702934757, 3786929.603255340829492 ], [ 399948.219735503545962, 3786929.908443540334702 ], [ 399947.609359104768373, 3786929.908443540334702 ] ] ] } },
{ "type": "Feature", "properties": { "confidence": 0.8859487771987915, "class": 1 }, "geometry": { "type": "Polygon", "coordinates": [ [ [ 400175.890132248227019, 3786933.265513733495027 ], [ 400175.584944048838224, 3786932.960325533989817 ], [ 400174.66937945067184, 3786932.960325533989817 ], [ 400174.364191251283046, 3786932.655137334484607 ], [ 400174.059003051894251, 3786932.655137334484607 ], [ 400173.448626653116662, 3786932.044760935939848 ], [ 400173.143438453727867, 3786932.044760935939848 ], [ 400172.533062054950278, 3786931.434384536929429 ], [ 400172.533062054950278, 3786931.12919633788988 ], [ 400171.922685656172689, 3786930.51881993887946 ], [ 400171.922685656172689, 3786929.908443540334702 ], [ 400171.617497456783894, 3786929.603255340829492 ], [ 400171.617497456783894, 3786928.382502543274313 ], [ 400171.3123092573951, 3786928.077314343769103 ], [ 400171.3123092573951, 3786927.772126144263893 ], [ 400171.617497456783894, 3786927.466937945224345 ], [ 400171.617497456783894, 3786925.330620549153537 ], [ 400171.922685656172689, 3786925.025432350113988 ], [ 400171.922685656172689, 3786924.720244150608778 ], [ 400172.533062054950278, 3786924.720244150608778 ], [ 400172.838250254339073, 3786924.415055951103568 ], [ 400176.500508647004608, 3786924.415055951103568 ], [ 400176.805696846393403, 3786924.720244150608778 ], [ 400177.721261444559786, 3786924.720244150608778 ], [ 400178.026449643948581, 3786925.025432350113988 ], [ 400178.331637843337376, 3786925.025432350113988 ], [ 400178.63682604272617, 3786925.330620549153537 ], [ 400178.63682604272617, 3786925.635808748658746 ], [ 400178.942014242114965, 3786925.940996948163956 ], [ 400178.942014242114965, 3786926.246185147669166 ], [ 400179.552390640892554, 3786926.856561546213925 ], [ 400179.552390640892554, 3786927.466937945224345 ], [ 400179.857578840281349, 3786927.772126144263893 ], [ 400179.857578840281349, 3786928.382502543274313 ], [ 400180.162767039670143, 3786928.687690742779523 ], [ 400180.162767039670143, 3786930.21363173937425 ], [ 400179.857578840281349, 3786930.51881993887946 ], [ 400179.857578840281349, 3786931.12919633788988 ], [ 400178.942014242114965, 3786932.044760935939848 ], [ 400178.63682604272617, 3786932.044760935939848 ], [ 400178.026449643948581, 3786932.655137334484607 ], [ 400177.721261444559786, 3786932.655137334484607 ], [ 400177.416073245170992, 3786932.960325533989817 ], [ 400177.110885045782197, 3786932.960325533989817 ], [ 400176.805696846393403, 3786933.265513733495027 ], [ 400175.890132248227019, 3786933.265513733495027 ] ] ] } },
{ "type": "Feature", "properties": { "confidence": 0.8824726939201355, "class": 1 }, "geometry": { "type": "Polygon", "coordinates": [ [ [ 399991.861648016260006, 3786700.10172939999029 ], [ 399991.861648016260006, 3786699.79654120048508 ], [ 399991.556459816871211, 3786699.491353000979871 ], [ 399991.556459816871211, 3786697.049847405869514 ], [ 399991.861648016260006, 3786696.744659206364304 ], [ 399991.861648016260006, 3786694.608341810759157 ], [ 399992.1668362156488, 3786694.303153611253947 ], [ 399992.1668362156488, 3786693.997965412214398 ], [ 399992.472024415037595, 3786693.997965412214398 ], [ 399992.777212614426389, 3786693.692777212709188 ], [ 399992.777212614426389, 3786693.082400813698769 ], [ 399993.082400813815184, 3786692.77721261465922 ], [ 399993.082400813815184, 3786692.47202441515401 ], [ 399996.13428280770313, 3786692.47202441515401 ], [ 399996.13428280770313, 3786698.575788402929902 ], [ 399995.829094608314335, 3786698.880976602435112 ], [ 399995.829094608314335, 3786699.491353000979871 ], [ 399995.523906408925541, 3786699.79654120048508 ], [ 399994.913530010147952, 3786699.79654120048508 ], [ 399994.608341810759157, 3786700.10172939999029 ], [ 399991.861648016260006, 3786700.10172939999029 ] ] ] } },
{ "type": "Feature", "properties": { "confidence": 0.8650251030921936, "class": 1 }, "geometry": { "type": "Polygon", "coordinates": [ [ [ 399755.951169888081495, 3786708.646998982876539 ], [ 399755.6459816886927, 3786708.341810783371329 ], [ 399755.035605289915111, 3786708.341810783371329 ], [ 399753.509664292971138, 3786706.815869786310941 ], [ 399753.509664292971138, 3786706.510681586805731 ], [ 399753.204476093582343, 3786706.205493387766182 ], [ 399753.204476093582343, 3786705.900305188260972 ], [ 399752.594099694804754, 3786705.289928789250553 ], [ 399752.594099694804754, 3786703.763987792655826 ], [ 399752.899287894193549, 3786703.458799593150616 ], [ 399753.204476093582343, 3786703.458799593150616 ], [ 399753.509664292971138, 3786703.153611393645406 ], [ 399755.035605289915111, 3786703.153611393645406 ], [ 399755.951169888081495, 3786702.238046795595437 ], [ 399755.951169888081495, 3786708.646998982876539 ] ] ] } },
{ "type": "Feature", "properties": { "confidence": 0.85022246837615967, "class": 1 }, "geometry": { "type": "Polygon", "coordinates": [ [ [ 400190.844354018336162, 3786855.442522889003158 ], [ 400190.844354018336162, 3786853.916581891942769 ], [ 400190.539165818947367, 3786853.611393692903221 ], [ 400190.539165818947367, 3786853.001017293892801 ], [ 400191.149542217724957, 3786852.390640895348042 ], [ 400194.811800610390492, 3786852.390640895348042 ], [ 400195.116988809779286, 3786852.085452695842832 ], [ 400195.727365208556876, 3786852.085452695842832 ], [ 400196.03255340794567, 3786852.390640895348042 ], [ 400196.03255340794567, 3786853.916581891942769 ], [ 400195.727365208556876, 3786854.221770091447979 ], [ 400195.727365208556876, 3786854.526958290953189 ], [ 400195.116988809779286, 3786855.137334689497948 ], [ 400194.506612411001697, 3786855.137334689497948 ], [ 400194.201424211612903, 3786855.442522889003158 ], [ 400190.844354018336162, 3786855.442522889003158 ] ] ] } },
{ "type": "Feature", "properties": { "confidence": 0.83132094144821167, "class": 1 }, "geometry": { "type": "Polygon", "coordinates": [ [ [ 399861.546286876895465, 3786695.829094608314335 ], [ 399861.24109867750667, 3786695.523906408809125 ], [ 399860.630722278729081, 3786695.523906408809125 ], [ 399860.325534079340287, 3786695.218718209769577 ], [ 399860.020345879951492, 3786695.218718209769577 ], [ 399859.409969481173903, 3786694.608341810759157 ], [ 399859.409969481173903, 3786694.303153611253947 ], [ 399859.104781281785108, 3786693.997965412214398 ], [ 399859.104781281785108, 3786693.692777212709188 ], [ 399858.799593082396314, 3786693.387589013203979 ], [ 399858.799593082396314, 3786693.082400813698769 ], [ 399858.494404883007519, 3786692.77721261465922 ], [ 399858.494404883007519, 3786692.47202441515401 ], [ 399858.189216683618724, 3786692.1668362156488 ], [ 399858.189216683618724, 3786691.556459817104042 ], [ 399857.88402848422993, 3786691.251271617598832 ], [ 399857.88402848422993, 3786689.114954221993685 ], [ 399858.189216683618724, 3786688.809766022488475 ], [ 399858.799593082396314, 3786688.809766022488475 ], [ 399859.104781281785108, 3786688.504577822983265 ], [ 399860.020345879951492, 3786688.504577822983265 ], [ 399860.630722278729081, 3786689.114954221993685 ], [ 399860.935910478117876, 3786689.114954221993685 ], [ 399860.935910478117876, 3786689.420142421033233 ], [ 399861.24109867750667, 3786689.725330620538443 ], [ 399861.546286876895465, 3786689.725330620538443 ], [ 399861.85147507628426, 3786690.030518820043653 ], [ 399862.156663275673054, 3786690.030518820043653 ], [ 399862.156663275673054, 3786690.335707019548863 ], [ 399862.461851475061849, 3786690.640895218588412 ], [ 399862.767039674450643, 3786690.640895218588412 ], [ 399863.072227873839438, 3786690.946083418093622 ], [ 399863.377416073228233, 3786690.946083418093622 ], [ 399864.598168870783411, 3786692.1668362156488 ], [ 399864.598168870783411, 3786692.47202441515401 ], [ 399864.903357070172206, 3786692.77721261465922 ], [ 399864.903357070172206, 3786694.913530010264367 ], [ 399864.292980671394616, 3786695.523906408809125 ], [ 399862.461851475061849, 3786695.523906408809125 ], [ 399862.156663275673054, 3786695.829094608314335 ], [ 399861.546286876895465, 3786695.829094608314335 ] ] ] } },
{ "type": "Feature", "properties": { "confidence": 0.82647782564163208, "class": 1 }, "geometry": { "type": "Polygon", "coordinates": [ [ [ 399932.960325534106232, 3787109.664292980451137 ], [ 399932.655137334717438, 3787109.359104781411588 ], [ 399932.044760935881641, 3787109.359104781411588 ], [ 399931.434384537104052, 3787108.748728382401168 ], [ 399931.434384537104052, 3787108.443540182895958 ], [ 399930.824008138326462, 3787107.8331637843512 ], [ 399930.824008138326462, 3787107.52797558484599 ], [ 399930.518819938937668, 3787107.22278738534078 ], [ 399930.518819938937668, 3787106.917599186301231 ], [ 399929.603255340771284, 3787106.002034587785602 ], [ 399929.603255340771284, 3787105.696846388746053 ], [ 399929.298067141382489, 3787105.391658189240843 ], [ 399929.298067141382489, 3787105.086469989735633 ], [ 399928.992878941993695, 3787104.781281790230423 ], [ 399928.992878941993695, 3787103.560528992675245 ], [ 399928.6876907426049, 3787103.255340793635696 ], [ 399928.6876907426049, 3787102.034587996080518 ], [ 399928.382502543216106, 3787101.729399796575308 ], [ 399928.382502543216106, 3787100.20345879951492 ], [ 399928.992878941993695, 3787099.593082400970161 ], [ 399929.603255340771284, 3787099.593082400970161 ], [ 399929.908443540160079, 3787099.287894201464951 ], [ 399930.213631739548873, 3787099.593082400970161 ], [ 399931.129196337715257, 3787099.593082400970161 ], [ 399931.434384537104052, 3787099.89827060000971 ], [ 399932.044760935881641, 3787099.89827060000971 ], [ 399932.349949135328643, 3787100.20345879951492 ], [ 399932.349949135328643, 3787100.813835198525339 ], [ 399932.655137334717438, 3787101.119023397564888 ], [ 399932.960325534106232, 3787101.119023397564888 ], [ 399932.960325534106232, 3787101.424211597070098 ], [ 399934.181078331661411, 3787102.644964394625276 ], [ 399934.181078331661411, 3787102.950152594130486 ], [ 399935.096642929827794, 3787103.865717192180455 ], [ 399935.096642929827794, 3787104.476093591190875 ], [ 399935.401831129216589, 3787104.781281790230423 ], [ 399935.401831129216589, 3787105.086469989735633 ], [ 399935.707019328605384, 3787105.391658189240843 ], [ 399935.707019328605384, 3787105.696846388746053 ], [ 399936.012207527994178, 3787106.002034587785602 ], [ 399936.012207527994178, 3787106.307222787290812 ], [ 399936.317395727382973, 3787106.612410986796021 ], [ 399936.317395727382973, 3787106.917599186301231 ], [ 399936.622583926771767, 3787107.22278738534078 ], [ 399936.622583926771767, 3787108.748728382401168 ], [ 399936.927772126160562, 3787109.053916581906378 ], [ 399936.622583926771767, 3787109.359104781411588 ], [ 399935.096642929827794, 3787109.359104781411588 ], [ 399934.791454730439, 3787109.664292980451137 ], [ 399932.960325534106232, 3787109.664292980451137 ] ] ] } },
{ "type": "Feature", "properties": { "confidence": 0.735801100730896, "class": 1 }, "geometry": { "type": "Polygon", "coordinates": [ [ [ 399870.701932858617511, 3787048.626653102692217 ], [ 399870.396744659228716, 3787048.321464903187007 ], [ 399870.396744659228716, 3787048.016276704147458 ], [ 399870.091556459839921, 3787047.711088504642248 ], [ 399870.091556459839921, 3787047.405900305137038 ], [ 399868.870803662284743, 3787046.18514750758186 ], [ 399868.870803662284743, 3787045.574771109037101 ], [ 399868.565615462895948, 3787045.269582909531891 ], [ 399868.260427263507154, 3787045.269582909531891 ], [ 399867.955239064118359, 3787044.964394710026681 ], [ 399867.955239064118359, 3787044.659206510521472 ], [ 399867.650050864671357, 3787044.354018311481923 ], [ 399867.650050864671357, 3787044.048830111976713 ], [ 399873.143438453727867, 3787044.048830111976713 ], [ 399873.143438453727867, 3787048.321464903187007 ], [ 399872.533062054950278, 3787048.321464903187007 ], [ 399872.227873855561484, 3787048.626653102692217 ], [ 399870.701932858617511, 3787048.626653102692217 ] ] ] } },
{ "type": "Feature", "properties": { "confidence": 0.72716838121414185, "class": 1 }, "geometry": { "type": "Polygon", "coordinates": [ [ [ 399821.566632756846957, 3786705.289928789250553 ], [ 399821.261444557458162, 3786704.984740590211004 ], [ 399820.956256358069368, 3786704.984740590211004 ], [ 399819.735503560514189, 3786703.763987792655826 ], [ 399819.430315361125395, 3786703.763987792655826 ], [ 399818.819938962347806, 3786703.153611393645406 ], [ 399818.514750762959011, 3786703.153611393645406 ], [ 399818.209562563570216, 3786702.848423194140196 ], [ 399817.599186164792627, 3786702.848423194140196 ], [ 399817.293997965403832, 3786702.543234995100647 ], [ 399816.988809766015038, 3786702.543234995100647 ], [ 399816.683621566626243, 3786702.238046795595437 ], [ 399816.378433367237449, 3786702.238046795595437 ], [ 399816.073245167848654, 3786701.932858596090227 ], [ 399816.073245167848654, 3786701.627670396585017 ], [ 399815.768056968459859, 3786701.322482197545469 ], [ 399815.768056968459859, 3786701.017293998040259 ], [ 399815.462868769071065, 3786700.712105798535049 ], [ 399815.462868769071065, 3786700.406917599029839 ], [ 399815.15768056968227, 3786700.10172939999029 ], [ 399815.15768056968227, 3786697.965412003919482 ], [ 399814.852492370293476, 3786697.660223804879934 ], [ 399814.852492370293476, 3786693.387589013203979 ], [ 399815.15768056968227, 3786693.387589013203979 ], [ 399815.462868769071065, 3786693.082400813698769 ], [ 399822.482197355013341, 3786693.082400813698769 ], [ 399822.787385554402135, 3786693.387589013203979 ], [ 399822.787385554402135, 3786694.913530010264367 ], [ 399823.09257375379093, 3786695.218718209769577 ], [ 399823.09257375379093, 3786696.439471007324755 ], [ 399823.397761953179725, 3786696.744659206364304 ], [ 399823.397761953179725, 3786697.355035605374724 ], [ 399824.008138351957314, 3786697.965412003919482 ], [ 399824.008138351957314, 3786698.270600203424692 ], [ 399824.618514750734903, 3786698.880976602435112 ], [ 399824.618514750734903, 3786700.712105798535049 ], [ 399824.923702950123698, 3786701.017293998040259 ], [ 399824.923702950123698, 3786704.679552390705794 ], [ 399824.313326551346108, 3786705.289928789250553 ], [ 399821.566632756846957, 3786705.289928789250553 ] ] ] } },
{ "type": "Feature", "properties": { "confidence": 0.70867598056793213, "class": 1 }, "geometry": { "type": "Polygon", "coordinates": [ [ [ 399866.429298067116179, 3786838.35198372323066 ], [ 399866.124109867727384, 3786838.04679552372545 ], [ 399864.903357070172206, 3786838.04679552372545 ], [ 399864.292980671394616, 3786837.436419125180691 ], [ 399864.292980671394616, 3786836.826042726170272 ], [ 399863.987792472005822, 3786836.520854527130723 ], [ 399863.987792472005822, 3786835.300101729575545 ], [ 399863.682604272617027, 3786834.994913530070335 ], [ 399863.682604272617027, 3786832.858596134465188 ], [ 399863.377416073228233, 3786832.553407934959978 ], [ 399863.377416073228233, 3786831.02746693789959 ], [ 399863.987792472005822, 3786830.417090539354831 ], [ 399864.292980671394616, 3786830.417090539354831 ], [ 399864.598168870783411, 3786830.111902339849621 ], [ 399866.124109867727384, 3786830.111902339849621 ], [ 399866.429298067116179, 3786830.417090539354831 ], [ 399867.039674465893768, 3786830.417090539354831 ], [ 399867.650050864671357, 3786831.02746693789959 ], [ 399868.260427263507154, 3786831.02746693789959 ], [ 399868.260427263507154, 3786831.332655137404799 ], [ 399868.565615462895948, 3786831.637843336910009 ], [ 399868.870803662284743, 3786831.637843336910009 ], [ 399868.870803662284743, 3786831.943031535949558 ], [ 399869.786368260451127, 3786832.858596134465188 ], [ 399869.786368260451127, 3786833.163784333504736 ], [ 399870.091556459839921, 3786833.468972533009946 ], [ 399870.091556459839921, 3786834.384537131059915 ], [ 399869.786368260451127, 3786834.689725330565125 ], [ 399869.786368260451127, 3786835.605289928615093 ], [ 399870.091556459839921, 3786835.910478128120303 ], [ 399870.091556459839921, 3786836.826042726170272 ], [ 399869.786368260451127, 3786837.131230925675482 ], [ 399869.786368260451127, 3786837.741607324685901 ], [ 399869.481180061062332, 3786838.04679552372545 ], [ 399869.175991861673538, 3786838.04679552372545 ], [ 399868.870803662284743, 3786838.35198372323066 ], [ 399866.429298067116179, 3786838.35198372323066 ] ] ] } },
{ "type": "Feature", "properties": { "confidence": 0.66183316707611084, "class": 1 }, "geometry": { "type": "Polygon", "coordinates": [ [ [ 400154.832146490341984, 3786812.716174974571913 ], [ 400154.526958290953189, 3786812.410986775066704 ], [ 400154.221770091564395, 3786812.410986775066704 ], [ 400153.611393692786805, 3786811.800610376521945 ], [ 400153.306205493398011, 3786811.800610376521945 ], [ 400153.306205493398011, 3786811.495422177016735 ], [ 400153.001017294009216, 3786811.190233977511525 ], [ 400152.695829094620422, 3786811.190233977511525 ], [ 400152.390640895231627, 3786810.885045778006315 ], [ 400152.390640895231627, 3786810.579857578966767 ], [ 400152.085452695842832, 3786810.274669379461557 ], [ 400151.780264496454038, 3786810.274669379461557 ], [ 400151.780264496454038, 3786809.664292980451137 ], [ 400159.715157680562697, 3786809.664292980451137 ], [ 400159.715157680562697, 3786810.274669379461557 ], [ 400159.409969481173903, 3786810.579857578966767 ], [ 400159.409969481173903, 3786810.885045778006315 ], [ 400158.799593082396314, 3786811.495422177016735 ], [ 400158.189216683618724, 3786811.495422177016735 ], [ 400157.578840284841135, 3786812.105798575561494 ], [ 400157.273652085452341, 3786812.105798575561494 ], [ 400156.663275686674751, 3786812.716174974571913 ], [ 400154.832146490341984, 3786812.716174974571913 ] ] ] } },
{ "type": "Feature", "properties": { "confidence": 0.661365807056427, "class": 1 }, "geometry": { "type": "Polygon", "coordinates": [ [ [ 400192.67548321466893, 3786838.04679552372545 ], [ 400192.370295015280135, 3786837.741607324685901 ], [ 400192.06510681589134, 3786837.741607324685901 ], [ 400191.759918616502546, 3786837.436419125180691 ], [ 400191.454730417113751, 3786837.436419125180691 ], [ 400189.623601220780984, 3786835.605289928615093 ], [ 400189.318413021392189, 3786835.605289928615093 ], [ 400188.402848423167598, 3786834.689725330565125 ], [ 400188.402848423167598, 3786834.384537131059915 ], [ 400188.097660223778803, 3786834.079348932020366 ], [ 400188.097660223778803, 3786831.943031535949558 ], [ 400188.402848423167598, 3786831.637843336910009 ], [ 400188.708036622556392, 3786831.637843336910009 ], [ 400189.013224821945187, 3786831.332655137404799 ], [ 400189.623601220780984, 3786831.332655137404799 ], [ 400189.928789420169778, 3786831.02746693789959 ], [ 400190.233977619558573, 3786831.02746693789959 ], [ 400190.539165818947367, 3786830.72227873839438 ], [ 400191.149542217724957, 3786830.72227873839438 ], [ 400191.454730417113751, 3786830.417090539354831 ], [ 400193.591047812835313, 3786830.417090539354831 ], [ 400194.201424211612903, 3786831.02746693789959 ], [ 400194.506612411001697, 3786831.02746693789959 ], [ 400194.811800610390492, 3786831.332655137404799 ], [ 400195.116988809779286, 3786831.332655137404799 ], [ 400195.422177009168081, 3786831.637843336910009 ], [ 400195.727365208556876, 3786831.637843336910009 ], [ 400196.03255340794567, 3786831.943031535949558 ], [ 400196.03255340794567, 3786832.553407934959978 ], [ 400195.727365208556876, 3786832.858596134465188 ], [ 400195.727365208556876, 3786834.079348932020366 ], [ 400195.422177009168081, 3786834.079348932020366 ], [ 400195.116988809779286, 3786834.384537131059915 ], [ 400195.116988809779286, 3786834.689725330565125 ], [ 400194.811800610390492, 3786834.994913530070335 ], [ 400194.811800610390492, 3786836.520854527130723 ], [ 400194.201424211612903, 3786837.131230925675482 ], [ 400194.201424211612903, 3786837.436419125180691 ], [ 400193.591047812835313, 3786838.04679552372545 ], [ 400192.67548321466893, 3786838.04679552372545 ] ] ] } },
{ "type": "Feature", "properties": { "confidence": 0.61144763231277466, "class": 1 }, "geometry": { "type": "Polygon", "coordinates": [ [ [ 399800.203458799573127, 3786698.575788402929902 ], [ 399799.593082400795538, 3786697.965412003919482 ], [ 399799.287894201406743, 3786697.965412003919482 ], [ 399798.677517802629154, 3786697.355035605374724 ], [ 399798.677517802629154, 3786696.744659206364304 ], [ 399798.37232960324036, 3786696.439471007324755 ], [ 399798.37232960324036, 3786695.218718209769577 ], [ 399798.067141403851565, 3786694.913530010264367 ], [ 399798.067141403851565, 3786694.608341810759157 ], [ 399797.76195320446277, 3786694.303153611253947 ], [ 399797.76195320446277, 3786693.692777212709188 ], [ 399797.456765005073976, 3786693.387589013203979 ], [ 399797.456765005073976, 3786693.082400813698769 ], [ 399797.151576805685181, 3786692.77721261465922 ], [ 399797.151576805685181, 3786692.47202441515401 ], [ 399804.476093591074459, 3786692.47202441515401 ], [ 399804.476093591074459, 3786695.218718209769577 ], [ 399804.170905391685665, 3786695.523906408809125 ], [ 399804.170905391685665, 3786697.049847405869514 ], [ 399803.560528992849868, 3786697.660223804879934 ], [ 399803.560528992849868, 3786697.965412003919482 ], [ 399803.255340793461073, 3786697.965412003919482 ], [ 399802.950152594072279, 3786698.270600203424692 ], [ 399802.339776195294689, 3786698.270600203424692 ], [ 399802.034587995905895, 3786698.575788402929902 ], [ 399800.203458799573127, 3786698.575788402929902 ] ] ] } },
{ "type": "Feature", "properties": { "confidence": 0.59550553560256958, "class": 1 }, "geometry": { "type": "Polygon", "coordinates": [ [ [ 399836.215666327567305, 3787082.807731434237212 ], [ 399836.215666327567305, 3787082.197355035692453 ], [ 399835.910478128178511, 3787081.892166836187243 ], [ 399835.605289928789716, 3787081.892166836187243 ], [ 399835.605289928789716, 3787080.671414038632065 ], [ 399836.215666327567305, 3787080.061037640087306 ], [ 399836.5208545269561, 3787080.061037640087306 ], [ 399836.826042726344895, 3787079.755849440582097 ], [ 399837.131230925733689, 3787079.755849440582097 ], [ 399837.436419125122484, 3787079.450661241076887 ], [ 399837.741607324511278, 3787079.450661241076887 ], [ 399838.046795523900073, 3787079.145473041571677 ], [ 399838.962360122066457, 3787079.145473041571677 ], [ 399839.267548321455251, 3787078.840284842532128 ], [ 399839.877924720232841, 3787078.840284842532128 ], [ 399840.183112919621635, 3787078.535096643026918 ], [ 399841.403865717176814, 3787078.535096643026918 ], [ 399841.709053916565608, 3787078.840284842532128 ], [ 399842.014242115954403, 3787078.840284842532128 ], [ 399842.319430315343197, 3787079.145473041571677 ], [ 399842.319430315343197, 3787081.892166836187243 ], [ 399842.014242115954403, 3787082.197355035692453 ], [ 399842.014242115954403, 3787082.807731434237212 ], [ 399836.215666327567305, 3787082.807731434237212 ] ] ] } },
{ "type": "Feature", "properties": { "confidence": 0.56088715791702271, "class": 1 }, "geometry": { "type": "Polygon", "coordinates": [ [ [ 399749.237029501528013, 3787068.158697863575071 ], [ 399748.016276703972835, 3787066.937945066019893 ], [ 399748.016276703972835, 3787066.632756866514683 ], [ 399747.71108850458404, 3787066.327568667475134 ], [ 399747.71108850458404, 3787065.717192268464714 ], [ 399747.405900305195246, 3787065.412004068959504 ], [ 399747.405900305195246, 3787064.191251271404326 ], [ 399747.100712105806451, 3787063.886063072364777 ], [ 399747.100712105806451, 3787060.528992878738791 ], [ 399747.405900305195246, 3787060.223804679699242 ], [ 399747.405900305195246, 3787059.613428280688822 ], [ 399747.71108850458404, 3787059.308240081183612 ], [ 399748.016276703972835, 3787059.308240081183612 ], [ 399748.32146490336163, 3787059.003051882144064 ], [ 399748.626653102750424, 3787059.003051882144064 ], [ 399748.931841302139219, 3787058.697863682638854 ], [ 399749.542217700916808, 3787058.697863682638854 ], [ 399749.847405900305603, 3787058.392675483133644 ], [ 399750.152594099694397, 3787058.392675483133644 ], [ 399750.762970498471987, 3787057.782299084588885 ], [ 399750.762970498471987, 3787057.477110885083675 ], [ 399751.068158697860781, 3787057.171922685578465 ], [ 399751.373346897249576, 3787057.171922685578465 ], [ 399751.67853509663837, 3787056.866734486073256 ], [ 399753.814852492359933, 3787056.866734486073256 ], [ 399754.425228891137522, 3787057.477110885083675 ], [ 399754.425228891137522, 3787059.003051882144064 ], [ 399754.730417090526316, 3787059.308240081183612 ], [ 399754.730417090526316, 3787062.665310274809599 ], [ 399754.425228891137522, 3787062.970498473849148 ], [ 399754.425228891137522, 3787064.496439470909536 ], [ 399754.730417090526316, 3787064.801627670414746 ], [ 399754.730417090526316, 3787066.327568667475134 ], [ 399754.120040691748727, 3787066.937945066019893 ], [ 399753.509664292971138, 3787066.937945066019893 ], [ 399752.899287894193549, 3787067.548321465030313 ], [ 399752.594099694804754, 3787067.548321465030313 ], [ 399752.28891149541596, 3787067.853509664069861 ], [ 399751.983723296027165, 3787067.853509664069861 ], [ 399751.67853509663837, 3787068.158697863575071 ], [ 399749.237029501528013, 3787068.158697863575071 ] ] ] } },
{ "type": "Feature", "properties": { "confidence": 0.51750236749649048, "class": 1 }, "geometry": { "type": "Polygon", "coordinates": [ [ [ 400149.94913530012127, 3786906.103763987775892 ], [ 400149.033570701954886, 3786905.188199389725924 ], [ 400149.033570701954886, 3786904.577822990715504 ], [ 400148.728382502566092, 3786904.272634791675955 ], [ 400148.728382502566092, 3786903.967446592170745 ], [ 400148.423194303177297, 3786903.662258392665535 ], [ 400148.423194303177297, 3786902.441505595110357 ], [ 400148.118006103788503, 3786902.136317395605147 ], [ 400148.118006103788503, 3786901.220752797555178 ], [ 400147.812817904399708, 3786900.915564598049968 ], [ 400147.812817904399708, 3786900.0 ], [ 400147.507629705010913, 3786899.69481180049479 ], [ 400147.507629705010913, 3786898.168870803434402 ], [ 400147.202441505622119, 3786897.863682604394853 ], [ 400147.202441505622119, 3786896.642929806839675 ], [ 400147.507629705010913, 3786896.337741607334465 ], [ 400147.812817904399708, 3786896.337741607334465 ], [ 400148.118006103788503, 3786896.032553407829255 ], [ 400148.423194303177297, 3786896.032553407829255 ], [ 400148.728382502566092, 3786895.727365208324045 ], [ 400149.643947100732476, 3786895.727365208324045 ], [ 400149.94913530012127, 3786896.032553407829255 ], [ 400149.643947100732476, 3786896.337741607334465 ], [ 400149.643947100732476, 3786898.168870803434402 ], [ 400150.864699898287654, 3786899.38962360098958 ], [ 400151.169888097676449, 3786899.38962360098958 ], [ 400151.475076297065243, 3786899.69481180049479 ], [ 400151.780264496454038, 3786899.69481180049479 ], [ 400151.780264496454038, 3786900.0 ], [ 400152.085452695842832, 3786900.30518819950521 ], [ 400152.390640895231627, 3786900.30518819950521 ], [ 400152.390640895231627, 3786900.61037639901042 ], [ 400153.306205493398011, 3786901.525940997060388 ], [ 400153.306205493398011, 3786901.831129196565598 ], [ 400153.611393692786805, 3786902.136317395605147 ], [ 400153.611393692786805, 3786904.883011190220714 ], [ 400153.001017294009216, 3786905.493387589231133 ], [ 400153.001017294009216, 3786905.798575788270682 ], [ 400150.559511698898859, 3786905.798575788270682 ], [ 400150.254323499510065, 3786906.103763987775892 ], [ 400149.94913530012127, 3786906.103763987775892 ] ] ] } },
{ "type": "Feature", "properties": { "confidence": 0.51307213306427002, "class": 1 }, "geometry": { "type": "Polygon", "coordinates": [ [ [ 399762.360122075304389, 3786709.562563580926508 ], [ 399762.054933875915594, 3786709.257375381421298 ], [ 399761.7497456765268, 3786709.257375381421298 ], [ 399761.139369277749211, 3786708.646998982876539 ], [ 399761.139369277749211, 3786708.341810783371329 ], [ 399760.528992878913414, 3786707.731434384360909 ], [ 399760.528992878913414, 3786707.121057985816151 ], [ 399760.223804679524619, 3786706.815869786310941 ], [ 399760.223804679524619, 3786705.595116988755763 ], [ 399759.918616480135825, 3786705.289928789250553 ], [ 399759.918616480135825, 3786704.069175991695374 ], [ 399760.528992878913414, 3786703.458799593150616 ], [ 399762.054933875915594, 3786703.458799593150616 ], [ 399762.360122075304389, 3786703.153611393645406 ], [ 399764.496439471025951, 3786703.153611393645406 ], [ 399764.801627670414746, 3786702.848423194140196 ], [ 399767.548321464913897, 3786702.848423194140196 ], [ 399767.853509664302692, 3786703.153611393645406 ], [ 399768.158697863691486, 3786703.153611393645406 ], [ 399768.463886063080281, 3786703.458799593150616 ], [ 399768.769074262469076, 3786703.458799593150616 ], [ 399768.769074262469076, 3786703.763987792655826 ], [ 399769.07426246185787, 3786704.069175991695374 ], [ 399769.07426246185787, 3786704.374364191200584 ], [ 399769.379450661246665, 3786704.679552390705794 ], [ 399769.379450661246665, 3786707.426246185321361 ], [ 399768.769074262469076, 3786708.036622583866119 ], [ 399768.158697863691486, 3786708.036622583866119 ], [ 399767.853509664302692, 3786708.341810783371329 ], [ 399767.243133265525103, 3786708.341810783371329 ], [ 399766.937945066136308, 3786708.646998982876539 ], [ 399766.022380467969924, 3786708.646998982876539 ], [ 399765.71719226858113, 3786708.952187181916088 ], [ 399764.801627670414746, 3786708.952187181916088 ], [ 399764.496439471025951, 3786709.257375381421298 ], [ 399763.580874872859567, 3786709.257375381421298 ], [ 399763.275686673470773, 3786709.562563580926508 ], [ 399762.360122075304389, 3786709.562563580926508 ] ] ] } },
{ "type": "Feature", "properties": { "confidence": 0.44818082451820374, "class": 1 }, "geometry": { "type": "Polygon", "coordinates": [ [ [ 400120.345879959291779, 3786676.602238046936691 ], [ 400120.040691759902984, 3786676.297049847431481 ], [ 400119.1251271617366, 3786676.297049847431481 ], [ 400117.904374364181422, 3786675.076297049876302 ], [ 400117.904374364181422, 3786671.108850457705557 ], [ 400117.599186164792627, 3786670.803662258200347 ], [ 400117.599186164792627, 3786670.193285859655589 ], [ 400117.904374364181422, 3786669.888097660150379 ], [ 400117.904374364181422, 3786669.27772126160562 ], [ 400118.514750762959011, 3786668.667344862595201 ], [ 400118.514750762959011, 3786666.836215666495264 ], [ 400118.819938962347806, 3786666.531027466990054 ], [ 400118.819938962347806, 3786666.225839267484844 ], [ 400119.735503560514189, 3786665.310274669434875 ], [ 400121.566632756846957, 3786665.310274669434875 ], [ 400121.871820956235752, 3786665.615462868940085 ], [ 400123.397761953179725, 3786665.615462868940085 ], [ 400123.397761953179725, 3786666.225839267484844 ], [ 400123.702950152568519, 3786666.531027466990054 ], [ 400124.313326551346108, 3786666.531027466990054 ], [ 400124.313326551346108, 3786667.141403865534812 ], [ 400124.618514750734903, 3786667.446592065040022 ], [ 400125.2288911495707, 3786667.446592065040022 ], [ 400125.534079348959494, 3786667.751780264545232 ], [ 400126.144455747737084, 3786667.751780264545232 ], [ 400126.144455747737084, 3786668.056968464050442 ], [ 400126.449643947125878, 3786668.362156663089991 ], [ 400126.754832146514673, 3786668.362156663089991 ], [ 400127.060020345903467, 3786668.667344862595201 ], [ 400126.754832146514673, 3786668.97253306210041 ], [ 400126.754832146514673, 3786669.582909460645169 ], [ 400127.060020345903467, 3786669.888097660150379 ], [ 400127.060020345903467, 3786670.193285859655589 ], [ 400127.670396744681057, 3786670.803662258200347 ], [ 400127.670396744681057, 3786671.719226856715977 ], [ 400127.365208545292262, 3786672.024415055755526 ], [ 400127.365208545292262, 3786672.939979654271156 ], [ 400126.754832146514673, 3786673.550356052815914 ], [ 400126.754832146514673, 3786673.855544252321124 ], [ 400126.449643947125878, 3786674.160732451826334 ], [ 400126.449643947125878, 3786674.465920650865883 ], [ 400125.534079348959494, 3786675.381485249381512 ], [ 400125.2288911495707, 3786675.381485249381512 ], [ 400124.923702950123698, 3786675.686673448421061 ], [ 400124.313326551346108, 3786675.686673448421061 ], [ 400124.008138351957314, 3786675.991861647926271 ], [ 400121.871820956235752, 3786675.991861647926271 ], [ 400121.566632756846957, 3786676.297049847431481 ], [ 400120.651068158680573, 3786676.297049847431481 ], [ 400120.345879959291779, 3786676.602238046936691 ] ] ] } },
{ "type": "Feature", "properties": { "confidence": 0.40631315112113953, "class": 1 }, "geometry": { "type": "Polygon", "coordinates": [ [ [ 399852.695829094620422, 3786647.914547304157168 ], [ 399852.390640895231627, 3786647.609359104651958 ], [ 399852.085452695842832, 3786647.609359104651958 ], [ 399850.864699898287654, 3786646.388606307096779 ], [ 399850.559511698898859, 3786646.388606307096779 ], [ 399850.559511698898859, 3786646.083418108057231 ], [ 399849.643947100732476, 3786645.167853509541601 ], [ 399849.643947100732476, 3786644.862665310502052 ], [ 399849.338758901343681, 3786644.557477110996842 ], [ 399849.338758901343681, 3786643.947100711986423 ], [ 399849.033570701954886, 3786643.641912512946874 ], [ 399849.033570701954886, 3786643.031536113936454 ], [ 399848.728382502566092, 3786642.726347914431244 ], [ 399848.728382502566092, 3786641.200406917370856 ], [ 399849.033570701954886, 3786640.895218718331307 ], [ 399850.254323499510065, 3786640.895218718331307 ], [ 399850.559511698898859, 3786641.200406917370856 ], [ 399851.475076297065243, 3786641.200406917370856 ], [ 399851.475076297065243, 3786642.115971515886486 ], [ 399853.001017294009216, 3786643.641912512946874 ], [ 399853.306205493398011, 3786643.641912512946874 ], [ 399853.611393692786805, 3786643.947100711986423 ], [ 399853.611393692786805, 3786644.252288911491632 ], [ 399853.9165818921756, 3786644.557477110996842 ], [ 399854.221770091564395, 3786644.557477110996842 ], [ 399854.221770091564395, 3786645.167853509541601 ], [ 399854.526958290953189, 3786645.473041709046811 ], [ 399854.526958290953189, 3786646.083418108057231 ], [ 399854.832146490341984, 3786646.388606307096779 ], [ 399854.526958290953189, 3786646.693794506601989 ], [ 399854.526958290953189, 3786646.998982706107199 ], [ 399853.9165818921756, 3786647.609359104651958 ], [ 399853.611393692786805, 3786647.609359104651958 ], [ 399853.306205493398011, 3786647.914547304157168 ], [ 399852.695829094620422, 3786647.914547304157168 ] ] ] } },
{ "type": "Feature", "properties": { "confidence": 0.40001517534255981, "class": 1 }, "geometry": { "type": "Polygon", "coordinates": [ [ [ 399717.802644964365754, 3786957.680569684598595 ], [ 399717.49745676497696, 3786957.375381485093385 ], [ 399717.192268565588165, 3786957.375381485093385 ], [ 399717.192268565588165, 3786952.492370294872671 ], [ 399717.802644964365754, 3786952.492370294872671 ], [ 399718.718209562590346, 3786953.407934893388301 ], [ 399718.718209562590346, 3786953.71312309242785 ], [ 399719.02339776197914, 3786954.01831129193306 ], [ 399719.02339776197914, 3786954.62868769094348 ], [ 399719.328585961367935, 3786954.933875889983028 ], [ 399719.63377416075673, 3786954.933875889983028 ], [ 399719.63377416075673, 3786956.765005086548626 ], [ 399719.328585961367935, 3786957.070193286053836 ], [ 399719.328585961367935, 3786957.375381485093385 ], [ 399719.02339776197914, 3786957.375381485093385 ], [ 399718.718209562590346, 3786957.680569684598595 ], [ 399717.802644964365754, 3786957.680569684598595 ] ] ] } },
{ "type": "Feature", "properties": { "confidence": 0.39908617734909058, "class": 1 }, "geometry": { "type": "Polygon", "coordinates": [ [ [ 399718.718209562590346, 3786930.51881993887946 ], [ 399718.107833163812757, 3786929.908443540334702 ], [ 399718.107833163812757, 3786928.992878941819072 ], [ 399717.802644964365754, 3786928.687690742779523 ], [ 399717.802644964365754, 3786928.382502543274313 ], [ 399717.49745676497696, 3786928.077314343769103 ], [ 399717.192268565588165, 3786928.077314343769103 ], [ 399717.192268565588165, 3786926.856561546213925 ], [ 399722.075279755867086, 3786926.856561546213925 ], [ 399722.075279755867086, 3786928.687690742779523 ], [ 399721.770091556478292, 3786928.992878941819072 ], [ 399721.770091556478292, 3786929.298067141324282 ], [ 399720.549338758923113, 3786930.51881993887946 ], [ 399718.718209562590346, 3786930.51881993887946 ] ] ] } },
{ "type": "Feature", "properties": { "confidence": 0.38893651962280273, "class": 1 }, "geometry": { "type": "Polygon", "coordinates": [ [ [ 399988.80976602237206, 3787047.405900305137038 ], [ 399988.19938962359447, 3787046.79552390659228 ], [ 399986.673448626650497, 3787046.79552390659228 ], [ 399986.368260427261703, 3787046.49033570708707 ], [ 399986.368260427261703, 3787046.18514750758186 ], [ 399985.757884028484114, 3787045.574771109037101 ], [ 399985.757884028484114, 3787045.269582909531891 ], [ 399985.452695829095319, 3787044.964394710026681 ], [ 399985.452695829095319, 3787044.048830111976713 ], [ 399990.335707019316033, 3787044.048830111976713 ], [ 399990.335707019316033, 3787047.405900305137038 ], [ 399988.80976602237206, 3787047.405900305137038 ] ] ] } },
{ "type": "Feature", "properties": { "confidence": 0.2918856143951416, "class": 1 }, "geometry": { "type": "Polygon", "coordinates": [ [ [ 399742.828077314363327, 3786896.337741607334465 ], [ 399742.522889114974532, 3786896.032553407829255 ], [ 399741.607324516808148, 3786896.032553407829255 ], [ 399740.996948118030559, 3786895.422177009284496 ], [ 399740.996948118030559, 3786889.623601220548153 ], [ 399741.302136317419354, 3786889.318413021508604 ], [ 399741.607324516808148, 3786889.318413021508604 ], [ 399741.912512716196943, 3786889.013224822003394 ], [ 399742.828077314363327, 3786889.013224822003394 ], [ 399743.133265513752121, 3786888.708036622498184 ], [ 399743.438453713140916, 3786888.708036622498184 ], [ 399743.743641912529711, 3786888.402848422992975 ], [ 399743.743641912529711, 3786888.097660223953426 ], [ 399745.269582909473684, 3786888.097660223953426 ], [ 399745.574771108862478, 3786887.792472024448216 ], [ 399745.879959308251273, 3786888.097660223953426 ], [ 399746.490335707028862, 3786888.097660223953426 ], [ 399746.490335707028862, 3786889.013224822003394 ], [ 399746.185147507640067, 3786889.318413021508604 ], [ 399746.185147507640067, 3786889.928789420053363 ], [ 399746.490335707028862, 3786890.233977619558573 ], [ 399746.795523906417657, 3786890.233977619558573 ], [ 399748.016276703972835, 3786891.454730417113751 ], [ 399748.32146490336163, 3786891.454730417113751 ], [ 399748.32146490336163, 3786892.06510681565851 ], [ 399748.626653102750424, 3786892.37029501516372 ], [ 399748.626653102750424, 3786893.896236012224108 ], [ 399748.32146490336163, 3786894.201424211729318 ], [ 399748.32146490336163, 3786894.506612410768867 ], [ 399747.405900305195246, 3786895.422177009284496 ], [ 399747.100712105806451, 3786895.422177009284496 ], [ 399746.795523906417657, 3786895.727365208324045 ], [ 399746.185147507640067, 3786895.727365208324045 ], [ 399745.879959308251273, 3786896.032553407829255 ], [ 399744.3540183113073, 3786896.032553407829255 ], [ 399744.048830111918505, 3786896.337741607334465 ], [ 399742.828077314363327, 3786896.337741607334465 ] ] ] } },
{ "type": "Feature", "properties": { "confidence": 0.28464871644973755, "class": 1 }, "geometry": { "type": "Polygon", "coordinates": [ [ [ 399777.00915564596653, 3786861.241098677739501 ], [ 399777.00915564596653, 3786860.935910478234291 ], [ 399776.703967446577735, 3786860.630722278729081 ], [ 399776.703967446577735, 3786857.273652085568756 ], [ 399776.398779247188941, 3786856.968463886063546 ], [ 399776.398779247188941, 3786854.221770091447979 ], [ 399777.00915564596653, 3786853.611393692903221 ], [ 399777.00915564596653, 3786853.306205493398011 ], [ 399777.314343845355324, 3786853.306205493398011 ], [ 399777.924720244132914, 3786852.695829094387591 ], [ 399778.229908443521708, 3786852.695829094387591 ], [ 399778.535096642910503, 3786852.390640895348042 ], [ 399780.36622583924327, 3786852.390640895348042 ], [ 399780.671414038632065, 3786852.085452695842832 ], [ 399781.586978636798449, 3786852.085452695842832 ], [ 399781.892166836187243, 3786852.390640895348042 ], [ 399781.892166836187243, 3786857.578840285073966 ], [ 399781.586978636798449, 3786857.884028484113514 ], [ 399781.586978636798449, 3786858.494404883123934 ], [ 399781.281790437409654, 3786858.799593082629144 ], [ 399781.281790437409654, 3786859.104781281668693 ], [ 399780.36622583924327, 3786860.020345880184323 ], [ 399780.36622583924327, 3786860.325534079223871 ], [ 399779.450661241076887, 3786861.241098677739501 ], [ 399777.00915564596653, 3786861.241098677739501 ] ] ] } },
{ "type": "Feature", "properties": { "confidence": 0.27295544743537903, "class": 1 }, "geometry": { "type": "Polygon", "coordinates": [ [ [ 400077.00915564596653, 3786689.114954221993685 ], [ 400076.703967446577735, 3786688.809766022488475 ], [ 400076.093591047800146, 3786688.809766022488475 ], [ 400075.788402848411351, 3786688.504577822983265 ], [ 400075.483214649022557, 3786688.504577822983265 ], [ 400074.872838250244968, 3786687.894201424438506 ], [ 400074.872838250244968, 3786687.589013224933296 ], [ 400074.262461851467378, 3786686.978636825922877 ], [ 400074.262461851467378, 3786686.368260427378118 ], [ 400073.957273652078584, 3786686.063072227872908 ], [ 400073.957273652078584, 3786685.452695828862488 ], [ 400073.652085452689789, 3786685.14750762982294 ], [ 400073.652085452689789, 3786684.23194303130731 ], [ 400073.346897253300995, 3786683.926754832267761 ], [ 400073.346897253300995, 3786683.316378433257341 ], [ 400073.0417090539122, 3786683.011190233752131 ], [ 400073.0417090539122, 3786682.095625635702163 ], [ 400072.736520854523405, 3786681.790437436196953 ], [ 400072.736520854523405, 3786681.180061037652194 ], [ 400072.431332655134611, 3786680.874872838146985 ], [ 400072.431332655134611, 3786677.517802644986659 ], [ 400072.736520854523405, 3786677.517802644986659 ], [ 400073.346897253300995, 3786676.907426245976239 ], [ 400073.652085452689789, 3786676.907426245976239 ], [ 400073.957273652078584, 3786676.602238046936691 ], [ 400074.262461851467378, 3786676.602238046936691 ], [ 400074.567650050856173, 3786676.297049847431481 ], [ 400077.00915564596653, 3786676.297049847431481 ], [ 400077.314343845355324, 3786676.602238046936691 ], [ 400077.619532044744119, 3786676.602238046936691 ], [ 400079.145473041688092, 3786678.128179043531418 ], [ 400079.145473041688092, 3786678.433367243036628 ], [ 400080.671414038632065, 3786679.959308240097016 ], [ 400080.671414038632065, 3786680.569684638641775 ], [ 400080.97660223802086, 3786680.874872838146985 ], [ 400080.97660223802086, 3786683.011190233752131 ], [ 400080.671414038632065, 3786683.316378433257341 ], [ 400080.671414038632065, 3786684.53713123081252 ], [ 400080.36622583924327, 3786684.84231943031773 ], [ 400080.36622583924327, 3786685.14750762982294 ], [ 400080.061037639854476, 3786685.452695828862488 ], [ 400080.061037639854476, 3786686.063072227872908 ], [ 400079.450661241076887, 3786686.673448626883328 ], [ 400079.450661241076887, 3786686.978636825922877 ], [ 400078.840284842299297, 3786687.589013224933296 ], [ 400078.840284842299297, 3786687.894201424438506 ], [ 400077.924720244132914, 3786688.809766022488475 ], [ 400077.619532044744119, 3786688.809766022488475 ], [ 400077.314343845355324, 3786689.114954221993685 ], [ 400077.00915564596653, 3786689.114954221993685 ] ] ] } },
{ "type": "Feature", "properties": { "confidence": 0.26946011185646057, "class": 1 }, "geometry": { "type": "Polygon", "coordinates": [ [ [ 399788.911495422187727, 3786655.544252288993448 ], [ 399788.301119023410138, 3786654.933875889983028 ], [ 399788.301119023410138, 3786654.62868769094348 ], [ 399787.995930824021343, 3786654.32349949143827 ], [ 399787.995930824021343, 3786654.01831129193306 ], [ 399787.690742624632549, 3786653.71312309242785 ], [ 399787.690742624632549, 3786653.102746693883091 ], [ 399787.385554425243754, 3786652.797558494377881 ], [ 399787.385554425243754, 3786651.576805696822703 ], [ 399787.080366225854959, 3786651.271617497317493 ], [ 399787.080366225854959, 3786650.050864699762315 ], [ 399787.385554425243754, 3786649.745676500722766 ], [ 399790.132248219742905, 3786649.745676500722766 ], [ 399790.4374364191317, 3786650.050864699762315 ], [ 399790.742624618520495, 3786650.050864699762315 ], [ 399790.742624618520495, 3786650.966429298277944 ], [ 399791.047812817909289, 3786651.271617497317493 ], [ 399791.047812817909289, 3786652.492370294872671 ], [ 399791.353001017298084, 3786652.797558494377881 ], [ 399791.047812817909289, 3786653.102746693883091 ], [ 399791.047812817909289, 3786653.407934893388301 ], [ 399790.742624618520495, 3786653.71312309242785 ], [ 399790.742624618520495, 3786654.01831129193306 ], [ 399790.4374364191317, 3786654.32349949143827 ], [ 399790.4374364191317, 3786654.62868769094348 ], [ 399789.827060020354111, 3786655.239064089488238 ], [ 399789.827060020354111, 3786655.544252288993448 ], [ 399788.911495422187727, 3786655.544252288993448 ] ] ] } },
{ "type": "Feature", "properties": { "confidence": 0.2673879861831665, "class": 1 }, "geometry": { "type": "Polygon", "coordinates": [ [ [ 399748.32146490336163, 3787093.489318413194269 ], [ 399748.016276703972835, 3787093.184130213689059 ], [ 399747.71108850458404, 3787093.184130213689059 ], [ 399747.405900305195246, 3787092.878942014183849 ], [ 399747.405900305195246, 3787092.573753814678639 ], [ 399746.795523906417657, 3787091.963377416133881 ], [ 399746.795523906417657, 3787089.827060020528734 ], [ 399747.100712105806451, 3787089.521871821023524 ], [ 399747.100712105806451, 3787088.911495422013104 ], [ 399747.71108850458404, 3787088.301119023468345 ], [ 399747.71108850458404, 3787087.995930823963135 ], [ 399749.237029501528013, 3787086.469989826902747 ], [ 399749.542217700916808, 3787086.469989826902747 ], [ 399749.847405900305603, 3787086.164801627863199 ], [ 399750.457782299083192, 3787086.164801627863199 ], [ 399750.762970498471987, 3787085.859613428357989 ], [ 399751.373346897249576, 3787085.859613428357989 ], [ 399751.67853509663837, 3787086.164801627863199 ], [ 399751.983723296027165, 3787086.164801627863199 ], [ 399751.983723296027165, 3787086.469989826902747 ], [ 399752.28891149541596, 3787086.775178026407957 ], [ 399752.28891149541596, 3787087.080366225913167 ], [ 399752.594099694804754, 3787087.385554425418377 ], [ 399752.594099694804754, 3787091.047812818083912 ], [ 399752.28891149541596, 3787091.353001017123461 ], [ 399752.28891149541596, 3787091.658189216628671 ], [ 399751.983723296027165, 3787091.963377416133881 ], [ 399751.983723296027165, 3787092.573753814678639 ], [ 399751.068158697860781, 3787093.489318413194269 ], [ 399748.32146490336163, 3787093.489318413194269 ] ] ] } },
{ "type": "Feature", "properties": { "confidence": 0.25525283813476562, "class": 1 }, "geometry": { "type": "Polygon", "coordinates": [ [ [ 399990.030518819927238, 3786719.023397761862725 ], [ 399989.725330620538443, 3786718.718209562357515 ], [ 399988.80976602237206, 3786718.718209562357515 ], [ 399988.80976602237206, 3786718.107833163812757 ], [ 399988.504577822983265, 3786717.802644964307547 ], [ 399988.504577822983265, 3786715.05595116969198 ], [ 399988.80976602237206, 3786714.750762970652431 ], [ 399988.80976602237206, 3786714.140386571642011 ], [ 399989.114954221760854, 3786713.835198372136801 ], [ 399989.114954221760854, 3786713.224821973592043 ], [ 399989.420142421149649, 3786712.919633774086833 ], [ 399989.420142421149649, 3786712.004069176036865 ], [ 399990.335707019316033, 3786712.004069176036865 ], [ 399990.335707019316033, 3786719.023397761862725 ], [ 399990.030518819927238, 3786719.023397761862725 ] ] ] } }
]
}
