{
"type": "FeatureCollection",
"name": "cell_00388_pre",
"crs": { "type": "name", "properties": { "name": "urn:ogc:def:crs:EPSG::32611" } },
"features": [
{ "type": "Feature", "properties": { "confidence": 0.98363184928894043, "class": 1 }, "geometry": { "type": "Polygon", "coordinates": [ [ [ 396873.753814852505457, 3786189.521871821023524 ], [ 396873.448626653116662, 3786189.216683621518314 ], [ 396873.143438453727867, 3786189.216683621518314 ], [ 396873.143438453727867, 3786188.911495422013104 ], [ 396872.838250254339073, 3786188.606307222973555 ], [ 396872.838250254339073, 3786187.690742624457926 ], [ 396872.533062054950278, 3786187.385554425418377 ], [ 396872.533062054950278, 3786183.723296032752842 ], [ 396872.227873855561484, 3786183.418107833247632 ], [ 396872.227873855561484, 3786180.976602238137275 ], [ 396872.533062054950278, 3786180.671414038632065 ], [ 396872.533062054950278, 3786180.366225839126855 ], [ 396873.448626653116662, 3786179.450661241076887 ], [ 396874.059003051894251, 3786179.450661241076887 ], [ 396874.66937945067184, 3786178.840284842532128 ], [ 396878.331637843337376, 3786178.840284842532128 ], [ 396878.331637843337376, 3786179.145473041571677 ], [ 396878.63682604272617, 3786179.450661241076887 ], [ 396879.247202441503759, 3786179.450661241076887 ], [ 396879.552390640892554, 3786179.755849440582097 ], [ 396879.552390640892554, 3786180.061037640087306 ], [ 396879.857578840281349, 3786180.366225839126855 ], [ 396879.857578840281349, 3786180.671414038632065 ], [ 396880.162767039670143, 3786180.976602238137275 ], [ 396880.467955239058938, 3786180.976602238137275 ], [ 396880.467955239058938, 3786181.281790437642485 ], [ 396880.773143438447732, 3786181.586978636682034 ], [ 396880.773143438447732, 3786181.892166836187243 ], [ 396881.078331637836527, 3786182.197355035692453 ], [ 396881.078331637836527, 3786182.502543235197663 ], [ 396881.383519837225322, 3786182.807731434237212 ], [ 396881.383519837225322, 3786183.723296032752842 ], [ 396881.078331637836527, 3786184.02848423179239 ], [ 396881.078331637836527, 3786184.63886063080281 ], [ 396879.552390640892554, 3786186.164801627863199 ], [ 396879.552390640892554, 3786186.469989826902747 ], [ 396879.247202441503759, 3786186.775178026407957 ], [ 396879.247202441503759, 3786187.080366225913167 ], [ 396878.942014242114965, 3786187.385554425418377 ], [ 396878.942014242114965, 3786187.690742624457926 ], [ 396878.331637843337376, 3786188.301119023468345 ], [ 396878.331637843337376, 3786188.606307222973555 ], [ 396878.026449643948581, 3786188.606307222973555 ], [ 396877.416073245170992, 3786189.216683621518314 ], [ 396877.110885045782197, 3786189.216683621518314 ], [ 396876.805696846393403, 3786189.521871821023524 ], [ 396873.753814852505457, 3786189.521871821023524 ] ] ] } },
{ "type": "Feature", "properties": { "confidence": 0.94580930471420288, "class": 1 }, "geometry": { "type": "Polygon", "coordinates": [ [ [ 396995.523906408925541, 3786103.763987792655826 ], [ 396994.303153611370362, 3786102.543234995100647 ], [ 396993.997965411981568, 3786102.543234995100647 ], [ 396993.692777212592773, 3786102.238046795595437 ], [ 396993.692777212592773, 3786101.932858596090227 ], [ 396993.387589013203979, 3786101.627670396585017 ], [ 396993.082400813815184, 3786101.627670396585017 ], [ 396992.1668362156488, 3786100.712105798535049 ], [ 396992.1668362156488, 3786100.406917599029839 ], [ 396991.861648016260006, 3786100.10172939999029 ], [ 396991.861648016260006, 3786099.186164801474661 ], [ 396991.556459816871211, 3786098.880976602435112 ], [ 396991.556459816871211, 3786096.744659206364304 ], [ 396991.861648016260006, 3786096.439471007324755 ], [ 396991.861648016260006, 3786094.608341810759157 ], [ 396992.1668362156488, 3786094.303153611253947 ], [ 396992.1668362156488, 3786093.692777212709188 ], [ 396991.861648016260006, 3786093.387589013203979 ], [ 396992.1668362156488, 3786093.082400813698769 ], [ 396997.355035605316516, 3786093.082400813698769 ], [ 396997.660223804705311, 3786093.387589013203979 ], [ 396997.660223804705311, 3786093.692777212709188 ], [ 396997.965412004094105, 3786093.997965412214398 ], [ 396997.965412004094105, 3786094.303153611253947 ], [ 396998.2706002034829, 3786094.608341810759157 ], [ 396998.575788402871694, 3786094.608341810759157 ], [ 397000.406917599204462, 3786096.439471007324755 ], [ 397000.406917599204462, 3786096.744659206364304 ], [ 397000.712105798593257, 3786097.049847405869514 ], [ 397000.712105798593257, 3786097.355035605374724 ], [ 397001.017293997982051, 3786097.660223804879934 ], [ 397001.017293997982051, 3786100.712105798535049 ], [ 397000.712105798593257, 3786101.017293998040259 ], [ 397000.712105798593257, 3786101.932858596090227 ], [ 396999.491353001038078, 3786103.153611393645406 ], [ 396998.880976602260489, 3786103.153611393645406 ], [ 396998.575788402871694, 3786103.458799593150616 ], [ 396997.660223804705311, 3786103.458799593150616 ], [ 396997.355035605316516, 3786103.763987792655826 ], [ 396995.523906408925541, 3786103.763987792655826 ] ] ] } },
{ "type": "Feature", "properties": { "confidence": 0.88175362348556519, "class": 1 }, "geometry": { "type": "Polygon", "coordinates": [ [ [ 396732.451678535086103, 3786204.476093591190875 ], [ 396732.146490335697308, 3786204.170905391685665 ], [ 396731.841302136308514, 3786204.170905391685665 ], [ 396731.230925737530924, 3786203.560528992675245 ], [ 396730.92573753814213, 3786203.560528992675245 ], [ 396730.92573753814213, 3786202.950152594130486 ], [ 396730.620549338753335, 3786202.644964394625276 ], [ 396730.620549338753335, 3786202.034587996080518 ], [ 396730.315361139364541, 3786201.729399796575308 ], [ 396730.315361139364541, 3786201.119023397564888 ], [ 396730.010172939975746, 3786200.813835198525339 ], [ 396730.010172939975746, 3786199.89827060000971 ], [ 396729.704984740586951, 3786199.593082400970161 ], [ 396729.704984740586951, 3786197.456765004899353 ], [ 396730.010172939975746, 3786197.151576805859804 ], [ 396731.536113936919719, 3786197.151576805859804 ], [ 396731.841302136308514, 3786197.456765004899353 ], [ 396732.756866734474897, 3786197.456765004899353 ], [ 396733.367243133252487, 3786198.067141403909773 ], [ 396734.587995930807665, 3786198.067141403909773 ], [ 396734.89318413019646, 3786198.372329603414983 ], [ 396735.198372329585254, 3786198.372329603414983 ], [ 396735.503560528974049, 3786198.677517802454531 ], [ 396735.503560528974049, 3786202.950152594130486 ], [ 396735.198372329585254, 3786203.255340793635696 ], [ 396735.198372329585254, 3786203.560528992675245 ], [ 396734.587995930807665, 3786204.170905391685665 ], [ 396733.977619532030076, 3786204.170905391685665 ], [ 396733.672431332641281, 3786204.476093591190875 ], [ 396732.451678535086103, 3786204.476093591190875 ] ] ] } },
{ "type": "Feature", "properties": { "confidence": 0.75926059484481812, "class": 1 }, "geometry": { "type": "Polygon", "coordinates": [ [ [ 396909.460834181052633, 3786152.899287894368172 ], [ 396908.545269582886249, 3786151.983723295852542 ], [ 396908.545269582886249, 3786148.931841302197427 ], [ 396908.240081383497454, 3786148.626653102692217 ], [ 396908.545269582886249, 3786148.321464903187007 ], [ 396908.545269582886249, 3786147.405900305137038 ], [ 396908.850457782275043, 3786147.100712105631828 ], [ 396908.850457782275043, 3786146.79552390659228 ], [ 396909.155645981663838, 3786146.49033570708707 ], [ 396909.155645981663838, 3786145.87995930807665 ], [ 396909.460834181052633, 3786145.574771109037101 ], [ 396909.460834181052633, 3786145.269582909531891 ], [ 396909.766022380441427, 3786144.964394710026681 ], [ 396909.766022380441427, 3786144.659206510521472 ], [ 396910.071210579830222, 3786144.354018311481923 ], [ 396910.071210579830222, 3786144.048830111976713 ], [ 396910.376398779219016, 3786143.743641912471503 ], [ 396910.681586978607811, 3786143.743641912471503 ], [ 396910.986775178054813, 3786143.438453712966293 ], [ 396911.291963377443608, 3786143.438453712966293 ], [ 396911.597151576832402, 3786143.133265513926744 ], [ 396912.207527975609992, 3786143.133265513926744 ], [ 396912.817904374387581, 3786143.743641912471503 ], [ 396912.817904374387581, 3786144.354018311481923 ], [ 396913.123092573776376, 3786144.659206510521472 ], [ 396913.123092573776376, 3786144.964394710026681 ], [ 396913.42828077316517, 3786145.269582909531891 ], [ 396913.733468972553965, 3786145.269582909531891 ], [ 396913.733468972553965, 3786145.87995930807665 ], [ 396914.038657171942759, 3786146.18514750758186 ], [ 396914.038657171942759, 3786147.405900305137038 ], [ 396913.733468972553965, 3786147.711088504642248 ], [ 396913.733468972553965, 3786148.016276704147458 ], [ 396913.42828077316517, 3786148.321464903187007 ], [ 396913.42828077316517, 3786148.626653102692217 ], [ 396912.817904374387581, 3786149.237029501702636 ], [ 396912.817904374387581, 3786149.542217700742185 ], [ 396912.512716174998786, 3786149.847405900247395 ], [ 396912.512716174998786, 3786150.152594099752605 ], [ 396912.207527975609992, 3786150.457782299257815 ], [ 396912.207527975609992, 3786150.762970498297364 ], [ 396911.902339776221197, 3786151.068158697802573 ], [ 396911.902339776221197, 3786151.678535096812993 ], [ 396911.597151576832402, 3786151.983723295852542 ], [ 396911.597151576832402, 3786152.288911495357752 ], [ 396910.986775178054813, 3786152.899287894368172 ], [ 396909.460834181052633, 3786152.899287894368172 ] ] ] } },
{ "type": "Feature", "properties": { "confidence": 0.75227165222167969, "class": 1 }, "geometry": { "type": "Polygon", "coordinates": [ [ [ 396972.634791454707738, 3786330.82400813838467 ], [ 396972.329603255318943, 3786330.51881993887946 ], [ 396971.719226856541354, 3786330.51881993887946 ], [ 396971.108850457763765, 3786329.908443540334702 ], [ 396970.80366225837497, 3786329.908443540334702 ], [ 396970.498474058986176, 3786329.603255340829492 ], [ 396970.498474058986176, 3786329.298067141324282 ], [ 396970.193285859597381, 3786328.992878941819072 ], [ 396970.193285859597381, 3786327.772126144263893 ], [ 396970.498474058986176, 3786327.466937945224345 ], [ 396970.498474058986176, 3786326.856561546213925 ], [ 396977.822990844375454, 3786326.856561546213925 ], [ 396977.822990844375454, 3786327.466937945224345 ], [ 396978.433367243153043, 3786328.077314343769103 ], [ 396978.433367243153043, 3786329.908443540334702 ], [ 396978.128179043764248, 3786330.21363173937425 ], [ 396977.517802644986659, 3786330.21363173937425 ], [ 396977.212614445597865, 3786330.51881993887946 ], [ 396976.602238046820275, 3786330.51881993887946 ], [ 396976.297049847431481, 3786330.82400813838467 ], [ 396972.634791454707738, 3786330.82400813838467 ] ] ] } },
{ "type": "Feature", "properties": { "confidence": 0.71280896663665771, "class": 1 }, "geometry": { "type": "Polygon", "coordinates": [ [ [ 396928.077314343827311, 3786090.946083418093622 ], [ 396927.772126144438516, 3786090.640895218588412 ], [ 396926.856561546272133, 3786090.640895218588412 ], [ 396926.551373346883338, 3786090.335707019548863 ], [ 396926.246185147494543, 3786090.335707019548863 ], [ 396925.940996948105749, 3786090.030518820043653 ], [ 396925.635808748716954, 3786090.030518820043653 ], [ 396925.025432349939365, 3786089.420142421033233 ], [ 396925.025432349939365, 3786089.114954221993685 ], [ 396924.72024415055057, 3786088.809766022488475 ], [ 396924.72024415055057, 3786088.504577822983265 ], [ 396924.415055951161776, 3786088.199389623478055 ], [ 396924.415055951161776, 3786087.894201424438506 ], [ 396924.109867751772981, 3786087.589013224933296 ], [ 396924.109867751772981, 3786085.757884028367698 ], [ 396924.415055951161776, 3786085.757884028367698 ], [ 396925.025432349939365, 3786085.14750762982294 ], [ 396925.33062054932816, 3786085.14750762982294 ], [ 396926.246185147494543, 3786084.23194303130731 ], [ 396926.551373346883338, 3786084.23194303130731 ], [ 396926.856561546272133, 3786083.926754832267761 ], [ 396927.466937945049722, 3786083.926754832267761 ], [ 396927.772126144438516, 3786083.621566632762551 ], [ 396928.382502543216106, 3786083.621566632762551 ], [ 396928.6876907426049, 3786083.316378433257341 ], [ 396929.298067141382489, 3786083.316378433257341 ], [ 396929.298067141382489, 3786083.621566632762551 ], [ 396929.908443540160079, 3786084.23194303130731 ], [ 396929.908443540160079, 3786084.53713123081252 ], [ 396930.213631739548873, 3786084.84231943031773 ], [ 396930.213631739548873, 3786085.14750762982294 ], [ 396930.518819938937668, 3786085.452695828862488 ], [ 396930.518819938937668, 3786086.673448626883328 ], [ 396930.824008138326462, 3786086.978636825922877 ], [ 396930.518819938937668, 3786087.283825025428087 ], [ 396930.518819938937668, 3786090.030518820043653 ], [ 396929.908443540160079, 3786090.640895218588412 ], [ 396928.992878941993695, 3786090.640895218588412 ], [ 396928.6876907426049, 3786090.946083418093622 ], [ 396928.077314343827311, 3786090.946083418093622 ] ] ] } },
{ "type": "Feature", "properties": { "confidence": 0.66689395904541016, "class": 1 }, "geometry": { "type": "Polygon", "coordinates": [ [ [ 397077.619532044744119, 3786057.680569684598595 ], [ 397077.314343845355324, 3786057.375381485093385 ], [ 397077.00915564596653, 3786057.375381485093385 ], [ 397077.00915564596653, 3786056.765005086548626 ], [ 397076.703967446577735, 3786056.459816887043417 ], [ 397076.703967446577735, 3786054.933875889983028 ], [ 397076.398779247188941, 3786054.62868769094348 ], [ 397076.398779247188941, 3786053.71312309242785 ], [ 397076.703967446577735, 3786053.407934893388301 ], [ 397076.703967446577735, 3786053.102746693883091 ], [ 397077.00915564596653, 3786052.797558494377881 ], [ 397077.00915564596653, 3786052.492370294872671 ], [ 397077.314343845355324, 3786052.492370294872671 ], [ 397077.619532044744119, 3786052.187182095833123 ], [ 397078.229908443521708, 3786052.187182095833123 ], [ 397078.535096642910503, 3786051.881993896327913 ], [ 397081.281790437409654, 3786051.881993896327913 ], [ 397081.586978636798449, 3786052.187182095833123 ], [ 397081.892166836187243, 3786052.187182095833123 ], [ 397082.197355035634246, 3786052.492370294872671 ], [ 397082.807731434411835, 3786052.492370294872671 ], [ 397083.11291963380063, 3786052.797558494377881 ], [ 397083.418107833189424, 3786052.797558494377881 ], [ 397083.723296032578219, 3786053.102746693883091 ], [ 397084.028484231967013, 3786053.102746693883091 ], [ 397084.638860630744603, 3786053.71312309242785 ], [ 397084.638860630744603, 3786054.933875889983028 ], [ 397084.333672431355808, 3786055.239064089488238 ], [ 397084.333672431355808, 3786055.544252288993448 ], [ 397084.028484231967013, 3786055.849440488498658 ], [ 397083.723296032578219, 3786055.849440488498658 ], [ 397083.418107833189424, 3786056.154628687538207 ], [ 397082.807731434411835, 3786056.154628687538207 ], [ 397082.50254323502304, 3786056.459816887043417 ], [ 397081.586978636798449, 3786056.459816887043417 ], [ 397081.281790437409654, 3786056.765005086548626 ], [ 397080.671414038632065, 3786056.765005086548626 ], [ 397080.36622583924327, 3786057.070193286053836 ], [ 397079.755849440465681, 3786057.070193286053836 ], [ 397079.450661241076887, 3786057.375381485093385 ], [ 397079.145473041688092, 3786057.375381485093385 ], [ 397078.840284842299297, 3786057.680569684598595 ], [ 397077.619532044744119, 3786057.680569684598595 ] ] ] } },
{ "type": "Feature", "properties": { "confidence": 0.64934223890304565, "class": 1 }, "geometry": { "type": "Polygon", "coordinates": [ [ [ 396683.316378433373757, 3786213.631739572621882 ], [ 396683.011190233984962, 3786213.326551373116672 ], [ 396682.706002034596168, 3786213.326551373116672 ], [ 396682.400813835207373, 3786213.021363174077123 ], [ 396682.400813835207373, 3786212.410986775066704 ], [ 396682.095625635818578, 3786212.105798575561494 ], [ 396682.095625635818578, 3786210.579857578966767 ], [ 396682.400813835207373, 3786210.274669379461557 ], [ 396682.400813835207373, 3786209.664292980451137 ], [ 396688.80976602237206, 3786209.664292980451137 ], [ 396688.80976602237206, 3786212.410986775066704 ], [ 396688.504577822983265, 3786212.716174974571913 ], [ 396687.894201424205676, 3786212.716174974571913 ], [ 396687.589013224816881, 3786213.021363174077123 ], [ 396687.283825025428087, 3786213.021363174077123 ], [ 396686.978636826039292, 3786213.326551373116672 ], [ 396685.147507629706524, 3786213.326551373116672 ], [ 396684.84231943031773, 3786213.631739572621882 ], [ 396683.316378433373757, 3786213.631739572621882 ] ] ] } },
{ "type": "Feature", "properties": { "confidence": 0.63801419734954834, "class": 1 }, "geometry": { "type": "Polygon", "coordinates": [ [ [ 396910.986775178054813, 3786208.13835198385641 ], [ 396910.986775178054813, 3786207.8331637843512 ], [ 396910.681586978607811, 3786207.52797558484599 ], [ 396910.681586978607811, 3786202.644964394625276 ], [ 396911.597151576832402, 3786201.729399796575308 ], [ 396911.902339776221197, 3786201.729399796575308 ], [ 396912.207527975609992, 3786201.424211597070098 ], [ 396912.512716174998786, 3786201.424211597070098 ], [ 396912.817904374387581, 3786201.119023397564888 ], [ 396914.343845371331554, 3786201.119023397564888 ], [ 396914.649033570720349, 3786201.424211597070098 ], [ 396915.259409969497938, 3786201.424211597070098 ], [ 396915.259409969497938, 3786201.729399796575308 ], [ 396915.564598168886732, 3786202.034587996080518 ], [ 396915.869786368275527, 3786202.034587996080518 ], [ 396915.869786368275527, 3786202.339776195120066 ], [ 396916.174974567664322, 3786202.644964394625276 ], [ 396916.174974567664322, 3786203.255340793635696 ], [ 396916.480162767053116, 3786203.560528992675245 ], [ 396916.480162767053116, 3786206.002034587785602 ], [ 396915.259409969497938, 3786207.22278738534078 ], [ 396914.954221770109143, 3786207.22278738534078 ], [ 396914.343845371331554, 3786207.8331637843512 ], [ 396913.733468972553965, 3786207.8331637843512 ], [ 396913.42828077316517, 3786208.13835198385641 ], [ 396910.986775178054813, 3786208.13835198385641 ] ] ] } },
{ "type": "Feature", "properties": { "confidence": 0.62985318899154663, "class": 1 }, "geometry": { "type": "Polygon", "coordinates": [ [ [ 396879.247202441503759, 3786448.321464903187007 ], [ 396878.942014242114965, 3786448.016276704147458 ], [ 396878.942014242114965, 3786447.405900305137038 ], [ 396878.331637843337376, 3786446.79552390659228 ], [ 396878.331637843337376, 3786446.49033570708707 ], [ 396878.026449643948581, 3786446.18514750758186 ], [ 396878.026449643948581, 3786444.659206510521472 ], [ 396877.721261444559786, 3786444.354018311481923 ], [ 396877.721261444559786, 3786444.048830111976713 ], [ 396885.961342828057241, 3786444.048830111976713 ], [ 396885.961342828057241, 3786445.269582909531891 ], [ 396885.045778229890857, 3786446.18514750758186 ], [ 396885.045778229890857, 3786446.49033570708707 ], [ 396884.435401831113268, 3786446.49033570708707 ], [ 396884.130213631724473, 3786446.79552390659228 ], [ 396883.214649033558089, 3786446.79552390659228 ], [ 396882.909460834169295, 3786447.100712105631828 ], [ 396882.6042726347805, 3786447.100712105631828 ], [ 396882.299084435391705, 3786447.405900305137038 ], [ 396882.299084435391705, 3786447.711088504642248 ], [ 396881.993896236002911, 3786448.016276704147458 ], [ 396881.688708036614116, 3786448.016276704147458 ], [ 396881.383519837225322, 3786448.321464903187007 ], [ 396879.247202441503759, 3786448.321464903187007 ] ] ] } },
{ "type": "Feature", "properties": { "confidence": 0.61481350660324097, "class": 1 }, "geometry": { "type": "Polygon", "coordinates": [ [ [ 397069.989827060024254, 3786096.439471007324755 ], [ 397069.684638860635459, 3786096.134282807819545 ], [ 397069.379450661246665, 3786096.134282807819545 ], [ 397069.379450661246665, 3786095.523906408809125 ], [ 397069.07426246185787, 3786095.218718209769577 ], [ 397068.769074262469076, 3786095.218718209769577 ], [ 397068.769074262469076, 3786093.082400813698769 ], [ 397069.07426246185787, 3786093.082400813698769 ], [ 397069.379450661246665, 3786092.77721261465922 ], [ 397069.379450661246665, 3786092.47202441515401 ], [ 397072.431332655134611, 3786092.47202441515401 ], [ 397072.431332655134611, 3786093.997965412214398 ], [ 397072.126144455745816, 3786094.303153611253947 ], [ 397071.820956256357022, 3786094.303153611253947 ], [ 397071.515768056968227, 3786094.608341810759157 ], [ 397071.515768056968227, 3786094.913530010264367 ], [ 397071.210579857579432, 3786094.913530010264367 ], [ 397070.600203458801843, 3786095.523906408809125 ], [ 397070.600203458801843, 3786095.829094608314335 ], [ 397069.989827060024254, 3786096.439471007324755 ] ] ] } },
{ "type": "Feature", "properties": { "confidence": 0.61347931623458862, "class": 1 }, "geometry": { "type": "Polygon", "coordinates": [ [ [ 396957.375381485268008, 3786187.690742624457926 ], [ 396957.070193285879213, 3786187.385554425418377 ], [ 396956.765005086490419, 3786187.385554425418377 ], [ 396955.239064089546446, 3786185.859613428357989 ], [ 396955.239064089546446, 3786185.554425228852779 ], [ 396954.628687690768857, 3786184.94404883030802 ], [ 396954.628687690768857, 3786184.3336724312976 ], [ 396954.323499491380062, 3786184.02848423179239 ], [ 396954.323499491380062, 3786182.807731434237212 ], [ 396954.628687690768857, 3786182.502543235197663 ], [ 396954.628687690768857, 3786182.197355035692453 ], [ 396954.933875890157651, 3786181.892166836187243 ], [ 396955.239064089546446, 3786181.892166836187243 ], [ 396955.54425228893524, 3786181.586978636682034 ], [ 396956.15462868771283, 3786181.586978636682034 ], [ 396956.459816887101624, 3786181.281790437642485 ], [ 396957.680569684656803, 3786181.281790437642485 ], [ 396957.985757884045597, 3786181.586978636682034 ], [ 396960.122075279767159, 3786181.586978636682034 ], [ 396960.427263479155954, 3786181.892166836187243 ], [ 396961.648016276711132, 3786181.892166836187243 ], [ 396961.648016276711132, 3786185.249237029347569 ], [ 396961.953204476099927, 3786185.554425228852779 ], [ 396961.953204476099927, 3786186.775178026407957 ], [ 396961.037639877933543, 3786187.690742624457926 ], [ 396957.375381485268008, 3786187.690742624457926 ] ] ] } },
{ "type": "Feature", "properties": { "confidence": 0.61092263460159302, "class": 1 }, "geometry": { "type": "Polygon", "coordinates": [ [ [ 396609.155645981663838, 3786332.960325533989817 ], [ 396608.850457782275043, 3786332.655137334484607 ], [ 396608.850457782275043, 3786332.349949135445058 ], [ 396608.545269582886249, 3786332.044760935939848 ], [ 396608.545269582886249, 3786330.21363173937425 ], [ 396608.850457782275043, 3786329.908443540334702 ], [ 396608.850457782275043, 3786329.603255340829492 ], [ 396609.155645981663838, 3786329.298067141324282 ], [ 396609.155645981663838, 3786328.992878941819072 ], [ 396609.460834181052633, 3786328.687690742779523 ], [ 396609.766022380441427, 3786328.687690742779523 ], [ 396610.071210579830222, 3786328.382502543274313 ], [ 396610.986775178054813, 3786328.382502543274313 ], [ 396611.597151576832402, 3786328.992878941819072 ], [ 396611.597151576832402, 3786332.044760935939848 ], [ 396610.681586978607811, 3786332.960325533989817 ], [ 396609.155645981663838, 3786332.960325533989817 ] ] ] } },
{ "type": "Feature", "properties": { "confidence": 0.57577025890350342, "class": 1 }, "geometry": { "type": "Polygon", "coordinates": [ [ [ 396939.979654120048508, 3786098.575788402929902 ], [ 396939.369277721270919, 3786097.965412003919482 ], [ 396939.369277721270919, 3786097.660223804879934 ], [ 396939.064089521882124, 3786097.355035605374724 ], [ 396939.064089521882124, 3786096.744659206364304 ], [ 396938.75890132249333, 3786096.439471007324755 ], [ 396938.75890132249333, 3786096.134282807819545 ], [ 396938.453713123104535, 3786095.829094608314335 ], [ 396938.453713123104535, 3786095.523906408809125 ], [ 396938.14852492371574, 3786095.218718209769577 ], [ 396938.14852492371574, 3786094.913530010264367 ], [ 396937.843336724326946, 3786094.608341810759157 ], [ 396937.843336724326946, 3786093.692777212709188 ], [ 396938.14852492371574, 3786093.387589013203979 ], [ 396938.14852492371574, 3786093.082400813698769 ], [ 396938.453713123104535, 3786093.082400813698769 ], [ 396938.75890132249333, 3786092.77721261465922 ], [ 396938.75890132249333, 3786092.47202441515401 ], [ 396944.862665310269222, 3786092.47202441515401 ], [ 396944.862665310269222, 3786094.913530010264367 ], [ 396944.557477110880427, 3786095.218718209769577 ], [ 396944.557477110880427, 3786095.523906408809125 ], [ 396943.336724313325249, 3786096.744659206364304 ], [ 396943.336724313325249, 3786097.049847405869514 ], [ 396942.726347914547659, 3786097.660223804879934 ], [ 396942.726347914547659, 3786097.965412003919482 ], [ 396942.421159715158865, 3786098.270600203424692 ], [ 396942.11597151577007, 3786098.270600203424692 ], [ 396941.810783316381276, 3786098.575788402929902 ], [ 396939.979654120048508, 3786098.575788402929902 ] ] ] } },
{ "type": "Feature", "properties": { "confidence": 0.50220292806625366, "class": 1 }, "geometry": { "type": "Polygon", "coordinates": [ [ [ 396909.155645981663838, 3786257.578840285073966 ], [ 396908.545269582886249, 3786256.968463886063546 ], [ 396908.545269582886249, 3786255.747711088508368 ], [ 396908.240081383497454, 3786255.442522889003158 ], [ 396908.240081383497454, 3786254.832146490458399 ], [ 396907.93489318410866, 3786254.526958290953189 ], [ 396907.93489318410866, 3786253.306205493398011 ], [ 396907.629704984719865, 3786253.001017293892801 ], [ 396907.629704984719865, 3786252.695829094387591 ], [ 396907.32451678533107, 3786252.390640895348042 ], [ 396907.32451678533107, 3786251.780264496337622 ], [ 396907.019328585942276, 3786251.475076296832412 ], [ 396907.019328585942276, 3786246.897253306116909 ], [ 396907.32451678533107, 3786246.592065106611699 ], [ 396907.629704984719865, 3786246.592065106611699 ], [ 396907.93489318410866, 3786246.28687690757215 ], [ 396908.240081383497454, 3786246.28687690757215 ], [ 396908.545269582886249, 3786245.98168870806694 ], [ 396909.460834181052633, 3786245.98168870806694 ], [ 396909.766022380441427, 3786245.67650050856173 ], [ 396910.071210579830222, 3786245.67650050856173 ], [ 396910.681586978607811, 3786245.066124110016972 ], [ 396913.123092573776376, 3786245.066124110016972 ], [ 396913.733468972553965, 3786245.67650050856173 ], [ 396914.038657171942759, 3786245.67650050856173 ], [ 396914.038657171942759, 3786245.98168870806694 ], [ 396914.343845371331554, 3786246.28687690757215 ], [ 396914.343845371331554, 3786246.592065106611699 ], [ 396914.954221770109143, 3786247.202441505622119 ], [ 396914.954221770109143, 3786247.507629705127329 ], [ 396915.564598168886732, 3786248.118006103672087 ], [ 396915.564598168886732, 3786249.338758901227266 ], [ 396915.869786368275527, 3786249.643947100732476 ], [ 396915.564598168886732, 3786249.949135300237685 ], [ 396915.564598168886732, 3786252.390640895348042 ], [ 396915.259409969497938, 3786252.695829094387591 ], [ 396915.259409969497938, 3786253.916581891942769 ], [ 396914.954221770109143, 3786254.221770091447979 ], [ 396914.954221770109143, 3786254.526958290953189 ], [ 396914.649033570720349, 3786254.832146490458399 ], [ 396914.649033570720349, 3786255.137334689497948 ], [ 396914.343845371331554, 3786255.442522889003158 ], [ 396914.343845371331554, 3786256.052899288013577 ], [ 396914.038657171942759, 3786256.358087487053126 ], [ 396914.038657171942759, 3786256.663275686558336 ], [ 396913.733468972553965, 3786256.968463886063546 ], [ 396913.42828077316517, 3786256.968463886063546 ], [ 396913.123092573776376, 3786257.273652085568756 ], [ 396911.902339776221197, 3786257.273652085568756 ], [ 396911.597151576832402, 3786257.578840285073966 ], [ 396909.155645981663838, 3786257.578840285073966 ] ] ] } },
{ "type": "Feature", "properties": { "confidence": 0.48966813087463379, "class": 1 }, "geometry": { "type": "Polygon", "coordinates": [ [ [ 396637.843336724326946, 3786097.660223804879934 ], [ 396637.538148524938151, 3786097.355035605374724 ], [ 396637.232960325549357, 3786097.355035605374724 ], [ 396636.622583926771767, 3786096.744659206364304 ], [ 396636.622583926771767, 3786096.439471007324755 ], [ 396635.096642929827794, 3786094.913530010264367 ], [ 396635.096642929827794, 3786093.997965412214398 ], [ 396635.401831129216589, 3786093.692777212709188 ], [ 396635.401831129216589, 3786093.387589013203979 ], [ 396635.707019328605384, 3786093.082400813698769 ], [ 396641.505595116992481, 3786093.082400813698769 ], [ 396641.505595116992481, 3786095.829094608314335 ], [ 396641.200406917603686, 3786096.134282807819545 ], [ 396641.200406917603686, 3786096.744659206364304 ], [ 396640.590030518826097, 3786097.355035605374724 ], [ 396639.979654120048508, 3786097.355035605374724 ], [ 396639.674465920659713, 3786097.660223804879934 ], [ 396637.843336724326946, 3786097.660223804879934 ] ] ] } },
{ "type": "Feature", "properties": { "confidence": 0.48607400059700012, "class": 1 }, "geometry": { "type": "Polygon", "coordinates": [ [ [ 396863.072227873839438, 3786331.739572736434639 ], [ 396862.767039674450643, 3786331.434384536929429 ], [ 396861.85147507628426, 3786331.434384536929429 ], [ 396861.546286876895465, 3786331.12919633788988 ], [ 396861.546286876895465, 3786329.908443540334702 ], [ 396861.24109867750667, 3786329.603255340829492 ], [ 396861.24109867750667, 3786329.298067141324282 ], [ 396860.935910478117876, 3786328.992878941819072 ], [ 396860.935910478117876, 3786328.687690742779523 ], [ 396860.630722278729081, 3786328.382502543274313 ], [ 396860.630722278729081, 3786328.077314343769103 ], [ 396860.325534079340287, 3786327.772126144263893 ], [ 396860.325534079340287, 3786327.466937945224345 ], [ 396860.020345879951492, 3786327.161749745719135 ], [ 396860.020345879951492, 3786326.856561546213925 ], [ 396867.039674465893768, 3786326.856561546213925 ], [ 396867.039674465893768, 3786327.161749745719135 ], [ 396866.734486266504973, 3786327.466937945224345 ], [ 396866.734486266504973, 3786328.077314343769103 ], [ 396866.429298067116179, 3786328.382502543274313 ], [ 396866.429298067116179, 3786328.992878941819072 ], [ 396866.124109867727384, 3786328.992878941819072 ], [ 396865.513733468949795, 3786329.603255340829492 ], [ 396865.513733468949795, 3786329.908443540334702 ], [ 396865.208545269561, 3786330.21363173937425 ], [ 396865.208545269561, 3786330.51881993887946 ], [ 396864.903357070172206, 3786330.82400813838467 ], [ 396864.903357070172206, 3786331.434384536929429 ], [ 396864.598168870783411, 3786331.434384536929429 ], [ 396864.292980671394616, 3786331.739572736434639 ], [ 396863.072227873839438, 3786331.739572736434639 ] ] ] } },
{ "type": "Feature", "properties": { "confidence": 0.48292636871337891, "class": 1 }, "geometry": { "type": "Polygon", "coordinates": [ [ [ 396889.318413021392189, 3786268.87080366211012 ], [ 396888.708036622556392, 3786268.260427263565361 ], [ 396885.656154628668446, 3786268.260427263565361 ], [ 396885.045778229890857, 3786267.650050864554942 ], [ 396884.740590030502062, 3786267.650050864554942 ], [ 396884.130213631724473, 3786267.039674466010183 ], [ 396883.825025432335678, 3786267.039674466010183 ], [ 396883.214649033558089, 3786266.429298066999763 ], [ 396883.214649033558089, 3786266.124109867960215 ], [ 396882.909460834169295, 3786265.818921668455005 ], [ 396882.909460834169295, 3786265.513733468949795 ], [ 396882.6042726347805, 3786265.208545269444585 ], [ 396882.6042726347805, 3786264.598168870899826 ], [ 396882.299084435391705, 3786264.292980671394616 ], [ 396882.299084435391705, 3786263.682604272849858 ], [ 396881.993896236002911, 3786263.377416073344648 ], [ 396881.993896236002911, 3786261.54628687677905 ], [ 396882.299084435391705, 3786261.54628687677905 ], [ 396882.6042726347805, 3786261.241098677739501 ], [ 396884.435401831113268, 3786261.241098677739501 ], [ 396885.045778229890857, 3786261.85147507628426 ], [ 396885.350966429279651, 3786261.85147507628426 ], [ 396886.266531027446035, 3786262.767039674334228 ], [ 396886.57171922683483, 3786262.767039674334228 ], [ 396886.876907426223624, 3786263.072227873839438 ], [ 396887.182095625612419, 3786263.072227873839438 ], [ 396887.792472024390008, 3786263.682604272849858 ], [ 396888.097660223778803, 3786263.682604272849858 ], [ 396889.013224821945187, 3786264.598168870899826 ], [ 396889.318413021392189, 3786264.598168870899826 ], [ 396889.623601220780984, 3786264.903357070405036 ], [ 396889.928789420169778, 3786264.903357070405036 ], [ 396890.233977619558573, 3786265.208545269444585 ], [ 396890.539165818947367, 3786265.208545269444585 ], [ 396890.844354018336162, 3786265.513733468949795 ], [ 396892.06510681589134, 3786265.513733468949795 ], [ 396892.06510681589134, 3786266.429298066999763 ], [ 396891.759918616502546, 3786266.734486266504973 ], [ 396891.759918616502546, 3786267.344862665515393 ], [ 396891.454730417113751, 3786267.650050864554942 ], [ 396890.844354018336162, 3786267.650050864554942 ], [ 396890.233977619558573, 3786268.260427263565361 ], [ 396889.928789420169778, 3786268.260427263565361 ], [ 396889.318413021392189, 3786268.87080366211012 ] ] ] } },
{ "type": "Feature", "properties": { "confidence": 0.46637815237045288, "class": 1 }, "geometry": { "type": "Polygon", "coordinates": [ [ [ 396761.444557477138005, 3786178.229908443521708 ], [ 396760.834181078360416, 3786177.61953204497695 ], [ 396760.834181078360416, 3786175.788402848411351 ], [ 396761.139369277749211, 3786175.483214648906142 ], [ 396761.139369277749211, 3786174.872838250361383 ], [ 396761.444557477138005, 3786174.567650050856173 ], [ 396761.444557477138005, 3786174.262461851350963 ], [ 396762.665310274693184, 3786173.041709053795785 ], [ 396763.275686673470773, 3786173.041709053795785 ], [ 396763.580874872859567, 3786172.736520854756236 ], [ 396763.886063072248362, 3786172.736520854756236 ], [ 396764.191251271637157, 3786172.431332655251026 ], [ 396764.801627670414746, 3786172.431332655251026 ], [ 396765.10681586980354, 3786172.126144455745816 ], [ 396765.71719226858113, 3786172.126144455745816 ], [ 396766.022380467969924, 3786172.431332655251026 ], [ 396766.632756866747513, 3786172.431332655251026 ], [ 396766.937945066136308, 3786172.736520854756236 ], [ 396766.937945066136308, 3786173.652085452806205 ], [ 396766.632756866747513, 3786173.957273652311414 ], [ 396766.632756866747513, 3786176.70396744646132 ], [ 396766.327568667358719, 3786177.00915564596653 ], [ 396766.327568667358719, 3786177.31434384547174 ], [ 396766.022380467969924, 3786177.61953204497695 ], [ 396765.412004069192335, 3786177.61953204497695 ], [ 396765.10681586980354, 3786177.924720244016498 ], [ 396763.886063072248362, 3786177.924720244016498 ], [ 396763.580874872859567, 3786178.229908443521708 ], [ 396761.444557477138005, 3786178.229908443521708 ] ] ] } },
{ "type": "Feature", "properties": { "confidence": 0.43215644359588623, "class": 1 }, "geometry": { "type": "Polygon", "coordinates": [ [ [ 396949.745676500489935, 3786100.10172939999029 ], [ 396949.135300101712346, 3786099.491353000979871 ], [ 396949.135300101712346, 3786099.186164801474661 ], [ 396948.830111902323551, 3786098.880976602435112 ], [ 396948.830111902323551, 3786096.744659206364304 ], [ 396949.135300101712346, 3786096.439471007324755 ], [ 396949.135300101712346, 3786096.134282807819545 ], [ 396949.745676500489935, 3786095.523906408809125 ], [ 396950.05086469987873, 3786095.523906408809125 ], [ 396950.966429298045114, 3786094.608341810759157 ], [ 396950.966429298045114, 3786094.303153611253947 ], [ 396951.271617497433908, 3786093.997965412214398 ], [ 396951.271617497433908, 3786093.692777212709188 ], [ 396952.187182095600292, 3786093.692777212709188 ], [ 396952.187182095600292, 3786093.997965412214398 ], [ 396952.492370294989087, 3786094.303153611253947 ], [ 396952.492370294989087, 3786094.913530010264367 ], [ 396952.797558494377881, 3786095.218718209769577 ], [ 396952.797558494377881, 3786095.829094608314335 ], [ 396952.492370294989087, 3786096.134282807819545 ], [ 396952.492370294989087, 3786097.049847405869514 ], [ 396952.187182095600292, 3786097.049847405869514 ], [ 396951.881993896211497, 3786097.355035605374724 ], [ 396951.881993896211497, 3786097.660223804879934 ], [ 396951.576805696822703, 3786097.965412003919482 ], [ 396951.576805696822703, 3786098.880976602435112 ], [ 396951.271617497433908, 3786099.186164801474661 ], [ 396951.271617497433908, 3786099.491353000979871 ], [ 396950.661241098656319, 3786100.10172939999029 ], [ 396949.745676500489935, 3786100.10172939999029 ] ] ] } },
{ "type": "Feature", "properties": { "confidence": 0.4187050461769104, "class": 1 }, "geometry": { "type": "Polygon", "coordinates": [ [ [ 396926.246185147494543, 3786165.106815869919956 ], [ 396926.246185147494543, 3786164.191251271404326 ], [ 396925.940996948105749, 3786163.886063072364777 ], [ 396925.940996948105749, 3786163.580874872859567 ], [ 396925.635808748716954, 3786163.275686673354357 ], [ 396925.635808748716954, 3786161.444557477254421 ], [ 396925.940996948105749, 3786161.139369277749211 ], [ 396925.940996948105749, 3786158.697863682638854 ], [ 396926.246185147494543, 3786158.392675483133644 ], [ 396926.246185147494543, 3786158.087487283628434 ], [ 396926.551373346883338, 3786157.782299084588885 ], [ 396926.551373346883338, 3786157.477110885083675 ], [ 396926.856561546272133, 3786157.171922685578465 ], [ 396926.856561546272133, 3786156.866734486073256 ], [ 396927.466937945049722, 3786156.256358087528497 ], [ 396927.466937945049722, 3786155.951169888023287 ], [ 396927.772126144438516, 3786155.645981688518077 ], [ 396928.077314343827311, 3786155.645981688518077 ], [ 396928.382502543216106, 3786155.340793489478528 ], [ 396930.213631739548873, 3786155.340793489478528 ], [ 396930.518819938937668, 3786155.645981688518077 ], [ 396930.518819938937668, 3786155.951169888023287 ], [ 396931.129196337715257, 3786156.561546287033707 ], [ 396931.129196337715257, 3786157.782299084588885 ], [ 396931.434384537104052, 3786158.087487283628434 ], [ 396931.434384537104052, 3786160.223804679699242 ], [ 396931.129196337715257, 3786160.528992878738791 ], [ 396931.129196337715257, 3786161.444557477254421 ], [ 396930.518819938937668, 3786162.054933875799179 ], [ 396930.518819938937668, 3786162.360122075304389 ], [ 396929.603255340771284, 3786163.275686673354357 ], [ 396929.298067141382489, 3786163.275686673354357 ], [ 396928.077314343827311, 3786164.496439470909536 ], [ 396928.077314343827311, 3786164.801627670414746 ], [ 396927.772126144438516, 3786165.106815869919956 ], [ 396926.246185147494543, 3786165.106815869919956 ] ] ] } },
{ "type": "Feature", "properties": { "confidence": 0.37644666433334351, "class": 1 }, "geometry": { "type": "Polygon", "coordinates": [ [ [ 396734.587995930807665, 3786094.608341810759157 ], [ 396734.28280773141887, 3786094.303153611253947 ], [ 396733.977619532030076, 3786094.303153611253947 ], [ 396733.062054933863692, 3786093.387589013203979 ], [ 396733.062054933863692, 3786092.47202441515401 ], [ 396741.912512716196943, 3786092.47202441515401 ], [ 396741.912512716196943, 3786092.77721261465922 ], [ 396741.302136317419354, 3786093.387589013203979 ], [ 396740.996948118030559, 3786093.387589013203979 ], [ 396740.691759918641765, 3786093.692777212709188 ], [ 396740.38657171925297, 3786093.692777212709188 ], [ 396740.081383519864175, 3786093.997965412214398 ], [ 396738.2502543234732, 3786093.997965412214398 ], [ 396737.945066124084406, 3786094.303153611253947 ], [ 396735.808748728362843, 3786094.303153611253947 ], [ 396735.503560528974049, 3786094.608341810759157 ], [ 396734.587995930807665, 3786094.608341810759157 ] ] ] } },
{ "type": "Feature", "properties": { "confidence": 0.36796042323112488, "class": 1 }, "geometry": { "type": "Polygon", "coordinates": [ [ [ 396963.4791454730439, 3786216.683621566742659 ], [ 396962.868769074266311, 3786216.073245167732239 ], [ 396962.868769074266311, 3786215.46286876918748 ], [ 396962.563580874877516, 3786215.15768056968227 ], [ 396962.563580874877516, 3786212.410986775066704 ], [ 396963.173957273655105, 3786211.800610376521945 ], [ 396963.173957273655105, 3786211.190233977511525 ], [ 396963.4791454730439, 3786210.885045778006315 ], [ 396963.4791454730439, 3786210.274669379461557 ], [ 396967.751780264487024, 3786210.274669379461557 ], [ 396967.751780264487024, 3786213.936927772127092 ], [ 396967.44659206509823, 3786214.242115971632302 ], [ 396967.44659206509823, 3786214.547304171137512 ], [ 396966.225839267543051, 3786215.76805696869269 ], [ 396966.225839267543051, 3786216.073245167732239 ], [ 396965.920651068154257, 3786216.378433367237449 ], [ 396965.615462868765462, 3786216.378433367237449 ], [ 396965.310274669376668, 3786216.683621566742659 ], [ 396963.4791454730439, 3786216.683621566742659 ] ] ] } },
{ "type": "Feature", "properties": { "confidence": 0.36374491453170776, "class": 1 }, "geometry": { "type": "Polygon", "coordinates": [ [ [ 396856.052899287897162, 3786316.480162767227739 ], [ 396855.137334689730778, 3786315.564598168712109 ], [ 396855.137334689730778, 3786315.259409969672561 ], [ 396854.832146490341984, 3786314.954221770167351 ], [ 396854.832146490341984, 3786314.649033570662141 ], [ 396854.526958290953189, 3786314.343845371156931 ], [ 396854.526958290953189, 3786313.428280773106962 ], [ 396854.221770091564395, 3786313.123092573601753 ], [ 396854.221770091564395, 3786312.207527975551784 ], [ 396853.9165818921756, 3786311.902339776046574 ], [ 396853.9165818921756, 3786307.019328585825861 ], [ 396854.221770091564395, 3786306.714140386786312 ], [ 396854.221770091564395, 3786306.103763987775892 ], [ 396856.663275686674751, 3786306.103763987775892 ], [ 396856.968463886063546, 3786306.408952187281102 ], [ 396857.578840284841135, 3786306.408952187281102 ], [ 396857.578840284841135, 3786306.714140386786312 ], [ 396858.189216683618724, 3786307.32451678533107 ], [ 396858.189216683618724, 3786307.62970498483628 ], [ 396858.799593082396314, 3786308.240081383381039 ], [ 396858.799593082396314, 3786308.545269582886249 ], [ 396859.104781281785108, 3786308.850457782391459 ], [ 396859.409969481173903, 3786308.850457782391459 ], [ 396859.715157680562697, 3786309.155645981896669 ], [ 396859.715157680562697, 3786309.460834180936217 ], [ 396860.020345879951492, 3786309.766022380441427 ], [ 396860.020345879951492, 3786310.681586978491396 ], [ 396860.325534079340287, 3786310.986775177996606 ], [ 396860.325534079340287, 3786311.597151577007025 ], [ 396860.020345879951492, 3786311.902339776046574 ], [ 396860.020345879951492, 3786313.123092573601753 ], [ 396859.715157680562697, 3786313.428280773106962 ], [ 396859.715157680562697, 3786313.733468972612172 ], [ 396859.409969481173903, 3786314.038657172117382 ], [ 396859.409969481173903, 3786314.649033570662141 ], [ 396859.104781281785108, 3786314.954221770167351 ], [ 396859.104781281785108, 3786315.564598168712109 ], [ 396858.799593082396314, 3786315.869786368217319 ], [ 396858.799593082396314, 3786316.174974567722529 ], [ 396857.578840284841135, 3786316.174974567722529 ], [ 396857.273652085452341, 3786316.480162767227739 ], [ 396856.052899287897162, 3786316.480162767227739 ] ] ] } },
{ "type": "Feature", "properties": { "confidence": 0.34083998203277588, "class": 1 }, "geometry": { "type": "Polygon", "coordinates": [ [ [ 396842.014242115954403, 3786357.070193286053836 ], [ 396841.709053916565608, 3786356.765005086548626 ], [ 396841.709053916565608, 3786356.459816887043417 ], [ 396841.098677517788019, 3786355.849440488498658 ], [ 396841.098677517788019, 3786355.239064089488238 ], [ 396840.793489318399224, 3786354.933875889983028 ], [ 396840.793489318399224, 3786353.102746693883091 ], [ 396840.48830111901043, 3786352.797558494377881 ], [ 396840.48830111901043, 3786348.830111902207136 ], [ 396840.183112919621635, 3786348.524923703167588 ], [ 396840.183112919621635, 3786346.693794506601989 ], [ 396839.877924720232841, 3786346.388606307096779 ], [ 396839.877924720232841, 3786344.557477110996842 ], [ 396840.183112919621635, 3786344.252288911491632 ], [ 396840.48830111901043, 3786344.252288911491632 ], [ 396840.793489318399224, 3786343.947100711986423 ], [ 396842.319430315343197, 3786343.947100711986423 ], [ 396842.624618514731992, 3786344.252288911491632 ], [ 396842.929806714120787, 3786344.252288911491632 ], [ 396843.234994913509581, 3786344.557477110996842 ], [ 396843.84537131228717, 3786344.557477110996842 ], [ 396844.150559511675965, 3786344.862665310502052 ], [ 396844.45574771106476, 3786344.862665310502052 ], [ 396844.760935910453554, 3786345.167853509541601 ], [ 396845.371312309231143, 3786345.167853509541601 ], [ 396846.59206510684453, 3786346.388606307096779 ], [ 396846.59206510684453, 3786346.693794506601989 ], [ 396847.202441505622119, 3786347.304170905612409 ], [ 396847.507629705010913, 3786347.304170905612409 ], [ 396847.507629705010913, 3786347.609359104651958 ], [ 396847.812817904399708, 3786347.914547304157168 ], [ 396847.812817904399708, 3786348.219735503662378 ], [ 396848.423194303177297, 3786348.830111902207136 ], [ 396848.423194303177297, 3786350.356052899267524 ], [ 396848.728382502566092, 3786350.661241098772734 ], [ 396848.728382502566092, 3786355.239064089488238 ], [ 396848.118006103788503, 3786355.849440488498658 ], [ 396847.202441505622119, 3786355.849440488498658 ], [ 396846.897253306233324, 3786356.154628687538207 ], [ 396845.676500508619938, 3786356.154628687538207 ], [ 396845.371312309231143, 3786356.459816887043417 ], [ 396844.45574771106476, 3786356.459816887043417 ], [ 396844.150559511675965, 3786356.765005086548626 ], [ 396843.234994913509581, 3786356.765005086548626 ], [ 396842.929806714120787, 3786357.070193286053836 ], [ 396842.014242115954403, 3786357.070193286053836 ] ] ] } },
{ "type": "Feature", "properties": { "confidence": 0.33388784527778625, "class": 1 }, "geometry": { "type": "Polygon", "coordinates": [ [ [ 397054.120040691748727, 3786198.982706001959741 ], [ 397053.814852492359933, 3786198.677517802454531 ], [ 397053.509664292971138, 3786198.677517802454531 ], [ 397053.509664292971138, 3786198.372329603414983 ], [ 397053.204476093582343, 3786198.067141403909773 ], [ 397053.204476093582343, 3786196.236012207344174 ], [ 397053.509664292971138, 3786195.930824008304626 ], [ 397053.509664292971138, 3786195.320447609294206 ], [ 397054.120040691748727, 3786194.710071210749447 ], [ 397054.120040691748727, 3786194.404883011244237 ], [ 397055.340793489303906, 3786193.184130213689059 ], [ 397055.6459816886927, 3786193.184130213689059 ], [ 397055.951169888081495, 3786192.878942014183849 ], [ 397057.171922685636673, 3786192.878942014183849 ], [ 397057.477110885025468, 3786193.184130213689059 ], [ 397057.477110885025468, 3786193.794506612233818 ], [ 397057.782299084414262, 3786194.099694811739028 ], [ 397057.782299084414262, 3786194.404883011244237 ], [ 397058.087487283803057, 3786194.710071210749447 ], [ 397058.087487283803057, 3786197.456765004899353 ], [ 397057.782299084414262, 3786197.761953204404563 ], [ 397057.477110885025468, 3786197.761953204404563 ], [ 397057.171922685636673, 3786198.067141403909773 ], [ 397056.866734486247879, 3786198.067141403909773 ], [ 397056.561546286859084, 3786198.372329603414983 ], [ 397056.256358087470289, 3786198.372329603414983 ], [ 397055.951169888081495, 3786198.677517802454531 ], [ 397055.340793489303906, 3786198.677517802454531 ], [ 397055.035605289915111, 3786198.982706001959741 ], [ 397054.120040691748727, 3786198.982706001959741 ] ] ] } },
{ "type": "Feature", "properties": { "confidence": 0.30367729067802429, "class": 1 }, "geometry": { "type": "Polygon", "coordinates": [ [ [ 396941.200406917603686, 3786160.223804679699242 ], [ 396940.895218718214892, 3786159.918616480194032 ], [ 396940.590030518826097, 3786159.918616480194032 ], [ 396940.284842319437303, 3786159.613428280688822 ], [ 396940.284842319437303, 3786155.645981688518077 ], [ 396940.590030518826097, 3786155.645981688518077 ], [ 396941.200406917603686, 3786155.035605289973319 ], [ 396941.810783316381276, 3786155.035605289973319 ], [ 396942.11597151577007, 3786154.730417090468109 ], [ 396943.336724313325249, 3786154.730417090468109 ], [ 396943.641912512714043, 3786154.425228890962899 ], [ 396943.947100712102838, 3786154.425228890962899 ], [ 396944.252288911491632, 3786154.12004069192335 ], [ 396945.473041709046811, 3786154.12004069192335 ], [ 396945.778229908435605, 3786153.81485249241814 ], [ 396946.0834181078244, 3786154.12004069192335 ], [ 396946.693794506601989, 3786154.12004069192335 ], [ 396946.998982705990784, 3786154.425228890962899 ], [ 396946.998982705990784, 3786155.035605289973319 ], [ 396947.304170905379578, 3786155.340793489478528 ], [ 396947.304170905379578, 3786157.477110885083675 ], [ 396946.693794506601989, 3786158.087487283628434 ], [ 396946.388606307213195, 3786158.087487283628434 ], [ 396945.778229908435605, 3786158.697863682638854 ], [ 396945.473041709046811, 3786158.697863682638854 ], [ 396945.167853509658016, 3786159.003051882144064 ], [ 396944.862665310269222, 3786159.003051882144064 ], [ 396944.557477110880427, 3786159.308240081183612 ], [ 396944.252288911491632, 3786159.308240081183612 ], [ 396943.947100712102838, 3786159.613428280688822 ], [ 396943.641912512714043, 3786159.613428280688822 ], [ 396943.336724313325249, 3786159.918616480194032 ], [ 396943.031536113936454, 3786159.918616480194032 ], [ 396942.726347914547659, 3786160.223804679699242 ], [ 396941.200406917603686, 3786160.223804679699242 ] ] ] } },
{ "type": "Feature", "properties": { "confidence": 0.28097757697105408, "class": 1 }, "geometry": { "type": "Polygon", "coordinates": [ [ [ 397188.097660223778803, 3786027.772126144263893 ], [ 397187.792472024390008, 3786027.466937945224345 ], [ 397186.876907426223624, 3786027.466937945224345 ], [ 397186.57171922683483, 3786027.161749745719135 ], [ 397186.266531027446035, 3786027.161749745719135 ], [ 397185.656154628668446, 3786026.551373346708715 ], [ 397185.656154628668446, 3786025.940996948163956 ], [ 397185.350966429279651, 3786025.635808748658746 ], [ 397185.350966429279651, 3786025.330620549153537 ], [ 397185.656154628668446, 3786025.025432350113988 ], [ 397185.656154628668446, 3786024.415055951103568 ], [ 397186.266531027446035, 3786023.80467955255881 ], [ 397186.266531027446035, 3786022.88911495404318 ], [ 397185.961342828057241, 3786022.583926755003631 ], [ 397185.961342828057241, 3786020.752797558438033 ], [ 397186.266531027446035, 3786020.447609358932823 ], [ 397186.266531027446035, 3786019.837232960388064 ], [ 397188.097660223778803, 3786018.006103763822466 ], [ 397189.013224821945187, 3786018.006103763822466 ], [ 397189.318413021392189, 3786018.311291963327676 ], [ 397189.623601220780984, 3786018.311291963327676 ], [ 397189.623601220780984, 3786018.921668362338096 ], [ 397191.759918616502546, 3786021.057985757943243 ], [ 397191.759918616502546, 3786021.973550355993211 ], [ 397191.454730417113751, 3786022.278738555498421 ], [ 397191.454730417113751, 3786023.4994913530536 ], [ 397191.149542217724957, 3786023.80467955255881 ], [ 397191.149542217724957, 3786024.415055951103568 ], [ 397190.844354018336162, 3786024.720244150608778 ], [ 397190.844354018336162, 3786025.330620549153537 ], [ 397190.539165818947367, 3786025.635808748658746 ], [ 397190.539165818947367, 3786027.466937945224345 ], [ 397190.233977619558573, 3786027.466937945224345 ], [ 397189.928789420169778, 3786027.772126144263893 ], [ 397188.097660223778803, 3786027.772126144263893 ] ] ] } },
{ "type": "Feature", "properties": { "confidence": 0.27520763874053955, "class": 1 }, "geometry": { "type": "Polygon", "coordinates": [ [ [ 396953.713123092602473, 3786097.355035605374724 ], [ 396953.40793489315547, 3786097.049847405869514 ], [ 396953.40793489315547, 3786096.744659206364304 ], [ 396953.102746693766676, 3786096.439471007324755 ], [ 396953.102746693766676, 3786096.134282807819545 ], [ 396953.40793489315547, 3786095.829094608314335 ], [ 396953.40793489315547, 3786095.523906408809125 ], [ 396953.713123092602473, 3786095.218718209769577 ], [ 396953.713123092602473, 3786094.608341810759157 ], [ 396954.018311291991267, 3786094.303153611253947 ], [ 396954.018311291991267, 3786093.387589013203979 ], [ 396953.713123092602473, 3786093.082400813698769 ], [ 396957.985757884045597, 3786093.082400813698769 ], [ 396957.680569684656803, 3786093.387589013203979 ], [ 396957.680569684656803, 3786095.218718209769577 ], [ 396957.375381485268008, 3786095.523906408809125 ], [ 396957.375381485268008, 3786095.829094608314335 ], [ 396956.459816887101624, 3786096.744659206364304 ], [ 396956.15462868771283, 3786096.744659206364304 ], [ 396955.849440488324035, 3786097.049847405869514 ], [ 396955.239064089546446, 3786097.049847405869514 ], [ 396954.933875890157651, 3786097.355035605374724 ], [ 396953.713123092602473, 3786097.355035605374724 ] ] ] } }
]
}
