{
"type": "FeatureCollection",
"name": "cell_00397_pre",
"crs": { "type": "name", "properties": { "name": "urn:ogc:def:crs:EPSG::32611" } },
"features": [
{ "type": "Feature", "properties": { "confidence": 0.64569091796875, "class": 1 }, "geometry": { "type": "Polygon", "coordinates": [ [ [ 397490.539165818947367, 3785188.504577822983265 ], [ 397490.233977619558573, 3785188.199389623478055 ], [ 397489.928789420169778, 3785188.199389623478055 ], [ 397489.928789420169778, 3785187.283825025428087 ], [ 397489.623601220780984, 3785186.978636825922877 ], [ 397489.623601220780984, 3785186.063072227872908 ], [ 397489.928789420169778, 3785185.757884028367698 ], [ 397489.928789420169778, 3785185.14750762982294 ], [ 397490.233977619558573, 3785184.84231943031773 ], [ 397490.844354018336162, 3785184.84231943031773 ], [ 397491.149542217724957, 3785184.53713123081252 ], [ 397492.370295015280135, 3785184.53713123081252 ], [ 397492.67548321466893, 3785184.84231943031773 ], [ 397493.591047812835313, 3785184.84231943031773 ], [ 397493.591047812835313, 3785185.14750762982294 ], [ 397493.896236012224108, 3785185.452695828862488 ], [ 397493.896236012224108, 3785186.978636825922877 ], [ 397493.591047812835313, 3785187.283825025428087 ], [ 397493.285859613446519, 3785187.283825025428087 ], [ 397492.67548321466893, 3785187.894201424438506 ], [ 397492.06510681589134, 3785187.894201424438506 ], [ 397491.759918616502546, 3785188.199389623478055 ], [ 397491.454730417113751, 3785188.199389623478055 ], [ 397491.149542217724957, 3785188.504577822983265 ], [ 397490.539165818947367, 3785188.504577822983265 ] ] ] } },
{ "type": "Feature", "properties": { "confidence": 0.56118375062942505, "class": 1 }, "geometry": { "type": "Polygon", "coordinates": [ [ [ 397559.206510681600776, 3785101.220752797555178 ], [ 397559.206510681600776, 3785100.915564598049968 ], [ 397558.901322482211981, 3785100.61037639901042 ], [ 397559.206510681600776, 3785100.30518819950521 ], [ 397559.206510681600776, 3785099.38962360098958 ], [ 397559.51169888098957, 3785099.084435401950032 ], [ 397559.51169888098957, 3785098.474059002939612 ], [ 397559.816887080378365, 3785098.168870803434402 ], [ 397559.816887080378365, 3785097.253306205384433 ], [ 397560.732451678544749, 3785096.337741607334465 ], [ 397561.037639877933543, 3785096.337741607334465 ], [ 397561.342828077322338, 3785096.032553407829255 ], [ 397561.648016276711132, 3785096.032553407829255 ], [ 397562.258392675488722, 3785095.422177009284496 ], [ 397562.563580874877516, 3785095.422177009284496 ], [ 397562.868769074266311, 3785095.116988809779286 ], [ 397562.868769074266311, 3785094.811800610274076 ], [ 397563.173957273655105, 3785094.811800610274076 ], [ 397563.4791454730439, 3785094.506612410768867 ], [ 397563.784333672432695, 3785094.506612410768867 ], [ 397564.089521871821489, 3785094.201424211729318 ], [ 397564.394710071210284, 3785094.201424211729318 ], [ 397565.005086469987873, 3785094.811800610274076 ], [ 397565.005086469987873, 3785095.116988809779286 ], [ 397565.310274669376668, 3785095.422177009284496 ], [ 397565.310274669376668, 3785096.032553407829255 ], [ 397565.615462868765462, 3785096.337741607334465 ], [ 397565.615462868765462, 3785097.253306205384433 ], [ 397565.310274669376668, 3785097.558494404889643 ], [ 397565.310274669376668, 3785097.863682604394853 ], [ 397565.005086469987873, 3785098.168870803434402 ], [ 397565.005086469987873, 3785098.474059002939612 ], [ 397563.173957273655105, 3785100.30518819950521 ], [ 397562.868769074266311, 3785100.30518819950521 ], [ 397562.563580874877516, 3785100.61037639901042 ], [ 397560.732451678544749, 3785100.61037639901042 ], [ 397560.427263479155954, 3785100.915564598049968 ], [ 397559.816887080378365, 3785100.915564598049968 ], [ 397559.51169888098957, 3785101.220752797555178 ], [ 397559.206510681600776, 3785101.220752797555178 ] ] ] } },
{ "type": "Feature", "properties": { "confidence": 0.47837352752685547, "class": 1 }, "geometry": { "type": "Polygon", "coordinates": [ [ [ 397463.987792472005822, 3785019.735503560397774 ], [ 397463.377416073228233, 3785019.125127161853015 ], [ 397463.072227873839438, 3785019.125127161853015 ], [ 397462.767039674450643, 3785018.819938962347806 ], [ 397462.461851475061849, 3785018.819938962347806 ], [ 397462.156663275673054, 3785018.514750762842596 ], [ 397461.85147507628426, 3785018.514750762842596 ], [ 397461.546286876895465, 3785018.209562563803047 ], [ 397460.935910478117876, 3785018.209562563803047 ], [ 397460.630722278729081, 3785017.904374364297837 ], [ 397460.325534079340287, 3785017.904374364297837 ], [ 397460.020345879951492, 3785017.599186164792627 ], [ 397459.715157680562697, 3785017.599186164792627 ], [ 397459.409969481173903, 3785017.293997965287417 ], [ 397459.104781281785108, 3785017.293997965287417 ], [ 397458.799593082396314, 3785016.988809766247869 ], [ 397458.799593082396314, 3785016.683621566742659 ], [ 397458.494404883007519, 3785016.378433367237449 ], [ 397458.494404883007519, 3785013.936927772127092 ], [ 397458.799593082396314, 3785013.631739572621882 ], [ 397458.799593082396314, 3785013.326551373116672 ], [ 397459.104781281785108, 3785013.021363174077123 ], [ 397459.409969481173903, 3785013.021363174077123 ], [ 397460.020345879951492, 3785012.410986775066704 ], [ 397460.325534079340287, 3785012.410986775066704 ], [ 397460.630722278729081, 3785012.105798575561494 ], [ 397460.630722278729081, 3785011.800610376521945 ], [ 397460.935910478117876, 3785012.105798575561494 ], [ 397461.24109867750667, 3785012.105798575561494 ], [ 397461.24109867750667, 3785013.021363174077123 ], [ 397462.767039674450643, 3785014.547304171137512 ], [ 397463.072227873839438, 3785014.547304171137512 ], [ 397465.208545269561, 3785016.683621566742659 ], [ 397465.513733468949795, 3785016.683621566742659 ], [ 397465.513733468949795, 3785017.293997965287417 ], [ 397465.818921668338589, 3785017.599186164792627 ], [ 397465.818921668338589, 3785019.430315361358225 ], [ 397465.513733468949795, 3785019.430315361358225 ], [ 397465.208545269561, 3785019.735503560397774 ], [ 397463.987792472005822, 3785019.735503560397774 ] ] ] } },
{ "type": "Feature", "properties": { "confidence": 0.44253188371658325, "class": 1 }, "geometry": { "type": "Polygon", "coordinates": [ [ [ 397221.36317395727383, 3784940.691759918816388 ], [ 397221.057985757885035, 3784940.386571719311178 ], [ 397220.752797558496241, 3784940.386571719311178 ], [ 397220.447609359107446, 3784940.081383519805968 ], [ 397220.447609359107446, 3784939.471007121261209 ], [ 397220.142421159718651, 3784939.165818921755999 ], [ 397220.142421159718651, 3784937.029501526150852 ], [ 397220.447609359107446, 3784936.724313326645643 ], [ 397220.447609359107446, 3784935.808748728595674 ], [ 397220.142421159718651, 3784935.503560529090464 ], [ 397220.142421159718651, 3784933.062054933980107 ], [ 397220.447609359107446, 3784932.756866734474897 ], [ 397220.447609359107446, 3784932.146490335930139 ], [ 397221.057985757885035, 3784931.536113936919719 ], [ 397221.36317395727383, 3784931.536113936919719 ], [ 397221.668362156662624, 3784931.230925737414509 ], [ 397222.278738555440214, 3784931.230925737414509 ], [ 397222.583926754829008, 3784930.92573753837496 ], [ 397225.025432349939365, 3784930.92573753837496 ], [ 397225.33062054932816, 3784931.230925737414509 ], [ 397225.33062054932816, 3784932.451678534969687 ], [ 397225.635808748716954, 3784932.756866734474897 ], [ 397225.635808748716954, 3784933.062054933980107 ], [ 397225.940996948105749, 3784933.367243133485317 ], [ 397225.940996948105749, 3784934.587995931040496 ], [ 397225.635808748716954, 3784934.893184130080044 ], [ 397225.635808748716954, 3784935.198372329585254 ], [ 397225.025432349939365, 3784935.808748728595674 ], [ 397225.025432349939365, 3784936.419125127140433 ], [ 397224.72024415055057, 3784936.724313326645643 ], [ 397224.72024415055057, 3784937.029501526150852 ], [ 397224.415055951161776, 3784937.334689725190401 ], [ 397224.415055951161776, 3784937.945066124200821 ], [ 397224.109867751772981, 3784938.250254323706031 ], [ 397224.109867751772981, 3784938.555442522745579 ], [ 397223.804679552384187, 3784938.860630722250789 ], [ 397223.804679552384187, 3784939.776195320300758 ], [ 397223.499491352995392, 3784940.081383519805968 ], [ 397223.499491352995392, 3784940.386571719311178 ], [ 397223.194303153606597, 3784940.691759918816388 ], [ 397221.36317395727383, 3784940.691759918816388 ] ] ] } },
{ "type": "Feature", "properties": { "confidence": 0.40171802043914795, "class": 1 }, "geometry": { "type": "Polygon", "coordinates": [ [ [ 397305.289928789425176, 3785011.800610376521945 ], [ 397304.984740590036381, 3785011.495422177016735 ], [ 397303.458799593092408, 3785011.495422177016735 ], [ 397302.543234994926024, 3785010.579857578966767 ], [ 397302.543234994926024, 3785009.664292980451137 ], [ 397310.172939979645889, 3785009.664292980451137 ], [ 397310.172939979645889, 3785010.274669379461557 ], [ 397309.5625635808683, 3785010.885045778006315 ], [ 397309.5625635808683, 3785011.190233977511525 ], [ 397309.257375381479505, 3785011.190233977511525 ], [ 397308.952187182090711, 3785011.495422177016735 ], [ 397308.341810783313122, 3785011.495422177016735 ], [ 397308.036622583924327, 3785011.800610376521945 ], [ 397305.289928789425176, 3785011.800610376521945 ] ] ] } },
{ "type": "Feature", "properties": { "confidence": 0.33029219508171082, "class": 1 }, "geometry": { "type": "Polygon", "coordinates": [ [ [ 397322.380467955255881, 3785393.285859613213688 ], [ 397322.075279755867086, 3785392.980671414174139 ], [ 397321.464903357089497, 3785392.980671414174139 ], [ 397321.159715157700703, 3785392.67548321466893 ], [ 397320.549338758923113, 3785392.67548321466893 ], [ 397320.244150559534319, 3785392.980671414174139 ], [ 397319.63377416075673, 3785392.37029501516372 ], [ 397319.63377416075673, 3785391.759918616618961 ], [ 397319.328585961367935, 3785391.454730417113751 ], [ 397319.328585961367935, 3785389.928789420053363 ], [ 397319.02339776197914, 3785389.623601220548153 ], [ 397319.02339776197914, 3785387.182095625437796 ], [ 397319.328585961367935, 3785386.876907426398247 ], [ 397319.328585961367935, 3785386.571719226893038 ], [ 397319.63377416075673, 3785386.571719226893038 ], [ 397319.938962360145524, 3785386.266531027387828 ], [ 397321.464903357089497, 3785386.266531027387828 ], [ 397321.770091556478292, 3785386.571719226893038 ], [ 397322.075279755867086, 3785386.571719226893038 ], [ 397321.770091556478292, 3785386.876907426398247 ], [ 397321.770091556478292, 3785387.487283824943006 ], [ 397322.99084435403347, 3785388.708036622498184 ], [ 397323.296032553422265, 3785388.708036622498184 ], [ 397323.601220752811059, 3785389.013224822003394 ], [ 397323.906408952199854, 3785389.013224822003394 ], [ 397324.211597151588649, 3785389.318413021508604 ], [ 397324.211597151588649, 3785389.623601220548153 ], [ 397324.516785350977443, 3785389.928789420053363 ], [ 397324.516785350977443, 3785390.844354018103331 ], [ 397324.211597151588649, 3785391.149542217608541 ], [ 397324.211597151588649, 3785392.06510681565851 ], [ 397323.906408952199854, 3785392.37029501516372 ], [ 397323.906408952199854, 3785392.67548321466893 ], [ 397323.601220752811059, 3785392.67548321466893 ], [ 397323.296032553422265, 3785392.980671414174139 ], [ 397322.685656154644676, 3785392.980671414174139 ], [ 397322.380467955255881, 3785393.285859613213688 ] ] ] } },
{ "type": "Feature", "properties": { "confidence": 0.28418990969657898, "class": 1 }, "geometry": { "type": "Polygon", "coordinates": [ [ [ 397734.079348931845743, 3784859.206510681658983 ], [ 397733.774160732456949, 3784858.901322482153773 ], [ 397733.468972533068154, 3784858.901322482153773 ], [ 397733.163784333679359, 3784858.596134282648563 ], [ 397733.163784333679359, 3784857.985757884103805 ], [ 397732.858596134290565, 3784857.680569684598595 ], [ 397733.163784333679359, 3784857.375381485093385 ], [ 397733.163784333679359, 3784854.32349949143827 ], [ 397733.468972533068154, 3784854.01831129193306 ], [ 397733.468972533068154, 3784853.407934893388301 ], [ 397733.774160732456949, 3784853.102746693883091 ], [ 397733.774160732456949, 3784852.492370294872671 ], [ 397734.079348931845743, 3784852.187182095833123 ], [ 397734.079348931845743, 3784851.576805696822703 ], [ 397734.384537131234538, 3784851.271617497317493 ], [ 397734.384537131234538, 3784850.050864699762315 ], [ 397734.689725330623332, 3784849.745676500722766 ], [ 397734.689725330623332, 3784849.440488301217556 ], [ 397734.994913530012127, 3784849.135300101712346 ], [ 397735.300101729400922, 3784849.135300101712346 ], [ 397735.605289928789716, 3784848.830111902207136 ], [ 397737.436419125122484, 3784848.830111902207136 ], [ 397737.741607324511278, 3784849.135300101712346 ], [ 397738.351983723288868, 3784849.135300101712346 ], [ 397738.351983723288868, 3784849.440488301217556 ], [ 397738.657171922677662, 3784849.745676500722766 ], [ 397738.962360122066457, 3784849.745676500722766 ], [ 397738.962360122066457, 3784850.050864699762315 ], [ 397739.267548321455251, 3784850.356052899267524 ], [ 397739.267548321455251, 3784852.797558494377881 ], [ 397738.962360122066457, 3784853.102746693883091 ], [ 397738.962360122066457, 3784853.71312309242785 ], [ 397738.657171922677662, 3784854.01831129193306 ], [ 397738.657171922677662, 3784854.62868769094348 ], [ 397738.351983723288868, 3784854.933875889983028 ], [ 397738.351983723288868, 3784855.239064089488238 ], [ 397738.046795523900073, 3784855.544252288993448 ], [ 397738.046795523900073, 3784855.849440488498658 ], [ 397737.741607324511278, 3784856.154628687538207 ], [ 397737.436419125122484, 3784856.154628687538207 ], [ 397736.215666327567305, 3784857.375381485093385 ], [ 397736.215666327567305, 3784857.680569684598595 ], [ 397735.910478128178511, 3784857.985757884103805 ], [ 397735.910478128178511, 3784858.290946083609015 ], [ 397735.605289928789716, 3784858.290946083609015 ], [ 397735.300101729400922, 3784858.596134282648563 ], [ 397735.300101729400922, 3784858.901322482153773 ], [ 397734.994913530012127, 3784858.901322482153773 ], [ 397734.689725330623332, 3784859.206510681658983 ], [ 397734.079348931845743, 3784859.206510681658983 ] ] ] } },
{ "type": "Feature", "properties": { "confidence": 0.277006596326828, "class": 1 }, "geometry": { "type": "Polygon", "coordinates": [ [ [ 397360.528992878913414, 3785125.635808748658746 ], [ 397360.528992878913414, 3785125.330620549153537 ], [ 397360.223804679524619, 3785125.025432350113988 ], [ 397360.223804679524619, 3785124.415055951103568 ], [ 397359.918616480135825, 3785124.109867751598358 ], [ 397359.918616480135825, 3785123.80467955255881 ], [ 397359.61342828074703, 3785123.4994913530536 ], [ 397359.61342828074703, 3785122.583926755003631 ], [ 397359.308240081358235, 3785122.278738555498421 ], [ 397359.308240081358235, 3785121.973550355993211 ], [ 397359.003051881969441, 3785121.668362156488001 ], [ 397359.308240081358235, 3785121.363173957448453 ], [ 397359.308240081358235, 3785120.142421159893274 ], [ 397359.61342828074703, 3785119.837232960388064 ], [ 397362.054933875915594, 3785119.837232960388064 ], [ 397362.665310274693184, 3785120.447609358932823 ], [ 397362.970498474081978, 3785120.447609358932823 ], [ 397363.275686673470773, 3785120.752797558438033 ], [ 397363.580874872859567, 3785120.752797558438033 ], [ 397363.580874872859567, 3785121.057985757943243 ], [ 397363.886063072248362, 3785121.363173957448453 ], [ 397363.886063072248362, 3785122.278738555498421 ], [ 397363.580874872859567, 3785122.583926755003631 ], [ 397363.580874872859567, 3785122.88911495404318 ], [ 397362.970498474081978, 3785123.4994913530536 ], [ 397362.970498474081978, 3785124.109867751598358 ], [ 397362.665310274693184, 3785124.415055951103568 ], [ 397362.665310274693184, 3785125.025432350113988 ], [ 397362.360122075304389, 3785125.330620549153537 ], [ 397362.054933875915594, 3785125.330620549153537 ], [ 397361.7497456765268, 3785125.635808748658746 ], [ 397360.528992878913414, 3785125.635808748658746 ] ] ] } }
]
}
