{
"type": "FeatureCollection",
"name": "cell_00065_pre",
"crs": { "type": "name", "properties": { "name": "urn:ogc:def:crs:EPSG::32611" } },
"features": [
{ "type": "Feature", "properties": { "confidence": 0.99947100877761841, "class": 1 }, "geometry": { "type": "Polygon", "coordinates": [ [ [ 349699.593082400795538, 3771385.757884028367698 ], [ 349698.982706002017949, 3771385.14750762982294 ], [ 349698.982706002017949, 3771384.84231943031773 ], [ 349697.456765005073976, 3771383.316378433257341 ], [ 349697.151576805685181, 3771383.316378433257341 ], [ 349696.236012207518797, 3771382.400813835207373 ], [ 349696.236012207518797, 3771382.095625635702163 ], [ 349695.930824008130003, 3771381.790437436196953 ], [ 349696.236012207518797, 3771381.485249237157404 ], [ 349696.236012207518797, 3771380.874872838146985 ], [ 349697.456765005073976, 3771379.654120040591806 ], [ 349697.76195320446277, 3771379.654120040591806 ], [ 349698.067141403851565, 3771379.348931841086596 ], [ 349698.677517802629154, 3771379.348931841086596 ], [ 349698.982706002017949, 3771379.043743642047048 ], [ 349698.982706002017949, 3771377.822990844491869 ], [ 349699.287894201406743, 3771377.517802644986659 ], [ 349699.287894201406743, 3771377.212614445481449 ], [ 349699.593082400795538, 3771376.907426245976239 ], [ 349700.203458799573127, 3771376.907426245976239 ], [ 349700.508646998961922, 3771376.602238046936691 ], [ 349701.424211597128306, 3771376.602238046936691 ], [ 349701.7293997965171, 3771376.297049847431481 ], [ 349703.255340793461073, 3771376.297049847431481 ], [ 349703.560528992908075, 3771376.602238046936691 ], [ 349703.86571719229687, 3771376.602238046936691 ], [ 349704.781281790463254, 3771377.517802644986659 ], [ 349704.781281790463254, 3771378.128179043531418 ], [ 349705.086469989852048, 3771378.433367243036628 ], [ 349705.086469989852048, 3771381.180061037652194 ], [ 349704.781281790463254, 3771381.485249237157404 ], [ 349704.781281790463254, 3771381.790437436196953 ], [ 349704.476093591074459, 3771382.095625635702163 ], [ 349704.476093591074459, 3771382.400813835207373 ], [ 349703.560528992908075, 3771383.316378433257341 ], [ 349703.255340793461073, 3771383.316378433257341 ], [ 349702.339776195294689, 3771384.23194303130731 ], [ 349702.034587995905895, 3771384.23194303130731 ], [ 349700.508646998961922, 3771385.757884028367698 ], [ 349699.593082400795538, 3771385.757884028367698 ] ] ] } },
{ "type": "Feature", "properties": { "confidence": 0.99463248252868652, "class": 1 }, "geometry": { "type": "Polygon", "coordinates": [ [ [ 349700.508646998961922, 3771492.573753814678639 ], [ 349700.203458799573127, 3771492.268565615639091 ], [ 349699.593082400795538, 3771492.268565615639091 ], [ 349699.287894201406743, 3771491.963377416133881 ], [ 349699.287894201406743, 3771491.658189216628671 ], [ 349698.677517802629154, 3771491.047812818083912 ], [ 349698.677517802629154, 3771490.742624618578702 ], [ 349697.456765005073976, 3771489.521871821023524 ], [ 349697.456765005073976, 3771488.911495422013104 ], [ 349697.151576805685181, 3771488.606307222973555 ], [ 349697.151576805685181, 3771486.775178026407957 ], [ 349697.76195320446277, 3771486.164801627863199 ], [ 349697.76195320446277, 3771485.859613428357989 ], [ 349698.067141403851565, 3771485.554425228852779 ], [ 349698.37232960324036, 3771485.554425228852779 ], [ 349698.677517802629154, 3771485.249237029347569 ], [ 349699.287894201406743, 3771485.249237029347569 ], [ 349699.593082400795538, 3771484.94404883030802 ], [ 349699.898270600184333, 3771484.94404883030802 ], [ 349700.203458799573127, 3771484.63886063080281 ], [ 349700.203458799573127, 3771483.723296032752842 ], [ 349700.508646998961922, 3771483.723296032752842 ], [ 349701.119023397739511, 3771483.112919633742422 ], [ 349701.7293997965171, 3771483.112919633742422 ], [ 349702.034587995905895, 3771482.807731434237212 ], [ 349705.086469989852048, 3771482.807731434237212 ], [ 349705.391658189240843, 3771483.112919633742422 ], [ 349706.002034588018432, 3771483.112919633742422 ], [ 349706.002034588018432, 3771483.418107833247632 ], [ 349706.307222787407227, 3771483.723296032752842 ], [ 349706.307222787407227, 3771484.02848423179239 ], [ 349706.612410986796021, 3771484.3336724312976 ], [ 349706.612410986796021, 3771486.775178026407957 ], [ 349706.917599186184816, 3771487.080366225913167 ], [ 349706.917599186184816, 3771489.827060020528734 ], [ 349706.612410986796021, 3771490.132248219568282 ], [ 349706.612410986796021, 3771490.742624618578702 ], [ 349706.307222787407227, 3771490.742624618578702 ], [ 349706.002034588018432, 3771491.047812818083912 ], [ 349705.696846388629638, 3771491.047812818083912 ], [ 349705.391658189240843, 3771491.353001017123461 ], [ 349705.086469989852048, 3771491.353001017123461 ], [ 349704.781281790463254, 3771491.658189216628671 ], [ 349704.476093591074459, 3771491.658189216628671 ], [ 349703.560528992908075, 3771492.573753814678639 ], [ 349700.508646998961922, 3771492.573753814678639 ] ] ] } },
{ "type": "Feature", "properties": { "confidence": 0.98737132549285889, "class": 1 }, "geometry": { "type": "Polygon", "coordinates": [ [ [ 349680.061037639854476, 3771354.62868769094348 ], [ 349679.755849440465681, 3771354.32349949143827 ], [ 349679.145473041688092, 3771354.32349949143827 ], [ 349678.840284842299297, 3771354.01831129193306 ], [ 349678.535096642910503, 3771354.01831129193306 ], [ 349678.229908443521708, 3771353.71312309242785 ], [ 349677.924720244132914, 3771353.71312309242785 ], [ 349677.619532044744119, 3771353.407934893388301 ], [ 349677.314343845355324, 3771353.407934893388301 ], [ 349676.703967446577735, 3771352.797558494377881 ], [ 349676.398779247188941, 3771352.797558494377881 ], [ 349675.178026449633762, 3771351.576805696822703 ], [ 349674.872838250244968, 3771351.576805696822703 ], [ 349674.872838250244968, 3771350.356052899267524 ], [ 349675.178026449633762, 3771350.050864699762315 ], [ 349675.178026449633762, 3771349.440488301217556 ], [ 349675.483214649022557, 3771349.135300101712346 ], [ 349675.483214649022557, 3771348.524923703167588 ], [ 349675.788402848411351, 3771348.219735503662378 ], [ 349675.788402848411351, 3771347.914547304157168 ], [ 349676.398779247188941, 3771347.304170905612409 ], [ 349676.398779247188941, 3771346.998982706107199 ], [ 349677.619532044744119, 3771345.778229908552021 ], [ 349678.535096642910503, 3771345.778229908552021 ], [ 349678.840284842299297, 3771346.083418108057231 ], [ 349679.450661241076887, 3771346.083418108057231 ], [ 349680.97660223802086, 3771347.609359104651958 ], [ 349681.281790437409654, 3771347.609359104651958 ], [ 349682.197355035634246, 3771348.524923703167588 ], [ 349682.807731434411835, 3771348.524923703167588 ], [ 349684.028484231967013, 3771349.745676500722766 ], [ 349684.028484231967013, 3771350.356052899267524 ], [ 349684.333672431355808, 3771350.661241098772734 ], [ 349684.028484231967013, 3771350.966429298277944 ], [ 349684.028484231967013, 3771351.271617497317493 ], [ 349683.723296032578219, 3771351.576805696822703 ], [ 349683.723296032578219, 3771351.881993896327913 ], [ 349683.418107833189424, 3771352.187182095833123 ], [ 349683.418107833189424, 3771352.797558494377881 ], [ 349682.197355035634246, 3771354.01831129193306 ], [ 349681.892166836187243, 3771354.01831129193306 ], [ 349681.281790437409654, 3771354.62868769094348 ], [ 349680.061037639854476, 3771354.62868769094348 ] ] ] } },
{ "type": "Feature", "properties": { "confidence": 0.96826630830764771, "class": 1 }, "geometry": { "type": "Polygon", "coordinates": [ [ [ 349425.2288911495707, 3771345.167853509541601 ], [ 349424.618514750734903, 3771344.557477110996842 ], [ 349424.618514750734903, 3771344.252288911491632 ], [ 349424.313326551346108, 3771343.947100711986423 ], [ 349424.313326551346108, 3771343.641912512946874 ], [ 349424.008138351957314, 3771343.336724313441664 ], [ 349424.008138351957314, 3771342.726347914431244 ], [ 349423.702950152568519, 3771342.421159714926034 ], [ 349423.702950152568519, 3771342.115971515886486 ], [ 349423.397761953179725, 3771341.810783316381276 ], [ 349423.397761953179725, 3771341.200406917370856 ], [ 349424.313326551346108, 3771340.284842319320887 ], [ 349424.618514750734903, 3771340.284842319320887 ], [ 349424.923702950123698, 3771339.979654119815677 ], [ 349426.144455747737084, 3771339.979654119815677 ], [ 349427.365208545292262, 3771338.758901322260499 ], [ 349427.670396744681057, 3771338.758901322260499 ], [ 349427.975584944069851, 3771338.45371312322095 ], [ 349428.280773143458646, 3771338.45371312322095 ], [ 349428.58596134284744, 3771338.14852492371574 ], [ 349429.501525941013824, 3771338.14852492371574 ], [ 349429.806714140402619, 3771338.45371312322095 ], [ 349429.806714140402619, 3771338.758901322260499 ], [ 349431.027466937957797, 3771339.979654119815677 ], [ 349431.332655137346592, 3771339.979654119815677 ], [ 349431.332655137346592, 3771342.115971515886486 ], [ 349430.417090539180208, 3771343.031536113936454 ], [ 349430.111902339791413, 3771343.031536113936454 ], [ 349429.806714140402619, 3771343.336724313441664 ], [ 349429.501525941013824, 3771343.336724313441664 ], [ 349429.19633774162503, 3771343.641912512946874 ], [ 349428.58596134284744, 3771343.641912512946874 ], [ 349427.975584944069851, 3771344.252288911491632 ], [ 349427.670396744681057, 3771344.252288911491632 ], [ 349427.365208545292262, 3771344.557477110996842 ], [ 349427.365208545292262, 3771344.862665310502052 ], [ 349427.060020345903467, 3771344.862665310502052 ], [ 349426.754832146514673, 3771345.167853509541601 ], [ 349425.2288911495707, 3771345.167853509541601 ] ] ] } },
{ "type": "Feature", "properties": { "confidence": 0.90703785419464111, "class": 1 }, "geometry": { "type": "Polygon", "coordinates": [ [ [ 349790.539165818947367, 3771314.954221770167351 ], [ 349790.233977619558573, 3771314.649033570662141 ], [ 349789.928789420169778, 3771314.649033570662141 ], [ 349789.623601220780984, 3771314.343845371156931 ], [ 349789.318413021392189, 3771314.343845371156931 ], [ 349788.708036622556392, 3771313.733468972612172 ], [ 349788.708036622556392, 3771312.207527975551784 ], [ 349789.013224821945187, 3771312.207527975551784 ], [ 349789.318413021392189, 3771311.902339776046574 ], [ 349789.928789420169778, 3771311.902339776046574 ], [ 349790.233977619558573, 3771311.597151577007025 ], [ 349792.370295015280135, 3771311.597151577007025 ], [ 349792.67548321466893, 3771311.902339776046574 ], [ 349793.285859613446519, 3771311.902339776046574 ], [ 349793.591047812835313, 3771312.207527975551784 ], [ 349793.591047812835313, 3771312.512716175056994 ], [ 349793.285859613446519, 3771312.817904374562204 ], [ 349793.285859613446519, 3771313.123092573601753 ], [ 349792.67548321466893, 3771313.733468972612172 ], [ 349792.370295015280135, 3771313.733468972612172 ], [ 349791.149542217724957, 3771314.954221770167351 ], [ 349790.539165818947367, 3771314.954221770167351 ] ] ] } },
{ "type": "Feature", "properties": { "confidence": 0.87892872095108032, "class": 1 }, "geometry": { "type": "Polygon", "coordinates": [ [ [ 349580.264496439485811, 3771215.46286876918748 ], [ 349579.959308240097016, 3771215.15768056968227 ], [ 349579.654120040708221, 3771215.15768056968227 ], [ 349578.738555442541838, 3771214.242115971632302 ], [ 349578.738555442541838, 3771213.936927772127092 ], [ 349578.433367243153043, 3771213.631739572621882 ], [ 349578.433367243153043, 3771212.716174974571913 ], [ 349578.738555442541838, 3771212.410986775066704 ], [ 349578.738555442541838, 3771212.105798575561494 ], [ 349579.043743641930632, 3771212.105798575561494 ], [ 349579.348931841319427, 3771211.800610376521945 ], [ 349579.654120040708221, 3771211.800610376521945 ], [ 349579.959308240097016, 3771211.495422177016735 ], [ 349586.063072227872908, 3771211.495422177016735 ], [ 349586.673448626650497, 3771212.105798575561494 ], [ 349586.673448626650497, 3771213.631739572621882 ], [ 349585.147507629706524, 3771215.15768056968227 ], [ 349584.84231943031773, 3771215.15768056968227 ], [ 349584.537131230928935, 3771215.46286876918748 ], [ 349580.264496439485811, 3771215.46286876918748 ] ] ] } },
{ "type": "Feature", "properties": { "confidence": 0.8244820237159729, "class": 1 }, "geometry": { "type": "Polygon", "coordinates": [ [ [ 349475.27975584944943, 3771259.104781281668693 ], [ 349474.974567650060635, 3771258.799593082629144 ], [ 349474.974567650060635, 3771257.273652085568756 ], [ 349474.66937945067184, 3771256.968463886063546 ], [ 349474.66937945067184, 3771253.611393692903221 ], [ 349474.974567650060635, 3771253.306205493398011 ], [ 349477.721261444559786, 3771253.306205493398011 ], [ 349477.721261444559786, 3771253.611393692903221 ], [ 349478.026449643948581, 3771253.916581891942769 ], [ 349478.026449643948581, 3771255.137334689497948 ], [ 349478.331637843337376, 3771255.442522889003158 ], [ 349478.331637843337376, 3771256.052899288013577 ], [ 349478.942014242114965, 3771256.663275686558336 ], [ 349478.942014242114965, 3771258.189216683618724 ], [ 349478.63682604272617, 3771258.494404883123934 ], [ 349477.110885045782197, 3771258.494404883123934 ], [ 349476.805696846393403, 3771258.799593082629144 ], [ 349475.890132248227019, 3771258.799593082629144 ], [ 349475.584944048838224, 3771259.104781281668693 ], [ 349475.27975584944943, 3771259.104781281668693 ] ] ] } },
{ "type": "Feature", "properties": { "confidence": 0.76954919099807739, "class": 1 }, "geometry": { "type": "Polygon", "coordinates": [ [ [ 349345.269582909473684, 3771401.627670396585017 ], [ 349344.659206510696094, 3771401.017293998040259 ], [ 349344.659206510696094, 3771398.575788402929902 ], [ 349344.3540183113073, 3771398.270600203424692 ], [ 349344.3540183113073, 3771397.049847405869514 ], [ 349344.048830111918505, 3771396.744659206364304 ], [ 349344.048830111918505, 3771396.134282807819545 ], [ 349343.743641912529711, 3771395.829094608314335 ], [ 349343.743641912529711, 3771395.523906408809125 ], [ 349343.438453713140916, 3771395.218718209769577 ], [ 349343.438453713140916, 3771394.303153611253947 ], [ 349343.743641912529711, 3771393.997965412214398 ], [ 349343.743641912529711, 3771393.692777212709188 ], [ 349344.048830111918505, 3771393.387589013203979 ], [ 349344.659206510696094, 3771393.387589013203979 ], [ 349344.964394710084889, 3771393.082400813698769 ], [ 349345.574771108862478, 3771393.082400813698769 ], [ 349345.879959308251273, 3771392.77721261465922 ], [ 349348.931841302139219, 3771392.77721261465922 ], [ 349349.237029501528013, 3771393.082400813698769 ], [ 349350.152594099694397, 3771393.082400813698769 ], [ 349350.457782299083192, 3771393.387589013203979 ], [ 349350.762970498471987, 3771393.387589013203979 ], [ 349351.983723296027165, 3771394.608341810759157 ], [ 349351.983723296027165, 3771397.355035605374724 ], [ 349352.28891149541596, 3771397.660223804879934 ], [ 349352.28891149541596, 3771398.575788402929902 ], [ 349351.983723296027165, 3771398.880976602435112 ], [ 349351.983723296027165, 3771400.10172939999029 ], [ 349351.67853509663837, 3771400.406917599029839 ], [ 349351.373346897249576, 3771400.406917599029839 ], [ 349351.068158697860781, 3771400.712105798535049 ], [ 349350.762970498471987, 3771400.712105798535049 ], [ 349350.457782299083192, 3771401.017293998040259 ], [ 349349.847405900305603, 3771401.017293998040259 ], [ 349349.542217700916808, 3771401.322482197545469 ], [ 349348.016276703972835, 3771401.322482197545469 ], [ 349347.71108850458404, 3771401.627670396585017 ], [ 349345.269582909473684, 3771401.627670396585017 ] ] ] } },
{ "type": "Feature", "properties": { "confidence": 0.76190996170043945, "class": 1 }, "geometry": { "type": "Polygon", "coordinates": [ [ [ 349697.151576805685181, 3771198.372329603414983 ], [ 349696.846388606296387, 3771198.067141403909773 ], [ 349696.541200406907592, 3771198.067141403909773 ], [ 349696.236012207518797, 3771197.761953204404563 ], [ 349695.930824008130003, 3771197.761953204404563 ], [ 349695.320447609352414, 3771197.151576805859804 ], [ 349695.320447609352414, 3771196.846388606354594 ], [ 349695.015259409963619, 3771196.541200406849384 ], [ 349695.320447609352414, 3771196.236012207344174 ], [ 349695.320447609352414, 3771195.625635808799416 ], [ 349695.625635808741208, 3771195.625635808799416 ], [ 349696.236012207518797, 3771195.015259409788996 ], [ 349696.541200406907592, 3771195.015259409788996 ], [ 349696.846388606296387, 3771194.710071210749447 ], [ 349698.677517802629154, 3771194.710071210749447 ], [ 349698.982706002017949, 3771195.015259409788996 ], [ 349699.287894201406743, 3771195.015259409788996 ], [ 349699.593082400795538, 3771195.320447609294206 ], [ 349699.593082400795538, 3771196.541200406849384 ], [ 349699.287894201406743, 3771196.846388606354594 ], [ 349699.287894201406743, 3771197.151576805859804 ], [ 349698.37232960324036, 3771198.067141403909773 ], [ 349697.456765005073976, 3771198.067141403909773 ], [ 349697.151576805685181, 3771198.372329603414983 ] ] ] } },
{ "type": "Feature", "properties": { "confidence": 0.74079346656799316, "class": 1 }, "geometry": { "type": "Polygon", "coordinates": [ [ [ 349585.147507629706524, 3771400.406917599029839 ], [ 349584.84231943031773, 3771400.10172939999029 ], [ 349581.180061037652194, 3771400.10172939999029 ], [ 349580.569684638874605, 3771399.491353000979871 ], [ 349580.569684638874605, 3771397.049847405869514 ], [ 349580.8748728382634, 3771396.744659206364304 ], [ 349580.8748728382634, 3771395.829094608314335 ], [ 349581.180061037652194, 3771395.523906408809125 ], [ 349581.180061037652194, 3771394.913530010264367 ], [ 349581.485249237040989, 3771394.608341810759157 ], [ 349581.485249237040989, 3771394.303153611253947 ], [ 349581.790437436429784, 3771393.997965412214398 ], [ 349582.095625635818578, 3771393.997965412214398 ], [ 349582.400813835207373, 3771393.692777212709188 ], [ 349583.011190233984962, 3771393.692777212709188 ], [ 349583.316378433373757, 3771393.997965412214398 ], [ 349583.621566632762551, 3771393.997965412214398 ], [ 349583.926754832151346, 3771394.303153611253947 ], [ 349585.757884028484114, 3771394.303153611253947 ], [ 349586.368260427261703, 3771393.692777212709188 ], [ 349586.978636826039292, 3771393.692777212709188 ], [ 349587.283825025428087, 3771393.387589013203979 ], [ 349588.19938962359447, 3771393.387589013203979 ], [ 349588.504577822983265, 3771393.692777212709188 ], [ 349588.504577822983265, 3771395.829094608314335 ], [ 349588.19938962359447, 3771396.134282807819545 ], [ 349588.19938962359447, 3771397.965412003919482 ], [ 349587.894201424205676, 3771398.270600203424692 ], [ 349587.894201424205676, 3771399.491353000979871 ], [ 349586.978636826039292, 3771400.406917599029839 ], [ 349585.147507629706524, 3771400.406917599029839 ] ] ] } },
{ "type": "Feature", "properties": { "confidence": 0.70554482936859131, "class": 1 }, "geometry": { "type": "Polygon", "coordinates": [ [ [ 349672.126144455745816, 3771411.393692777026445 ], [ 349671.820956256357022, 3771411.088504577986896 ], [ 349671.820956256357022, 3771409.562563580926508 ], [ 349672.126144455745816, 3771409.257375381421298 ], [ 349672.126144455745816, 3771408.952187181916088 ], [ 349672.431332655134611, 3771408.952187181916088 ], [ 349673.0417090539122, 3771408.341810783371329 ], [ 349673.0417090539122, 3771408.036622583866119 ], [ 349673.346897253300995, 3771408.036622583866119 ], [ 349673.652085452689789, 3771407.731434384360909 ], [ 349674.872838250244968, 3771407.731434384360909 ], [ 349674.872838250244968, 3771408.646998982876539 ], [ 349675.178026449633762, 3771408.952187181916088 ], [ 349675.178026449633762, 3771409.867751780431718 ], [ 349674.872838250244968, 3771410.172939979471266 ], [ 349674.872838250244968, 3771410.478128178976476 ], [ 349674.567650050856173, 3771410.783316378481686 ], [ 349674.567650050856173, 3771411.088504577986896 ], [ 349674.262461851467378, 3771411.393692777026445 ], [ 349672.126144455745816, 3771411.393692777026445 ] ] ] } },
{ "type": "Feature", "properties": { "confidence": 0.70030313730239868, "class": 1 }, "geometry": { "type": "Polygon", "coordinates": [ [ [ 349359.003051881969441, 3771093.692777212709188 ], [ 349358.392675483191852, 3771093.082400813698769 ], [ 349358.392675483191852, 3771092.77721261465922 ], [ 349357.782299084414262, 3771092.1668362156488 ], [ 349357.782299084414262, 3771091.86164801614359 ], [ 349357.477110885025468, 3771091.556459817104042 ], [ 349357.477110885025468, 3771091.251271617598832 ], [ 349356.866734486247879, 3771090.640895218588412 ], [ 349356.866734486247879, 3771089.114954221993685 ], [ 349357.171922685636673, 3771088.809766022488475 ], [ 349357.782299084414262, 3771088.809766022488475 ], [ 349358.087487283803057, 3771088.504577822983265 ], [ 349358.697863682580646, 3771088.504577822983265 ], [ 349359.003051881969441, 3771088.199389623478055 ], [ 349361.444557477138005, 3771088.199389623478055 ], [ 349362.054933875915594, 3771088.809766022488475 ], [ 349362.665310274693184, 3771088.809766022488475 ], [ 349362.970498474081978, 3771089.114954221993685 ], [ 349363.275686673470773, 3771089.114954221993685 ], [ 349363.275686673470773, 3771089.420142421033233 ], [ 349363.580874872859567, 3771089.725330620538443 ], [ 349363.580874872859567, 3771090.030518820043653 ], [ 349363.275686673470773, 3771090.335707019548863 ], [ 349363.275686673470773, 3771091.251271617598832 ], [ 349361.7497456765268, 3771092.77721261465922 ], [ 349361.444557477138005, 3771092.77721261465922 ], [ 349361.139369277749211, 3771093.082400813698769 ], [ 349360.528992878913414, 3771093.082400813698769 ], [ 349360.223804679524619, 3771093.387589013203979 ], [ 349359.918616480135825, 3771093.387589013203979 ], [ 349359.61342828074703, 3771093.692777212709188 ], [ 349359.003051881969441, 3771093.692777212709188 ] ] ] } },
{ "type": "Feature", "properties": { "confidence": 0.69746500253677368, "class": 1 }, "geometry": { "type": "Polygon", "coordinates": [ [ [ 349457.273652085452341, 3771459.003051882144064 ], [ 349456.968463886063546, 3771458.697863682638854 ], [ 349456.052899287897162, 3771458.697863682638854 ], [ 349455.747711088508368, 3771458.392675483133644 ], [ 349455.442522889119573, 3771458.392675483133644 ], [ 349455.442522889119573, 3771458.087487283628434 ], [ 349454.526958290953189, 3771457.171922685578465 ], [ 349454.526958290953189, 3771455.951169888023287 ], [ 349454.221770091564395, 3771455.645981688518077 ], [ 349454.221770091564395, 3771454.12004069192335 ], [ 349454.526958290953189, 3771453.81485249241814 ], [ 349454.526958290953189, 3771452.594099694862962 ], [ 349457.273652085452341, 3771452.594099694862962 ], [ 349457.578840284841135, 3771452.899287894368172 ], [ 349458.799593082396314, 3771452.899287894368172 ], [ 349459.104781281785108, 3771453.20447609340772 ], [ 349459.715157680562697, 3771453.20447609340772 ], [ 349459.715157680562697, 3771453.81485249241814 ], [ 349460.020345879951492, 3771454.12004069192335 ], [ 349460.020345879951492, 3771455.340793489478528 ], [ 349459.715157680562697, 3771455.645981688518077 ], [ 349459.715157680562697, 3771456.866734486073256 ], [ 349458.494404883007519, 3771458.087487283628434 ], [ 349458.494404883007519, 3771458.392675483133644 ], [ 349458.189216683618724, 3771458.697863682638854 ], [ 349457.578840284841135, 3771458.697863682638854 ], [ 349457.273652085452341, 3771459.003051882144064 ] ] ] } },
{ "type": "Feature", "properties": { "confidence": 0.69268447160720825, "class": 1 }, "geometry": { "type": "Polygon", "coordinates": [ [ [ 349442.929806714120787, 3771334.791454730555415 ], [ 349442.624618514731992, 3771334.486266531050205 ], [ 349442.014242115954403, 3771334.486266531050205 ], [ 349441.098677517788019, 3771333.570701933000237 ], [ 349441.098677517788019, 3771331.739572736434639 ], [ 349441.403865717176814, 3771331.434384536929429 ], [ 349441.403865717176814, 3771330.51881993887946 ], [ 349442.929806714120787, 3771328.992878941819072 ], [ 349442.929806714120787, 3771328.382502543274313 ], [ 349443.234994913509581, 3771328.077314343769103 ], [ 349444.45574771106476, 3771328.077314343769103 ], [ 349444.760935910453554, 3771328.382502543274313 ], [ 349445.066124109842349, 3771328.382502543274313 ], [ 349445.371312309231143, 3771328.687690742779523 ], [ 349446.897253306233324, 3771328.687690742779523 ], [ 349447.202441505622119, 3771328.992878941819072 ], [ 349447.812817904399708, 3771328.992878941819072 ], [ 349448.118006103788503, 3771329.298067141324282 ], [ 349448.728382502566092, 3771329.298067141324282 ], [ 349449.033570701954886, 3771329.603255340829492 ], [ 349449.643947100732476, 3771329.603255340829492 ], [ 349449.94913530012127, 3771329.908443540334702 ], [ 349451.780264496454038, 3771329.908443540334702 ], [ 349452.085452695842832, 3771330.21363173937425 ], [ 349450.864699898287654, 3771330.21363173937425 ], [ 349450.559511698898859, 3771330.51881993887946 ], [ 349450.559511698898859, 3771330.82400813838467 ], [ 349450.254323499510065, 3771331.12919633788988 ], [ 349449.94913530012127, 3771331.12919633788988 ], [ 349449.643947100732476, 3771331.434384536929429 ], [ 349449.643947100732476, 3771331.739572736434639 ], [ 349449.338758901343681, 3771331.739572736434639 ], [ 349448.728382502566092, 3771332.349949135445058 ], [ 349448.728382502566092, 3771333.570701933000237 ], [ 349448.423194303177297, 3771333.875890132039785 ], [ 349447.812817904399708, 3771333.875890132039785 ], [ 349447.507629705010913, 3771334.181078331544995 ], [ 349446.897253306233324, 3771334.181078331544995 ], [ 349446.59206510684453, 3771334.486266531050205 ], [ 349445.981688708008733, 3771334.486266531050205 ], [ 349445.676500508619938, 3771334.791454730555415 ], [ 349442.929806714120787, 3771334.791454730555415 ] ] ] } },
{ "type": "Feature", "properties": { "confidence": 0.6922842264175415, "class": 1 }, "geometry": { "type": "Polygon", "coordinates": [ [ [ 349460.630722278729081, 3771438.555442522745579 ], [ 349460.325534079340287, 3771438.250254323706031 ], [ 349460.325534079340287, 3771437.945066124200821 ], [ 349460.020345879951492, 3771437.639877924695611 ], [ 349460.020345879951492, 3771437.029501526150852 ], [ 349460.325534079340287, 3771436.724313326645643 ], [ 349460.325534079340287, 3771435.503560529090464 ], [ 349460.630722278729081, 3771435.198372329585254 ], [ 349460.630722278729081, 3771434.893184130080044 ], [ 349460.935910478117876, 3771434.587995931040496 ], [ 349460.935910478117876, 3771434.282807731535286 ], [ 349461.85147507628426, 3771433.367243133485317 ], [ 349461.85147507628426, 3771432.756866734474897 ], [ 349462.156663275673054, 3771432.451678534969687 ], [ 349462.156663275673054, 3771432.146490335930139 ], [ 349462.461851475061849, 3771432.146490335930139 ], [ 349463.072227873839438, 3771431.536113936919719 ], [ 349463.377416073228233, 3771431.536113936919719 ], [ 349463.682604272617027, 3771431.230925737414509 ], [ 349463.987792472005822, 3771431.230925737414509 ], [ 349464.292980671394616, 3771430.92573753837496 ], [ 349464.903357070172206, 3771430.92573753837496 ], [ 349465.208545269561, 3771430.62054933886975 ], [ 349465.513733468949795, 3771430.62054933886975 ], [ 349465.818921668338589, 3771430.315361139364541 ], [ 349466.734486266504973, 3771430.315361139364541 ], [ 349466.734486266504973, 3771430.62054933886975 ], [ 349467.039674465893768, 3771430.92573753837496 ], [ 349467.039674465893768, 3771433.977619532030076 ], [ 349466.734486266504973, 3771434.282807731535286 ], [ 349466.734486266504973, 3771435.808748728595674 ], [ 349465.208545269561, 3771437.334689725190401 ], [ 349464.903357070172206, 3771437.334689725190401 ], [ 349464.292980671394616, 3771437.945066124200821 ], [ 349463.682604272617027, 3771437.945066124200821 ], [ 349463.377416073228233, 3771438.250254323706031 ], [ 349463.072227873839438, 3771438.250254323706031 ], [ 349462.767039674450643, 3771438.555442522745579 ], [ 349460.630722278729081, 3771438.555442522745579 ] ] ] } },
{ "type": "Feature", "properties": { "confidence": 0.69160085916519165, "class": 1 }, "geometry": { "type": "Polygon", "coordinates": [ [ [ 349532.349949135328643, 3771293.896236012224108 ], [ 349532.349949135328643, 3771293.591047812718898 ], [ 349532.044760935881641, 3771293.285859613213688 ], [ 349532.044760935881641, 3771290.233977619558573 ], [ 349531.739572736492846, 3771289.928789420053363 ], [ 349531.739572736492846, 3771289.318413021508604 ], [ 349531.434384537104052, 3771289.013224822003394 ], [ 349531.434384537104052, 3771285.656154628843069 ], [ 349533.570701932883821, 3771285.656154628843069 ], [ 349534.181078331661411, 3771286.266531027387828 ], [ 349534.181078331661411, 3771286.571719226893038 ], [ 349534.486266531050205, 3771286.876907426398247 ], [ 349534.486266531050205, 3771287.182095625437796 ], [ 349534.791454730439, 3771287.487283824943006 ], [ 349534.791454730439, 3771287.792472024448216 ], [ 349535.401831129216589, 3771288.402848422992975 ], [ 349535.401831129216589, 3771289.318413021508604 ], [ 349535.707019328605384, 3771289.623601220548153 ], [ 349535.707019328605384, 3771293.285859613213688 ], [ 349535.096642929827794, 3771293.896236012224108 ], [ 349532.349949135328643, 3771293.896236012224108 ] ] ] } },
{ "type": "Feature", "properties": { "confidence": 0.63416224718093872, "class": 1 }, "geometry": { "type": "Polygon", "coordinates": [ [ [ 349334.28280773141887, 3771137.639877924695611 ], [ 349333.977619532030076, 3771137.334689725190401 ], [ 349333.672431332641281, 3771137.334689725190401 ], [ 349333.672431332641281, 3771136.724313326645643 ], [ 349333.367243133252487, 3771136.419125127140433 ], [ 349333.367243133252487, 3771134.893184130080044 ], [ 349334.28280773141887, 3771133.977619532030076 ], [ 349334.587995930807665, 3771133.977619532030076 ], [ 349334.89318413019646, 3771133.672431332524866 ], [ 349338.2502543234732, 3771133.672431332524866 ], [ 349338.555442522861995, 3771133.977619532030076 ], [ 349338.860630722250789, 3771133.977619532030076 ], [ 349338.860630722250789, 3771134.282807731535286 ], [ 349339.165818921639584, 3771134.587995931040496 ], [ 349339.165818921639584, 3771136.419125127140433 ], [ 349338.860630722250789, 3771136.724313326645643 ], [ 349338.555442522861995, 3771136.724313326645643 ], [ 349337.945066124084406, 3771137.334689725190401 ], [ 349337.639877924695611, 3771137.334689725190401 ], [ 349337.334689725306816, 3771137.639877924695611 ], [ 349334.28280773141887, 3771137.639877924695611 ] ] ] } },
{ "type": "Feature", "properties": { "confidence": 0.60383874177932739, "class": 1 }, "geometry": { "type": "Polygon", "coordinates": [ [ [ 349535.096642929827794, 3771247.507629705127329 ], [ 349534.791454730439, 3771247.202441505622119 ], [ 349534.486266531050205, 3771247.202441505622119 ], [ 349532.044760935881641, 3771244.760935910511762 ], [ 349531.739572736492846, 3771244.760935910511762 ], [ 349531.129196337715257, 3771244.150559511501342 ], [ 349530.824008138326462, 3771244.150559511501342 ], [ 349530.518819938937668, 3771243.845371312461793 ], [ 349530.213631739548873, 3771243.845371312461793 ], [ 349530.213631739548873, 3771243.540183112956583 ], [ 349529.603255340771284, 3771242.929806713946164 ], [ 349529.603255340771284, 3771242.624618514906615 ], [ 349529.298067141382489, 3771242.319430315401405 ], [ 349529.298067141382489, 3771242.014242115896195 ], [ 349528.992878941993695, 3771241.709053916390985 ], [ 349528.992878941993695, 3771240.793489318341017 ], [ 349528.6876907426049, 3771240.488301118835807 ], [ 349528.6876907426049, 3771239.572736520785838 ], [ 349529.298067141382489, 3771238.96236012224108 ], [ 349531.434384537104052, 3771238.96236012224108 ], [ 349532.044760935881641, 3771239.572736520785838 ], [ 349532.349949135328643, 3771239.572736520785838 ], [ 349533.265513733495027, 3771240.488301118835807 ], [ 349533.570701932883821, 3771240.488301118835807 ], [ 349533.875890132272616, 3771240.793489318341017 ], [ 349534.181078331661411, 3771240.793489318341017 ], [ 349534.486266531050205, 3771241.098677517846227 ], [ 349534.791454730439, 3771241.098677517846227 ], [ 349535.401831129216589, 3771241.709053916390985 ], [ 349535.707019328605384, 3771241.709053916390985 ], [ 349536.317395727382973, 3771242.319430315401405 ], [ 349536.622583926771767, 3771242.319430315401405 ], [ 349536.927772126160562, 3771242.624618514906615 ], [ 349537.232960325549357, 3771242.624618514906615 ], [ 349537.538148524938151, 3771242.929806713946164 ], [ 349537.843336724326946, 3771242.929806713946164 ], [ 349538.14852492371574, 3771243.234994913451374 ], [ 349538.14852492371574, 3771243.540183112956583 ], [ 349538.453713123104535, 3771243.845371312461793 ], [ 349538.453713123104535, 3771244.150559511501342 ], [ 349538.14852492371574, 3771244.455747711006552 ], [ 349538.14852492371574, 3771245.37131230905652 ], [ 349537.843336724326946, 3771245.67650050856173 ], [ 349537.843336724326946, 3771245.98168870806694 ], [ 349537.538148524938151, 3771245.98168870806694 ], [ 349537.232960325549357, 3771246.28687690757215 ], [ 349537.232960325549357, 3771246.592065106611699 ], [ 349536.317395727382973, 3771247.507629705127329 ], [ 349535.096642929827794, 3771247.507629705127329 ] ] ] } },
{ "type": "Feature", "properties": { "confidence": 0.54921311140060425, "class": 1 }, "geometry": { "type": "Polygon", "coordinates": [ [ [ 349653.814852492359933, 3771394.608341810759157 ], [ 349653.509664292971138, 3771394.303153611253947 ], [ 349653.204476093582343, 3771394.303153611253947 ], [ 349652.899287894193549, 3771393.997965412214398 ], [ 349652.899287894193549, 3771390.946083418093622 ], [ 349653.204476093582343, 3771390.640895218588412 ], [ 349656.561546286859084, 3771390.640895218588412 ], [ 349656.866734486247879, 3771390.335707019548863 ], [ 349658.087487283803057, 3771390.335707019548863 ], [ 349658.392675483191852, 3771390.030518820043653 ], [ 349659.61342828074703, 3771390.030518820043653 ], [ 349659.918616480135825, 3771390.335707019548863 ], [ 349660.223804679524619, 3771390.335707019548863 ], [ 349660.528992878913414, 3771390.640895218588412 ], [ 349660.528992878913414, 3771392.1668362156488 ], [ 349660.223804679524619, 3771392.1668362156488 ], [ 349659.918616480135825, 3771392.47202441515401 ], [ 349659.308240081358235, 3771392.47202441515401 ], [ 349659.003051881969441, 3771392.77721261465922 ], [ 349658.697863682580646, 3771392.77721261465922 ], [ 349657.171922685636673, 3771394.303153611253947 ], [ 349656.256358087470289, 3771394.303153611253947 ], [ 349655.951169888081495, 3771394.608341810759157 ], [ 349653.814852492359933, 3771394.608341810759157 ] ] ] } },
{ "type": "Feature", "properties": { "confidence": 0.53639280796051025, "class": 1 }, "geometry": { "type": "Polygon", "coordinates": [ [ [ 349236.927772126160562, 3771339.674465920776129 ], [ 349236.317395727382973, 3771339.064089521765709 ], [ 349236.317395727382973, 3771338.45371312322095 ], [ 349236.012207527994178, 3771338.14852492371574 ], [ 349236.012207527994178, 3771334.181078331544995 ], [ 349235.707019328605384, 3771333.875890132039785 ], [ 349235.707019328605384, 3771329.908443540334702 ], [ 349236.012207527994178, 3771329.603255340829492 ], [ 349236.317395727382973, 3771329.603255340829492 ], [ 349237.232960325549357, 3771328.687690742779523 ], [ 349237.538148524938151, 3771328.687690742779523 ], [ 349238.14852492371574, 3771328.077314343769103 ], [ 349238.453713123104535, 3771328.077314343769103 ], [ 349238.75890132249333, 3771327.772126144263893 ], [ 349241.810783316381276, 3771327.772126144263893 ], [ 349242.11597151577007, 3771328.077314343769103 ], [ 349242.11597151577007, 3771328.687690742779523 ], [ 349242.726347914547659, 3771329.298067141324282 ], [ 349242.726347914547659, 3771332.655137334484607 ], [ 349242.421159715158865, 3771332.960325533989817 ], [ 349242.421159715158865, 3771333.265513733495027 ], [ 349242.11597151577007, 3771333.570701933000237 ], [ 349242.11597151577007, 3771333.875890132039785 ], [ 349241.810783316381276, 3771334.181078331544995 ], [ 349241.810783316381276, 3771334.791454730555415 ], [ 349242.11597151577007, 3771335.096642929594964 ], [ 349242.11597151577007, 3771338.14852492371574 ], [ 349241.200406917603686, 3771339.064089521765709 ], [ 349240.895218718214892, 3771339.064089521765709 ], [ 349240.590030518826097, 3771339.369277721270919 ], [ 349238.75890132249333, 3771339.369277721270919 ], [ 349238.453713123104535, 3771339.674465920776129 ], [ 349236.927772126160562, 3771339.674465920776129 ] ] ] } },
{ "type": "Feature", "properties": { "confidence": 0.52945560216903687, "class": 1 }, "geometry": { "type": "Polygon", "coordinates": [ [ [ 349472.533062054950278, 3771188.606307222973555 ], [ 349472.227873855561484, 3771188.301119023468345 ], [ 349471.922685656172689, 3771188.301119023468345 ], [ 349471.3123092573951, 3771187.690742624457926 ], [ 349471.3123092573951, 3771183.418107833247632 ], [ 349471.617497456783894, 3771183.418107833247632 ], [ 349471.922685656172689, 3771183.112919633742422 ], [ 349471.922685656172689, 3771181.892166836187243 ], [ 349472.227873855561484, 3771181.586978636682034 ], [ 349472.227873855561484, 3771181.281790437642485 ], [ 349473.143438453727867, 3771181.281790437642485 ], [ 349473.143438453727867, 3771188.606307222973555 ], [ 349472.533062054950278, 3771188.606307222973555 ] ] ] } },
{ "type": "Feature", "properties": { "confidence": 0.42985311150550842, "class": 1 }, "geometry": { "type": "Polygon", "coordinates": [ [ [ 349655.6459816886927, 3771037.232960325665772 ], [ 349655.340793489303906, 3771036.927772126160562 ], [ 349654.730417090526316, 3771036.927772126160562 ], [ 349654.120040691748727, 3771036.317395727150142 ], [ 349654.120040691748727, 3771033.875890132039785 ], [ 349654.425228891137522, 3771033.570701933000237 ], [ 349655.035605289915111, 3771033.570701933000237 ], [ 349655.340793489303906, 3771033.265513733495027 ], [ 349655.951169888081495, 3771033.265513733495027 ], [ 349656.256358087470289, 3771032.960325533989817 ], [ 349657.171922685636673, 3771032.960325533989817 ], [ 349657.477110885025468, 3771032.655137334484607 ], [ 349657.782299084414262, 3771032.655137334484607 ], [ 349658.392675483191852, 3771032.044760935939848 ], [ 349658.697863682580646, 3771032.044760935939848 ], [ 349659.003051881969441, 3771032.349949135445058 ], [ 349659.308240081358235, 3771032.349949135445058 ], [ 349659.61342828074703, 3771032.655137334484607 ], [ 349659.918616480135825, 3771032.655137334484607 ], [ 349660.223804679524619, 3771032.960325533989817 ], [ 349660.834181078360416, 3771032.960325533989817 ], [ 349661.139369277749211, 3771033.265513733495027 ], [ 349661.444557477138005, 3771033.265513733495027 ], [ 349661.7497456765268, 3771033.570701933000237 ], [ 349661.7497456765268, 3771034.181078331544995 ], [ 349661.444557477138005, 3771034.486266531050205 ], [ 349661.444557477138005, 3771034.791454730555415 ], [ 349661.139369277749211, 3771034.791454730555415 ], [ 349660.834181078360416, 3771035.096642929594964 ], [ 349660.528992878913414, 3771035.096642929594964 ], [ 349660.223804679524619, 3771035.401831129100174 ], [ 349659.918616480135825, 3771035.401831129100174 ], [ 349659.003051881969441, 3771036.317395727150142 ], [ 349658.697863682580646, 3771036.317395727150142 ], [ 349658.392675483191852, 3771036.622583926655352 ], [ 349657.782299084414262, 3771036.622583926655352 ], [ 349657.477110885025468, 3771036.927772126160562 ], [ 349656.866734486247879, 3771036.927772126160562 ], [ 349656.561546286859084, 3771037.232960325665772 ], [ 349655.6459816886927, 3771037.232960325665772 ] ] ] } },
{ "type": "Feature", "properties": { "confidence": 0.36253640055656433, "class": 1 }, "geometry": { "type": "Polygon", "coordinates": [ [ [ 349713.021363173960708, 3771491.963377416133881 ], [ 349712.716174974571913, 3771491.658189216628671 ], [ 349712.105798575794324, 3771491.658189216628671 ], [ 349711.80061037640553, 3771491.353001017123461 ], [ 349711.19023397762794, 3771491.353001017123461 ], [ 349710.885045778239146, 3771491.047812818083912 ], [ 349710.885045778239146, 3771490.742624618578702 ], [ 349710.579857578850351, 3771490.437436419073492 ], [ 349710.579857578850351, 3771487.385554425418377 ], [ 349710.885045778239146, 3771487.080366225913167 ], [ 349710.885045778239146, 3771486.775178026407957 ], [ 349711.495422177016735, 3771486.164801627863199 ], [ 349711.495422177016735, 3771485.859613428357989 ], [ 349713.021363173960708, 3771485.859613428357989 ], [ 349713.326551373349503, 3771485.554425228852779 ], [ 349715.462868769071065, 3771485.554425228852779 ], [ 349715.768056968459859, 3771485.859613428357989 ], [ 349718.209562563570216, 3771485.859613428357989 ], [ 349718.514750762959011, 3771486.164801627863199 ], [ 349718.819938962347806, 3771486.164801627863199 ], [ 349719.430315361125395, 3771486.775178026407957 ], [ 349719.735503560514189, 3771486.775178026407957 ], [ 349720.956256358069368, 3771487.995930823963135 ], [ 349720.956256358069368, 3771488.606307222973555 ], [ 349720.651068158680573, 3771488.911495422013104 ], [ 349720.651068158680573, 3771489.216683621518314 ], [ 349720.345879959291779, 3771489.521871821023524 ], [ 349720.345879959291779, 3771489.827060020528734 ], [ 349720.040691759902984, 3771490.132248219568282 ], [ 349720.040691759902984, 3771490.437436419073492 ], [ 349719.735503560514189, 3771490.437436419073492 ], [ 349719.1251271617366, 3771491.047812818083912 ], [ 349718.819938962347806, 3771491.047812818083912 ], [ 349718.514750762959011, 3771491.353001017123461 ], [ 349718.209562563570216, 3771491.353001017123461 ], [ 349717.904374364181422, 3771491.658189216628671 ], [ 349717.293997965403832, 3771491.658189216628671 ], [ 349716.988809766015038, 3771491.963377416133881 ], [ 349713.021363173960708, 3771491.963377416133881 ] ] ] } },
{ "type": "Feature", "properties": { "confidence": 0.36186793446540833, "class": 1 }, "geometry": { "type": "Polygon", "coordinates": [ [ [ 349470.701932858617511, 3771499.593082400970161 ], [ 349470.396744659228716, 3771499.287894201464951 ], [ 349469.481180061062332, 3771499.287894201464951 ], [ 349469.481180061062332, 3771498.982706001959741 ], [ 349468.870803662284743, 3771498.372329603414983 ], [ 349468.870803662284743, 3771497.761953204404563 ], [ 349468.565615462895948, 3771497.456765004899353 ], [ 349468.565615462895948, 3771494.710071210749447 ], [ 349468.260427263507154, 3771494.404883011244237 ], [ 349468.260427263507154, 3771493.184130213689059 ], [ 349467.955239064118359, 3771492.878942014183849 ], [ 349467.955239064118359, 3771489.521871821023524 ], [ 349469.786368260451127, 3771489.521871821023524 ], [ 349470.091556459839921, 3771489.827060020528734 ], [ 349470.701932858617511, 3771489.827060020528734 ], [ 349471.007121058006305, 3771490.132248219568282 ], [ 349471.3123092573951, 3771490.132248219568282 ], [ 349471.3123092573951, 3771490.437436419073492 ], [ 349471.617497456783894, 3771490.742624618578702 ], [ 349471.617497456783894, 3771491.353001017123461 ], [ 349471.922685656172689, 3771491.658189216628671 ], [ 349471.922685656172689, 3771499.287894201464951 ], [ 349471.617497456783894, 3771499.593082400970161 ], [ 349470.701932858617511, 3771499.593082400970161 ] ] ] } },
{ "type": "Feature", "properties": { "confidence": 0.33395364880561829, "class": 1 }, "geometry": { "type": "Polygon", "coordinates": [ [ [ 349645.269582909473684, 3771270.091556459665298 ], [ 349644.964394710084889, 3771269.78636826062575 ], [ 349644.659206510696094, 3771269.78636826062575 ], [ 349644.048830111918505, 3771269.17599186161533 ], [ 349643.438453713140916, 3771269.17599186161533 ], [ 349643.133265513752121, 3771268.87080366211012 ], [ 349642.828077314363327, 3771268.87080366211012 ], [ 349642.522889114974532, 3771268.565615463070571 ], [ 349641.912512716196943, 3771268.565615463070571 ], [ 349641.607324516808148, 3771268.260427263565361 ], [ 349641.302136317419354, 3771268.260427263565361 ], [ 349640.691759918641765, 3771267.650050864554942 ], [ 349640.38657171925297, 3771267.650050864554942 ], [ 349639.776195320475381, 3771267.039674466010183 ], [ 349639.471007121086586, 3771267.039674466010183 ], [ 349639.165818921639584, 3771266.734486266504973 ], [ 349638.860630722250789, 3771266.734486266504973 ], [ 349638.555442522861995, 3771266.429298066999763 ], [ 349638.2502543234732, 3771266.429298066999763 ], [ 349638.2502543234732, 3771265.208545269444585 ], [ 349639.471007121086586, 3771265.208545269444585 ], [ 349639.776195320475381, 3771265.513733468949795 ], [ 349641.302136317419354, 3771265.513733468949795 ], [ 349641.607324516808148, 3771265.818921668455005 ], [ 349642.522889114974532, 3771265.818921668455005 ], [ 349642.828077314363327, 3771266.124109867960215 ], [ 349643.743641912529711, 3771266.124109867960215 ], [ 349644.048830111918505, 3771266.429298066999763 ], [ 349644.964394710084889, 3771266.429298066999763 ], [ 349645.269582909473684, 3771266.734486266504973 ], [ 349645.879959308251273, 3771266.734486266504973 ], [ 349646.185147507640067, 3771267.039674466010183 ], [ 349646.795523906417657, 3771267.039674466010183 ], [ 349647.100712105806451, 3771267.344862665515393 ], [ 349647.71108850458404, 3771267.344862665515393 ], [ 349648.016276703972835, 3771267.650050864554942 ], [ 349648.32146490336163, 3771267.650050864554942 ], [ 349648.626653102750424, 3771267.955239064060152 ], [ 349648.626653102750424, 3771268.87080366211012 ], [ 349648.32146490336163, 3771269.17599186161533 ], [ 349648.32146490336163, 3771269.48118006112054 ], [ 349648.016276703972835, 3771269.78636826062575 ], [ 349647.71108850458404, 3771269.78636826062575 ], [ 349647.405900305195246, 3771270.091556459665298 ], [ 349645.269582909473684, 3771270.091556459665298 ] ] ] } },
{ "type": "Feature", "properties": { "confidence": 0.31086263060569763, "class": 1 }, "geometry": { "type": "Polygon", "coordinates": [ [ [ 349357.477110885025468, 3771110.783316378481686 ], [ 349357.171922685636673, 3771110.478128178976476 ], [ 349356.866734486247879, 3771110.478128178976476 ], [ 349356.561546286859084, 3771110.172939979471266 ], [ 349356.561546286859084, 3771109.562563580926508 ], [ 349356.256358087470289, 3771109.257375381421298 ], [ 349356.256358087470289, 3771108.952187181916088 ], [ 349355.951169888081495, 3771108.646998982876539 ], [ 349355.951169888081495, 3771108.341810783371329 ], [ 349355.6459816886927, 3771108.036622583866119 ], [ 349355.6459816886927, 3771107.731434384360909 ], [ 349355.340793489303906, 3771107.426246185321361 ], [ 349355.340793489303906, 3771105.900305188260972 ], [ 349355.6459816886927, 3771105.595116988755763 ], [ 349355.951169888081495, 3771105.900305188260972 ], [ 349358.087487283803057, 3771105.900305188260972 ], [ 349358.392675483191852, 3771105.595116988755763 ], [ 349358.392675483191852, 3771105.289928789250553 ], [ 349359.61342828074703, 3771105.289928789250553 ], [ 349359.61342828074703, 3771106.510681586805731 ], [ 349359.918616480135825, 3771106.815869786310941 ], [ 349359.918616480135825, 3771109.257375381421298 ], [ 349359.61342828074703, 3771109.562563580926508 ], [ 349359.61342828074703, 3771109.867751780431718 ], [ 349358.697863682580646, 3771110.783316378481686 ], [ 349357.477110885025468, 3771110.783316378481686 ] ] ] } },
{ "type": "Feature", "properties": { "confidence": 0.30949574708938599, "class": 1 }, "geometry": { "type": "Polygon", "coordinates": [ [ [ 349318.718209562590346, 3771131.841302136424929 ], [ 349318.413021363201551, 3771131.536113936919719 ], [ 349317.802644964365754, 3771131.536113936919719 ], [ 349317.49745676497696, 3771131.230925737414509 ], [ 349317.192268565588165, 3771131.230925737414509 ], [ 349316.581892166810576, 3771130.62054933886975 ], [ 349316.581892166810576, 3771128.484231942798942 ], [ 349317.192268565588165, 3771127.873855544254184 ], [ 349318.413021363201551, 3771127.873855544254184 ], [ 349318.718209562590346, 3771127.568667344748974 ], [ 349319.938962360145524, 3771127.568667344748974 ], [ 349320.854526958311908, 3771128.484231942798942 ], [ 349321.159715157700703, 3771128.484231942798942 ], [ 349321.770091556478292, 3771129.094608341809362 ], [ 349322.075279755867086, 3771129.094608341809362 ], [ 349322.380467955255881, 3771129.399796541314572 ], [ 349322.380467955255881, 3771129.704984740819782 ], [ 349322.685656154644676, 3771130.010172939859331 ], [ 349322.685656154644676, 3771131.536113936919719 ], [ 349322.380467955255881, 3771131.841302136424929 ], [ 349318.718209562590346, 3771131.841302136424929 ] ] ] } },
{ "type": "Feature", "properties": { "confidence": 0.29740899801254272, "class": 1 }, "geometry": { "type": "Polygon", "coordinates": [ [ [ 349616.581892166810576, 3771265.818921668455005 ], [ 349616.276703967421781, 3771265.513733468949795 ], [ 349614.445574771089014, 3771265.513733468949795 ], [ 349614.140386571700219, 3771265.208545269444585 ], [ 349613.835198372311424, 3771265.208545269444585 ], [ 349613.53001017292263, 3771264.903357070405036 ], [ 349613.53001017292263, 3771263.987792471889406 ], [ 349613.835198372311424, 3771263.682604272849858 ], [ 349613.835198372311424, 3771262.461851475294679 ], [ 349614.140386571700219, 3771262.156663275789469 ], [ 349614.140386571700219, 3771261.85147507628426 ], [ 349614.445574771089014, 3771261.54628687677905 ], [ 349614.445574771089014, 3771260.630722278729081 ], [ 349614.750762970477808, 3771260.325534079223871 ], [ 349614.750762970477808, 3771259.409969481173903 ], [ 349615.055951169866603, 3771259.104781281668693 ], [ 349619.328585961367935, 3771259.104781281668693 ], [ 349619.63377416075673, 3771259.409969481173903 ], [ 349619.938962360145524, 3771259.409969481173903 ], [ 349619.938962360145524, 3771265.513733468949795 ], [ 349619.63377416075673, 3771265.513733468949795 ], [ 349619.328585961367935, 3771265.818921668455005 ], [ 349616.581892166810576, 3771265.818921668455005 ] ] ] } },
{ "type": "Feature", "properties": { "confidence": 0.28559952974319458, "class": 1 }, "geometry": { "type": "Polygon", "coordinates": [ [ [ 349489.623601220780984, 3771038.45371312322095 ], [ 349489.318413021392189, 3771038.14852492371574 ], [ 349489.013224821945187, 3771038.14852492371574 ], [ 349488.708036622556392, 3771037.843336724210531 ], [ 349488.097660223778803, 3771037.843336724210531 ], [ 349487.792472024390008, 3771037.538148524705321 ], [ 349487.182095625612419, 3771037.538148524705321 ], [ 349486.876907426223624, 3771037.232960325665772 ], [ 349486.876907426223624, 3771036.622583926655352 ], [ 349487.182095625612419, 3771036.317395727150142 ], [ 349487.182095625612419, 3771035.096642929594964 ], [ 349486.876907426223624, 3771034.791454730555415 ], [ 349486.876907426223624, 3771034.486266531050205 ], [ 349485.656154628668446, 3771033.265513733495027 ], [ 349485.656154628668446, 3771031.739572736434639 ], [ 349485.961342828057241, 3771031.434384536929429 ], [ 349485.961342828057241, 3771030.82400813838467 ], [ 349486.266531027446035, 3771030.51881993887946 ], [ 349486.266531027446035, 3771030.21363173937425 ], [ 349486.57171922683483, 3771029.908443540334702 ], [ 349486.57171922683483, 3771029.603255340829492 ], [ 349488.708036622556392, 3771029.603255340829492 ], [ 349489.318413021392189, 3771030.21363173937425 ], [ 349489.623601220780984, 3771030.21363173937425 ], [ 349489.928789420169778, 3771030.51881993887946 ], [ 349490.539165818947367, 3771030.51881993887946 ], [ 349491.454730417113751, 3771031.434384536929429 ], [ 349491.454730417113751, 3771033.265513733495027 ], [ 349491.149542217724957, 3771033.570701933000237 ], [ 349491.149542217724957, 3771033.875890132039785 ], [ 349490.844354018336162, 3771034.181078331544995 ], [ 349490.844354018336162, 3771036.317395727150142 ], [ 349490.539165818947367, 3771036.622583926655352 ], [ 349490.539165818947367, 3771036.927772126160562 ], [ 349490.233977619558573, 3771037.232960325665772 ], [ 349490.233977619558573, 3771038.14852492371574 ], [ 349489.928789420169778, 3771038.14852492371574 ], [ 349489.623601220780984, 3771038.45371312322095 ] ] ] } },
{ "type": "Feature", "properties": { "confidence": 0.27797332406044006, "class": 1 }, "geometry": { "type": "Polygon", "coordinates": [ [ [ 349651.983723296027165, 3771365.615462868940085 ], [ 349651.983723296027165, 3771365.310274669434875 ], [ 349651.373346897249576, 3771364.699898270424455 ], [ 349651.373346897249576, 3771363.173957273829728 ], [ 349652.594099694804754, 3771361.95320447627455 ], [ 349652.594099694804754, 3771361.64801627676934 ], [ 349653.204476093582343, 3771361.03763987775892 ], [ 349654.120040691748727, 3771361.03763987775892 ], [ 349654.425228891137522, 3771360.732451678719372 ], [ 349655.340793489303906, 3771360.732451678719372 ], [ 349655.6459816886927, 3771361.03763987775892 ], [ 349655.951169888081495, 3771361.03763987775892 ], [ 349655.6459816886927, 3771361.34282807726413 ], [ 349655.6459816886927, 3771361.64801627676934 ], [ 349654.730417090526316, 3771362.563580874819309 ], [ 349654.730417090526316, 3771363.173957273829728 ], [ 349654.425228891137522, 3771363.479145472869277 ], [ 349654.425228891137522, 3771363.784333672374487 ], [ 349653.814852492359933, 3771364.394710071384907 ], [ 349653.509664292971138, 3771364.394710071384907 ], [ 349652.594099694804754, 3771365.310274669434875 ], [ 349652.594099694804754, 3771365.615462868940085 ], [ 349651.983723296027165, 3771365.615462868940085 ] ] ] } },
{ "type": "Feature", "properties": { "confidence": 0.26720285415649414, "class": 1 }, "geometry": { "type": "Polygon", "coordinates": [ [ [ 349598.2706002034829, 3771434.587995931040496 ], [ 349596.439471007150132, 3771432.756866734474897 ], [ 349596.439471007150132, 3771432.451678534969687 ], [ 349596.13428280770313, 3771432.146490335930139 ], [ 349596.13428280770313, 3771430.315361139364541 ], [ 349596.439471007150132, 3771430.010172939859331 ], [ 349596.744659206538927, 3771430.010172939859331 ], [ 349597.049847405927721, 3771429.704984740819782 ], [ 349597.355035605316516, 3771429.704984740819782 ], [ 349597.660223804705311, 3771429.399796541314572 ], [ 349599.186164801649284, 3771429.399796541314572 ], [ 349599.491353001038078, 3771429.704984740819782 ], [ 349600.406917599204462, 3771429.704984740819782 ], [ 349600.406917599204462, 3771430.010172939859331 ], [ 349601.322482197370846, 3771430.92573753837496 ], [ 349601.62767039675964, 3771430.92573753837496 ], [ 349601.932858596148435, 3771431.230925737414509 ], [ 349602.23804679553723, 3771431.230925737414509 ], [ 349602.848423194314819, 3771431.841302136424929 ], [ 349602.848423194314819, 3771433.367243133485317 ], [ 349602.543234994926024, 3771433.672431332524866 ], [ 349602.543234994926024, 3771433.977619532030076 ], [ 349601.932858596148435, 3771434.587995931040496 ], [ 349598.2706002034829, 3771434.587995931040496 ] ] ] } },
{ "type": "Feature", "properties": { "confidence": 0.25606301426887512, "class": 1 }, "geometry": { "type": "Polygon", "coordinates": [ [ [ 349471.3123092573951, 3771328.687690742779523 ], [ 349471.007121058006305, 3771328.382502543274313 ], [ 349470.396744659228716, 3771328.382502543274313 ], [ 349469.481180061062332, 3771327.466937945224345 ], [ 349469.481180061062332, 3771326.856561546213925 ], [ 349476.805696846393403, 3771326.856561546213925 ], [ 349476.805696846393403, 3771327.466937945224345 ], [ 349476.500508647004608, 3771327.772126144263893 ], [ 349476.500508647004608, 3771328.077314343769103 ], [ 349476.195320447615813, 3771328.077314343769103 ], [ 349475.890132248227019, 3771328.382502543274313 ], [ 349475.584944048838224, 3771328.382502543274313 ], [ 349475.27975584944943, 3771328.687690742779523 ], [ 349471.3123092573951, 3771328.687690742779523 ] ] ] } },
{ "type": "Feature", "properties": { "confidence": 0.25296351313591003, "class": 1 }, "geometry": { "type": "Polygon", "coordinates": [ [ [ 349226.246185147494543, 3771271.007121058180928 ], [ 349225.940996948105749, 3771270.701932858675718 ], [ 349225.025432349939365, 3771270.701932858675718 ], [ 349224.72024415055057, 3771270.396744659170508 ], [ 349224.72024415055057, 3771270.091556459665298 ], [ 349224.109867751772981, 3771269.48118006112054 ], [ 349224.109867751772981, 3771268.87080366211012 ], [ 349223.804679552384187, 3771268.565615463070571 ], [ 349223.804679552384187, 3771268.260427263565361 ], [ 349223.499491352995392, 3771267.955239064060152 ], [ 349223.499491352995392, 3771265.818921668455005 ], [ 349223.194303153606597, 3771265.513733468949795 ], [ 349223.194303153606597, 3771264.598168870899826 ], [ 349223.804679552384187, 3771263.987792471889406 ], [ 349225.635808748716954, 3771263.987792471889406 ], [ 349225.940996948105749, 3771264.292980671394616 ], [ 349229.298067141382489, 3771264.292980671394616 ], [ 349229.603255340771284, 3771264.598168870899826 ], [ 349229.908443540160079, 3771264.598168870899826 ], [ 349231.129196337715257, 3771265.818921668455005 ], [ 349231.129196337715257, 3771268.260427263565361 ], [ 349228.6876907426049, 3771270.701932858675718 ], [ 349227.772126144438516, 3771270.701932858675718 ], [ 349227.466937945049722, 3771271.007121058180928 ], [ 349226.246185147494543, 3771271.007121058180928 ] ] ] } }
]
}
