{
"type": "FeatureCollection",
"name": "cell_00390_pre",
"crs": { "type": "name", "properties": { "name": "urn:ogc:def:crs:EPSG::32611" } },
"features": [
{ "type": "Feature", "properties": { "confidence": 0.95207875967025757, "class": 1 }, "geometry": { "type": "Polygon", "coordinates": [ [ [ 396969.277721261430997, 3787650.152594099752605 ], [ 396968.972533062042203, 3787649.847405900247395 ], [ 396968.667344862653408, 3787649.847405900247395 ], [ 396968.056968463875819, 3787649.237029501702636 ], [ 396967.141403865709435, 3787649.237029501702636 ], [ 396966.836215666320641, 3787648.931841302197427 ], [ 396966.531027466931846, 3787648.931841302197427 ], [ 396965.920651068154257, 3787648.321464903187007 ], [ 396965.615462868765462, 3787648.321464903187007 ], [ 396965.615462868765462, 3787647.405900305137038 ], [ 396965.310274669376668, 3787647.100712105631828 ], [ 396965.310274669376668, 3787645.87995930807665 ], [ 396965.005086469987873, 3787645.574771109037101 ], [ 396965.005086469987873, 3787644.048830111976713 ], [ 396972.024415055930149, 3787644.048830111976713 ], [ 396972.024415055930149, 3787645.269582909531891 ], [ 396972.329603255318943, 3787645.574771109037101 ], [ 396972.024415055930149, 3787645.87995930807665 ], [ 396972.024415055930149, 3787646.79552390659228 ], [ 396972.329603255318943, 3787647.100712105631828 ], [ 396972.329603255318943, 3787647.711088504642248 ], [ 396972.024415055930149, 3787648.016276704147458 ], [ 396972.024415055930149, 3787648.321464903187007 ], [ 396971.719226856541354, 3787648.626653102692217 ], [ 396971.719226856541354, 3787649.237029501702636 ], [ 396971.41403865715256, 3787649.542217700742185 ], [ 396971.41403865715256, 3787649.847405900247395 ], [ 396970.80366225837497, 3787649.847405900247395 ], [ 396970.498474058986176, 3787650.152594099752605 ], [ 396969.277721261430997, 3787650.152594099752605 ] ] ] } },
{ "type": "Feature", "properties": { "confidence": 0.93474090099334717, "class": 1 }, "geometry": { "type": "Polygon", "coordinates": [ [ [ 396606.714140386553481, 3787457.578840285073966 ], [ 396606.408952187164687, 3787457.273652085568756 ], [ 396605.493387588998303, 3787457.273652085568756 ], [ 396604.883011190220714, 3787456.663275686558336 ], [ 396604.577822990831919, 3787456.663275686558336 ], [ 396604.272634791443124, 3787456.358087487053126 ], [ 396603.662258392665535, 3787456.358087487053126 ], [ 396603.662258392665535, 3787456.052899288013577 ], [ 396603.96744659205433, 3787455.747711088508368 ], [ 396603.96744659205433, 3787453.001017293892801 ], [ 396604.272634791443124, 3787452.695829094387591 ], [ 396604.272634791443124, 3787451.780264496337622 ], [ 396604.577822990831919, 3787451.475076296832412 ], [ 396604.577822990831919, 3787449.949135300237685 ], [ 396604.883011190220714, 3787449.643947100732476 ], [ 396604.883011190220714, 3787449.338758901227266 ], [ 396607.629704984719865, 3787446.592065106611699 ], [ 396609.460834181052633, 3787446.592065106611699 ], [ 396609.766022380441427, 3787446.897253306116909 ], [ 396610.071210579830222, 3787446.897253306116909 ], [ 396611.291963377443608, 3787448.118006103672087 ], [ 396611.291963377443608, 3787448.423194303177297 ], [ 396611.597151576832402, 3787448.728382502682507 ], [ 396611.597151576832402, 3787449.643947100732476 ], [ 396611.902339776221197, 3787449.949135300237685 ], [ 396611.902339776221197, 3787452.085452695842832 ], [ 396611.597151576832402, 3787452.390640895348042 ], [ 396611.597151576832402, 3787453.916581891942769 ], [ 396611.291963377443608, 3787453.916581891942769 ], [ 396610.681586978607811, 3787454.526958290953189 ], [ 396610.376398779219016, 3787454.526958290953189 ], [ 396608.545269582886249, 3787456.358087487053126 ], [ 396608.545269582886249, 3787456.663275686558336 ], [ 396607.93489318410866, 3787457.273652085568756 ], [ 396607.629704984719865, 3787457.273652085568756 ], [ 396607.32451678533107, 3787457.578840285073966 ], [ 396606.714140386553481, 3787457.578840285073966 ] ] ] } },
{ "type": "Feature", "properties": { "confidence": 0.87093019485473633, "class": 1 }, "geometry": { "type": "Polygon", "coordinates": [ [ [ 397106.002034588018432, 3787594.303153611253947 ], [ 397105.391658189240843, 3787593.692777212709188 ], [ 397105.391658189240843, 3787589.420142421033233 ], [ 397105.696846388629638, 3787589.114954221993685 ], [ 397105.696846388629638, 3787588.504577822983265 ], [ 397106.002034588018432, 3787588.199389623478055 ], [ 397106.002034588018432, 3787587.894201424438506 ], [ 397106.612410986796021, 3787587.283825025428087 ], [ 397106.612410986796021, 3787586.978636825922877 ], [ 397107.8331637843512, 3787585.757884028367698 ], [ 397108.138351983739994, 3787585.757884028367698 ], [ 397109.359104781295173, 3787584.53713123081252 ], [ 397110.274669379461557, 3787584.53713123081252 ], [ 397110.579857578850351, 3787584.84231943031773 ], [ 397111.19023397762794, 3787584.84231943031773 ], [ 397111.495422177016735, 3787585.14750762982294 ], [ 397112.105798575794324, 3787585.14750762982294 ], [ 397112.410986775183119, 3787585.452695828862488 ], [ 397112.716174974571913, 3787585.452695828862488 ], [ 397112.716174974571913, 3787585.757884028367698 ], [ 397113.021363173960708, 3787586.063072227872908 ], [ 397113.326551373349503, 3787586.063072227872908 ], [ 397113.631739572738297, 3787586.368260427378118 ], [ 397113.631739572738297, 3787586.673448626883328 ], [ 397113.936927772127092, 3787586.978636825922877 ], [ 397113.936927772127092, 3787588.809766022488475 ], [ 397113.631739572738297, 3787589.114954221993685 ], [ 397113.631739572738297, 3787590.030518820043653 ], [ 397113.021363173960708, 3787590.640895218588412 ], [ 397113.021363173960708, 3787590.946083418093622 ], [ 397112.410986775183119, 3787591.556459817104042 ], [ 397112.410986775183119, 3787592.1668362156488 ], [ 397112.105798575794324, 3787592.47202441515401 ], [ 397112.105798575794324, 3787592.77721261465922 ], [ 397111.495422177016735, 3787593.387589013203979 ], [ 397110.885045778239146, 3787593.387589013203979 ], [ 397110.579857578850351, 3787593.692777212709188 ], [ 397109.053916581906378, 3787593.692777212709188 ], [ 397108.748728382517584, 3787593.997965412214398 ], [ 397108.138351983739994, 3787593.997965412214398 ], [ 397107.8331637843512, 3787594.303153611253947 ], [ 397106.002034588018432, 3787594.303153611253947 ] ] ] } },
{ "type": "Feature", "properties": { "confidence": 0.82459920644760132, "class": 1 }, "geometry": { "type": "Polygon", "coordinates": [ [ [ 397060.834181078360416, 3787646.49033570708707 ], [ 397060.528992878913414, 3787646.18514750758186 ], [ 397060.528992878913414, 3787644.048830111976713 ], [ 397065.412004069192335, 3787644.048830111976713 ], [ 397065.412004069192335, 3787644.659206510521472 ], [ 397065.10681586980354, 3787644.964394710026681 ], [ 397064.801627670414746, 3787644.964394710026681 ], [ 397063.886063072248362, 3787645.87995930807665 ], [ 397063.580874872859567, 3787645.87995930807665 ], [ 397063.275686673470773, 3787646.18514750758186 ], [ 397062.665310274693184, 3787646.18514750758186 ], [ 397062.360122075304389, 3787646.49033570708707 ], [ 397060.834181078360416, 3787646.49033570708707 ] ] ] } },
{ "type": "Feature", "properties": { "confidence": 0.61744928359985352, "class": 1 }, "geometry": { "type": "Polygon", "coordinates": [ [ [ 397105.696846388629638, 3787594.303153611253947 ], [ 397105.391658189240843, 3787593.997965412214398 ], [ 397105.391658189240843, 3787593.387589013203979 ], [ 397105.086469989852048, 3787593.082400813698769 ], [ 397105.086469989852048, 3787590.946083418093622 ], [ 397105.391658189240843, 3787590.640895218588412 ], [ 397105.391658189240843, 3787589.725330620538443 ], [ 397105.696846388629638, 3787589.420142421033233 ], [ 397105.696846388629638, 3787588.504577822983265 ], [ 397106.002034588018432, 3787588.199389623478055 ], [ 397106.002034588018432, 3787587.894201424438506 ], [ 397106.917599186184816, 3787586.978636825922877 ], [ 397107.222787385573611, 3787586.978636825922877 ], [ 397107.527975584962405, 3787586.673448626883328 ], [ 397107.527975584962405, 3787594.303153611253947 ], [ 397105.696846388629638, 3787594.303153611253947 ] ] ] } },
{ "type": "Feature", "properties": { "confidence": 0.60820454359054565, "class": 1 }, "geometry": { "type": "Polygon", "coordinates": [ [ [ 397147.507629705010913, 3787627.873855544254184 ], [ 397147.202441505622119, 3787627.568667344748974 ], [ 397147.202441505622119, 3787627.263479145243764 ], [ 397146.897253306233324, 3787626.958290946204215 ], [ 397146.897253306233324, 3787623.601220752578229 ], [ 397147.202441505622119, 3787623.29603255353868 ], [ 397147.202441505622119, 3787622.99084435403347 ], [ 397147.507629705010913, 3787622.68565615452826 ], [ 397147.507629705010913, 3787620.549338758923113 ], [ 397147.812817904399708, 3787620.244150559417903 ], [ 397148.118006103788503, 3787620.244150559417903 ], [ 397148.423194303177297, 3787619.938962359912694 ], [ 397149.338758901343681, 3787619.938962359912694 ], [ 397149.643947100732476, 3787619.633774160873145 ], [ 397150.254323499510065, 3787619.633774160873145 ], [ 397150.559511698898859, 3787619.938962359912694 ], [ 397151.169888097676449, 3787619.938962359912694 ], [ 397151.169888097676449, 3787620.244150559417903 ], [ 397151.475076297065243, 3787620.549338758923113 ], [ 397151.475076297065243, 3787620.854526958428323 ], [ 397151.780264496454038, 3787621.159715157467872 ], [ 397151.780264496454038, 3787621.464903356973082 ], [ 397152.085452695842832, 3787621.770091556478292 ], [ 397152.085452695842832, 3787625.737538148649037 ], [ 397151.780264496454038, 3787626.042726347688586 ], [ 397151.780264496454038, 3787626.653102746699005 ], [ 397150.864699898287654, 3787627.568667344748974 ], [ 397149.94913530012127, 3787627.568667344748974 ], [ 397149.643947100732476, 3787627.873855544254184 ], [ 397147.507629705010913, 3787627.873855544254184 ] ] ] } },
{ "type": "Feature", "properties": { "confidence": 0.55647599697113037, "class": 1 }, "geometry": { "type": "Polygon", "coordinates": [ [ [ 396700.406917599204462, 3787214.038657172117382 ], [ 396700.101729399815667, 3787213.733468972612172 ], [ 396698.880976602260489, 3787213.733468972612172 ], [ 396698.575788402871694, 3787213.428280773106962 ], [ 396697.965412004094105, 3787213.428280773106962 ], [ 396697.049847405927721, 3787212.512716175056994 ], [ 396697.049847405927721, 3787212.207527975551784 ], [ 396696.744659206538927, 3787211.902339776046574 ], [ 396696.744659206538927, 3787211.291963377501816 ], [ 396696.439471007150132, 3787210.986775177996606 ], [ 396696.439471007150132, 3787210.376398779451847 ], [ 396696.13428280770313, 3787210.071210579946637 ], [ 396696.13428280770313, 3787209.766022380441427 ], [ 396695.829094608314335, 3787209.460834180936217 ], [ 396695.829094608314335, 3787208.240081383381039 ], [ 396695.218718209536746, 3787207.62970498483628 ], [ 396695.523906408925541, 3787207.32451678533107 ], [ 396695.523906408925541, 3787207.019328585825861 ], [ 396696.13428280770313, 3787206.408952187281102 ], [ 396696.439471007150132, 3787206.408952187281102 ], [ 396696.744659206538927, 3787206.103763987775892 ], [ 396700.712105798593257, 3787206.103763987775892 ], [ 396701.017293997982051, 3787206.408952187281102 ], [ 396701.62767039675964, 3787206.408952187281102 ], [ 396701.932858596148435, 3787206.714140386786312 ], [ 396701.932858596148435, 3787207.32451678533107 ], [ 396702.23804679553723, 3787207.62970498483628 ], [ 396702.23804679553723, 3787207.93489318434149 ], [ 396702.848423194314819, 3787208.545269582886249 ], [ 396702.848423194314819, 3787208.850457782391459 ], [ 396703.458799593092408, 3787209.460834180936217 ], [ 396703.458799593092408, 3787210.376398779451847 ], [ 396703.763987792481203, 3787210.681586978491396 ], [ 396703.763987792481203, 3787212.207527975551784 ], [ 396703.153611393703613, 3787212.817904374562204 ], [ 396702.848423194314819, 3787212.817904374562204 ], [ 396702.23804679553723, 3787213.428280773106962 ], [ 396701.932858596148435, 3787213.428280773106962 ], [ 396701.62767039675964, 3787213.733468972612172 ], [ 396700.712105798593257, 3787213.733468972612172 ], [ 396700.406917599204462, 3787214.038657172117382 ] ] ] } },
{ "type": "Feature", "properties": { "confidence": 0.53360283374786377, "class": 1 }, "geometry": { "type": "Polygon", "coordinates": [ [ [ 396650.966429298045114, 3787375.178026449866593 ], [ 396650.661241098656319, 3787374.872838250361383 ], [ 396650.661241098656319, 3787373.346897253300995 ], [ 396650.966429298045114, 3787373.041709053795785 ], [ 396650.966429298045114, 3787372.736520854756236 ], [ 396651.271617497433908, 3787372.431332655251026 ], [ 396651.271617497433908, 3787371.210579857695848 ], [ 396651.881993896211497, 3787370.600203458685428 ], [ 396651.881993896211497, 3787369.37945066113025 ], [ 396654.628687690768857, 3787369.37945066113025 ], [ 396654.933875890157651, 3787369.684638860635459 ], [ 396655.239064089546446, 3787369.684638860635459 ], [ 396655.54425228893524, 3787369.989827060140669 ], [ 396655.849440488324035, 3787369.989827060140669 ], [ 396656.15462868771283, 3787370.295015259180218 ], [ 396656.459816887101624, 3787370.295015259180218 ], [ 396656.459816887101624, 3787370.600203458685428 ], [ 396656.765005086490419, 3787370.905391658190638 ], [ 396657.070193285879213, 3787370.905391658190638 ], [ 396657.680569684656803, 3787371.515768057201058 ], [ 396657.680569684656803, 3787372.126144455745816 ], [ 396656.15462868771283, 3787373.652085452806205 ], [ 396654.933875890157651, 3787373.652085452806205 ], [ 396654.628687690768857, 3787373.957273652311414 ], [ 396653.102746693766676, 3787373.957273652311414 ], [ 396652.492370294989087, 3787374.567650050856173 ], [ 396652.187182095600292, 3787374.567650050856173 ], [ 396651.576805696822703, 3787375.178026449866593 ], [ 396650.966429298045114, 3787375.178026449866593 ] ] ] } },
{ "type": "Feature", "properties": { "confidence": 0.52259635925292969, "class": 1 }, "geometry": { "type": "Polygon", "coordinates": [ [ [ 397117.293997965403832, 3787597.049847405869514 ], [ 397116.988809766015038, 3787596.744659206364304 ], [ 397116.683621566626243, 3787596.744659206364304 ], [ 397116.378433367237449, 3787596.439471007324755 ], [ 397116.073245167848654, 3787596.439471007324755 ], [ 397116.073245167848654, 3787595.829094608314335 ], [ 397115.768056968459859, 3787595.523906408809125 ], [ 397115.768056968459859, 3787595.218718209769577 ], [ 397116.073245167848654, 3787594.913530010264367 ], [ 397116.073245167848654, 3787591.86164801614359 ], [ 397116.378433367237449, 3787591.556459817104042 ], [ 397116.378433367237449, 3787589.725330620538443 ], [ 397116.683621566626243, 3787589.420142421033233 ], [ 397116.683621566626243, 3787588.504577822983265 ], [ 397116.988809766015038, 3787588.199389623478055 ], [ 397116.988809766015038, 3787587.894201424438506 ], [ 397117.293997965403832, 3787587.589013224933296 ], [ 397120.040691759902984, 3787587.589013224933296 ], [ 397120.345879959291779, 3787587.894201424438506 ], [ 397120.040691759902984, 3787587.894201424438506 ], [ 397119.735503560514189, 3787588.199389623478055 ], [ 397119.735503560514189, 3787589.114954221993685 ], [ 397120.956256358069368, 3787590.335707019548863 ], [ 397121.261444557458162, 3787590.335707019548863 ], [ 397121.871820956235752, 3787590.946083418093622 ], [ 397122.177009155624546, 3787590.946083418093622 ], [ 397122.177009155624546, 3787591.251271617598832 ], [ 397122.482197355013341, 3787591.556459817104042 ], [ 397122.787385554402135, 3787591.556459817104042 ], [ 397122.787385554402135, 3787592.1668362156488 ], [ 397123.09257375379093, 3787592.47202441515401 ], [ 397122.787385554402135, 3787592.77721261465922 ], [ 397122.787385554402135, 3787593.082400813698769 ], [ 397122.177009155624546, 3787593.692777212709188 ], [ 397122.177009155624546, 3787593.997965412214398 ], [ 397121.871820956235752, 3787594.303153611253947 ], [ 397121.871820956235752, 3787595.218718209769577 ], [ 397121.261444557458162, 3787595.829094608314335 ], [ 397121.261444557458162, 3787596.134282807819545 ], [ 397120.651068158680573, 3787596.744659206364304 ], [ 397118.209562563570216, 3787596.744659206364304 ], [ 397117.904374364181422, 3787597.049847405869514 ], [ 397117.293997965403832, 3787597.049847405869514 ] ] ] } },
{ "type": "Feature", "properties": { "confidence": 0.47017523646354675, "class": 1 }, "geometry": { "type": "Polygon", "coordinates": [ [ [ 397013.224821973533835, 3787589.420142421033233 ], [ 397012.614445574756246, 3787588.809766022488475 ], [ 397012.614445574756246, 3787588.199389623478055 ], [ 397012.919633774145041, 3787587.894201424438506 ], [ 397012.919633774145041, 3787586.978636825922877 ], [ 397013.224821973533835, 3787586.673448626883328 ], [ 397013.224821973533835, 3787586.368260427378118 ], [ 397013.53001017292263, 3787586.063072227872908 ], [ 397015.361139369255397, 3787586.063072227872908 ], [ 397015.971515768032987, 3787585.452695828862488 ], [ 397015.971515768032987, 3787585.14750762982294 ], [ 397016.276703967421781, 3787585.14750762982294 ], [ 397016.581892166810576, 3787584.84231943031773 ], [ 397018.413021363201551, 3787584.84231943031773 ], [ 397018.718209562590346, 3787585.14750762982294 ], [ 397019.328585961367935, 3787585.14750762982294 ], [ 397019.938962360145524, 3787585.757884028367698 ], [ 397019.938962360145524, 3787586.673448626883328 ], [ 397018.718209562590346, 3787587.894201424438506 ], [ 397018.413021363201551, 3787587.894201424438506 ], [ 397018.107833163812757, 3787588.199389623478055 ], [ 397017.49745676497696, 3787588.199389623478055 ], [ 397017.192268565588165, 3787588.504577822983265 ], [ 397016.88708036619937, 3787588.504577822983265 ], [ 397016.581892166810576, 3787588.809766022488475 ], [ 397015.666327568644192, 3787588.809766022488475 ], [ 397015.361139369255397, 3787589.114954221993685 ], [ 397014.140386571700219, 3787589.114954221993685 ], [ 397013.835198372311424, 3787589.420142421033233 ], [ 397013.224821973533835, 3787589.420142421033233 ] ] ] } },
{ "type": "Feature", "properties": { "confidence": 0.45090889930725098, "class": 1 }, "geometry": { "type": "Polygon", "coordinates": [ [ [ 396878.331637843337376, 3787656.256358087528497 ], [ 396877.721261444559786, 3787655.645981688518077 ], [ 396877.416073245170992, 3787655.645981688518077 ], [ 396877.416073245170992, 3787655.340793489478528 ], [ 396877.110885045782197, 3787655.035605289973319 ], [ 396876.805696846393403, 3787655.035605289973319 ], [ 396875.890132248227019, 3787654.12004069192335 ], [ 396875.890132248227019, 3787653.81485249241814 ], [ 396875.584944048838224, 3787653.50966429291293 ], [ 396875.584944048838224, 3787653.20447609340772 ], [ 396875.27975584944943, 3787652.899287894368172 ], [ 396875.27975584944943, 3787652.594099694862962 ], [ 396874.974567650060635, 3787652.288911495357752 ], [ 396874.974567650060635, 3787651.678535096812993 ], [ 396874.66937945067184, 3787651.373346897307783 ], [ 396874.66937945067184, 3787650.762970498297364 ], [ 396874.364191251283046, 3787650.457782299257815 ], [ 396874.364191251283046, 3787645.269582909531891 ], [ 396874.974567650060635, 3787645.269582909531891 ], [ 396875.27975584944943, 3787644.964394710026681 ], [ 396885.350966429279651, 3787644.964394710026681 ], [ 396885.656154628668446, 3787645.269582909531891 ], [ 396885.656154628668446, 3787647.100712105631828 ], [ 396885.350966429279651, 3787647.405900305137038 ], [ 396885.350966429279651, 3787648.931841302197427 ], [ 396885.045778229890857, 3787649.237029501702636 ], [ 396885.045778229890857, 3787649.542217700742185 ], [ 396884.435401831113268, 3787650.152594099752605 ], [ 396884.435401831113268, 3787650.457782299257815 ], [ 396882.909460834169295, 3787651.983723295852542 ], [ 396882.909460834169295, 3787652.288911495357752 ], [ 396881.993896236002911, 3787653.20447609340772 ], [ 396881.993896236002911, 3787653.50966429291293 ], [ 396881.688708036614116, 3787653.81485249241814 ], [ 396881.688708036614116, 3787654.12004069192335 ], [ 396881.383519837225322, 3787654.425228890962899 ], [ 396881.383519837225322, 3787654.730417090468109 ], [ 396880.773143438447732, 3787655.340793489478528 ], [ 396880.773143438447732, 3787655.951169888023287 ], [ 396880.467955239058938, 3787656.256358087528497 ], [ 396878.331637843337376, 3787656.256358087528497 ] ] ] } },
{ "type": "Feature", "properties": { "confidence": 0.40285542607307434, "class": 1 }, "geometry": { "type": "Polygon", "coordinates": [ [ [ 396619.226856561552268, 3787436.826042726170272 ], [ 396618.921668362163473, 3787436.520854527130723 ], [ 396618.921668362163473, 3787435.910478128120303 ], [ 396618.616480162774678, 3787435.605289928615093 ], [ 396618.616480162774678, 3787435.300101729575545 ], [ 396618.921668362163473, 3787434.994913530070335 ], [ 396618.921668362163473, 3787433.468972533009946 ], [ 396620.142421159718651, 3787432.248219735454768 ], [ 396620.447609359107446, 3787432.248219735454768 ], [ 396620.752797558496241, 3787431.943031535949558 ], [ 396621.057985757885035, 3787431.943031535949558 ], [ 396621.973550356051419, 3787431.02746693789959 ], [ 396622.278738555440214, 3787431.02746693789959 ], [ 396623.194303153606597, 3787430.111902339849621 ], [ 396624.109867751772981, 3787430.111902339849621 ], [ 396624.109867751772981, 3787431.637843336910009 ], [ 396623.804679552384187, 3787431.943031535949558 ], [ 396623.804679552384187, 3787432.248219735454768 ], [ 396623.499491352995392, 3787432.553407934959978 ], [ 396623.499491352995392, 3787432.858596134465188 ], [ 396623.194303153606597, 3787433.163784333504736 ], [ 396623.194303153606597, 3787433.468972533009946 ], [ 396622.889114954217803, 3787433.774160732515156 ], [ 396622.889114954217803, 3787434.079348932020366 ], [ 396622.583926754829008, 3787434.384537131059915 ], [ 396622.583926754829008, 3787434.689725330565125 ], [ 396621.973550356051419, 3787435.300101729575545 ], [ 396621.973550356051419, 3787435.605289928615093 ], [ 396621.057985757885035, 3787436.520854527130723 ], [ 396620.447609359107446, 3787436.520854527130723 ], [ 396620.142421159718651, 3787436.826042726170272 ], [ 396619.226856561552268, 3787436.826042726170272 ] ] ] } },
{ "type": "Feature", "properties": { "confidence": 0.36651602387428284, "class": 1 }, "geometry": { "type": "Polygon", "coordinates": [ [ [ 396755.340793489303906, 3787648.626653102692217 ], [ 396755.035605289915111, 3787648.321464903187007 ], [ 396754.425228891137522, 3787648.321464903187007 ], [ 396754.120040691748727, 3787648.016276704147458 ], [ 396753.814852492359933, 3787648.016276704147458 ], [ 396753.204476093582343, 3787647.405900305137038 ], [ 396753.204476093582343, 3787644.964394710026681 ], [ 396753.509664292971138, 3787644.659206510521472 ], [ 396753.509664292971138, 3787644.048830111976713 ], [ 396755.951169888081495, 3787644.048830111976713 ], [ 396755.951169888081495, 3787648.626653102692217 ], [ 396755.340793489303906, 3787648.626653102692217 ] ] ] } },
{ "type": "Feature", "properties": { "confidence": 0.33827367424964905, "class": 1 }, "geometry": { "type": "Polygon", "coordinates": [ [ [ 396824.618514750734903, 3787648.321464903187007 ], [ 396824.313326551346108, 3787648.016276704147458 ], [ 396823.702950152568519, 3787648.016276704147458 ], [ 396822.787385554402135, 3787647.100712105631828 ], [ 396822.787385554402135, 3787646.79552390659228 ], [ 396822.177009155624546, 3787646.18514750758186 ], [ 396822.177009155624546, 3787645.574771109037101 ], [ 396821.871820956235752, 3787645.269582909531891 ], [ 396821.871820956235752, 3787644.659206510521472 ], [ 396826.754832146514673, 3787644.659206510521472 ], [ 396826.754832146514673, 3787645.574771109037101 ], [ 396827.060020345903467, 3787645.87995930807665 ], [ 396827.060020345903467, 3787647.711088504642248 ], [ 396826.449643947125878, 3787648.321464903187007 ], [ 396824.618514750734903, 3787648.321464903187007 ] ] ] } },
{ "type": "Feature", "properties": { "confidence": 0.29739877581596375, "class": 1 }, "geometry": { "type": "Polygon", "coordinates": [ [ [ 396958.596134282823186, 3787608.646998982876539 ], [ 396958.290946083434392, 3787608.341810783371329 ], [ 396958.290946083434392, 3787608.036622583866119 ], [ 396957.985757884045597, 3787607.731434384360909 ], [ 396957.985757884045597, 3787602.848423194140196 ], [ 396957.680569684656803, 3787602.543234995100647 ], [ 396957.680569684656803, 3787601.932858596090227 ], [ 396957.985757884045597, 3787601.627670396585017 ], [ 396957.985757884045597, 3787601.322482197545469 ], [ 396958.290946083434392, 3787601.017293998040259 ], [ 396958.596134282823186, 3787601.017293998040259 ], [ 396959.51169888098957, 3787600.10172939999029 ], [ 396959.816887080378365, 3787600.10172939999029 ], [ 396960.122075279767159, 3787599.79654120048508 ], [ 396960.427263479155954, 3787599.79654120048508 ], [ 396960.732451678544749, 3787599.491353000979871 ], [ 396961.037639877933543, 3787599.491353000979871 ], [ 396961.342828077322338, 3787599.186164801474661 ], [ 396962.868769074266311, 3787599.186164801474661 ], [ 396962.868769074266311, 3787601.932858596090227 ], [ 396963.173957273655105, 3787602.238046795595437 ], [ 396963.173957273655105, 3787603.763987792655826 ], [ 396963.4791454730439, 3787604.069175991695374 ], [ 396963.4791454730439, 3787604.984740590211004 ], [ 396963.173957273655105, 3787605.289928789250553 ], [ 396963.173957273655105, 3787606.205493387766182 ], [ 396962.563580874877516, 3787606.815869786310941 ], [ 396962.563580874877516, 3787607.121057985816151 ], [ 396961.648016276711132, 3787608.036622583866119 ], [ 396961.342828077322338, 3787608.036622583866119 ], [ 396961.037639877933543, 3787608.341810783371329 ], [ 396960.427263479155954, 3787608.341810783371329 ], [ 396960.122075279767159, 3787608.646998982876539 ], [ 396958.596134282823186, 3787608.646998982876539 ] ] ] } },
{ "type": "Feature", "properties": { "confidence": 0.2836853563785553, "class": 1 }, "geometry": { "type": "Polygon", "coordinates": [ [ [ 396952.187182095600292, 3787295.218718209769577 ], [ 396951.881993896211497, 3787294.913530010264367 ], [ 396951.576805696822703, 3787294.913530010264367 ], [ 396951.576805696822703, 3787292.47202441515401 ], [ 396955.239064089546446, 3787292.47202441515401 ], [ 396955.239064089546446, 3787294.303153611253947 ], [ 396954.933875890157651, 3787294.608341810759157 ], [ 396954.628687690768857, 3787294.608341810759157 ], [ 396954.323499491380062, 3787294.913530010264367 ], [ 396954.323499491380062, 3787295.218718209769577 ], [ 396952.187182095600292, 3787295.218718209769577 ] ] ] } },
{ "type": "Feature", "properties": { "confidence": 0.27797141671180725, "class": 1 }, "geometry": { "type": "Polygon", "coordinates": [ [ [ 397018.718209562590346, 3787295.829094608314335 ], [ 397018.413021363201551, 3787295.523906408809125 ], [ 397017.802644964365754, 3787295.523906408809125 ], [ 397017.192268565588165, 3787294.913530010264367 ], [ 397016.88708036619937, 3787294.913530010264367 ], [ 397016.581892166810576, 3787294.608341810759157 ], [ 397016.581892166810576, 3787294.303153611253947 ], [ 397016.276703967421781, 3787293.997965412214398 ], [ 397016.276703967421781, 3787292.47202441515401 ], [ 397021.464903357089497, 3787292.47202441515401 ], [ 397021.464903357089497, 3787294.608341810759157 ], [ 397020.549338758923113, 3787295.523906408809125 ], [ 397020.244150559534319, 3787295.523906408809125 ], [ 397019.938962360145524, 3787295.829094608314335 ], [ 397018.718209562590346, 3787295.829094608314335 ] ] ] } }
]
}
