{
"type": "FeatureCollection",
"name": "cell_00462_pre",
"crs": { "type": "name", "properties": { "name": "urn:ogc:def:crs:EPSG::32611" } },
"features": [
{ "type": "Feature", "properties": { "confidence": 0.95636790990829468, "class": 1 }, "geometry": { "type": "Polygon", "coordinates": [ [ [ 400240.284842319437303, 3785273.652085452806205 ], [ 400239.979654120048508, 3785273.346897253300995 ], [ 400239.674465920659713, 3785273.346897253300995 ], [ 400239.064089521882124, 3785272.736520854756236 ], [ 400239.064089521882124, 3785271.515768057201058 ], [ 400238.75890132249333, 3785271.210579857695848 ], [ 400238.75890132249333, 3785270.905391658190638 ], [ 400238.453713123104535, 3785270.600203458685428 ], [ 400238.453713123104535, 3785270.295015259180218 ], [ 400237.843336724326946, 3785269.684638860635459 ], [ 400237.843336724326946, 3785269.07426246162504 ], [ 400237.538148524938151, 3785268.769074262585491 ], [ 400237.538148524938151, 3785268.463886063080281 ], [ 400237.232960325549357, 3785268.158697863575071 ], [ 400237.232960325549357, 3785266.632756866514683 ], [ 400237.843336724326946, 3785266.022380467969924 ], [ 400238.14852492371574, 3785266.022380467969924 ], [ 400238.453713123104535, 3785265.717192268464714 ], [ 400238.75890132249333, 3785266.022380467969924 ], [ 400239.674465920659713, 3785266.022380467969924 ], [ 400239.979654120048508, 3785266.327568667475134 ], [ 400240.284842319437303, 3785266.327568667475134 ], [ 400240.284842319437303, 3785266.937945066019893 ], [ 400240.590030518826097, 3785267.243133265525103 ], [ 400240.895218718214892, 3785267.243133265525103 ], [ 400240.895218718214892, 3785267.548321465030313 ], [ 400241.200406917603686, 3785267.853509664069861 ], [ 400241.200406917603686, 3785268.158697863575071 ], [ 400241.505595116992481, 3785268.463886063080281 ], [ 400241.810783316381276, 3785268.463886063080281 ], [ 400241.810783316381276, 3785269.07426246162504 ], [ 400243.031536113936454, 3785270.295015259180218 ], [ 400243.031536113936454, 3785270.905391658190638 ], [ 400243.336724313325249, 3785271.210579857695848 ], [ 400243.336724313325249, 3785272.126144455745816 ], [ 400243.031536113936454, 3785272.431332655251026 ], [ 400243.031536113936454, 3785272.736520854756236 ], [ 400242.726347914547659, 3785273.041709053795785 ], [ 400242.726347914547659, 3785273.346897253300995 ], [ 400242.11597151577007, 3785273.346897253300995 ], [ 400241.810783316381276, 3785273.652085452806205 ], [ 400240.284842319437303, 3785273.652085452806205 ] ] ] } },
{ "type": "Feature", "properties": { "confidence": 0.95553398132324219, "class": 1 }, "geometry": { "type": "Polygon", "coordinates": [ [ [ 400471.007121058006305, 3784999.593082400970161 ], [ 400469.481180061062332, 3784998.067141403909773 ], [ 400469.481180061062332, 3784997.456765004899353 ], [ 400469.175991861673538, 3784997.151576805859804 ], [ 400469.175991861673538, 3784994.710071210749447 ], [ 400470.396744659228716, 3784994.710071210749447 ], [ 400470.701932858617511, 3784994.404883011244237 ], [ 400472.838250254339073, 3784994.404883011244237 ], [ 400473.143438453727867, 3784994.099694811739028 ], [ 400473.143438453727867, 3784999.287894201464951 ], [ 400471.922685656172689, 3784999.287894201464951 ], [ 400471.617497456783894, 3784999.593082400970161 ], [ 400471.007121058006305, 3784999.593082400970161 ] ] ] } },
{ "type": "Feature", "properties": { "confidence": 0.88158458471298218, "class": 1 }, "geometry": { "type": "Polygon", "coordinates": [ [ [ 400243.031536113936454, 3785082.299084435217083 ], [ 400242.726347914547659, 3785081.993896236177534 ], [ 400242.11597151577007, 3785081.993896236177534 ], [ 400241.505595116992481, 3785081.383519837167114 ], [ 400241.505595116992481, 3785081.078331637661904 ], [ 400241.200406917603686, 3785080.773143438622355 ], [ 400241.200406917603686, 3785080.467955239117146 ], [ 400240.895218718214892, 3785080.162767039611936 ], [ 400240.895218718214892, 3785079.857578840106726 ], [ 400240.590030518826097, 3785079.552390641067177 ], [ 400240.590030518826097, 3785079.247202441561967 ], [ 400239.979654120048508, 3785078.636826042551547 ], [ 400239.979654120048508, 3785077.721261444501579 ], [ 400240.590030518826097, 3785077.11088504595682 ], [ 400240.895218718214892, 3785077.11088504595682 ], [ 400241.200406917603686, 3785076.80569684645161 ], [ 400242.11597151577007, 3785076.80569684645161 ], [ 400242.421159715158865, 3785076.5005086469464 ], [ 400242.726347914547659, 3785076.80569684645161 ], [ 400243.336724313325249, 3785076.80569684645161 ], [ 400243.641912512714043, 3785077.11088504595682 ], [ 400244.557477110880427, 3785077.11088504595682 ], [ 400244.862665310269222, 3785077.416073244996369 ], [ 400245.167853509658016, 3785077.416073244996369 ], [ 400245.473041709046811, 3785077.721261444501579 ], [ 400246.0834181078244, 3785077.721261444501579 ], [ 400246.388606307213195, 3785078.026449644006789 ], [ 400246.388606307213195, 3785081.078331637661904 ], [ 400246.0834181078244, 3785081.383519837167114 ], [ 400246.0834181078244, 3785081.688708036672324 ], [ 400245.778229908435605, 3785081.993896236177534 ], [ 400244.862665310269222, 3785081.993896236177534 ], [ 400244.557477110880427, 3785082.299084435217083 ], [ 400243.031536113936454, 3785082.299084435217083 ] ] ] } },
{ "type": "Feature", "properties": { "confidence": 0.86719179153442383, "class": 1 }, "geometry": { "type": "Polygon", "coordinates": [ [ [ 400301.017293997982051, 3785141.505595116876066 ], [ 400300.712105798593257, 3785141.200406917370856 ], [ 400300.101729399815667, 3785141.200406917370856 ], [ 400298.2706002034829, 3785139.369277721270919 ], [ 400298.2706002034829, 3785137.538148524705321 ], [ 400298.880976602260489, 3785136.927772126160562 ], [ 400300.406917599204462, 3785136.927772126160562 ], [ 400300.712105798593257, 3785136.622583926655352 ], [ 400303.763987792481203, 3785136.622583926655352 ], [ 400304.069175991869997, 3785136.927772126160562 ], [ 400304.374364191258792, 3785136.927772126160562 ], [ 400304.374364191258792, 3785137.232960325665772 ], [ 400304.679552390647586, 3785137.538148524705321 ], [ 400304.679552390647586, 3785138.758901322260499 ], [ 400304.374364191258792, 3785139.064089521765709 ], [ 400304.374364191258792, 3785139.674465920776129 ], [ 400303.763987792481203, 3785140.284842319320887 ], [ 400303.458799593092408, 3785140.284842319320887 ], [ 400302.848423194314819, 3785140.895218718331307 ], [ 400302.543234994926024, 3785140.895218718331307 ], [ 400302.23804679553723, 3785141.200406917370856 ], [ 400301.932858596148435, 3785141.200406917370856 ], [ 400301.62767039675964, 3785141.505595116876066 ], [ 400301.017293997982051, 3785141.505595116876066 ] ] ] } },
{ "type": "Feature", "properties": { "confidence": 0.79992640018463135, "class": 1 }, "geometry": { "type": "Polygon", "coordinates": [ [ [ 400260.732451678544749, 3785155.239064089488238 ], [ 400260.427263479155954, 3785154.933875889983028 ], [ 400259.816887080378365, 3785154.933875889983028 ], [ 400259.51169888098957, 3785154.62868769094348 ], [ 400259.206510681600776, 3785154.62868769094348 ], [ 400258.901322482211981, 3785154.32349949143827 ], [ 400258.901322482211981, 3785154.01831129193306 ], [ 400258.596134282823186, 3785153.71312309242785 ], [ 400258.596134282823186, 3785152.797558494377881 ], [ 400258.901322482211981, 3785152.492370294872671 ], [ 400258.901322482211981, 3785152.187182095833123 ], [ 400259.206510681600776, 3785151.881993896327913 ], [ 400259.816887080378365, 3785151.881993896327913 ], [ 400260.427263479155954, 3785151.271617497317493 ], [ 400261.648016276711132, 3785151.271617497317493 ], [ 400261.953204476099927, 3785150.966429298277944 ], [ 400262.563580874877516, 3785150.966429298277944 ], [ 400263.173957273655105, 3785151.576805696822703 ], [ 400263.173957273655105, 3785153.71312309242785 ], [ 400263.4791454730439, 3785154.01831129193306 ], [ 400263.173957273655105, 3785154.32349949143827 ], [ 400263.173957273655105, 3785154.62868769094348 ], [ 400262.868769074266311, 3785154.933875889983028 ], [ 400262.563580874877516, 3785154.933875889983028 ], [ 400262.258392675488722, 3785155.239064089488238 ], [ 400260.732451678544749, 3785155.239064089488238 ] ] ] } },
{ "type": "Feature", "properties": { "confidence": 0.79719114303588867, "class": 1 }, "geometry": { "type": "Polygon", "coordinates": [ [ [ 400472.838250254339073, 3785248.931841302197427 ], [ 400472.533062054950278, 3785248.626653102692217 ], [ 400471.922685656172689, 3785248.626653102692217 ], [ 400471.617497456783894, 3785248.321464903187007 ], [ 400471.3123092573951, 3785248.321464903187007 ], [ 400471.007121058006305, 3785248.016276704147458 ], [ 400471.007121058006305, 3785247.711088504642248 ], [ 400470.701932858617511, 3785247.405900305137038 ], [ 400470.701932858617511, 3785246.79552390659228 ], [ 400470.396744659228716, 3785246.49033570708707 ], [ 400470.396744659228716, 3785245.574771109037101 ], [ 400470.091556459839921, 3785245.269582909531891 ], [ 400470.091556459839921, 3785244.048830111976713 ], [ 400473.143438453727867, 3785244.048830111976713 ], [ 400473.143438453727867, 3785248.931841302197427 ], [ 400472.838250254339073, 3785248.931841302197427 ] ] ] } },
{ "type": "Feature", "properties": { "confidence": 0.79174149036407471, "class": 1 }, "geometry": { "type": "Polygon", "coordinates": [ [ [ 400308.341810783313122, 3785246.79552390659228 ], [ 400308.036622583924327, 3785246.49033570708707 ], [ 400307.426246185146738, 3785246.49033570708707 ], [ 400307.426246185146738, 3785245.87995930807665 ], [ 400307.121057985757943, 3785245.574771109037101 ], [ 400307.121057985757943, 3785244.964394710026681 ], [ 400306.815869786369149, 3785244.659206510521472 ], [ 400306.815869786369149, 3785244.048830111976713 ], [ 400312.919633774145041, 3785244.048830111976713 ], [ 400312.919633774145041, 3785244.964394710026681 ], [ 400312.614445574756246, 3785245.269582909531891 ], [ 400312.614445574756246, 3785245.574771109037101 ], [ 400312.004069175978657, 3785246.18514750758186 ], [ 400311.698880976589862, 3785246.18514750758186 ], [ 400311.393692777201068, 3785246.49033570708707 ], [ 400310.783316378423478, 3785246.49033570708707 ], [ 400310.478128179034684, 3785246.79552390659228 ], [ 400308.341810783313122, 3785246.79552390659228 ] ] ] } },
{ "type": "Feature", "properties": { "confidence": 0.78925532102584839, "class": 1 }, "geometry": { "type": "Polygon", "coordinates": [ [ [ 400310.478128179034684, 3785123.80467955255881 ], [ 400309.867751780257095, 3785123.19430315354839 ], [ 400309.867751780257095, 3785122.88911495404318 ], [ 400309.5625635808683, 3785122.583926755003631 ], [ 400309.5625635808683, 3785119.226856561377645 ], [ 400309.867751780257095, 3785118.921668362338096 ], [ 400309.867751780257095, 3785118.311291963327676 ], [ 400310.172939979645889, 3785118.006103763822466 ], [ 400310.172939979645889, 3785117.700915564782917 ], [ 400310.783316378423478, 3785117.700915564782917 ], [ 400311.088504577812273, 3785117.395727365277708 ], [ 400311.088504577812273, 3785116.785350966267288 ], [ 400312.919633774145041, 3785116.785350966267288 ], [ 400313.53001017292263, 3785117.395727365277708 ], [ 400313.53001017292263, 3785117.700915564782917 ], [ 400313.835198372311424, 3785118.006103763822466 ], [ 400315.666327568644192, 3785118.006103763822466 ], [ 400315.971515768032987, 3785118.311291963327676 ], [ 400316.276703967421781, 3785118.311291963327676 ], [ 400316.581892166810576, 3785118.616480162832886 ], [ 400316.581892166810576, 3785119.226856561377645 ], [ 400316.88708036619937, 3785119.532044760882854 ], [ 400316.88708036619937, 3785121.057985757943243 ], [ 400316.581892166810576, 3785121.363173957448453 ], [ 400316.581892166810576, 3785121.973550355993211 ], [ 400316.276703967421781, 3785121.973550355993211 ], [ 400315.361139369255397, 3785122.88911495404318 ], [ 400315.055951169866603, 3785122.88911495404318 ], [ 400314.750762970477808, 3785123.19430315354839 ], [ 400313.835198372311424, 3785123.19430315354839 ], [ 400313.53001017292263, 3785123.4994913530536 ], [ 400312.004069175978657, 3785123.4994913530536 ], [ 400311.698880976589862, 3785123.80467955255881 ], [ 400310.478128179034684, 3785123.80467955255881 ] ] ] } },
{ "type": "Feature", "properties": { "confidence": 0.77463811635971069, "class": 1 }, "geometry": { "type": "Polygon", "coordinates": [ [ [ 400272.634791454707738, 3785221.770091556478292 ], [ 400272.329603255318943, 3785221.464903356973082 ], [ 400272.329603255318943, 3785219.328585961367935 ], [ 400271.719226856541354, 3785218.718209562357515 ], [ 400271.719226856541354, 3785218.413021363317966 ], [ 400271.41403865715256, 3785218.107833163812757 ], [ 400271.41403865715256, 3785216.887080366257578 ], [ 400272.024415055930149, 3785216.276703967247158 ], [ 400272.939979654096533, 3785216.276703967247158 ], [ 400273.245167853485327, 3785215.97151576820761 ], [ 400273.550356052874122, 3785215.97151576820761 ], [ 400274.160732451651711, 3785215.36113936919719 ], [ 400274.465920651040506, 3785215.36113936919719 ], [ 400274.7711088504293, 3785215.05595116969198 ], [ 400275.381485249265097, 3785215.05595116969198 ], [ 400275.991861648042686, 3785215.6663275687024 ], [ 400275.991861648042686, 3785215.97151576820761 ], [ 400276.297049847431481, 3785216.276703967247158 ], [ 400276.297049847431481, 3785216.581892166752368 ], [ 400276.90742624620907, 3785217.192268565762788 ], [ 400276.90742624620907, 3785217.802644964307547 ], [ 400277.212614445597865, 3785218.107833163812757 ], [ 400277.212614445597865, 3785218.413021363317966 ], [ 400277.517802644986659, 3785218.718209562357515 ], [ 400277.517802644986659, 3785220.549338758923113 ], [ 400277.212614445597865, 3785220.854526958428323 ], [ 400276.90742624620907, 3785220.854526958428323 ], [ 400276.602238046820275, 3785221.159715157467872 ], [ 400275.991861648042686, 3785221.159715157467872 ], [ 400275.686673448653892, 3785221.464903356973082 ], [ 400274.465920651040506, 3785221.464903356973082 ], [ 400274.160732451651711, 3785221.770091556478292 ], [ 400272.634791454707738, 3785221.770091556478292 ] ] ] } },
{ "type": "Feature", "properties": { "confidence": 0.71999180316925049, "class": 1 }, "geometry": { "type": "Polygon", "coordinates": [ [ [ 400286.978636826039292, 3785201.627670396585017 ], [ 400286.673448626650497, 3785201.322482197545469 ], [ 400286.063072227872908, 3785201.322482197545469 ], [ 400286.063072227872908, 3785201.017293998040259 ], [ 400285.757884028484114, 3785200.712105798535049 ], [ 400285.757884028484114, 3785198.880976602435112 ], [ 400286.368260427261703, 3785198.270600203424692 ], [ 400286.368260427261703, 3785197.965412003919482 ], [ 400287.283825025428087, 3785197.049847405869514 ], [ 400287.283825025428087, 3785196.744659206364304 ], [ 400287.589013224816881, 3785196.744659206364304 ], [ 400287.894201424205676, 3785196.439471007324755 ], [ 400287.894201424205676, 3785195.523906408809125 ], [ 400286.978636826039292, 3785194.608341810759157 ], [ 400286.673448626650497, 3785194.608341810759157 ], [ 400286.368260427261703, 3785194.303153611253947 ], [ 400286.368260427261703, 3785193.997965412214398 ], [ 400286.063072227872908, 3785193.692777212709188 ], [ 400286.063072227872908, 3785191.556459817104042 ], [ 400286.368260427261703, 3785191.251271617598832 ], [ 400286.368260427261703, 3785190.946083418093622 ], [ 400286.673448626650497, 3785190.946083418093622 ], [ 400286.978636826039292, 3785190.640895218588412 ], [ 400287.283825025428087, 3785190.640895218588412 ], [ 400287.894201424205676, 3785190.030518820043653 ], [ 400288.19938962359447, 3785190.030518820043653 ], [ 400288.80976602237206, 3785189.420142421033233 ], [ 400289.114954221760854, 3785189.420142421033233 ], [ 400289.420142421149649, 3785189.114954221993685 ], [ 400290.640895218704827, 3785189.114954221993685 ], [ 400290.946083418093622, 3785189.420142421033233 ], [ 400290.946083418093622, 3785189.725330620538443 ], [ 400291.251271617482416, 3785190.030518820043653 ], [ 400291.251271617482416, 3785194.303153611253947 ], [ 400291.556459816871211, 3785194.608341810759157 ], [ 400291.556459816871211, 3785196.744659206364304 ], [ 400291.861648016260006, 3785197.049847405869514 ], [ 400291.861648016260006, 3785197.355035605374724 ], [ 400291.556459816871211, 3785197.660223804879934 ], [ 400291.556459816871211, 3785199.186164801474661 ], [ 400291.251271617482416, 3785199.186164801474661 ], [ 400290.946083418093622, 3785199.491353000979871 ], [ 400290.946083418093622, 3785201.322482197545469 ], [ 400290.640895218704827, 3785201.322482197545469 ], [ 400290.335707019316033, 3785201.627670396585017 ], [ 400286.978636826039292, 3785201.627670396585017 ] ] ] } },
{ "type": "Feature", "properties": { "confidence": 0.70716917514801025, "class": 1 }, "geometry": { "type": "Polygon", "coordinates": [ [ [ 400651.983723296027165, 3785013.021363174077123 ], [ 400651.67853509663837, 3785012.716174974571913 ], [ 400651.67853509663837, 3785011.495422177016735 ], [ 400651.068158697860781, 3785010.885045778006315 ], [ 400651.068158697860781, 3785010.274669379461557 ], [ 400650.762970498471987, 3785009.969481179956347 ], [ 400650.762970498471987, 3785009.664292980451137 ], [ 400656.561546286859084, 3785009.664292980451137 ], [ 400656.561546286859084, 3785010.274669379461557 ], [ 400655.6459816886927, 3785011.190233977511525 ], [ 400655.6459816886927, 3785011.495422177016735 ], [ 400655.340793489303906, 3785011.800610376521945 ], [ 400655.340793489303906, 3785012.105798575561494 ], [ 400654.730417090526316, 3785012.716174974571913 ], [ 400654.425228891137522, 3785012.716174974571913 ], [ 400654.120040691748727, 3785013.021363174077123 ], [ 400651.983723296027165, 3785013.021363174077123 ] ] ] } },
{ "type": "Feature", "properties": { "confidence": 0.69082182645797729, "class": 1 }, "geometry": { "type": "Polygon", "coordinates": [ [ [ 400345.269582909473684, 3785090.539165819063783 ], [ 400344.964394710084889, 3785090.233977619558573 ], [ 400344.659206510696094, 3785090.233977619558573 ], [ 400343.743641912529711, 3785089.318413021508604 ], [ 400343.438453713140916, 3785089.318413021508604 ], [ 400343.438453713140916, 3785089.013224822003394 ], [ 400342.828077314363327, 3785088.402848422992975 ], [ 400342.828077314363327, 3785088.097660223953426 ], [ 400342.522889114974532, 3785087.792472024448216 ], [ 400342.522889114974532, 3785087.182095625437796 ], [ 400342.217700915585738, 3785086.876907426398247 ], [ 400342.217700915585738, 3785084.435401831287891 ], [ 400342.522889114974532, 3785084.130213631782681 ], [ 400342.522889114974532, 3785083.825025432277471 ], [ 400342.828077314363327, 3785083.825025432277471 ], [ 400343.133265513752121, 3785083.519837232772261 ], [ 400343.438453713140916, 3785083.519837232772261 ], [ 400343.743641912529711, 3785083.214649033732712 ], [ 400344.048830111918505, 3785083.214649033732712 ], [ 400344.3540183113073, 3785082.909460834227502 ], [ 400344.659206510696094, 3785082.909460834227502 ], [ 400345.269582909473684, 3785082.299084435217083 ], [ 400345.574771108862478, 3785082.299084435217083 ], [ 400345.879959308251273, 3785081.993896236177534 ], [ 400346.185147507640067, 3785081.993896236177534 ], [ 400346.490335707028862, 3785081.688708036672324 ], [ 400346.795523906417657, 3785081.688708036672324 ], [ 400347.100712105806451, 3785081.383519837167114 ], [ 400347.100712105806451, 3785081.078331637661904 ], [ 400347.405900305195246, 3785081.078331637661904 ], [ 400347.405900305195246, 3785081.383519837167114 ], [ 400348.016276703972835, 3785081.993896236177534 ], [ 400348.016276703972835, 3785082.299084435217083 ], [ 400349.542217700916808, 3785083.825025432277471 ], [ 400350.152594099694397, 3785083.825025432277471 ], [ 400350.152594099694397, 3785084.130213631782681 ], [ 400350.457782299083192, 3785084.435401831287891 ], [ 400350.457782299083192, 3785086.876907426398247 ], [ 400350.762970498471987, 3785087.182095625437796 ], [ 400350.762970498471987, 3785087.792472024448216 ], [ 400350.457782299083192, 3785088.097660223953426 ], [ 400350.457782299083192, 3785089.013224822003394 ], [ 400350.152594099694397, 3785089.318413021508604 ], [ 400349.847405900305603, 3785089.318413021508604 ], [ 400349.542217700916808, 3785089.623601220548153 ], [ 400349.237029501528013, 3785089.623601220548153 ], [ 400348.626653102750424, 3785090.233977619558573 ], [ 400347.71108850458404, 3785090.233977619558573 ], [ 400347.405900305195246, 3785090.539165819063783 ], [ 400345.269582909473684, 3785090.539165819063783 ] ] ] } },
{ "type": "Feature", "properties": { "confidence": 0.68571668863296509, "class": 1 }, "geometry": { "type": "Polygon", "coordinates": [ [ [ 400463.682604272617027, 3785241.607324516866356 ], [ 400463.072227873839438, 3785240.996948117855936 ], [ 400463.072227873839438, 3785239.471007121261209 ], [ 400463.377416073228233, 3785239.165818921755999 ], [ 400463.377416073228233, 3785238.860630722250789 ], [ 400464.598168870783411, 3785237.639877924695611 ], [ 400464.903357070172206, 3785237.639877924695611 ], [ 400465.208545269561, 3785237.334689725190401 ], [ 400465.513733468949795, 3785237.334689725190401 ], [ 400466.429298067116179, 3785236.419125127140433 ], [ 400467.039674465893768, 3785236.419125127140433 ], [ 400467.344862665282562, 3785236.113936927635223 ], [ 400469.481180061062332, 3785236.113936927635223 ], [ 400469.786368260451127, 3785236.419125127140433 ], [ 400469.786368260451127, 3785237.639877924695611 ], [ 400470.091556459839921, 3785237.945066124200821 ], [ 400469.786368260451127, 3785238.250254323706031 ], [ 400469.786368260451127, 3785239.165818921755999 ], [ 400469.481180061062332, 3785239.471007121261209 ], [ 400469.481180061062332, 3785239.776195320300758 ], [ 400468.260427263507154, 3785240.996948117855936 ], [ 400468.260427263507154, 3785241.302136317361146 ], [ 400467.955239064118359, 3785241.607324516866356 ], [ 400463.682604272617027, 3785241.607324516866356 ] ] ] } },
{ "type": "Feature", "properties": { "confidence": 0.67853277921676636, "class": 1 }, "geometry": { "type": "Polygon", "coordinates": [ [ [ 400272.329603255318943, 3785210.478128178976476 ], [ 400271.719226856541354, 3785209.867751780431718 ], [ 400271.41403865715256, 3785209.867751780431718 ], [ 400271.41403865715256, 3785209.562563580926508 ], [ 400271.108850457763765, 3785209.257375381421298 ], [ 400271.108850457763765, 3785208.952187181916088 ], [ 400270.80366225837497, 3785208.646998982876539 ], [ 400270.80366225837497, 3785207.731434384360909 ], [ 400270.498474058986176, 3785207.426246185321361 ], [ 400270.498474058986176, 3785206.815869786310941 ], [ 400269.888097660208587, 3785206.205493387766182 ], [ 400269.888097660208587, 3785204.984740590211004 ], [ 400269.582909460819792, 3785204.679552390705794 ], [ 400269.582909460819792, 3785204.069175991695374 ], [ 400269.277721261430997, 3785203.763987792655826 ], [ 400269.277721261430997, 3785203.153611393645406 ], [ 400268.972533062042203, 3785202.848423194140196 ], [ 400268.972533062042203, 3785202.238046795595437 ], [ 400268.667344862653408, 3785201.932858596090227 ], [ 400268.667344862653408, 3785200.712105798535049 ], [ 400268.972533062042203, 3785200.406917599029839 ], [ 400268.972533062042203, 3785200.10172939999029 ], [ 400269.277721261430997, 3785200.10172939999029 ], [ 400269.582909460819792, 3785199.79654120048508 ], [ 400271.108850457763765, 3785199.79654120048508 ], [ 400271.41403865715256, 3785200.10172939999029 ], [ 400271.719226856541354, 3785200.10172939999029 ], [ 400272.024415055930149, 3785200.406917599029839 ], [ 400272.024415055930149, 3785200.712105798535049 ], [ 400272.329603255318943, 3785201.017293998040259 ], [ 400272.329603255318943, 3785201.322482197545469 ], [ 400272.634791454707738, 3785201.627670396585017 ], [ 400272.634791454707738, 3785201.932858596090227 ], [ 400273.855544252262916, 3785203.153611393645406 ], [ 400274.160732451651711, 3785203.153611393645406 ], [ 400274.465920651040506, 3785203.458799593150616 ], [ 400274.465920651040506, 3785203.763987792655826 ], [ 400276.90742624620907, 3785206.205493387766182 ], [ 400276.90742624620907, 3785208.646998982876539 ], [ 400276.602238046820275, 3785208.952187181916088 ], [ 400276.602238046820275, 3785209.257375381421298 ], [ 400276.297049847431481, 3785209.562563580926508 ], [ 400276.297049847431481, 3785209.867751780431718 ], [ 400275.991861648042686, 3785210.172939979471266 ], [ 400275.381485249265097, 3785210.172939979471266 ], [ 400275.076297049876302, 3785210.478128178976476 ], [ 400272.329603255318943, 3785210.478128178976476 ] ] ] } },
{ "type": "Feature", "properties": { "confidence": 0.67437940835952759, "class": 1 }, "geometry": { "type": "Polygon", "coordinates": [ [ [ 400204.272634791443124, 3785371.007121058180928 ], [ 400204.272634791443124, 3785370.701932858675718 ], [ 400203.96744659205433, 3785370.396744659170508 ], [ 400203.96744659205433, 3785369.48118006112054 ], [ 400203.662258392665535, 3785369.17599186161533 ], [ 400203.662258392665535, 3785365.513733468949795 ], [ 400203.357070193276741, 3785365.208545269444585 ], [ 400203.662258392665535, 3785364.903357070405036 ], [ 400203.662258392665535, 3785364.292980671394616 ], [ 400203.96744659205433, 3785363.987792471889406 ], [ 400203.96744659205433, 3785363.682604272849858 ], [ 400204.577822990831919, 3785363.072227873839438 ], [ 400204.883011190220714, 3785363.072227873839438 ], [ 400205.188199389609508, 3785362.767039674334228 ], [ 400205.798575788387097, 3785362.767039674334228 ], [ 400206.103763987775892, 3785362.461851475294679 ], [ 400206.714140386553481, 3785362.461851475294679 ], [ 400207.32451678533107, 3785363.072227873839438 ], [ 400207.629704984719865, 3785363.072227873839438 ], [ 400207.629704984719865, 3785363.682604272849858 ], [ 400209.766022380441427, 3785365.818921668455005 ], [ 400209.766022380441427, 3785368.260427263565361 ], [ 400209.460834181052633, 3785368.565615463070571 ], [ 400209.460834181052633, 3785370.396744659170508 ], [ 400209.155645981663838, 3785370.701932858675718 ], [ 400208.545269582886249, 3785370.701932858675718 ], [ 400208.240081383497454, 3785371.007121058180928 ], [ 400204.272634791443124, 3785371.007121058180928 ] ] ] } },
{ "type": "Feature", "properties": { "confidence": 0.63825416564941406, "class": 1 }, "geometry": { "type": "Polygon", "coordinates": [ [ [ 400330.315361139364541, 3784850.356052899267524 ], [ 400330.010172939975746, 3784850.050864699762315 ], [ 400329.399796541198157, 3784850.050864699762315 ], [ 400329.094608341809362, 3784849.745676500722766 ], [ 400328.179043743642978, 3784849.745676500722766 ], [ 400327.873855544254184, 3784849.440488301217556 ], [ 400327.263479145476595, 3784849.440488301217556 ], [ 400326.347914547310211, 3784848.524923703167588 ], [ 400326.347914547310211, 3784848.219735503662378 ], [ 400326.042726347921416, 3784847.914547304157168 ], [ 400326.042726347921416, 3784847.609359104651958 ], [ 400325.737538148532622, 3784847.304170905612409 ], [ 400325.737538148532622, 3784846.998982706107199 ], [ 400325.432349949143827, 3784846.693794506601989 ], [ 400325.432349949143827, 3784846.388606307096779 ], [ 400324.821973550366238, 3784845.778229908552021 ], [ 400324.821973550366238, 3784845.473041709046811 ], [ 400324.516785350977443, 3784845.167853509541601 ], [ 400324.516785350977443, 3784844.862665310502052 ], [ 400324.821973550366238, 3784844.557477110996842 ], [ 400324.821973550366238, 3784844.252288911491632 ], [ 400325.127161749755032, 3784843.947100711986423 ], [ 400325.432349949143827, 3784843.947100711986423 ], [ 400325.737538148532622, 3784843.641912512946874 ], [ 400326.042726347921416, 3784843.641912512946874 ], [ 400326.347914547310211, 3784843.336724313441664 ], [ 400328.484231943031773, 3784843.336724313441664 ], [ 400328.789420142420568, 3784843.031536113936454 ], [ 400330.010172939975746, 3784843.031536113936454 ], [ 400330.315361139364541, 3784843.336724313441664 ], [ 400330.620549338753335, 3784843.336724313441664 ], [ 400330.620549338753335, 3784844.252288911491632 ], [ 400330.92573753814213, 3784844.557477110996842 ], [ 400330.92573753814213, 3784845.167853509541601 ], [ 400331.230925737530924, 3784845.473041709046811 ], [ 400331.230925737530924, 3784846.083418108057231 ], [ 400331.536113936919719, 3784846.388606307096779 ], [ 400331.536113936919719, 3784846.998982706107199 ], [ 400331.841302136308514, 3784847.304170905612409 ], [ 400331.841302136308514, 3784847.609359104651958 ], [ 400332.146490335697308, 3784847.914547304157168 ], [ 400332.146490335697308, 3784848.830111902207136 ], [ 400332.451678535086103, 3784849.135300101712346 ], [ 400332.451678535086103, 3784850.050864699762315 ], [ 400332.146490335697308, 3784850.356052899267524 ], [ 400330.315361139364541, 3784850.356052899267524 ] ] ] } },
{ "type": "Feature", "properties": { "confidence": 0.63490426540374756, "class": 1 }, "geometry": { "type": "Polygon", "coordinates": [ [ [ 400776.195320447615813, 3784895.829094608314335 ], [ 400775.890132248227019, 3784895.523906408809125 ], [ 400774.66937945067184, 3784895.523906408809125 ], [ 400774.364191251283046, 3784895.218718209769577 ], [ 400772.838250254339073, 3784895.218718209769577 ], [ 400772.533062054950278, 3784894.913530010264367 ], [ 400772.227873855561484, 3784894.913530010264367 ], [ 400771.922685656172689, 3784894.608341810759157 ], [ 400771.922685656172689, 3784894.303153611253947 ], [ 400771.3123092573951, 3784893.692777212709188 ], [ 400771.3123092573951, 3784892.47202441515401 ], [ 400779.247202441503759, 3784892.47202441515401 ], [ 400779.247202441503759, 3784894.303153611253947 ], [ 400778.331637843337376, 3784895.218718209769577 ], [ 400778.026449643948581, 3784895.218718209769577 ], [ 400777.721261444559786, 3784895.523906408809125 ], [ 400777.416073245170992, 3784895.523906408809125 ], [ 400777.110885045782197, 3784895.829094608314335 ], [ 400776.195320447615813, 3784895.829094608314335 ] ] ] } },
{ "type": "Feature", "properties": { "confidence": 0.58177566528320312, "class": 1 }, "geometry": { "type": "Polygon", "coordinates": [ [ [ 400680.671414038632065, 3785217.497456764802337 ], [ 400680.671414038632065, 3785215.36113936919719 ], [ 400680.97660223802086, 3785215.05595116969198 ], [ 400681.281790437409654, 3785215.05595116969198 ], [ 400681.892166836187243, 3785214.445574771147221 ], [ 400682.197355035634246, 3785214.445574771147221 ], [ 400682.50254323502304, 3785214.140386571642011 ], [ 400683.11291963380063, 3785214.140386571642011 ], [ 400683.418107833189424, 3785213.835198372136801 ], [ 400684.028484231967013, 3785213.835198372136801 ], [ 400684.333672431355808, 3785213.530010173097253 ], [ 400686.164801627688576, 3785213.530010173097253 ], [ 400686.46998982707737, 3785213.835198372136801 ], [ 400686.775178026466165, 3785213.835198372136801 ], [ 400687.080366225854959, 3785214.140386571642011 ], [ 400687.385554425243754, 3785214.140386571642011 ], [ 400687.690742624632549, 3785214.445574771147221 ], [ 400687.690742624632549, 3785215.97151576820761 ], [ 400687.385554425243754, 3785216.276703967247158 ], [ 400686.775178026466165, 3785216.276703967247158 ], [ 400686.46998982707737, 3785216.581892166752368 ], [ 400683.418107833189424, 3785216.581892166752368 ], [ 400682.807731434411835, 3785217.192268565762788 ], [ 400682.50254323502304, 3785217.192268565762788 ], [ 400682.197355035634246, 3785217.497456764802337 ], [ 400680.671414038632065, 3785217.497456764802337 ] ] ] } },
{ "type": "Feature", "properties": { "confidence": 0.57014971971511841, "class": 1 }, "geometry": { "type": "Polygon", "coordinates": [ [ [ 400242.726347914547659, 3785164.699898270424455 ], [ 400242.421159715158865, 3785164.394710071384907 ], [ 400241.505595116992481, 3785164.394710071384907 ], [ 400241.200406917603686, 3785164.089521871879697 ], [ 400241.200406917603686, 3785163.784333672374487 ], [ 400240.895218718214892, 3785163.479145472869277 ], [ 400240.895218718214892, 3785163.173957273829728 ], [ 400240.590030518826097, 3785162.868769074324518 ], [ 400240.590030518826097, 3785161.95320447627455 ], [ 400240.284842319437303, 3785161.64801627676934 ], [ 400240.590030518826097, 3785161.34282807726413 ], [ 400240.590030518826097, 3785160.732451678719372 ], [ 400241.200406917603686, 3785160.122075279708952 ], [ 400241.505595116992481, 3785160.122075279708952 ], [ 400242.11597151577007, 3785159.511698881164193 ], [ 400243.031536113936454, 3785159.511698881164193 ], [ 400243.336724313325249, 3785159.206510681658983 ], [ 400243.641912512714043, 3785159.206510681658983 ], [ 400243.947100712102838, 3785159.511698881164193 ], [ 400244.557477110880427, 3785159.511698881164193 ], [ 400245.473041709046811, 3785160.427263479214162 ], [ 400245.778229908435605, 3785160.427263479214162 ], [ 400245.778229908435605, 3785160.732451678719372 ], [ 400246.0834181078244, 3785161.03763987775892 ], [ 400246.0834181078244, 3785161.34282807726413 ], [ 400246.388606307213195, 3785161.64801627676934 ], [ 400246.388606307213195, 3785162.563580874819309 ], [ 400246.693794506601989, 3785162.868769074324518 ], [ 400246.388606307213195, 3785163.173957273829728 ], [ 400246.388606307213195, 3785163.479145472869277 ], [ 400246.0834181078244, 3785163.479145472869277 ], [ 400245.778229908435605, 3785163.784333672374487 ], [ 400245.473041709046811, 3785163.784333672374487 ], [ 400245.167853509658016, 3785164.089521871879697 ], [ 400244.557477110880427, 3785164.089521871879697 ], [ 400244.252288911491632, 3785164.394710071384907 ], [ 400243.031536113936454, 3785164.394710071384907 ], [ 400242.726347914547659, 3785164.699898270424455 ] ] ] } },
{ "type": "Feature", "properties": { "confidence": 0.55907094478607178, "class": 1 }, "geometry": { "type": "Polygon", "coordinates": [ [ [ 400321.464903357089497, 3785136.622583926655352 ], [ 400321.159715157700703, 3785136.317395727150142 ], [ 400320.549338758923113, 3785136.317395727150142 ], [ 400320.244150559534319, 3785136.012207528110594 ], [ 400315.666327568644192, 3785136.012207528110594 ], [ 400315.361139369255397, 3785135.707019328605384 ], [ 400315.055951169866603, 3785135.707019328605384 ], [ 400315.055951169866603, 3785135.401831129100174 ], [ 400314.445574771089014, 3785134.791454730555415 ], [ 400314.445574771089014, 3785134.486266531050205 ], [ 400314.140386571700219, 3785134.181078331544995 ], [ 400314.140386571700219, 3785131.739572736434639 ], [ 400314.445574771089014, 3785131.434384536929429 ], [ 400314.445574771089014, 3785129.603255340829492 ], [ 400314.750762970477808, 3785129.298067141324282 ], [ 400314.750762970477808, 3785128.687690742779523 ], [ 400315.055951169866603, 3785128.687690742779523 ], [ 400315.361139369255397, 3785128.382502543274313 ], [ 400315.361139369255397, 3785127.772126144263893 ], [ 400315.971515768032987, 3785127.161749745719135 ], [ 400315.971515768032987, 3785126.856561546213925 ], [ 400319.63377416075673, 3785126.856561546213925 ], [ 400319.63377416075673, 3785127.161749745719135 ], [ 400319.938962360145524, 3785127.466937945224345 ], [ 400319.938962360145524, 3785127.772126144263893 ], [ 400319.63377416075673, 3785128.077314343769103 ], [ 400319.63377416075673, 3785128.382502543274313 ], [ 400319.328585961367935, 3785128.687690742779523 ], [ 400319.328585961367935, 3785128.992878941819072 ], [ 400319.02339776197914, 3785129.298067141324282 ], [ 400319.02339776197914, 3785129.908443540334702 ], [ 400319.328585961367935, 3785130.21363173937425 ], [ 400319.63377416075673, 3785130.21363173937425 ], [ 400319.63377416075673, 3785130.51881993887946 ], [ 400319.938962360145524, 3785130.82400813838467 ], [ 400320.549338758923113, 3785130.82400813838467 ], [ 400321.770091556478292, 3785132.044760935939848 ], [ 400321.770091556478292, 3785136.317395727150142 ], [ 400321.464903357089497, 3785136.622583926655352 ] ] ] } },
{ "type": "Feature", "properties": { "confidence": 0.55444175004959106, "class": 1 }, "geometry": { "type": "Polygon", "coordinates": [ [ [ 400347.405900305195246, 3785110.376398779451847 ], [ 400346.795523906417657, 3785109.766022380441427 ], [ 400346.795523906417657, 3785109.460834180936217 ], [ 400346.185147507640067, 3785108.850457782391459 ], [ 400346.185147507640067, 3785107.62970498483628 ], [ 400345.879959308251273, 3785107.32451678533107 ], [ 400346.185147507640067, 3785107.019328585825861 ], [ 400346.185147507640067, 3785105.798575788270682 ], [ 400346.490335707028862, 3785105.493387589231133 ], [ 400346.490335707028862, 3785104.883011190220714 ], [ 400347.405900305195246, 3785103.967446592170745 ], [ 400347.405900305195246, 3785103.662258392665535 ], [ 400347.71108850458404, 3785103.357070193160325 ], [ 400347.71108850458404, 3785103.051881994120777 ], [ 400348.32146490336163, 3785102.441505595110357 ], [ 400348.931841302139219, 3785102.441505595110357 ], [ 400349.237029501528013, 3785102.746693794615567 ], [ 400349.847405900305603, 3785102.746693794615567 ], [ 400350.152594099694397, 3785103.051881994120777 ], [ 400350.457782299083192, 3785103.051881994120777 ], [ 400350.762970498471987, 3785103.357070193160325 ], [ 400350.762970498471987, 3785107.019328585825861 ], [ 400350.457782299083192, 3785107.32451678533107 ], [ 400350.457782299083192, 3785107.93489318434149 ], [ 400350.152594099694397, 3785108.240081383381039 ], [ 400350.152594099694397, 3785108.545269582886249 ], [ 400349.847405900305603, 3785108.850457782391459 ], [ 400349.847405900305603, 3785109.460834180936217 ], [ 400349.542217700916808, 3785109.766022380441427 ], [ 400349.542217700916808, 3785110.071210579946637 ], [ 400349.237029501528013, 3785110.376398779451847 ], [ 400347.405900305195246, 3785110.376398779451847 ] ] ] } },
{ "type": "Feature", "properties": { "confidence": 0.4692501425743103, "class": 1 }, "geometry": { "type": "Polygon", "coordinates": [ [ [ 400774.974567650060635, 3785367.955239064060152 ], [ 400774.974567650060635, 3785367.650050864554942 ], [ 400774.364191251283046, 3785367.039674466010183 ], [ 400772.533062054950278, 3785367.039674466010183 ], [ 400772.227873855561484, 3785366.734486266504973 ], [ 400772.227873855561484, 3785366.429298066999763 ], [ 400771.617497456783894, 3785365.818921668455005 ], [ 400771.617497456783894, 3785364.903357070405036 ], [ 400771.3123092573951, 3785364.598168870899826 ], [ 400771.3123092573951, 3785363.987792471889406 ], [ 400770.701932858617511, 3785363.377416073344648 ], [ 400770.701932858617511, 3785363.072227873839438 ], [ 400770.396744659228716, 3785362.767039674334228 ], [ 400770.396744659228716, 3785362.156663275789469 ], [ 400770.091556459839921, 3785361.85147507628426 ], [ 400770.091556459839921, 3785361.241098677739501 ], [ 400770.396744659228716, 3785360.935910478234291 ], [ 400770.396744659228716, 3785360.630722278729081 ], [ 400770.701932858617511, 3785360.325534079223871 ], [ 400770.701932858617511, 3785360.020345880184323 ], [ 400771.007121058006305, 3785360.020345880184323 ], [ 400771.3123092573951, 3785359.715157680679113 ], [ 400772.227873855561484, 3785359.715157680679113 ], [ 400772.533062054950278, 3785359.409969481173903 ], [ 400773.143438453727867, 3785359.409969481173903 ], [ 400773.448626653116662, 3785359.104781281668693 ], [ 400774.66937945067184, 3785359.104781281668693 ], [ 400775.27975584944943, 3785359.715157680679113 ], [ 400775.890132248227019, 3785359.715157680679113 ], [ 400775.890132248227019, 3785360.325534079223871 ], [ 400776.805696846393403, 3785361.241098677739501 ], [ 400776.805696846393403, 3785361.85147507628426 ], [ 400777.110885045782197, 3785362.156663275789469 ], [ 400776.805696846393403, 3785362.461851475294679 ], [ 400776.805696846393403, 3785366.429298066999763 ], [ 400776.500508647004608, 3785366.734486266504973 ], [ 400776.500508647004608, 3785367.344862665515393 ], [ 400776.195320447615813, 3785367.650050864554942 ], [ 400776.195320447615813, 3785367.955239064060152 ], [ 400774.974567650060635, 3785367.955239064060152 ] ] ] } },
{ "type": "Feature", "properties": { "confidence": 0.46392926573753357, "class": 1 }, "geometry": { "type": "Polygon", "coordinates": [ [ [ 400785.961342828057241, 3784897.660223804879934 ], [ 400785.656154628668446, 3784897.355035605374724 ], [ 400785.656154628668446, 3784895.829094608314335 ], [ 400785.961342828057241, 3784895.523906408809125 ], [ 400785.961342828057241, 3784893.082400813698769 ], [ 400789.928789420169778, 3784893.082400813698769 ], [ 400789.928789420169778, 3784893.387589013203979 ], [ 400789.623601220780984, 3784893.692777212709188 ], [ 400789.623601220780984, 3784893.997965412214398 ], [ 400789.318413021392189, 3784894.303153611253947 ], [ 400789.318413021392189, 3784894.608341810759157 ], [ 400789.013224821945187, 3784894.913530010264367 ], [ 400788.708036622556392, 3784894.913530010264367 ], [ 400788.097660223778803, 3784895.523906408809125 ], [ 400787.487283825001214, 3784895.523906408809125 ], [ 400787.182095625612419, 3784895.829094608314335 ], [ 400787.182095625612419, 3784896.134282807819545 ], [ 400786.876907426223624, 3784896.439471007324755 ], [ 400786.876907426223624, 3784896.744659206364304 ], [ 400785.961342828057241, 3784897.660223804879934 ] ] ] } },
{ "type": "Feature", "properties": { "confidence": 0.38600784540176392, "class": 1 }, "geometry": { "type": "Polygon", "coordinates": [ [ [ 400321.159715157700703, 3785150.966429298277944 ], [ 400320.854526958311908, 3785150.661241098772734 ], [ 400320.244150559534319, 3785150.661241098772734 ], [ 400319.938962360145524, 3785150.356052899267524 ], [ 400319.938962360145524, 3785150.050864699762315 ], [ 400319.63377416075673, 3785149.745676500722766 ], [ 400319.63377416075673, 3785149.135300101712346 ], [ 400319.328585961367935, 3785148.830111902207136 ], [ 400319.328585961367935, 3785146.998982706107199 ], [ 400319.63377416075673, 3785146.693794506601989 ], [ 400319.63377416075673, 3785146.388606307096779 ], [ 400319.938962360145524, 3785146.388606307096779 ], [ 400320.244150559534319, 3785146.083418108057231 ], [ 400320.244150559534319, 3785145.778229908552021 ], [ 400320.549338758923113, 3785145.473041709046811 ], [ 400321.770091556478292, 3785145.473041709046811 ], [ 400321.770091556478292, 3785145.778229908552021 ], [ 400321.464903357089497, 3785146.083418108057231 ], [ 400321.464903357089497, 3785146.693794506601989 ], [ 400321.770091556478292, 3785146.998982706107199 ], [ 400324.516785350977443, 3785146.998982706107199 ], [ 400325.127161749755032, 3785147.609359104651958 ], [ 400325.127161749755032, 3785148.524923703167588 ], [ 400322.99084435403347, 3785150.661241098772734 ], [ 400322.075279755867086, 3785150.661241098772734 ], [ 400321.770091556478292, 3785150.966429298277944 ], [ 400321.159715157700703, 3785150.966429298277944 ] ] ] } },
{ "type": "Feature", "properties": { "confidence": 0.38118517398834229, "class": 1 }, "geometry": { "type": "Polygon", "coordinates": [ [ [ 400264.699898270599078, 3785272.126144455745816 ], [ 400264.394710071210284, 3785271.820956256240606 ], [ 400263.4791454730439, 3785271.820956256240606 ], [ 400263.173957273655105, 3785271.515768057201058 ], [ 400263.173957273655105, 3785271.210579857695848 ], [ 400262.868769074266311, 3785270.905391658190638 ], [ 400262.563580874877516, 3785270.905391658190638 ], [ 400262.563580874877516, 3785270.295015259180218 ], [ 400261.953204476099927, 3785269.684638860635459 ], [ 400261.953204476099927, 3785269.37945066113025 ], [ 400261.648016276711132, 3785269.07426246162504 ], [ 400261.648016276711132, 3785266.632756866514683 ], [ 400261.953204476099927, 3785266.327568667475134 ], [ 400261.953204476099927, 3785266.022380467969924 ], [ 400262.258392675488722, 3785265.717192268464714 ], [ 400262.258392675488722, 3785265.412004068959504 ], [ 400262.563580874877516, 3785265.412004068959504 ], [ 400263.173957273655105, 3785264.801627670414746 ], [ 400265.920651068154257, 3785264.801627670414746 ], [ 400265.920651068154257, 3785265.106815869919956 ], [ 400266.225839267543051, 3785265.412004068959504 ], [ 400266.531027466931846, 3785265.412004068959504 ], [ 400266.531027466931846, 3785265.717192268464714 ], [ 400266.836215666320641, 3785266.022380467969924 ], [ 400267.141403865709435, 3785266.022380467969924 ], [ 400267.141403865709435, 3785266.327568667475134 ], [ 400268.056968463875819, 3785267.243133265525103 ], [ 400268.056968463875819, 3785269.989827060140669 ], [ 400267.44659206509823, 3785270.600203458685428 ], [ 400267.44659206509823, 3785270.905391658190638 ], [ 400267.141403865709435, 3785270.905391658190638 ], [ 400265.920651068154257, 3785272.126144455745816 ], [ 400264.699898270599078, 3785272.126144455745816 ] ] ] } },
{ "type": "Feature", "properties": { "confidence": 0.33208024501800537, "class": 1 }, "geometry": { "type": "Polygon", "coordinates": [ [ [ 400226.551373346883338, 3785364.903357070405036 ], [ 400225.940996948105749, 3785364.292980671394616 ], [ 400225.635808748716954, 3785364.292980671394616 ], [ 400225.33062054932816, 3785363.987792471889406 ], [ 400225.025432349939365, 3785363.987792471889406 ], [ 400224.72024415055057, 3785363.682604272849858 ], [ 400222.278738555440214, 3785363.682604272849858 ], [ 400221.973550356051419, 3785363.377416073344648 ], [ 400220.447609359107446, 3785363.377416073344648 ], [ 400219.837232960329857, 3785362.767039674334228 ], [ 400219.837232960329857, 3785361.54628687677905 ], [ 400219.532044760941062, 3785361.241098677739501 ], [ 400219.532044760941062, 3785360.630722278729081 ], [ 400219.837232960329857, 3785360.325534079223871 ], [ 400219.837232960329857, 3785357.578840285073966 ], [ 400220.142421159718651, 3785357.273652085568756 ], [ 400220.447609359107446, 3785357.273652085568756 ], [ 400220.752797558496241, 3785356.968463886063546 ], [ 400221.36317395727383, 3785356.968463886063546 ], [ 400221.668362156662624, 3785356.663275686558336 ], [ 400225.635808748716954, 3785356.663275686558336 ], [ 400225.940996948105749, 3785356.968463886063546 ], [ 400227.466937945049722, 3785356.968463886063546 ], [ 400227.772126144438516, 3785357.273652085568756 ], [ 400228.077314343827311, 3785357.273652085568756 ], [ 400228.6876907426049, 3785357.884028484113514 ], [ 400228.992878941993695, 3785357.884028484113514 ], [ 400228.992878941993695, 3785358.189216683618724 ], [ 400229.298067141382489, 3785358.494404883123934 ], [ 400229.603255340771284, 3785358.494404883123934 ], [ 400229.603255340771284, 3785358.799593082629144 ], [ 400229.908443540160079, 3785359.104781281668693 ], [ 400229.908443540160079, 3785359.409969481173903 ], [ 400230.213631739548873, 3785359.715157680679113 ], [ 400230.213631739548873, 3785360.325534079223871 ], [ 400230.518819938937668, 3785360.630722278729081 ], [ 400230.518819938937668, 3785363.377416073344648 ], [ 400230.213631739548873, 3785363.377416073344648 ], [ 400229.908443540160079, 3785363.682604272849858 ], [ 400229.908443540160079, 3785364.598168870899826 ], [ 400229.603255340771284, 3785364.903357070405036 ], [ 400226.551373346883338, 3785364.903357070405036 ] ] ] } },
{ "type": "Feature", "properties": { "confidence": 0.32187622785568237, "class": 1 }, "geometry": { "type": "Polygon", "coordinates": [ [ [ 400627.873855544254184, 3785013.631739572621882 ], [ 400627.873855544254184, 3785013.326551373116672 ], [ 400627.568667344865389, 3785013.021363174077123 ], [ 400627.873855544254184, 3785012.716174974571913 ], [ 400627.873855544254184, 3785012.410986775066704 ], [ 400628.179043743642978, 3785012.105798575561494 ], [ 400628.179043743642978, 3785011.495422177016735 ], [ 400628.484231943031773, 3785011.190233977511525 ], [ 400628.484231943031773, 3785010.274669379461557 ], [ 400632.756866734474897, 3785010.274669379461557 ], [ 400632.756866734474897, 3785010.579857578966767 ], [ 400631.230925737530924, 3785012.105798575561494 ], [ 400630.92573753814213, 3785012.105798575561494 ], [ 400630.620549338753335, 3785012.410986775066704 ], [ 400630.315361139364541, 3785012.410986775066704 ], [ 400629.094608341809362, 3785013.631739572621882 ], [ 400627.873855544254184, 3785013.631739572621882 ] ] ] } },
{ "type": "Feature", "properties": { "confidence": 0.30826792120933533, "class": 1 }, "geometry": { "type": "Polygon", "coordinates": [ [ [ 400335.808748728362843, 3785176.907426245976239 ], [ 400334.587995930807665, 3785175.686673448421061 ], [ 400334.587995930807665, 3785175.381485249381512 ], [ 400334.28280773141887, 3785175.076297049876302 ], [ 400334.28280773141887, 3785173.245167853310704 ], [ 400334.587995930807665, 3785172.939979654271156 ], [ 400334.587995930807665, 3785172.634791454765946 ], [ 400335.198372329585254, 3785172.024415055755526 ], [ 400336.113936927751638, 3785172.024415055755526 ], [ 400336.419125127140433, 3785171.719226856715977 ], [ 400336.724313326529227, 3785171.719226856715977 ], [ 400337.334689725306816, 3785171.108850457705557 ], [ 400337.639877924695611, 3785171.108850457705557 ], [ 400337.945066124084406, 3785170.803662258200347 ], [ 400338.2502543234732, 3785171.108850457705557 ], [ 400339.165818921639584, 3785171.108850457705557 ], [ 400339.471007121086586, 3785171.414038657210767 ], [ 400339.776195320475381, 3785171.414038657210767 ], [ 400340.38657171925297, 3785172.024415055755526 ], [ 400340.38657171925297, 3785173.245167853310704 ], [ 400340.081383519864175, 3785173.550356052815914 ], [ 400340.081383519864175, 3785175.076297049876302 ], [ 400339.471007121086586, 3785175.686673448421061 ], [ 400339.165818921639584, 3785175.686673448421061 ], [ 400338.860630722250789, 3785175.991861647926271 ], [ 400338.2502543234732, 3785175.991861647926271 ], [ 400337.334689725306816, 3785176.907426245976239 ], [ 400335.808748728362843, 3785176.907426245976239 ] ] ] } },
{ "type": "Feature", "properties": { "confidence": 0.30431395769119263, "class": 1 }, "geometry": { "type": "Polygon", "coordinates": [ [ [ 400288.19938962359447, 3785195.218718209769577 ], [ 400287.894201424205676, 3785194.913530010264367 ], [ 400287.283825025428087, 3785194.913530010264367 ], [ 400286.978636826039292, 3785194.608341810759157 ], [ 400286.673448626650497, 3785194.608341810759157 ], [ 400286.368260427261703, 3785194.303153611253947 ], [ 400286.368260427261703, 3785193.997965412214398 ], [ 400285.757884028484114, 3785193.387589013203979 ], [ 400285.757884028484114, 3785191.86164801614359 ], [ 400286.063072227872908, 3785191.556459817104042 ], [ 400286.063072227872908, 3785191.251271617598832 ], [ 400286.673448626650497, 3785191.251271617598832 ], [ 400286.978636826039292, 3785190.946083418093622 ], [ 400287.589013224816881, 3785190.946083418093622 ], [ 400288.19938962359447, 3785190.335707019548863 ], [ 400288.19938962359447, 3785190.030518820043653 ], [ 400288.504577822983265, 3785190.030518820043653 ], [ 400288.80976602237206, 3785189.725330620538443 ], [ 400290.946083418093622, 3785189.725330620538443 ], [ 400290.946083418093622, 3785190.946083418093622 ], [ 400291.251271617482416, 3785191.251271617598832 ], [ 400291.251271617482416, 3785191.86164801614359 ], [ 400290.946083418093622, 3785192.1668362156488 ], [ 400290.946083418093622, 3785194.608341810759157 ], [ 400290.640895218704827, 3785194.608341810759157 ], [ 400290.030518819927238, 3785195.218718209769577 ], [ 400288.19938962359447, 3785195.218718209769577 ] ] ] } },
{ "type": "Feature", "properties": { "confidence": 0.29523977637290955, "class": 1 }, "geometry": { "type": "Polygon", "coordinates": [ [ [ 400378.840284842299297, 3785295.930824008304626 ], [ 400378.535096642910503, 3785295.625635808799416 ], [ 400377.924720244132914, 3785295.625635808799416 ], [ 400377.619532044744119, 3785295.320447609294206 ], [ 400376.398779247188941, 3785295.320447609294206 ], [ 400376.093591047800146, 3785295.015259409788996 ], [ 400375.788402848411351, 3785295.015259409788996 ], [ 400374.872838250244968, 3785294.099694811739028 ], [ 400374.872838250244968, 3785293.794506612233818 ], [ 400374.567650050856173, 3785293.489318413194269 ], [ 400374.567650050856173, 3785291.047812818083912 ], [ 400374.262461851467378, 3785290.742624618578702 ], [ 400374.262461851467378, 3785286.775178026407957 ], [ 400374.567650050856173, 3785286.469989826902747 ], [ 400374.567650050856173, 3785285.859613428357989 ], [ 400375.178026449633762, 3785285.249237029347569 ], [ 400375.178026449633762, 3785284.94404883030802 ], [ 400376.398779247188941, 3785283.723296032752842 ], [ 400376.703967446577735, 3785283.723296032752842 ], [ 400377.314343845355324, 3785283.112919633742422 ], [ 400377.619532044744119, 3785283.112919633742422 ], [ 400378.229908443521708, 3785282.502543235197663 ], [ 400380.36622583924327, 3785282.502543235197663 ], [ 400381.281790437409654, 3785283.418107833247632 ], [ 400381.281790437409654, 3785284.63886063080281 ], [ 400381.892166836187243, 3785285.249237029347569 ], [ 400381.892166836187243, 3785285.859613428357989 ], [ 400382.50254323502304, 3785286.469989826902747 ], [ 400382.50254323502304, 3785287.385554425418377 ], [ 400382.807731434411835, 3785287.690742624457926 ], [ 400382.807731434411835, 3785291.047812818083912 ], [ 400383.11291963380063, 3785291.353001017123461 ], [ 400383.11291963380063, 3785293.184130213689059 ], [ 400382.807731434411835, 3785293.489318413194269 ], [ 400382.807731434411835, 3785294.404883011244237 ], [ 400382.50254323502304, 3785294.710071210749447 ], [ 400382.50254323502304, 3785295.015259409788996 ], [ 400381.586978636798449, 3785295.930824008304626 ], [ 400378.840284842299297, 3785295.930824008304626 ] ] ] } },
{ "type": "Feature", "properties": { "confidence": 0.28792068362236023, "class": 1 }, "geometry": { "type": "Polygon", "coordinates": [ [ [ 400325.737538148532622, 3785271.515768057201058 ], [ 400325.432349949143827, 3785271.210579857695848 ], [ 400324.821973550366238, 3785271.210579857695848 ], [ 400324.821973550366238, 3785269.684638860635459 ], [ 400325.432349949143827, 3785269.07426246162504 ], [ 400325.737538148532622, 3785269.07426246162504 ], [ 400326.653102746699005, 3785268.158697863575071 ], [ 400326.653102746699005, 3785267.853509664069861 ], [ 400326.9582909460878, 3785267.548321465030313 ], [ 400329.399796541198157, 3785267.548321465030313 ], [ 400329.399796541198157, 3785269.07426246162504 ], [ 400329.704984740586951, 3785269.37945066113025 ], [ 400329.704984740586951, 3785269.989827060140669 ], [ 400329.399796541198157, 3785270.295015259180218 ], [ 400329.399796541198157, 3785270.905391658190638 ], [ 400328.789420142420568, 3785271.515768057201058 ], [ 400325.737538148532622, 3785271.515768057201058 ] ] ] } },
{ "type": "Feature", "properties": { "confidence": 0.28724285960197449, "class": 1 }, "geometry": { "type": "Polygon", "coordinates": [ [ [ 400556.459816887101624, 3785013.631739572621882 ], [ 400556.459816887101624, 3785013.326551373116672 ], [ 400556.15462868771283, 3785013.021363174077123 ], [ 400556.15462868771283, 3785011.190233977511525 ], [ 400556.459816887101624, 3785010.885045778006315 ], [ 400556.459816887101624, 3785010.274669379461557 ], [ 400561.037639877933543, 3785010.274669379461557 ], [ 400560.732451678544749, 3785010.579857578966767 ], [ 400560.732451678544749, 3785010.885045778006315 ], [ 400560.427263479155954, 3785011.190233977511525 ], [ 400560.427263479155954, 3785012.105798575561494 ], [ 400559.206510681600776, 3785013.326551373116672 ], [ 400558.596134282823186, 3785013.326551373116672 ], [ 400558.290946083434392, 3785013.631739572621882 ], [ 400556.459816887101624, 3785013.631739572621882 ] ] ] } }
]
}
