{
"type": "FeatureCollection",
"name": "cell_00434_pre",
"crs": { "type": "name", "properties": { "name": "urn:ogc:def:crs:EPSG::32611" } },
"features": [
{ "type": "Feature", "properties": { "confidence": 0.92167514562606812, "class": 1 }, "geometry": { "type": "Polygon", "coordinates": [ [ [ 399470.600203458801843, 3784916.276703967247158 ], [ 399470.295015259413049, 3784915.97151576820761 ], [ 399469.989827060024254, 3784915.97151576820761 ], [ 399469.684638860635459, 3784915.6663275687024 ], [ 399469.379450661246665, 3784915.6663275687024 ], [ 399469.379450661246665, 3784913.530010173097253 ], [ 399469.684638860635459, 3784913.224821973592043 ], [ 399469.684638860635459, 3784910.172939979471266 ], [ 399470.600203458801843, 3784909.257375381421298 ], [ 399470.905391658190638, 3784909.257375381421298 ], [ 399471.210579857579432, 3784908.952187181916088 ], [ 399472.431332655134611, 3784908.952187181916088 ], [ 399472.736520854523405, 3784908.646998982876539 ], [ 399474.262461851467378, 3784908.646998982876539 ], [ 399474.567650050856173, 3784908.952187181916088 ], [ 399474.872838250244968, 3784908.952187181916088 ], [ 399475.178026449633762, 3784909.257375381421298 ], [ 399475.178026449633762, 3784912.614445574581623 ], [ 399474.872838250244968, 3784912.919633774086833 ], [ 399474.872838250244968, 3784913.835198372136801 ], [ 399474.567650050856173, 3784914.140386571642011 ], [ 399474.567650050856173, 3784914.445574771147221 ], [ 399474.262461851467378, 3784914.750762970652431 ], [ 399474.262461851467378, 3784915.05595116969198 ], [ 399473.957273652078584, 3784915.36113936919719 ], [ 399473.652085452689789, 3784915.36113936919719 ], [ 399473.346897253300995, 3784915.6663275687024 ], [ 399472.126144455745816, 3784915.6663275687024 ], [ 399471.820956256357022, 3784915.97151576820761 ], [ 399470.905391658190638, 3784915.97151576820761 ], [ 399470.600203458801843, 3784916.276703967247158 ] ] ] } },
{ "type": "Feature", "properties": { "confidence": 0.76416754722595215, "class": 1 }, "geometry": { "type": "Polygon", "coordinates": [ [ [ 399121.159715157700703, 3785047.507629705127329 ], [ 399120.549338758923113, 3785046.897253306116909 ], [ 399120.549338758923113, 3785046.592065106611699 ], [ 399120.244150559534319, 3785046.28687690757215 ], [ 399120.244150559534319, 3785045.67650050856173 ], [ 399119.02339776197914, 3785044.455747711006552 ], [ 399119.02339776197914, 3785044.150559511501342 ], [ 399118.718209562590346, 3785043.845371312461793 ], [ 399118.718209562590346, 3785043.234994913451374 ], [ 399118.413021363201551, 3785042.929806713946164 ], [ 399118.413021363201551, 3785041.098677517846227 ], [ 399118.718209562590346, 3785040.793489318341017 ], [ 399119.63377416075673, 3785040.793489318341017 ], [ 399119.938962360145524, 3785040.488301118835807 ], [ 399120.549338758923113, 3785040.488301118835807 ], [ 399120.854526958311908, 3785040.793489318341017 ], [ 399121.159715157700703, 3785040.793489318341017 ], [ 399122.380467955255881, 3785042.014242115896195 ], [ 399122.380467955255881, 3785042.319430315401405 ], [ 399122.685656154644676, 3785042.624618514906615 ], [ 399122.99084435403347, 3785042.624618514906615 ], [ 399122.99084435403347, 3785043.234994913451374 ], [ 399123.601220752811059, 3785043.845371312461793 ], [ 399123.906408952199854, 3785043.845371312461793 ], [ 399124.211597151588649, 3785044.150559511501342 ], [ 399124.211597151588649, 3785044.455747711006552 ], [ 399124.516785350977443, 3785044.760935910511762 ], [ 399124.516785350977443, 3785046.592065106611699 ], [ 399123.906408952199854, 3785047.202441505622119 ], [ 399123.601220752811059, 3785047.202441505622119 ], [ 399123.296032553422265, 3785047.507629705127329 ], [ 399121.159715157700703, 3785047.507629705127329 ] ] ] } },
{ "type": "Feature", "properties": { "confidence": 0.7422482967376709, "class": 1 }, "geometry": { "type": "Polygon", "coordinates": [ [ [ 399452.899287894193549, 3784905.595116988755763 ], [ 399452.594099694804754, 3784905.289928789250553 ], [ 399452.594099694804754, 3784903.458799593150616 ], [ 399453.814852492359933, 3784902.238046795595437 ], [ 399454.425228891137522, 3784902.238046795595437 ], [ 399454.730417090526316, 3784901.932858596090227 ], [ 399455.340793489303906, 3784901.932858596090227 ], [ 399455.6459816886927, 3784902.238046795595437 ], [ 399456.256358087470289, 3784902.238046795595437 ], [ 399456.561546286859084, 3784902.543234995100647 ], [ 399456.561546286859084, 3784902.848423194140196 ], [ 399456.866734486247879, 3784903.153611393645406 ], [ 399456.866734486247879, 3784903.458799593150616 ], [ 399457.171922685636673, 3784903.763987792655826 ], [ 399457.171922685636673, 3784905.289928789250553 ], [ 399456.866734486247879, 3784905.289928789250553 ], [ 399456.561546286859084, 3784905.595116988755763 ], [ 399452.899287894193549, 3784905.595116988755763 ] ] ] } },
{ "type": "Feature", "properties": { "confidence": 0.43275821208953857, "class": 1 }, "geometry": { "type": "Polygon", "coordinates": [ [ [ 399459.61342828074703, 3784955.645981688518077 ], [ 399459.308240081358235, 3784955.340793489478528 ], [ 399459.003051881969441, 3784955.340793489478528 ], [ 399459.003051881969441, 3784954.730417090468109 ], [ 399458.697863682580646, 3784954.425228890962899 ], [ 399458.697863682580646, 3784953.81485249241814 ], [ 399459.003051881969441, 3784953.50966429291293 ], [ 399459.003051881969441, 3784953.20447609340772 ], [ 399460.223804679524619, 3784951.983723295852542 ], [ 399460.528992878913414, 3784951.983723295852542 ], [ 399460.834181078360416, 3784951.678535096812993 ], [ 399460.834181078360416, 3784951.373346897307783 ], [ 399461.139369277749211, 3784951.373346897307783 ], [ 399461.444557477138005, 3784951.068158697802573 ], [ 399461.7497456765268, 3784951.068158697802573 ], [ 399462.054933875915594, 3784950.762970498297364 ], [ 399463.275686673470773, 3784950.762970498297364 ], [ 399463.580874872859567, 3784951.068158697802573 ], [ 399463.580874872859567, 3784951.373346897307783 ], [ 399463.886063072248362, 3784951.678535096812993 ], [ 399463.886063072248362, 3784952.594099694862962 ], [ 399463.580874872859567, 3784952.899287894368172 ], [ 399463.580874872859567, 3784953.20447609340772 ], [ 399463.275686673470773, 3784953.50966429291293 ], [ 399462.970498474081978, 3784953.50966429291293 ], [ 399462.360122075304389, 3784954.12004069192335 ], [ 399462.360122075304389, 3784954.425228890962899 ], [ 399462.054933875915594, 3784954.425228890962899 ], [ 399461.139369277749211, 3784955.340793489478528 ], [ 399460.834181078360416, 3784955.340793489478528 ], [ 399460.528992878913414, 3784955.645981688518077 ], [ 399459.61342828074703, 3784955.645981688518077 ] ] ] } },
{ "type": "Feature", "properties": { "confidence": 0.36846557259559631, "class": 1 }, "geometry": { "type": "Polygon", "coordinates": [ [ [ 399010.986775178054813, 3784922.38046795502305 ], [ 399010.681586978607811, 3784922.075279755983502 ], [ 399009.460834181052633, 3784922.075279755983502 ], [ 399009.155645981663838, 3784921.770091556478292 ], [ 399008.850457782275043, 3784921.770091556478292 ], [ 399008.240081383497454, 3784921.159715157467872 ], [ 399007.93489318410866, 3784921.159715157467872 ], [ 399007.32451678533107, 3784920.549338758923113 ], [ 399007.32451678533107, 3784919.633774160873145 ], [ 399007.019328585942276, 3784919.328585961367935 ], [ 399007.019328585942276, 3784917.802644964307547 ], [ 399006.714140386553481, 3784917.497456764802337 ], [ 399006.714140386553481, 3784915.36113936919719 ], [ 399007.019328585942276, 3784915.05595116969198 ], [ 399009.460834181052633, 3784915.05595116969198 ], [ 399009.766022380441427, 3784915.36113936919719 ], [ 399010.376398779219016, 3784915.36113936919719 ], [ 399010.681586978607811, 3784915.6663275687024 ], [ 399011.291963377443608, 3784915.6663275687024 ], [ 399011.902339776221197, 3784916.276703967247158 ], [ 399012.512716174998786, 3784916.276703967247158 ], [ 399012.817904374387581, 3784916.581892166752368 ], [ 399013.123092573776376, 3784916.581892166752368 ], [ 399014.343845371331554, 3784917.802644964307547 ], [ 399014.649033570720349, 3784917.802644964307547 ], [ 399014.649033570720349, 3784918.107833163812757 ], [ 399015.564598168886732, 3784919.023397761862725 ], [ 399015.564598168886732, 3784920.549338758923113 ], [ 399015.259409969497938, 3784920.549338758923113 ], [ 399014.954221770109143, 3784920.854526958428323 ], [ 399014.649033570720349, 3784920.854526958428323 ], [ 399014.343845371331554, 3784921.159715157467872 ], [ 399014.038657171942759, 3784921.159715157467872 ], [ 399013.733468972553965, 3784921.464903356973082 ], [ 399013.42828077316517, 3784921.464903356973082 ], [ 399013.123092573776376, 3784921.770091556478292 ], [ 399012.817904374387581, 3784921.770091556478292 ], [ 399012.512716174998786, 3784922.075279755983502 ], [ 399011.291963377443608, 3784922.075279755983502 ], [ 399010.986775178054813, 3784922.38046795502305 ] ] ] } },
{ "type": "Feature", "properties": { "confidence": 0.30466598272323608, "class": 1 }, "geometry": { "type": "Polygon", "coordinates": [ [ [ 399529.501525941013824, 3785118.006103763822466 ], [ 399529.19633774162503, 3785117.700915564782917 ], [ 399528.58596134284744, 3785117.700915564782917 ], [ 399528.280773143458646, 3785117.395727365277708 ], [ 399528.280773143458646, 3785116.785350966267288 ], [ 399527.975584944069851, 3785116.480162767227739 ], [ 399527.975584944069851, 3785115.564598168712109 ], [ 399527.670396744681057, 3785115.259409969672561 ], [ 399527.670396744681057, 3785114.343845371156931 ], [ 399527.365208545292262, 3785114.038657172117382 ], [ 399527.365208545292262, 3785112.512716175056994 ], [ 399527.060020345903467, 3785112.207527975551784 ], [ 399527.060020345903467, 3785111.597151577007025 ], [ 399527.670396744681057, 3785110.986775177996606 ], [ 399527.670396744681057, 3785110.681586978491396 ], [ 399527.975584944069851, 3785110.681586978491396 ], [ 399528.58596134284744, 3785110.071210579946637 ], [ 399530.417090539180208, 3785110.071210579946637 ], [ 399530.417090539180208, 3785110.376398779451847 ], [ 399530.722278738569003, 3785110.681586978491396 ], [ 399530.722278738569003, 3785111.291963377501816 ], [ 399531.637843336735386, 3785112.207527975551784 ], [ 399531.943031536124181, 3785112.207527975551784 ], [ 399532.248219735512976, 3785112.512716175056994 ], [ 399532.248219735512976, 3785117.395727365277708 ], [ 399531.637843336735386, 3785117.395727365277708 ], [ 399531.332655137346592, 3785117.700915564782917 ], [ 399529.806714140402619, 3785117.700915564782917 ], [ 399529.501525941013824, 3785118.006103763822466 ] ] ] } },
{ "type": "Feature", "properties": { "confidence": 0.25173771381378174, "class": 1 }, "geometry": { "type": "Polygon", "coordinates": [ [ [ 399109.867751780257095, 3785133.570701933000237 ], [ 399109.257375381479505, 3785132.960325533989817 ], [ 399109.257375381479505, 3785130.51881993887946 ], [ 399109.5625635808683, 3785130.21363173937425 ], [ 399109.5625635808683, 3785129.908443540334702 ], [ 399109.867751780257095, 3785129.908443540334702 ], [ 399110.172939979645889, 3785129.603255340829492 ], [ 399110.172939979645889, 3785129.298067141324282 ], [ 399110.783316378423478, 3785128.687690742779523 ], [ 399110.783316378423478, 3785128.382502543274313 ], [ 399111.393692777201068, 3785127.772126144263893 ], [ 399115.361139369255397, 3785127.772126144263893 ], [ 399115.361139369255397, 3785129.603255340829492 ], [ 399115.666327568644192, 3785129.908443540334702 ], [ 399115.361139369255397, 3785130.21363173937425 ], [ 399115.361139369255397, 3785131.12919633788988 ], [ 399115.055951169866603, 3785131.434384536929429 ], [ 399115.055951169866603, 3785132.044760935939848 ], [ 399114.140386571700219, 3785132.960325533989817 ], [ 399113.835198372311424, 3785132.960325533989817 ], [ 399113.53001017292263, 3785133.265513733495027 ], [ 399113.224821973533835, 3785133.265513733495027 ], [ 399112.919633774145041, 3785133.570701933000237 ], [ 399109.867751780257095, 3785133.570701933000237 ] ] ] } }
]
}
