{
"type": "FeatureCollection",
"name": "cell_00435_pre",
"crs": { "type": "name", "properties": { "name": "urn:ogc:def:crs:EPSG::32611" } },
"features": [
{ "type": "Feature", "properties": { "confidence": 0.87657451629638672, "class": 1 }, "geometry": { "type": "Polygon", "coordinates": [ [ [ 399235.300101729400922, 3785957.578840285073966 ], [ 399234.994913530012127, 3785957.273652085568756 ], [ 399234.994913530012127, 3785953.001017293892801 ], [ 399235.300101729400922, 3785952.695829094387591 ], [ 399235.300101729400922, 3785950.254323499277234 ], [ 399234.994913530012127, 3785949.949135300237685 ], [ 399235.300101729400922, 3785949.643947100732476 ], [ 399235.300101729400922, 3785948.118006103672087 ], [ 399235.910478128178511, 3785947.507629705127329 ], [ 399236.826042726344895, 3785947.507629705127329 ], [ 399237.131230925733689, 3785947.202441505622119 ], [ 399238.657171922677662, 3785947.202441505622119 ], [ 399238.657171922677662, 3785950.559511698782444 ], [ 399238.962360122066457, 3785950.864699898287654 ], [ 399238.962360122066457, 3785951.475076296832412 ], [ 399239.267548321455251, 3785951.780264496337622 ], [ 399239.267548321455251, 3785953.306205493398011 ], [ 399239.572736520844046, 3785953.611393692903221 ], [ 399239.572736520844046, 3785953.916581891942769 ], [ 399239.267548321455251, 3785954.221770091447979 ], [ 399239.267548321455251, 3785954.832146490458399 ], [ 399239.572736520844046, 3785955.137334689497948 ], [ 399239.572736520844046, 3785955.747711088508368 ], [ 399239.267548321455251, 3785956.052899288013577 ], [ 399239.267548321455251, 3785956.663275686558336 ], [ 399238.962360122066457, 3785956.968463886063546 ], [ 399238.962360122066457, 3785957.273652085568756 ], [ 399238.657171922677662, 3785957.273652085568756 ], [ 399238.351983723288868, 3785957.578840285073966 ], [ 399235.300101729400922, 3785957.578840285073966 ] ] ] } },
{ "type": "Feature", "properties": { "confidence": 0.85322481393814087, "class": 1 }, "geometry": { "type": "Polygon", "coordinates": [ [ [ 399165.412004069192335, 3785661.85147507628426 ], [ 399165.10681586980354, 3785661.54628687677905 ], [ 399162.970498474081978, 3785661.54628687677905 ], [ 399162.665310274693184, 3785661.241098677739501 ], [ 399162.054933875915594, 3785661.241098677739501 ], [ 399161.444557477138005, 3785660.630722278729081 ], [ 399161.139369277749211, 3785660.630722278729081 ], [ 399160.834181078360416, 3785660.325534079223871 ], [ 399160.834181078360416, 3785660.020345880184323 ], [ 399160.528992878913414, 3785659.715157680679113 ], [ 399160.528992878913414, 3785659.409969481173903 ], [ 399160.223804679524619, 3785659.104781281668693 ], [ 399160.223804679524619, 3785658.494404883123934 ], [ 399159.918616480135825, 3785658.189216683618724 ], [ 399159.918616480135825, 3785656.052899288013577 ], [ 399160.223804679524619, 3785655.747711088508368 ], [ 399160.528992878913414, 3785655.747711088508368 ], [ 399160.834181078360416, 3785655.442522889003158 ], [ 399161.7497456765268, 3785655.442522889003158 ], [ 399162.054933875915594, 3785655.747711088508368 ], [ 399163.580874872859567, 3785655.747711088508368 ], [ 399163.886063072248362, 3785655.442522889003158 ], [ 399166.022380467969924, 3785655.442522889003158 ], [ 399166.937945066136308, 3785656.358087487053126 ], [ 399166.937945066136308, 3785657.884028484113514 ], [ 399167.243133265525103, 3785658.189216683618724 ], [ 399167.243133265525103, 3785660.935910478234291 ], [ 399167.548321464913897, 3785661.241098677739501 ], [ 399167.243133265525103, 3785661.54628687677905 ], [ 399167.243133265525103, 3785661.85147507628426 ], [ 399165.412004069192335, 3785661.85147507628426 ] ] ] } },
{ "type": "Feature", "properties": { "confidence": 0.73806190490722656, "class": 1 }, "geometry": { "type": "Polygon", "coordinates": [ [ [ 399242.929806714120787, 3785704.272634791675955 ], [ 399242.624618514731992, 3785703.967446592170745 ], [ 399242.014242115954403, 3785703.967446592170745 ], [ 399242.014242115954403, 3785703.662258392665535 ], [ 399241.709053916565608, 3785703.357070193160325 ], [ 399241.709053916565608, 3785698.779247202444822 ], [ 399242.319430315343197, 3785698.168870803434402 ], [ 399242.624618514731992, 3785698.168870803434402 ], [ 399242.929806714120787, 3785697.863682604394853 ], [ 399243.84537131228717, 3785697.863682604394853 ], [ 399244.150559511675965, 3785697.558494404889643 ], [ 399245.371312309231143, 3785697.558494404889643 ], [ 399245.676500508619938, 3785697.253306205384433 ], [ 399245.676500508619938, 3785696.948118005879223 ], [ 399248.728382502566092, 3785696.948118005879223 ], [ 399248.728382502566092, 3785697.253306205384433 ], [ 399249.033570701954886, 3785697.558494404889643 ], [ 399249.94913530012127, 3785697.558494404889643 ], [ 399250.559511698898859, 3785698.168870803434402 ], [ 399250.559511698898859, 3785699.084435401950032 ], [ 399250.254323499510065, 3785699.38962360098958 ], [ 399250.254323499510065, 3785700.0 ], [ 399249.94913530012127, 3785700.30518819950521 ], [ 399249.94913530012127, 3785700.61037639901042 ], [ 399248.728382502566092, 3785701.831129196565598 ], [ 399248.728382502566092, 3785702.136317395605147 ], [ 399247.507629705010913, 3785703.357070193160325 ], [ 399247.202441505622119, 3785703.357070193160325 ], [ 399246.59206510684453, 3785703.967446592170745 ], [ 399245.981688708008733, 3785703.967446592170745 ], [ 399245.676500508619938, 3785704.272634791675955 ], [ 399242.929806714120787, 3785704.272634791675955 ] ] ] } },
{ "type": "Feature", "properties": { "confidence": 0.5760037899017334, "class": 1 }, "geometry": { "type": "Polygon", "coordinates": [ [ [ 399024.72024415055057, 3785595.625635808799416 ], [ 399024.72024415055057, 3785595.320447609294206 ], [ 399024.415055951161776, 3785595.015259409788996 ], [ 399024.415055951161776, 3785594.404883011244237 ], [ 399024.109867751772981, 3785594.099694811739028 ], [ 399024.109867751772981, 3785593.794506612233818 ], [ 399023.804679552384187, 3785593.489318413194269 ], [ 399023.804679552384187, 3785591.047812818083912 ], [ 399023.499491352995392, 3785590.742624618578702 ], [ 399023.499491352995392, 3785588.301119023468345 ], [ 399023.804679552384187, 3785587.995930823963135 ], [ 399023.804679552384187, 3785587.385554425418377 ], [ 399024.109867751772981, 3785587.080366225913167 ], [ 399024.109867751772981, 3785586.164801627863199 ], [ 399024.415055951161776, 3785585.859613428357989 ], [ 399028.992878941993695, 3785585.859613428357989 ], [ 399029.603255340771284, 3785586.469989826902747 ], [ 399029.603255340771284, 3785588.606307222973555 ], [ 399029.908443540160079, 3785588.911495422013104 ], [ 399029.908443540160079, 3785591.963377416133881 ], [ 399029.603255340771284, 3785592.268565615639091 ], [ 399029.603255340771284, 3785593.184130213689059 ], [ 399029.298067141382489, 3785593.489318413194269 ], [ 399028.992878941993695, 3785593.489318413194269 ], [ 399028.6876907426049, 3785593.794506612233818 ], [ 399028.6876907426049, 3785594.099694811739028 ], [ 399028.382502543216106, 3785594.404883011244237 ], [ 399028.382502543216106, 3785594.710071210749447 ], [ 399028.077314343827311, 3785595.015259409788996 ], [ 399028.077314343827311, 3785595.320447609294206 ], [ 399027.772126144438516, 3785595.320447609294206 ], [ 399027.466937945049722, 3785595.625635808799416 ], [ 399024.72024415055057, 3785595.625635808799416 ] ] ] } },
{ "type": "Feature", "properties": { "confidence": 0.56175482273101807, "class": 1 }, "geometry": { "type": "Polygon", "coordinates": [ [ [ 399129.399796541198157, 3785677.11088504595682 ], [ 399129.094608341809362, 3785676.80569684645161 ], [ 399127.568667344865389, 3785676.80569684645161 ], [ 399127.263479145476595, 3785676.5005086469464 ], [ 399126.347914547310211, 3785676.5005086469464 ], [ 399126.347914547310211, 3785676.19532044744119 ], [ 399126.042726347921416, 3785675.890132248401642 ], [ 399126.042726347921416, 3785675.279755849391222 ], [ 399125.737538148532622, 3785674.974567649886012 ], [ 399125.737538148532622, 3785673.448626653291285 ], [ 399125.432349949143827, 3785673.143438453786075 ], [ 399125.432349949143827, 3785669.48118006112054 ], [ 399125.737538148532622, 3785669.17599186161533 ], [ 399125.737538148532622, 3785668.87080366211012 ], [ 399127.568667344865389, 3785668.87080366211012 ], [ 399127.873855544254184, 3785668.565615463070571 ], [ 399130.92573753814213, 3785668.565615463070571 ], [ 399131.230925737530924, 3785668.87080366211012 ], [ 399131.841302136308514, 3785668.87080366211012 ], [ 399132.146490335697308, 3785669.17599186161533 ], [ 399132.146490335697308, 3785669.48118006112054 ], [ 399132.451678535086103, 3785669.78636826062575 ], [ 399132.451678535086103, 3785670.396744659170508 ], [ 399132.756866734474897, 3785670.701932858675718 ], [ 399132.756866734474897, 3785671.617497456725687 ], [ 399132.451678535086103, 3785671.922685656230897 ], [ 399132.451678535086103, 3785673.753814852330834 ], [ 399132.146490335697308, 3785674.059003051836044 ], [ 399132.146490335697308, 3785674.974567649886012 ], [ 399131.841302136308514, 3785674.974567649886012 ], [ 399131.230925737530924, 3785675.584944048896432 ], [ 399131.230925737530924, 3785675.890132248401642 ], [ 399130.620549338753335, 3785676.5005086469464 ], [ 399130.620549338753335, 3785677.11088504595682 ], [ 399129.399796541198157, 3785677.11088504595682 ] ] ] } },
{ "type": "Feature", "properties": { "confidence": 0.53047889471054077, "class": 1 }, "geometry": { "type": "Polygon", "coordinates": [ [ [ 399145.879959308251273, 3785848.016276704147458 ], [ 399146.185147507640067, 3785847.711088504642248 ], [ 399146.185147507640067, 3785847.100712105631828 ], [ 399146.795523906417657, 3785846.49033570708707 ], [ 399147.100712105806451, 3785846.49033570708707 ], [ 399147.405900305195246, 3785846.18514750758186 ], [ 399147.71108850458404, 3785846.18514750758186 ], [ 399148.016276703972835, 3785845.87995930807665 ], [ 399148.016276703972835, 3785845.269582909531891 ], [ 399148.32146490336163, 3785845.269582909531891 ], [ 399148.626653102750424, 3785844.964394710026681 ], [ 399149.237029501528013, 3785844.964394710026681 ], [ 399149.542217700916808, 3785844.659206510521472 ], [ 399152.594099694804754, 3785844.659206510521472 ], [ 399152.594099694804754, 3785844.964394710026681 ], [ 399152.28891149541596, 3785845.269582909531891 ], [ 399152.28891149541596, 3785845.574771109037101 ], [ 399151.373346897249576, 3785846.49033570708707 ], [ 399151.068158697860781, 3785846.49033570708707 ], [ 399150.762970498471987, 3785846.79552390659228 ], [ 399150.152594099694397, 3785846.79552390659228 ], [ 399149.847405900305603, 3785847.100712105631828 ], [ 399149.542217700916808, 3785847.100712105631828 ], [ 399148.626653102750424, 3785848.016276704147458 ], [ 399145.879959308251273, 3785848.016276704147458 ] ] ] } },
{ "type": "Feature", "properties": { "confidence": 0.44092065095901489, "class": 1 }, "geometry": { "type": "Polygon", "coordinates": [ [ [ 399169.684638860635459, 3785663.072227873839438 ], [ 399169.379450661246665, 3785662.767039674334228 ], [ 399169.07426246185787, 3785662.767039674334228 ], [ 399168.769074262469076, 3785662.461851475294679 ], [ 399168.769074262469076, 3785661.85147507628426 ], [ 399168.463886063080281, 3785661.54628687677905 ], [ 399168.463886063080281, 3785659.409969481173903 ], [ 399168.769074262469076, 3785659.104781281668693 ], [ 399168.769074262469076, 3785657.578840285073966 ], [ 399169.07426246185787, 3785657.273652085568756 ], [ 399169.07426246185787, 3785655.747711088508368 ], [ 399169.379450661246665, 3785655.442522889003158 ], [ 399169.379450661246665, 3785655.137334689497948 ], [ 399170.295015259413049, 3785654.221770091447979 ], [ 399170.295015259413049, 3785653.916581891942769 ], [ 399170.600203458801843, 3785653.611393692903221 ], [ 399170.600203458801843, 3785653.306205493398011 ], [ 399170.905391658190638, 3785653.001017293892801 ], [ 399171.210579857579432, 3785653.001017293892801 ], [ 399171.820956256357022, 3785653.611393692903221 ], [ 399172.126144455745816, 3785653.611393692903221 ], [ 399172.431332655134611, 3785653.916581891942769 ], [ 399172.431332655134611, 3785654.221770091447979 ], [ 399172.736520854523405, 3785654.526958290953189 ], [ 399172.736520854523405, 3785654.832146490458399 ], [ 399173.0417090539122, 3785655.137334689497948 ], [ 399173.0417090539122, 3785655.442522889003158 ], [ 399173.652085452689789, 3785656.052899288013577 ], [ 399173.652085452689789, 3785656.663275686558336 ], [ 399173.957273652078584, 3785656.968463886063546 ], [ 399173.957273652078584, 3785660.020345880184323 ], [ 399173.652085452689789, 3785660.325534079223871 ], [ 399173.652085452689789, 3785660.630722278729081 ], [ 399173.0417090539122, 3785661.241098677739501 ], [ 399172.736520854523405, 3785661.241098677739501 ], [ 399172.431332655134611, 3785661.54628687677905 ], [ 399171.820956256357022, 3785661.54628687677905 ], [ 399170.600203458801843, 3785662.767039674334228 ], [ 399169.989827060024254, 3785662.767039674334228 ], [ 399169.684638860635459, 3785663.072227873839438 ] ] ] } },
{ "type": "Feature", "properties": { "confidence": 0.31729543209075928, "class": 1 }, "geometry": { "type": "Polygon", "coordinates": [ [ [ 399099.491353001038078, 3785530.315361139364541 ], [ 399099.186164801649284, 3785530.010172939859331 ], [ 399098.880976602260489, 3785530.010172939859331 ], [ 399097.965412004094105, 3785529.094608341809362 ], [ 399097.660223804705311, 3785529.094608341809362 ], [ 399096.744659206538927, 3785528.179043743759394 ], [ 399096.744659206538927, 3785526.653102746699005 ], [ 399096.439471007150132, 3785526.347914547193795 ], [ 399096.439471007150132, 3785526.042726347688586 ], [ 399096.13428280770313, 3785525.737538148649037 ], [ 399096.13428280770313, 3785524.821973550133407 ], [ 399097.355035605316516, 3785523.601220752578229 ], [ 399097.660223804705311, 3785523.601220752578229 ], [ 399097.965412004094105, 3785523.29603255353868 ], [ 399099.186164801649284, 3785523.29603255353868 ], [ 399099.491353001038078, 3785522.99084435403347 ], [ 399101.017293997982051, 3785522.99084435403347 ], [ 399101.62767039675964, 3785523.601220752578229 ], [ 399101.62767039675964, 3785523.906408952083439 ], [ 399102.23804679553723, 3785524.516785351093858 ], [ 399102.23804679553723, 3785524.821973550133407 ], [ 399102.543234994926024, 3785525.127161749638617 ], [ 399102.543234994926024, 3785530.315361139364541 ], [ 399099.491353001038078, 3785530.315361139364541 ] ] ] } },
{ "type": "Feature", "properties": { "confidence": 0.30629870295524597, "class": 1 }, "geometry": { "type": "Polygon", "coordinates": [ [ [ 399125.432349949143827, 3785805.900305188260972 ], [ 399125.127161749755032, 3785805.595116988755763 ], [ 399123.906408952199854, 3785805.595116988755763 ], [ 399122.99084435403347, 3785804.679552390705794 ], [ 399122.99084435403347, 3785804.374364191200584 ], [ 399122.685656154644676, 3785804.069175991695374 ], [ 399122.685656154644676, 3785802.543234995100647 ], [ 399122.99084435403347, 3785802.238046795595437 ], [ 399123.296032553422265, 3785802.238046795595437 ], [ 399123.601220752811059, 3785801.932858596090227 ], [ 399124.211597151588649, 3785801.932858596090227 ], [ 399124.516785350977443, 3785801.627670396585017 ], [ 399124.821973550366238, 3785801.627670396585017 ], [ 399125.127161749755032, 3785801.322482197545469 ], [ 399126.042726347921416, 3785801.322482197545469 ], [ 399126.347914547310211, 3785801.627670396585017 ], [ 399126.347914547310211, 3785801.932858596090227 ], [ 399127.263479145476595, 3785802.848423194140196 ], [ 399127.263479145476595, 3785803.153611393645406 ], [ 399127.568667344865389, 3785803.458799593150616 ], [ 399127.568667344865389, 3785804.984740590211004 ], [ 399127.263479145476595, 3785805.289928789250553 ], [ 399127.263479145476595, 3785805.595116988755763 ], [ 399126.653102746699005, 3785805.595116988755763 ], [ 399126.347914547310211, 3785805.900305188260972 ], [ 399125.432349949143827, 3785805.900305188260972 ] ] ] } }
]
}
