{
"type": "FeatureCollection",
"name": "cell_00104_pre",
"crs": { "type": "name", "properties": { "name": "urn:ogc:def:crs:EPSG::32611" } },
"features": [
{ "type": "Feature", "properties": { "confidence": 0.99783557653427124, "class": 1 }, "geometry": { "type": "Polygon", "coordinates": [ [ [ 352463.682604272617027, 3770933.163784333504736 ], [ 352463.377416073228233, 3770932.858596134465188 ], [ 352463.072227873839438, 3770932.858596134465188 ], [ 352463.072227873839438, 3770932.553407934959978 ], [ 352462.767039674450643, 3770932.248219735454768 ], [ 352462.767039674450643, 3770931.332655137404799 ], [ 352462.461851475061849, 3770931.02746693789959 ], [ 352462.461851475061849, 3770930.417090539354831 ], [ 352460.325534079340287, 3770928.280773143284023 ], [ 352460.325534079340287, 3770927.060020345728844 ], [ 352460.935910478117876, 3770926.449643947184086 ], [ 352461.546286876895465, 3770926.449643947184086 ], [ 352461.85147507628426, 3770926.144455747678876 ], [ 352462.156663275673054, 3770926.144455747678876 ], [ 352462.461851475061849, 3770925.839267548173666 ], [ 352462.767039674450643, 3770925.839267548173666 ], [ 352463.072227873839438, 3770925.534079349134117 ], [ 352463.377416073228233, 3770925.534079349134117 ], [ 352463.682604272617027, 3770925.228891149628907 ], [ 352464.292980671394616, 3770925.228891149628907 ], [ 352464.598168870783411, 3770924.923702950123698 ], [ 352465.208545269561, 3770924.923702950123698 ], [ 352465.513733468949795, 3770924.618514750618488 ], [ 352466.429298067116179, 3770924.618514750618488 ], [ 352466.734486266504973, 3770924.313326551578939 ], [ 352467.039674465893768, 3770924.618514750618488 ], [ 352467.344862665282562, 3770924.618514750618488 ], [ 352469.175991861673538, 3770926.449643947184086 ], [ 352469.481180061062332, 3770926.449643947184086 ], [ 352470.701932858617511, 3770927.670396744739264 ], [ 352470.701932858617511, 3770930.111902339849621 ], [ 352470.091556459839921, 3770930.72227873839438 ], [ 352469.786368260451127, 3770930.72227873839438 ], [ 352469.481180061062332, 3770931.02746693789959 ], [ 352469.175991861673538, 3770931.02746693789959 ], [ 352468.260427263507154, 3770931.943031535949558 ], [ 352467.955239064118359, 3770931.943031535949558 ], [ 352467.650050864671357, 3770932.248219735454768 ], [ 352466.734486266504973, 3770932.248219735454768 ], [ 352466.429298067116179, 3770932.553407934959978 ], [ 352465.818921668338589, 3770932.553407934959978 ], [ 352465.513733468949795, 3770932.858596134465188 ], [ 352465.208545269561, 3770932.858596134465188 ], [ 352464.903357070172206, 3770933.163784333504736 ], [ 352463.682604272617027, 3770933.163784333504736 ] ] ] } },
{ "type": "Feature", "properties": { "confidence": 0.87870591878890991, "class": 1 }, "geometry": { "type": "Polygon", "coordinates": [ [ [ 352386.46998982707737, 3770829.704984740819782 ], [ 352386.46998982707737, 3770823.601220752578229 ], [ 352386.775178026466165, 3770823.29603255353868 ], [ 352386.775178026466165, 3770822.99084435403347 ], [ 352387.080366225854959, 3770822.99084435403347 ], [ 352387.385554425243754, 3770822.68565615452826 ], [ 352388.301119023410138, 3770822.68565615452826 ], [ 352388.606307222798932, 3770822.38046795502305 ], [ 352389.827060020354111, 3770822.38046795502305 ], [ 352390.132248219742905, 3770822.075279755983502 ], [ 352391.047812817909289, 3770822.075279755983502 ], [ 352391.353001017298084, 3770821.770091556478292 ], [ 352391.963377416075673, 3770821.770091556478292 ], [ 352392.268565615464468, 3770821.464903356973082 ], [ 352392.878942014242057, 3770821.464903356973082 ], [ 352393.184130213630851, 3770821.159715157467872 ], [ 352397.76195320446277, 3770821.159715157467872 ], [ 352398.067141403851565, 3770821.464903356973082 ], [ 352398.067141403851565, 3770822.38046795502305 ], [ 352399.287894201406743, 3770823.601220752578229 ], [ 352399.287894201406743, 3770826.347914547193795 ], [ 352398.982706002017949, 3770826.347914547193795 ], [ 352398.677517802629154, 3770826.653102746699005 ], [ 352398.37232960324036, 3770826.653102746699005 ], [ 352398.067141403851565, 3770826.958290946204215 ], [ 352396.846388606296387, 3770826.958290946204215 ], [ 352396.541200406907592, 3770827.263479145243764 ], [ 352395.320447609352414, 3770827.263479145243764 ], [ 352395.015259409963619, 3770827.568667344748974 ], [ 352394.099694811797235, 3770827.568667344748974 ], [ 352393.794506612408441, 3770827.873855544254184 ], [ 352393.184130213630851, 3770827.873855544254184 ], [ 352392.878942014242057, 3770828.179043743759394 ], [ 352392.268565615464468, 3770828.179043743759394 ], [ 352391.963377416075673, 3770828.484231942798942 ], [ 352391.353001017298084, 3770828.484231942798942 ], [ 352391.047812817909289, 3770828.789420142304152 ], [ 352390.4374364191317, 3770828.789420142304152 ], [ 352390.132248219742905, 3770829.094608341809362 ], [ 352389.216683621576522, 3770829.094608341809362 ], [ 352388.911495422187727, 3770829.399796541314572 ], [ 352387.385554425243754, 3770829.399796541314572 ], [ 352387.080366225854959, 3770829.704984740819782 ], [ 352386.46998982707737, 3770829.704984740819782 ] ] ] } },
{ "type": "Feature", "properties": { "confidence": 0.87722361087799072, "class": 1 }, "geometry": { "type": "Polygon", "coordinates": [ [ [ 352323.296032553422265, 3770886.775178026407957 ], [ 352322.685656154644676, 3770886.164801627863199 ], [ 352322.685656154644676, 3770884.94404883030802 ], [ 352323.296032553422265, 3770884.3336724312976 ], [ 352323.601220752811059, 3770884.3336724312976 ], [ 352323.906408952199854, 3770884.02848423179239 ], [ 352324.821973550366238, 3770884.02848423179239 ], [ 352325.127161749755032, 3770883.723296032752842 ], [ 352326.042726347921416, 3770883.723296032752842 ], [ 352326.347914547310211, 3770883.418107833247632 ], [ 352326.9582909460878, 3770883.418107833247632 ], [ 352327.263479145476595, 3770883.112919633742422 ], [ 352329.399796541198157, 3770883.112919633742422 ], [ 352329.399796541198157, 3770883.723296032752842 ], [ 352329.704984740586951, 3770884.02848423179239 ], [ 352329.704984740586951, 3770884.3336724312976 ], [ 352329.094608341809362, 3770884.94404883030802 ], [ 352328.789420142420568, 3770884.94404883030802 ], [ 352328.484231943031773, 3770885.249237029347569 ], [ 352328.179043743642978, 3770885.249237029347569 ], [ 352327.873855544254184, 3770885.554425228852779 ], [ 352327.263479145476595, 3770885.554425228852779 ], [ 352326.9582909460878, 3770885.859613428357989 ], [ 352326.347914547310211, 3770885.859613428357989 ], [ 352326.042726347921416, 3770886.164801627863199 ], [ 352325.737538148532622, 3770886.164801627863199 ], [ 352325.432349949143827, 3770886.469989826902747 ], [ 352324.821973550366238, 3770886.469989826902747 ], [ 352324.516785350977443, 3770886.775178026407957 ], [ 352323.296032553422265, 3770886.775178026407957 ] ] ] } },
{ "type": "Feature", "properties": { "confidence": 0.63351255655288696, "class": 1 }, "geometry": { "type": "Polygon", "coordinates": [ [ [ 352228.6876907426049, 3770838.555442522745579 ], [ 352228.6876907426049, 3770832.451678534969687 ], [ 352228.992878941993695, 3770832.146490335930139 ], [ 352228.992878941993695, 3770831.841302136424929 ], [ 352229.298067141382489, 3770831.841302136424929 ], [ 352229.603255340771284, 3770831.536113936919719 ], [ 352230.824008138326462, 3770831.536113936919719 ], [ 352231.129196337715257, 3770831.230925737414509 ], [ 352232.044760935881641, 3770831.230925737414509 ], [ 352232.655137334717438, 3770831.841302136424929 ], [ 352232.960325534106232, 3770831.841302136424929 ], [ 352232.960325534106232, 3770832.146490335930139 ], [ 352233.265513733495027, 3770832.451678534969687 ], [ 352233.875890132272616, 3770832.451678534969687 ], [ 352234.486266531050205, 3770833.062054933980107 ], [ 352234.791454730439, 3770833.062054933980107 ], [ 352235.096642929827794, 3770833.367243133485317 ], [ 352235.401831129216589, 3770833.367243133485317 ], [ 352235.707019328605384, 3770833.672431332524866 ], [ 352236.012207527994178, 3770833.672431332524866 ], [ 352236.927772126160562, 3770834.587995931040496 ], [ 352236.927772126160562, 3770834.893184130080044 ], [ 352237.232960325549357, 3770835.198372329585254 ], [ 352237.232960325549357, 3770835.503560529090464 ], [ 352237.538148524938151, 3770835.808748728595674 ], [ 352237.538148524938151, 3770836.113936927635223 ], [ 352237.232960325549357, 3770836.113936927635223 ], [ 352236.927772126160562, 3770836.419125127140433 ], [ 352236.317395727382973, 3770836.419125127140433 ], [ 352236.012207527994178, 3770836.724313326645643 ], [ 352234.791454730439, 3770836.724313326645643 ], [ 352234.486266531050205, 3770837.029501526150852 ], [ 352234.181078331661411, 3770837.029501526150852 ], [ 352233.875890132272616, 3770837.334689725190401 ], [ 352233.265513733495027, 3770837.334689725190401 ], [ 352232.960325534106232, 3770837.639877924695611 ], [ 352232.044760935881641, 3770837.639877924695611 ], [ 352231.739572736492846, 3770837.945066124200821 ], [ 352230.824008138326462, 3770837.945066124200821 ], [ 352230.518819938937668, 3770838.250254323706031 ], [ 352229.908443540160079, 3770838.250254323706031 ], [ 352229.603255340771284, 3770838.555442522745579 ], [ 352228.6876907426049, 3770838.555442522745579 ] ] ] } },
{ "type": "Feature", "properties": { "confidence": 0.58716189861297607, "class": 1 }, "geometry": { "type": "Polygon", "coordinates": [ [ [ 352333.672431332641281, 3770421.363173957448453 ], [ 352333.367243133252487, 3770421.057985757943243 ], [ 352332.756866734474897, 3770421.057985757943243 ], [ 352332.451678535086103, 3770420.752797558438033 ], [ 352332.451678535086103, 3770420.447609358932823 ], [ 352332.146490335697308, 3770420.142421159893274 ], [ 352332.146490335697308, 3770419.532044760882854 ], [ 352331.841302136308514, 3770419.226856561377645 ], [ 352331.841302136308514, 3770417.700915564782917 ], [ 352332.146490335697308, 3770417.395727365277708 ], [ 352332.146490335697308, 3770417.090539165772498 ], [ 352332.451678535086103, 3770417.090539165772498 ], [ 352332.756866734474897, 3770416.785350966267288 ], [ 352334.587995930807665, 3770416.785350966267288 ], [ 352334.89318413019646, 3770416.480162767227739 ], [ 352335.503560528974049, 3770416.480162767227739 ], [ 352336.113936927751638, 3770415.869786368217319 ], [ 352336.419125127140433, 3770415.869786368217319 ], [ 352336.724313326529227, 3770415.564598168712109 ], [ 352337.029501525918022, 3770415.564598168712109 ], [ 352337.945066124084406, 3770414.649033570662141 ], [ 352337.945066124084406, 3770414.343845371156931 ], [ 352338.2502543234732, 3770414.343845371156931 ], [ 352338.2502543234732, 3770414.649033570662141 ], [ 352338.555442522861995, 3770414.954221770167351 ], [ 352339.471007121086586, 3770414.954221770167351 ], [ 352339.471007121086586, 3770415.259409969672561 ], [ 352339.776195320475381, 3770415.564598168712109 ], [ 352339.776195320475381, 3770416.785350966267288 ], [ 352339.471007121086586, 3770417.090539165772498 ], [ 352339.471007121086586, 3770417.395727365277708 ], [ 352339.165818921639584, 3770417.395727365277708 ], [ 352338.860630722250789, 3770417.700915564782917 ], [ 352338.860630722250789, 3770418.006103763822466 ], [ 352337.945066124084406, 3770418.921668362338096 ], [ 352337.945066124084406, 3770419.226856561377645 ], [ 352337.639877924695611, 3770419.532044760882854 ], [ 352337.639877924695611, 3770419.837232960388064 ], [ 352337.334689725306816, 3770420.142421159893274 ], [ 352337.334689725306816, 3770420.447609358932823 ], [ 352337.029501525918022, 3770420.447609358932823 ], [ 352336.724313326529227, 3770420.752797558438033 ], [ 352336.419125127140433, 3770420.752797558438033 ], [ 352335.808748728362843, 3770421.363173957448453 ], [ 352333.672431332641281, 3770421.363173957448453 ] ] ] } },
{ "type": "Feature", "properties": { "confidence": 0.29323405027389526, "class": 1 }, "geometry": { "type": "Polygon", "coordinates": [ [ [ 352301.62767039675964, 3770777.212614445481449 ], [ 352301.322482197370846, 3770776.907426245976239 ], [ 352301.017293997982051, 3770776.907426245976239 ], [ 352300.406917599204462, 3770776.297049847431481 ], [ 352300.406917599204462, 3770774.465920650865883 ], [ 352301.322482197370846, 3770773.550356052815914 ], [ 352301.62767039675964, 3770773.550356052815914 ], [ 352301.932858596148435, 3770773.245167853310704 ], [ 352303.153611393703613, 3770773.245167853310704 ], [ 352303.458799593092408, 3770773.550356052815914 ], [ 352303.763987792481203, 3770773.550356052815914 ], [ 352304.374364191258792, 3770774.160732451826334 ], [ 352304.374364191258792, 3770774.465920650865883 ], [ 352304.679552390647586, 3770774.771108850371093 ], [ 352304.679552390647586, 3770775.686673448421061 ], [ 352304.374364191258792, 3770775.991861647926271 ], [ 352304.374364191258792, 3770776.297049847431481 ], [ 352303.763987792481203, 3770776.907426245976239 ], [ 352302.848423194314819, 3770776.907426245976239 ], [ 352302.543234994926024, 3770777.212614445481449 ], [ 352301.62767039675964, 3770777.212614445481449 ] ] ] } }
]
}
