{
"type": "FeatureCollection",
"name": "cell_00205_pre",
"crs": { "type": "name", "properties": { "name": "urn:ogc:def:crs:EPSG::32611" } },
"features": [
{ "type": "Feature", "properties": { "confidence": 0.80471569299697876, "class": 1 }, "geometry": { "type": "Polygon", "coordinates": [ [ [ 357540.793489318399224, 3772896.744659206364304 ], [ 357540.48830111901043, 3772896.439471007324755 ], [ 357538.962360122066457, 3772896.439471007324755 ], [ 357538.657171922677662, 3772896.134282807819545 ], [ 357538.351983723288868, 3772896.134282807819545 ], [ 357538.046795523900073, 3772895.829094608314335 ], [ 357538.046795523900073, 3772895.523906408809125 ], [ 357537.741607324511278, 3772895.218718209769577 ], [ 357537.741607324511278, 3772894.913530010264367 ], [ 357537.131230925733689, 3772894.303153611253947 ], [ 357537.131230925733689, 3772893.997965412214398 ], [ 357536.826042726344895, 3772893.692777212709188 ], [ 357536.826042726344895, 3772892.47202441515401 ], [ 357544.760935910453554, 3772892.47202441515401 ], [ 357544.760935910453554, 3772892.77721261465922 ], [ 357544.45574771106476, 3772893.082400813698769 ], [ 357544.45574771106476, 3772893.692777212709188 ], [ 357544.150559511675965, 3772893.997965412214398 ], [ 357544.150559511675965, 3772894.303153611253947 ], [ 357543.84537131228717, 3772894.608341810759157 ], [ 357543.84537131228717, 3772894.913530010264367 ], [ 357543.540183112898376, 3772894.913530010264367 ], [ 357542.929806714120787, 3772895.523906408809125 ], [ 357542.929806714120787, 3772895.829094608314335 ], [ 357542.014242115954403, 3772896.744659206364304 ], [ 357540.793489318399224, 3772896.744659206364304 ] ] ] } },
{ "type": "Feature", "properties": { "confidence": 0.35469749569892883, "class": 1 }, "geometry": { "type": "Polygon", "coordinates": [ [ [ 357114.140386571700219, 3773099.084435401950032 ], [ 357113.835198372311424, 3773098.779247202444822 ], [ 357111.698880976589862, 3773098.779247202444822 ], [ 357111.088504577812273, 3773098.168870803434402 ], [ 357111.088504577812273, 3773095.422177009284496 ], [ 357111.393692777201068, 3773095.116988809779286 ], [ 357111.393692777201068, 3773089.623601220548153 ], [ 357111.698880976589862, 3773089.623601220548153 ], [ 357112.309257375367451, 3773089.013224822003394 ], [ 357112.919633774145041, 3773089.013224822003394 ], [ 357113.224821973533835, 3773088.708036622498184 ], [ 357113.53001017292263, 3773088.708036622498184 ], [ 357113.835198372311424, 3773089.013224822003394 ], [ 357115.055951169866603, 3773089.013224822003394 ], [ 357115.361139369255397, 3773089.318413021508604 ], [ 357115.361139369255397, 3773090.233977619558573 ], [ 357115.666327568644192, 3773090.539165819063783 ], [ 357115.666327568644192, 3773091.454730417113751 ], [ 357115.971515768032987, 3773091.759918616618961 ], [ 357115.971515768032987, 3773098.168870803434402 ], [ 357115.361139369255397, 3773098.779247202444822 ], [ 357114.445574771089014, 3773098.779247202444822 ], [ 357114.140386571700219, 3773099.084435401950032 ] ] ] } },
{ "type": "Feature", "properties": { "confidence": 0.32732653617858887, "class": 1 }, "geometry": { "type": "Polygon", "coordinates": [ [ [ 357572.838250254339073, 3773273.652085452806205 ], [ 357572.533062054950278, 3773273.346897253300995 ], [ 357571.922685656172689, 3773273.346897253300995 ], [ 357571.3123092573951, 3773272.736520854756236 ], [ 357571.007121058006305, 3773272.736520854756236 ], [ 357569.481180061062332, 3773271.210579857695848 ], [ 357569.481180061062332, 3773270.905391658190638 ], [ 357569.175991861673538, 3773270.600203458685428 ], [ 357569.175991861673538, 3773269.07426246162504 ], [ 357569.786368260451127, 3773268.463886063080281 ], [ 357570.091556459839921, 3773268.463886063080281 ], [ 357570.396744659228716, 3773268.158697863575071 ], [ 357574.66937945067184, 3773268.158697863575071 ], [ 357574.974567650060635, 3773268.463886063080281 ], [ 357575.890132248227019, 3773268.463886063080281 ], [ 357576.195320447615813, 3773268.769074262585491 ], [ 357578.331637843337376, 3773268.769074262585491 ], [ 357578.63682604272617, 3773269.07426246162504 ], [ 357578.942014242114965, 3773269.07426246162504 ], [ 357578.942014242114965, 3773269.37945066113025 ], [ 357579.247202441503759, 3773269.684638860635459 ], [ 357579.247202441503759, 3773271.820956256240606 ], [ 357578.942014242114965, 3773272.126144455745816 ], [ 357578.942014242114965, 3773273.041709053795785 ], [ 357578.63682604272617, 3773273.041709053795785 ], [ 357578.331637843337376, 3773273.346897253300995 ], [ 357576.500508647004608, 3773273.346897253300995 ], [ 357576.195320447615813, 3773273.652085452806205 ], [ 357572.838250254339073, 3773273.652085452806205 ] ] ] } }
]
}
