{
"type": "FeatureCollection",
"name": "cell_00190_pre",
"crs": { "type": "name", "properties": { "name": "urn:ogc:def:crs:EPSG::32611" } },
"features": [
{ "type": "Feature", "properties": { "confidence": 0.78686845302581787, "class": 1 }, "geometry": { "type": "Polygon", "coordinates": [ [ [ 356879.755849440465681, 3774213.631739572621882 ], [ 356879.450661241076887, 3774213.326551373116672 ], [ 356879.145473041688092, 3774213.326551373116672 ], [ 356879.145473041688092, 3774212.410986775066704 ], [ 356878.840284842299297, 3774212.105798575561494 ], [ 356878.840284842299297, 3774209.664292980451137 ], [ 356882.50254323502304, 3774209.664292980451137 ], [ 356882.50254323502304, 3774212.105798575561494 ], [ 356882.197355035634246, 3774212.410986775066704 ], [ 356882.197355035634246, 3774212.716174974571913 ], [ 356881.586978636798449, 3774213.326551373116672 ], [ 356881.281790437409654, 3774213.326551373116672 ], [ 356880.97660223802086, 3774213.631739572621882 ], [ 356879.755849440465681, 3774213.631739572621882 ] ] ] } },
{ "type": "Feature", "properties": { "confidence": 0.75086045265197754, "class": 1 }, "geometry": { "type": "Polygon", "coordinates": [ [ [ 356590.742624618520495, 3774476.70396744646132 ], [ 356590.4374364191317, 3774476.398779247421771 ], [ 356588.911495422187727, 3774476.398779247421771 ], [ 356588.606307222798932, 3774476.093591047916561 ], [ 356588.301119023410138, 3774476.093591047916561 ], [ 356587.995930824021343, 3774475.788402848411351 ], [ 356587.690742624632549, 3774475.788402848411351 ], [ 356587.385554425243754, 3774475.483214648906142 ], [ 356587.080366225854959, 3774475.483214648906142 ], [ 356587.080366225854959, 3774475.178026449866593 ], [ 356586.775178026466165, 3774474.872838250361383 ], [ 356586.46998982707737, 3774474.872838250361383 ], [ 356586.46998982707737, 3774474.262461851350963 ], [ 356586.164801627688576, 3774473.957273652311414 ], [ 356586.164801627688576, 3774473.346897253300995 ], [ 356586.46998982707737, 3774473.041709053795785 ], [ 356586.775178026466165, 3774473.041709053795785 ], [ 356587.080366225854959, 3774472.736520854756236 ], [ 356587.385554425243754, 3774472.736520854756236 ], [ 356587.690742624632549, 3774472.431332655251026 ], [ 356587.995930824021343, 3774472.431332655251026 ], [ 356588.301119023410138, 3774472.126144455745816 ], [ 356588.606307222798932, 3774472.126144455745816 ], [ 356590.132248219742905, 3774470.600203458685428 ], [ 356590.4374364191317, 3774470.600203458685428 ], [ 356591.047812817909289, 3774469.989827060140669 ], [ 356591.353001017298084, 3774469.989827060140669 ], [ 356591.658189216686878, 3774469.684638860635459 ], [ 356594.099694811797235, 3774469.684638860635459 ], [ 356594.40488301118603, 3774469.989827060140669 ], [ 356594.710071210574824, 3774469.989827060140669 ], [ 356595.015259409963619, 3774470.295015259180218 ], [ 356595.625635808741208, 3774470.295015259180218 ], [ 356595.930824008130003, 3774470.600203458685428 ], [ 356596.236012207518797, 3774470.600203458685428 ], [ 356596.236012207518797, 3774473.346897253300995 ], [ 356595.625635808741208, 3774473.957273652311414 ], [ 356595.320447609352414, 3774473.957273652311414 ], [ 356595.015259409963619, 3774474.262461851350963 ], [ 356594.710071210574824, 3774474.262461851350963 ], [ 356594.099694811797235, 3774474.872838250361383 ], [ 356593.794506612408441, 3774474.872838250361383 ], [ 356592.573753814853262, 3774476.093591047916561 ], [ 356592.268565615464468, 3774476.093591047916561 ], [ 356591.963377416075673, 3774476.398779247421771 ], [ 356591.658189216686878, 3774476.398779247421771 ], [ 356591.353001017298084, 3774476.70396744646132 ], [ 356590.742624618520495, 3774476.70396744646132 ] ] ] } },
{ "type": "Feature", "properties": { "confidence": 0.68071788549423218, "class": 1 }, "geometry": { "type": "Polygon", "coordinates": [ [ [ 356542.828077314363327, 3774166.632756866514683 ], [ 356542.522889114974532, 3774166.327568667475134 ], [ 356542.217700915585738, 3774166.327568667475134 ], [ 356541.912512716196943, 3774166.022380467969924 ], [ 356541.607324516808148, 3774166.022380467969924 ], [ 356541.302136317419354, 3774165.717192268464714 ], [ 356540.996948118030559, 3774165.717192268464714 ], [ 356540.081383519864175, 3774164.801627670414746 ], [ 356540.081383519864175, 3774164.496439470909536 ], [ 356539.471007121086586, 3774163.886063072364777 ], [ 356539.165818921639584, 3774163.886063072364777 ], [ 356538.860630722250789, 3774163.580874872859567 ], [ 356538.2502543234732, 3774163.580874872859567 ], [ 356537.639877924695611, 3774162.970498473849148 ], [ 356537.639877924695611, 3774162.665310274809599 ], [ 356537.334689725306816, 3774162.360122075304389 ], [ 356537.334689725306816, 3774158.392675483133644 ], [ 356538.2502543234732, 3774157.477110885083675 ], [ 356540.081383519864175, 3774157.477110885083675 ], [ 356540.691759918641765, 3774158.087487283628434 ], [ 356541.302136317419354, 3774158.087487283628434 ], [ 356541.607324516808148, 3774158.392675483133644 ], [ 356542.828077314363327, 3774158.392675483133644 ], [ 356543.133265513752121, 3774158.697863682638854 ], [ 356543.438453713140916, 3774158.697863682638854 ], [ 356543.743641912529711, 3774159.003051882144064 ], [ 356544.3540183113073, 3774159.003051882144064 ], [ 356544.964394710084889, 3774159.613428280688822 ], [ 356544.964394710084889, 3774160.528992878738791 ], [ 356545.269582909473684, 3774160.834181078244001 ], [ 356545.574771108862478, 3774160.834181078244001 ], [ 356545.574771108862478, 3774161.139369277749211 ], [ 356545.879959308251273, 3774161.444557477254421 ], [ 356545.879959308251273, 3774161.749745676293969 ], [ 356546.185147507640067, 3774162.054933875799179 ], [ 356546.185147507640067, 3774164.496439470909536 ], [ 356545.879959308251273, 3774164.801627670414746 ], [ 356545.879959308251273, 3774165.106815869919956 ], [ 356545.574771108862478, 3774165.106815869919956 ], [ 356545.269582909473684, 3774165.412004068959504 ], [ 356544.964394710084889, 3774165.412004068959504 ], [ 356544.659206510696094, 3774165.717192268464714 ], [ 356544.3540183113073, 3774165.717192268464714 ], [ 356543.743641912529711, 3774166.327568667475134 ], [ 356543.133265513752121, 3774166.327568667475134 ], [ 356542.828077314363327, 3774166.632756866514683 ] ] ] } },
{ "type": "Feature", "properties": { "confidence": 0.63519173860549927, "class": 1 }, "geometry": { "type": "Polygon", "coordinates": [ [ [ 356635.605289928789716, 3774212.410986775066704 ], [ 356635.300101729400922, 3774212.105798575561494 ], [ 356634.994913530012127, 3774212.105798575561494 ], [ 356634.994913530012127, 3774211.495422177016735 ], [ 356634.689725330623332, 3774211.190233977511525 ], [ 356634.384537131234538, 3774211.190233977511525 ], [ 356634.384537131234538, 3774209.664292980451137 ], [ 356638.962360122066457, 3774209.664292980451137 ], [ 356638.962360122066457, 3774210.274669379461557 ], [ 356638.657171922677662, 3774210.579857578966767 ], [ 356638.657171922677662, 3774211.495422177016735 ], [ 356638.351983723288868, 3774211.800610376521945 ], [ 356638.351983723288868, 3774212.105798575561494 ], [ 356638.046795523900073, 3774212.105798575561494 ], [ 356637.741607324511278, 3774212.410986775066704 ], [ 356635.605289928789716, 3774212.410986775066704 ] ] ] } },
{ "type": "Feature", "properties": { "confidence": 0.27487745881080627, "class": 1 }, "geometry": { "type": "Polygon", "coordinates": [ [ [ 356735.401831129216589, 3774238.96236012224108 ], [ 356735.096642929827794, 3774238.65717192273587 ], [ 356734.486266531050205, 3774238.65717192273587 ], [ 356732.960325534106232, 3774237.131230925675482 ], [ 356732.960325534106232, 3774236.826042726170272 ], [ 356732.349949135328643, 3774236.215666327625513 ], [ 356732.349949135328643, 3774235.605289928615093 ], [ 356732.044760935881641, 3774235.300101729575545 ], [ 356732.044760935881641, 3774234.994913530070335 ], [ 356731.739572736492846, 3774234.689725330565125 ], [ 356731.739572736492846, 3774233.468972533009946 ], [ 356732.960325534106232, 3774232.248219735454768 ], [ 356733.875890132272616, 3774232.248219735454768 ], [ 356734.181078331661411, 3774231.943031535949558 ], [ 356735.401831129216589, 3774231.943031535949558 ], [ 356735.707019328605384, 3774231.637843336910009 ], [ 356736.317395727382973, 3774231.637843336910009 ], [ 356736.622583926771767, 3774231.943031535949558 ], [ 356736.927772126160562, 3774231.943031535949558 ], [ 356737.232960325549357, 3774232.248219735454768 ], [ 356737.232960325549357, 3774232.553407934959978 ], [ 356737.538148524938151, 3774232.858596134465188 ], [ 356737.538148524938151, 3774233.163784333504736 ], [ 356738.14852492371574, 3774233.774160732515156 ], [ 356738.453713123104535, 3774233.774160732515156 ], [ 356738.75890132249333, 3774234.079348932020366 ], [ 356738.75890132249333, 3774234.384537131059915 ], [ 356739.064089521882124, 3774234.689725330565125 ], [ 356739.369277721270919, 3774234.689725330565125 ], [ 356739.369277721270919, 3774235.605289928615093 ], [ 356739.674465920659713, 3774235.910478128120303 ], [ 356739.369277721270919, 3774236.215666327625513 ], [ 356739.369277721270919, 3774236.520854527130723 ], [ 356739.064089521882124, 3774236.826042726170272 ], [ 356739.064089521882124, 3774237.131230925675482 ], [ 356738.75890132249333, 3774237.131230925675482 ], [ 356738.453713123104535, 3774237.436419125180691 ], [ 356738.453713123104535, 3774237.741607324685901 ], [ 356738.14852492371574, 3774238.04679552372545 ], [ 356738.14852492371574, 3774238.35198372323066 ], [ 356737.843336724326946, 3774238.35198372323066 ], [ 356737.538148524938151, 3774238.65717192273587 ], [ 356737.538148524938151, 3774238.96236012224108 ], [ 356735.401831129216589, 3774238.96236012224108 ] ] ] } }
]
}
