{
"type": "FeatureCollection",
"name": "cell_00423_pre",
"crs": { "type": "name", "properties": { "name": "urn:ogc:def:crs:EPSG::32611" } },
"features": [
{ "type": "Feature", "properties": { "confidence": 0.90430265665054321, "class": 1 }, "geometry": { "type": "Polygon", "coordinates": [ [ [ 398805.900305188202765, 3786031.739572736434639 ], [ 398805.59511698881397, 3786031.434384536929429 ], [ 398804.374364191258792, 3786031.434384536929429 ], [ 398804.069175991869997, 3786031.12919633788988 ], [ 398803.458799593092408, 3786031.12919633788988 ], [ 398803.153611393703613, 3786030.82400813838467 ], [ 398802.543234994926024, 3786030.82400813838467 ], [ 398802.23804679553723, 3786030.51881993887946 ], [ 398801.932858596148435, 3786030.51881993887946 ], [ 398801.322482197370846, 3786029.908443540334702 ], [ 398801.017293997982051, 3786029.908443540334702 ], [ 398801.017293997982051, 3786029.603255340829492 ], [ 398800.101729399815667, 3786028.687690742779523 ], [ 398800.101729399815667, 3786028.382502543274313 ], [ 398799.796541200426873, 3786028.077314343769103 ], [ 398799.796541200426873, 3786024.415055951103568 ], [ 398800.101729399815667, 3786024.109867751598358 ], [ 398800.101729399815667, 3786023.80467955255881 ], [ 398800.406917599204462, 3786023.80467955255881 ], [ 398801.017293997982051, 3786023.19430315354839 ], [ 398801.017293997982051, 3786022.88911495404318 ], [ 398801.322482197370846, 3786022.583926755003631 ], [ 398801.62767039675964, 3786022.583926755003631 ], [ 398801.932858596148435, 3786022.278738555498421 ], [ 398802.23804679553723, 3786022.278738555498421 ], [ 398802.543234994926024, 3786021.973550355993211 ], [ 398805.289928789425176, 3786021.973550355993211 ], [ 398805.59511698881397, 3786022.278738555498421 ], [ 398805.59511698881397, 3786023.4994913530536 ], [ 398805.900305188202765, 3786023.80467955255881 ], [ 398805.900305188202765, 3786024.109867751598358 ], [ 398806.510681586980354, 3786024.720244150608778 ], [ 398806.510681586980354, 3786025.025432350113988 ], [ 398807.121057985757943, 3786025.635808748658746 ], [ 398807.121057985757943, 3786025.940996948163956 ], [ 398807.426246185146738, 3786026.246185147669166 ], [ 398807.731434384535532, 3786026.246185147669166 ], [ 398808.341810783313122, 3786026.856561546213925 ], [ 398808.341810783313122, 3786027.161749745719135 ], [ 398808.646998982701916, 3786027.466937945224345 ], [ 398808.646998982701916, 3786030.51881993887946 ], [ 398808.341810783313122, 3786030.82400813838467 ], [ 398808.341810783313122, 3786031.12919633788988 ], [ 398808.036622583924327, 3786031.434384536929429 ], [ 398806.510681586980354, 3786031.434384536929429 ], [ 398806.205493387591559, 3786031.739572736434639 ], [ 398805.900305188202765, 3786031.739572736434639 ] ] ] } },
{ "type": "Feature", "properties": { "confidence": 0.70574229955673218, "class": 1 }, "geometry": { "type": "Polygon", "coordinates": [ [ [ 398965.513733468949795, 3786580.773143438622355 ], [ 398965.208545269561, 3786580.467955239117146 ], [ 398964.903357070172206, 3786580.467955239117146 ], [ 398964.598168870783411, 3786580.162767039611936 ], [ 398964.292980671394616, 3786580.162767039611936 ], [ 398963.987792472005822, 3786579.857578840106726 ], [ 398963.987792472005822, 3786579.552390641067177 ], [ 398963.682604272617027, 3786579.247202441561967 ], [ 398963.682604272617027, 3786578.942014242056757 ], [ 398963.377416073228233, 3786578.636826042551547 ], [ 398963.377416073228233, 3786576.80569684645161 ], [ 398963.987792472005822, 3786576.19532044744119 ], [ 398963.987792472005822, 3786575.890132248401642 ], [ 398964.598168870783411, 3786575.279755849391222 ], [ 398964.903357070172206, 3786575.279755849391222 ], [ 398965.208545269561, 3786574.974567649886012 ], [ 398966.124109867727384, 3786574.974567649886012 ], [ 398966.429298067116179, 3786574.669379450846463 ], [ 398967.650050864671357, 3786574.669379450846463 ], [ 398967.955239064118359, 3786574.974567649886012 ], [ 398968.870803662284743, 3786574.974567649886012 ], [ 398969.175991861673538, 3786575.279755849391222 ], [ 398969.175991861673538, 3786576.5005086469464 ], [ 398969.481180061062332, 3786576.80569684645161 ], [ 398969.481180061062332, 3786578.331637843511999 ], [ 398969.175991861673538, 3786578.636826042551547 ], [ 398969.175991861673538, 3786578.942014242056757 ], [ 398968.870803662284743, 3786578.942014242056757 ], [ 398967.344862665282562, 3786580.467955239117146 ], [ 398967.039674465893768, 3786580.467955239117146 ], [ 398966.734486266504973, 3786580.773143438622355 ], [ 398965.513733468949795, 3786580.773143438622355 ] ] ] } },
{ "type": "Feature", "properties": { "confidence": 0.66356945037841797, "class": 1 }, "geometry": { "type": "Polygon", "coordinates": [ [ [ 398832.451678535086103, 3786575.890132248401642 ], [ 398832.146490335697308, 3786575.584944048896432 ], [ 398831.841302136308514, 3786575.584944048896432 ], [ 398831.536113936919719, 3786575.279755849391222 ], [ 398831.230925737530924, 3786575.279755849391222 ], [ 398831.230925737530924, 3786574.974567649886012 ], [ 398830.010172939975746, 3786573.753814852330834 ], [ 398830.010172939975746, 3786573.448626653291285 ], [ 398829.399796541198157, 3786572.838250254280865 ], [ 398829.399796541198157, 3786571.922685656230897 ], [ 398829.094608341809362, 3786571.617497456725687 ], [ 398829.094608341809362, 3786571.007121058180928 ], [ 398828.789420142420568, 3786570.701932858675718 ], [ 398828.789420142420568, 3786566.734486266504973 ], [ 398829.399796541198157, 3786566.124109867960215 ], [ 398830.010172939975746, 3786566.124109867960215 ], [ 398830.315361139364541, 3786565.818921668455005 ], [ 398831.230925737530924, 3786565.818921668455005 ], [ 398831.536113936919719, 3786565.513733468949795 ], [ 398833.977619532030076, 3786565.513733468949795 ], [ 398835.198372329585254, 3786566.734486266504973 ], [ 398835.503560528974049, 3786566.734486266504973 ], [ 398835.503560528974049, 3786568.565615463070571 ], [ 398835.808748728362843, 3786568.87080366211012 ], [ 398835.808748728362843, 3786569.78636826062575 ], [ 398835.503560528974049, 3786570.091556459665298 ], [ 398835.503560528974049, 3786571.007121058180928 ], [ 398835.198372329585254, 3786571.312309257220477 ], [ 398835.198372329585254, 3786572.227873855736107 ], [ 398834.89318413019646, 3786572.533062054775655 ], [ 398834.89318413019646, 3786572.838250254280865 ], [ 398834.587995930807665, 3786573.143438453786075 ], [ 398834.587995930807665, 3786574.669379450846463 ], [ 398833.977619532030076, 3786575.279755849391222 ], [ 398833.977619532030076, 3786575.584944048896432 ], [ 398833.672431332641281, 3786575.890132248401642 ], [ 398832.451678535086103, 3786575.890132248401642 ] ] ] } },
{ "type": "Feature", "properties": { "confidence": 0.51761931180953979, "class": 1 }, "geometry": { "type": "Polygon", "coordinates": [ [ [ 398781.180061037652194, 3786589.013224822003394 ], [ 398780.8748728382634, 3786588.708036622498184 ], [ 398780.264496439485811, 3786588.708036622498184 ], [ 398779.959308240097016, 3786588.402848422992975 ], [ 398779.348931841319427, 3786588.402848422992975 ], [ 398779.043743641930632, 3786588.097660223953426 ], [ 398778.738555442541838, 3786588.097660223953426 ], [ 398777.822990844375454, 3786587.182095625437796 ], [ 398777.822990844375454, 3786586.266531027387828 ], [ 398777.517802644986659, 3786585.961342827882618 ], [ 398777.517802644986659, 3786585.350966429337859 ], [ 398777.212614445597865, 3786585.045778229832649 ], [ 398777.212614445597865, 3786584.435401831287891 ], [ 398777.822990844375454, 3786583.825025432277471 ], [ 398777.822990844375454, 3786583.519837232772261 ], [ 398778.433367243153043, 3786582.909460834227502 ], [ 398778.433367243153043, 3786582.604272634722292 ], [ 398778.738555442541838, 3786582.299084435217083 ], [ 398778.738555442541838, 3786581.993896236177534 ], [ 398779.043743641930632, 3786581.688708036672324 ], [ 398779.043743641930632, 3786581.383519837167114 ], [ 398779.348931841319427, 3786581.078331637661904 ], [ 398779.654120040708221, 3786581.078331637661904 ], [ 398779.959308240097016, 3786580.773143438622355 ], [ 398782.400813835207373, 3786580.773143438622355 ], [ 398782.706002034596168, 3786580.467955239117146 ], [ 398783.621566632762551, 3786580.467955239117146 ], [ 398784.231943031540141, 3786579.857578840106726 ], [ 398784.537131230928935, 3786580.162767039611936 ], [ 398784.84231943031773, 3786580.162767039611936 ], [ 398785.147507629706524, 3786580.467955239117146 ], [ 398785.147507629706524, 3786581.078331637661904 ], [ 398785.452695829095319, 3786581.383519837167114 ], [ 398785.452695829095319, 3786581.993896236177534 ], [ 398785.757884028484114, 3786582.299084435217083 ], [ 398785.757884028484114, 3786584.435401831287891 ], [ 398785.452695829095319, 3786584.740590030327439 ], [ 398785.452695829095319, 3786585.045778229832649 ], [ 398785.147507629706524, 3786585.350966429337859 ], [ 398785.147507629706524, 3786585.656154628843069 ], [ 398784.84231943031773, 3786585.961342827882618 ], [ 398784.84231943031773, 3786588.708036622498184 ], [ 398784.537131230928935, 3786589.013224822003394 ], [ 398781.180061037652194, 3786589.013224822003394 ] ] ] } },
{ "type": "Feature", "properties": { "confidence": 0.35433149337768555, "class": 1 }, "geometry": { "type": "Polygon", "coordinates": [ [ [ 398714.038657171942759, 3786213.631739572621882 ], [ 398713.733468972553965, 3786213.326551373116672 ], [ 398713.42828077316517, 3786213.326551373116672 ], [ 398712.207527975609992, 3786212.105798575561494 ], [ 398712.207527975609992, 3786211.190233977511525 ], [ 398712.512716174998786, 3786210.885045778006315 ], [ 398712.817904374387581, 3786210.885045778006315 ], [ 398713.123092573776376, 3786210.579857578966767 ], [ 398713.42828077316517, 3786210.579857578966767 ], [ 398713.733468972553965, 3786210.274669379461557 ], [ 398721.057985757885035, 3786210.274669379461557 ], [ 398721.36317395727383, 3786210.579857578966767 ], [ 398721.057985757885035, 3786210.885045778006315 ], [ 398721.057985757885035, 3786211.190233977511525 ], [ 398720.752797558496241, 3786211.190233977511525 ], [ 398720.447609359107446, 3786211.495422177016735 ], [ 398720.447609359107446, 3786211.800610376521945 ], [ 398718.921668362163473, 3786213.326551373116672 ], [ 398718.616480162774678, 3786213.326551373116672 ], [ 398718.311291963385884, 3786213.631739572621882 ], [ 398714.038657171942759, 3786213.631739572621882 ] ] ] } },
{ "type": "Feature", "properties": { "confidence": 0.34184065461158752, "class": 1 }, "geometry": { "type": "Polygon", "coordinates": [ [ [ 398875.788402848411351, 3786520.651068158913404 ], [ 398875.483214649022557, 3786520.345879959408194 ], [ 398874.262461851467378, 3786520.345879959408194 ], [ 398873.652085452689789, 3786519.735503560397774 ], [ 398873.346897253300995, 3786519.735503560397774 ], [ 398873.346897253300995, 3786519.430315361358225 ], [ 398873.0417090539122, 3786519.125127161853015 ], [ 398873.0417090539122, 3786518.819938962347806 ], [ 398872.736520854523405, 3786518.514750762842596 ], [ 398872.736520854523405, 3786517.904374364297837 ], [ 398872.431332655134611, 3786517.599186164792627 ], [ 398872.431332655134611, 3786515.46286876918748 ], [ 398873.346897253300995, 3786514.547304171137512 ], [ 398873.652085452689789, 3786514.547304171137512 ], [ 398873.957273652078584, 3786514.242115971632302 ], [ 398875.483214649022557, 3786514.242115971632302 ], [ 398876.093591047800146, 3786514.85249237017706 ], [ 398876.093591047800146, 3786515.46286876918748 ], [ 398877.00915564596653, 3786516.378433367237449 ], [ 398877.00915564596653, 3786516.988809766247869 ], [ 398877.619532044744119, 3786517.599186164792627 ], [ 398877.619532044744119, 3786519.735503560397774 ], [ 398877.314343845355324, 3786520.040691759902984 ], [ 398877.314343845355324, 3786520.345879959408194 ], [ 398876.093591047800146, 3786520.345879959408194 ], [ 398875.788402848411351, 3786520.651068158913404 ] ] ] } },
{ "type": "Feature", "properties": { "confidence": 0.26501414179801941, "class": 1 }, "geometry": { "type": "Polygon", "coordinates": [ [ [ 398709.460834181052633, 3786214.242115971632302 ], [ 398709.155645981663838, 3786213.936927772127092 ], [ 398708.850457782275043, 3786213.936927772127092 ], [ 398708.240081383497454, 3786213.326551373116672 ], [ 398707.629704984719865, 3786213.326551373116672 ], [ 398707.019328585942276, 3786212.716174974571913 ], [ 398706.408952187164687, 3786212.716174974571913 ], [ 398706.103763987775892, 3786212.410986775066704 ], [ 398705.798575788387097, 3786212.410986775066704 ], [ 398705.493387588998303, 3786212.105798575561494 ], [ 398705.493387588998303, 3786211.800610376521945 ], [ 398704.883011190220714, 3786211.190233977511525 ], [ 398704.883011190220714, 3786210.885045778006315 ], [ 398704.577822990831919, 3786210.579857578966767 ], [ 398704.577822990831919, 3786209.969481179956347 ], [ 398704.272634791443124, 3786209.664292980451137 ], [ 398720.142421159718651, 3786209.664292980451137 ], [ 398720.142421159718651, 3786209.969481179956347 ], [ 398720.447609359107446, 3786210.274669379461557 ], [ 398720.447609359107446, 3786211.800610376521945 ], [ 398720.142421159718651, 3786212.105798575561494 ], [ 398719.837232960329857, 3786212.105798575561494 ], [ 398719.532044760941062, 3786212.410986775066704 ], [ 398719.226856561552268, 3786212.410986775066704 ], [ 398718.921668362163473, 3786212.716174974571913 ], [ 398718.616480162774678, 3786212.716174974571913 ], [ 398718.311291963385884, 3786213.021363174077123 ], [ 398718.006103763997089, 3786213.021363174077123 ], [ 398717.700915564608295, 3786213.326551373116672 ], [ 398716.785350966441911, 3786213.326551373116672 ], [ 398716.480162767053116, 3786213.631739572621882 ], [ 398713.123092573776376, 3786213.631739572621882 ], [ 398712.817904374387581, 3786213.326551373116672 ], [ 398711.902339776221197, 3786213.326551373116672 ], [ 398711.291963377443608, 3786213.936927772127092 ], [ 398710.681586978607811, 3786213.936927772127092 ], [ 398710.376398779219016, 3786214.242115971632302 ], [ 398709.460834181052633, 3786214.242115971632302 ] ] ] } }
]
}
