{
"type": "FeatureCollection",
"name": "cell_00206_pre",
"crs": { "type": "name", "properties": { "name": "urn:ogc:def:crs:EPSG::32611" } },
"features": [
{ "type": "Feature", "properties": { "confidence": 0.46427819132804871, "class": 1 }, "geometry": { "type": "Polygon", "coordinates": [ [ [ 357046.0834181078244, 3773544.964394710026681 ], [ 357045.778229908435605, 3773544.659206510521472 ], [ 357045.167853509658016, 3773544.659206510521472 ], [ 357044.557477110880427, 3773544.048830111976713 ], [ 357044.557477110880427, 3773543.743641912471503 ], [ 357044.252288911491632, 3773543.438453712966293 ], [ 357044.252288911491632, 3773541.912512716371566 ], [ 357043.641912512714043, 3773541.302136317361146 ], [ 357043.641912512714043, 3773540.691759918816388 ], [ 357043.336724313325249, 3773540.386571719311178 ], [ 357043.336724313325249, 3773540.081383519805968 ], [ 357043.641912512714043, 3773539.776195320300758 ], [ 357043.641912512714043, 3773539.471007121261209 ], [ 357043.947100712102838, 3773539.471007121261209 ], [ 357044.557477110880427, 3773538.860630722250789 ], [ 357044.862665310269222, 3773538.860630722250789 ], [ 357045.167853509658016, 3773538.555442522745579 ], [ 357045.473041709046811, 3773538.555442522745579 ], [ 357046.0834181078244, 3773539.165818921755999 ], [ 357046.0834181078244, 3773539.471007121261209 ], [ 357046.998982705990784, 3773540.386571719311178 ], [ 357047.304170905379578, 3773540.386571719311178 ], [ 357048.524923702934757, 3773541.607324516866356 ], [ 357048.524923702934757, 3773541.912512716371566 ], [ 357048.830111902323551, 3773542.217700915411115 ], [ 357048.830111902323551, 3773544.659206510521472 ], [ 357048.524923702934757, 3773544.964394710026681 ], [ 357046.0834181078244, 3773544.964394710026681 ] ] ] } },
{ "type": "Feature", "properties": { "confidence": 0.37731125950813293, "class": 1 }, "geometry": { "type": "Polygon", "coordinates": [ [ [ 357340.895218718214892, 3773642.319430315401405 ], [ 357340.590030518826097, 3773642.014242115896195 ], [ 357339.979654120048508, 3773642.014242115896195 ], [ 357339.674465920659713, 3773641.709053916390985 ], [ 357339.674465920659713, 3773641.098677517846227 ], [ 357339.064089521882124, 3773640.488301118835807 ], [ 357339.064089521882124, 3773639.877924720291048 ], [ 357338.75890132249333, 3773639.572736520785838 ], [ 357338.75890132249333, 3773638.96236012224108 ], [ 357337.232960325549357, 3773637.436419125180691 ], [ 357337.232960325549357, 3773637.131230925675482 ], [ 357336.622583926771767, 3773636.520854527130723 ], [ 357336.622583926771767, 3773635.300101729575545 ], [ 357336.317395727382973, 3773634.994913530070335 ], [ 357336.012207527994178, 3773634.994913530070335 ], [ 357336.012207527994178, 3773634.384537131059915 ], [ 357335.707019328605384, 3773634.079348932020366 ], [ 357335.707019328605384, 3773632.858596134465188 ], [ 357336.012207527994178, 3773632.553407934959978 ], [ 357336.622583926771767, 3773632.553407934959978 ], [ 357336.927772126160562, 3773632.248219735454768 ], [ 357337.843336724326946, 3773632.248219735454768 ], [ 357338.14852492371574, 3773632.553407934959978 ], [ 357338.75890132249333, 3773632.553407934959978 ], [ 357339.369277721270919, 3773633.163784333504736 ], [ 357339.674465920659713, 3773633.163784333504736 ], [ 357339.979654120048508, 3773633.468972533009946 ], [ 357342.11597151577007, 3773633.468972533009946 ], [ 357342.421159715158865, 3773633.774160732515156 ], [ 357343.031536113936454, 3773633.774160732515156 ], [ 357344.862665310269222, 3773635.605289928615093 ], [ 357344.862665310269222, 3773636.520854527130723 ], [ 357345.167853509658016, 3773636.826042726170272 ], [ 357345.167853509658016, 3773638.04679552372545 ], [ 357344.862665310269222, 3773638.35198372323066 ], [ 357344.862665310269222, 3773638.65717192273587 ], [ 357343.947100712102838, 3773639.572736520785838 ], [ 357343.947100712102838, 3773641.403865717351437 ], [ 357343.031536113936454, 3773642.319430315401405 ], [ 357340.895218718214892, 3773642.319430315401405 ] ] ] } },
{ "type": "Feature", "properties": { "confidence": 0.25495025515556335, "class": 1 }, "geometry": { "type": "Polygon", "coordinates": [ [ [ 357073.550356052874122, 3773816.276703967247158 ], [ 357073.245167853485327, 3773815.97151576820761 ], [ 357073.245167853485327, 3773815.36113936919719 ], [ 357072.939979654096533, 3773815.05595116969198 ], [ 357072.939979654096533, 3773810.783316378481686 ], [ 357072.634791454707738, 3773810.478128178976476 ], [ 357072.634791454707738, 3773810.172939979471266 ], [ 357072.329603255318943, 3773809.867751780431718 ], [ 357072.329603255318943, 3773808.952187181916088 ], [ 357072.024415055930149, 3773808.646998982876539 ], [ 357072.024415055930149, 3773807.731434384360909 ], [ 357071.719226856541354, 3773807.426246185321361 ], [ 357071.719226856541354, 3773806.815869786310941 ], [ 357071.41403865715256, 3773806.510681586805731 ], [ 357071.41403865715256, 3773805.289928789250553 ], [ 357072.329603255318943, 3773805.289928789250553 ], [ 357072.634791454707738, 3773804.984740590211004 ], [ 357072.939979654096533, 3773805.289928789250553 ], [ 357074.160732451651711, 3773805.289928789250553 ], [ 357076.90742624620907, 3773808.036622583866119 ], [ 357077.212614445597865, 3773808.036622583866119 ], [ 357077.517802644986659, 3773808.341810783371329 ], [ 357077.822990844375454, 3773808.341810783371329 ], [ 357078.433367243153043, 3773808.952187181916088 ], [ 357078.433367243153043, 3773815.6663275687024 ], [ 357078.128179043764248, 3773815.97151576820761 ], [ 357077.822990844375454, 3773815.97151576820761 ], [ 357077.517802644986659, 3773816.276703967247158 ], [ 357073.550356052874122, 3773816.276703967247158 ] ] ] } }
]
}
