{
"type": "FeatureCollection",
"name": "cell_00398_pre",
"crs": { "type": "name", "properties": { "name": "urn:ogc:def:crs:EPSG::32611" } },
"features": [
{ "type": "Feature", "properties": { "confidence": 0.93506133556365967, "class": 1 }, "geometry": { "type": "Polygon", "coordinates": [ [ [ 397690.742624618520495, 3785729.298067141324282 ], [ 397690.4374364191317, 3785728.992878941819072 ], [ 397690.132248219742905, 3785728.992878941819072 ], [ 397690.132248219742905, 3785728.687690742779523 ], [ 397689.216683621576522, 3785727.772126144263893 ], [ 397689.216683621576522, 3785726.856561546213925 ], [ 397695.930824008130003, 3785726.856561546213925 ], [ 397695.930824008130003, 3785727.466937945224345 ], [ 397695.320447609352414, 3785728.077314343769103 ], [ 397695.015259409963619, 3785728.077314343769103 ], [ 397694.099694811797235, 3785728.992878941819072 ], [ 397693.489318413019646, 3785728.992878941819072 ], [ 397693.184130213630851, 3785729.298067141324282 ], [ 397690.742624618520495, 3785729.298067141324282 ] ] ] } },
{ "type": "Feature", "properties": { "confidence": 0.83927017450332642, "class": 1 }, "geometry": { "type": "Polygon", "coordinates": [ [ [ 397691.658189216686878, 3785728.687690742779523 ], [ 397691.353001017298084, 3785728.382502543274313 ], [ 397690.4374364191317, 3785728.382502543274313 ], [ 397689.521871820965316, 3785727.466937945224345 ], [ 397689.521871820965316, 3785727.161749745719135 ], [ 397689.216683621576522, 3785726.856561546213925 ], [ 397689.216683621576522, 3785726.246185147669166 ], [ 397688.911495422187727, 3785725.940996948163956 ], [ 397688.911495422187727, 3785722.278738555498421 ], [ 397689.216683621576522, 3785721.973550355993211 ], [ 397689.521871820965316, 3785721.973550355993211 ], [ 397689.827060020354111, 3785721.668362156488001 ], [ 397690.132248219742905, 3785721.668362156488001 ], [ 397690.4374364191317, 3785721.363173957448453 ], [ 397692.573753814853262, 3785721.363173957448453 ], [ 397692.878942014242057, 3785721.668362156488001 ], [ 397693.489318413019646, 3785721.668362156488001 ], [ 397693.794506612408441, 3785721.973550355993211 ], [ 397694.099694811797235, 3785721.973550355993211 ], [ 397694.710071210574824, 3785722.583926755003631 ], [ 397694.710071210574824, 3785726.246185147669166 ], [ 397694.40488301118603, 3785726.551373346708715 ], [ 397694.40488301118603, 3785727.161749745719135 ], [ 397694.099694811797235, 3785727.466937945224345 ], [ 397694.099694811797235, 3785727.772126144263893 ], [ 397693.794506612408441, 3785728.077314343769103 ], [ 397693.794506612408441, 3785728.382502543274313 ], [ 397693.489318413019646, 3785728.687690742779523 ], [ 397691.658189216686878, 3785728.687690742779523 ] ] ] } },
{ "type": "Feature", "properties": { "confidence": 0.74397855997085571, "class": 1 }, "geometry": { "type": "Polygon", "coordinates": [ [ [ 397236.927772126160562, 3785602.950152594130486 ], [ 397236.317395727382973, 3785602.339776195120066 ], [ 397236.317395727382973, 3785602.034587996080518 ], [ 397236.012207527994178, 3785601.729399796575308 ], [ 397236.012207527994178, 3785600.813835198525339 ], [ 397235.707019328605384, 3785600.508646999020129 ], [ 397235.707019328605384, 3785593.489318413194269 ], [ 397236.012207527994178, 3785593.184130213689059 ], [ 397236.012207527994178, 3785592.573753814678639 ], [ 397236.317395727382973, 3785592.573753814678639 ], [ 397236.622583926771767, 3785592.268565615639091 ], [ 397237.232960325549357, 3785592.268565615639091 ], [ 397237.538148524938151, 3785591.963377416133881 ], [ 397238.75890132249333, 3785591.963377416133881 ], [ 397239.064089521882124, 3785592.268565615639091 ], [ 397239.674465920659713, 3785592.268565615639091 ], [ 397239.979654120048508, 3785592.573753814678639 ], [ 397239.979654120048508, 3785592.878942014183849 ], [ 397240.590030518826097, 3785593.489318413194269 ], [ 397240.895218718214892, 3785593.489318413194269 ], [ 397240.895218718214892, 3785594.099694811739028 ], [ 397241.200406917603686, 3785594.404883011244237 ], [ 397241.505595116992481, 3785594.404883011244237 ], [ 397241.505595116992481, 3785595.015259409788996 ], [ 397241.810783316381276, 3785595.320447609294206 ], [ 397242.11597151577007, 3785595.320447609294206 ], [ 397242.11597151577007, 3785595.930824008304626 ], [ 397242.421159715158865, 3785596.236012207344174 ], [ 397242.726347914547659, 3785596.236012207344174 ], [ 397242.726347914547659, 3785600.20345879951492 ], [ 397242.421159715158865, 3785600.508646999020129 ], [ 397242.421159715158865, 3785600.813835198525339 ], [ 397241.505595116992481, 3785601.729399796575308 ], [ 397241.200406917603686, 3785601.729399796575308 ], [ 397240.895218718214892, 3785602.034587996080518 ], [ 397239.674465920659713, 3785602.034587996080518 ], [ 397239.369277721270919, 3785602.339776195120066 ], [ 397239.064089521882124, 3785602.339776195120066 ], [ 397238.75890132249333, 3785602.644964394625276 ], [ 397238.453713123104535, 3785602.644964394625276 ], [ 397238.14852492371574, 3785602.950152594130486 ], [ 397236.927772126160562, 3785602.950152594130486 ] ] ] } },
{ "type": "Feature", "properties": { "confidence": 0.71142107248306274, "class": 1 }, "geometry": { "type": "Polygon", "coordinates": [ [ [ 397290.946083418093622, 3785496.134282807819545 ], [ 397290.640895218704827, 3785495.829094608314335 ], [ 397290.335707019316033, 3785495.829094608314335 ], [ 397290.030518819927238, 3785495.523906408809125 ], [ 397290.030518819927238, 3785495.218718209769577 ], [ 397289.725330620538443, 3785494.913530010264367 ], [ 397289.725330620538443, 3785494.303153611253947 ], [ 397291.251271617482416, 3785492.77721261465922 ], [ 397291.251271617482416, 3785492.47202441515401 ], [ 397297.660223804705311, 3785492.47202441515401 ], [ 397297.660223804705311, 3785493.387589013203979 ], [ 397297.355035605316516, 3785493.692777212709188 ], [ 397297.355035605316516, 3785493.997965412214398 ], [ 397297.049847405927721, 3785494.303153611253947 ], [ 397296.439471007150132, 3785494.303153611253947 ], [ 397296.13428280770313, 3785494.608341810759157 ], [ 397294.608341810759157, 3785494.608341810759157 ], [ 397294.303153611370362, 3785494.913530010264367 ], [ 397293.692777212592773, 3785494.913530010264367 ], [ 397293.082400813815184, 3785495.523906408809125 ], [ 397292.777212614426389, 3785495.523906408809125 ], [ 397292.472024415037595, 3785495.829094608314335 ], [ 397292.1668362156488, 3785495.829094608314335 ], [ 397291.861648016260006, 3785496.134282807819545 ], [ 397290.946083418093622, 3785496.134282807819545 ] ] ] } },
{ "type": "Feature", "properties": { "confidence": 0.63297271728515625, "class": 1 }, "geometry": { "type": "Polygon", "coordinates": [ [ [ 397792.370295015280135, 3785735.401831129100174 ], [ 397792.06510681589134, 3785735.096642929594964 ], [ 397791.759918616502546, 3785735.096642929594964 ], [ 397791.454730417113751, 3785734.791454730555415 ], [ 397790.844354018336162, 3785734.791454730555415 ], [ 397790.539165818947367, 3785734.486266531050205 ], [ 397790.233977619558573, 3785734.486266531050205 ], [ 397789.623601220780984, 3785733.875890132039785 ], [ 397789.623601220780984, 3785733.570701933000237 ], [ 397789.318413021392189, 3785733.265513733495027 ], [ 397789.318413021392189, 3785732.960325533989817 ], [ 397789.013224821945187, 3785732.655137334484607 ], [ 397789.013224821945187, 3785732.349949135445058 ], [ 397788.708036622556392, 3785732.044760935939848 ], [ 397788.708036622556392, 3785731.434384536929429 ], [ 397788.097660223778803, 3785730.82400813838467 ], [ 397788.097660223778803, 3785727.772126144263893 ], [ 397788.402848423167598, 3785727.772126144263893 ], [ 397788.708036622556392, 3785727.466937945224345 ], [ 397793.591047812835313, 3785727.466937945224345 ], [ 397793.896236012224108, 3785727.772126144263893 ], [ 397794.201424211612903, 3785727.772126144263893 ], [ 397794.201424211612903, 3785728.382502543274313 ], [ 397794.506612411001697, 3785728.687690742779523 ], [ 397794.506612411001697, 3785729.298067141324282 ], [ 397794.811800610390492, 3785729.603255340829492 ], [ 397794.811800610390492, 3785730.51881993887946 ], [ 397794.506612411001697, 3785730.82400813838467 ], [ 397794.506612411001697, 3785731.739572736434639 ], [ 397794.201424211612903, 3785732.044760935939848 ], [ 397794.201424211612903, 3785733.875890132039785 ], [ 397793.896236012224108, 3785734.181078331544995 ], [ 397793.896236012224108, 3785734.486266531050205 ], [ 397793.591047812835313, 3785734.791454730555415 ], [ 397793.591047812835313, 3785735.096642929594964 ], [ 397793.285859613446519, 3785735.401831129100174 ], [ 397792.370295015280135, 3785735.401831129100174 ] ] ] } },
{ "type": "Feature", "properties": { "confidence": 0.5715872049331665, "class": 1 }, "geometry": { "type": "Polygon", "coordinates": [ [ [ 397629.399796541198157, 3785667.344862665515393 ], [ 397629.094608341809362, 3785667.039674466010183 ], [ 397628.484231943031773, 3785667.039674466010183 ], [ 397627.873855544254184, 3785666.429298066999763 ], [ 397627.568667344865389, 3785666.429298066999763 ], [ 397627.263479145476595, 3785666.124109867960215 ], [ 397626.9582909460878, 3785666.124109867960215 ], [ 397626.9582909460878, 3785665.818921668455005 ], [ 397626.653102746699005, 3785665.513733468949795 ], [ 397626.347914547310211, 3785665.513733468949795 ], [ 397626.042726347921416, 3785665.208545269444585 ], [ 397626.042726347921416, 3785664.903357070405036 ], [ 397625.737538148532622, 3785664.598168870899826 ], [ 397625.737538148532622, 3785664.292980671394616 ], [ 397625.432349949143827, 3785663.987792471889406 ], [ 397625.432349949143827, 3785663.682604272849858 ], [ 397625.127161749755032, 3785663.377416073344648 ], [ 397625.127161749755032, 3785662.156663275789469 ], [ 397625.432349949143827, 3785661.85147507628426 ], [ 397625.432349949143827, 3785661.54628687677905 ], [ 397626.042726347921416, 3785660.935910478234291 ], [ 397626.347914547310211, 3785660.935910478234291 ], [ 397626.653102746699005, 3785660.630722278729081 ], [ 397626.9582909460878, 3785660.630722278729081 ], [ 397627.263479145476595, 3785660.325534079223871 ], [ 397627.873855544254184, 3785660.325534079223871 ], [ 397628.789420142420568, 3785659.409969481173903 ], [ 397628.789420142420568, 3785659.104781281668693 ], [ 397629.399796541198157, 3785658.494404883123934 ], [ 397629.399796541198157, 3785658.189216683618724 ], [ 397631.536113936919719, 3785658.189216683618724 ], [ 397631.841302136308514, 3785657.884028484113514 ], [ 397633.977619532030076, 3785657.884028484113514 ], [ 397634.28280773141887, 3785658.189216683618724 ], [ 397634.587995930807665, 3785658.189216683618724 ], [ 397634.587995930807665, 3785659.409969481173903 ], [ 397634.89318413019646, 3785659.715157680679113 ], [ 397634.89318413019646, 3785663.072227873839438 ], [ 397634.587995930807665, 3785663.377416073344648 ], [ 397634.587995930807665, 3785663.987792471889406 ], [ 397634.28280773141887, 3785664.292980671394616 ], [ 397634.28280773141887, 3785665.208545269444585 ], [ 397633.062054933863692, 3785666.429298066999763 ], [ 397632.756866734474897, 3785666.429298066999763 ], [ 397632.146490335697308, 3785667.039674466010183 ], [ 397631.230925737530924, 3785667.039674466010183 ], [ 397630.92573753814213, 3785667.344862665515393 ], [ 397629.399796541198157, 3785667.344862665515393 ] ] ] } },
{ "type": "Feature", "properties": { "confidence": 0.4230029284954071, "class": 1 }, "geometry": { "type": "Polygon", "coordinates": [ [ [ 397766.429298067116179, 3785698.779247202444822 ], [ 397766.124109867727384, 3785698.474059002939612 ], [ 397765.513733468949795, 3785698.474059002939612 ], [ 397765.208545269561, 3785698.168870803434402 ], [ 397764.903357070172206, 3785698.168870803434402 ], [ 397764.292980671394616, 3785697.558494404889643 ], [ 397763.987792472005822, 3785697.558494404889643 ], [ 397763.682604272617027, 3785697.253306205384433 ], [ 397763.377416073228233, 3785697.253306205384433 ], [ 397762.767039674450643, 3785696.642929806839675 ], [ 397762.767039674450643, 3785696.337741607334465 ], [ 397762.461851475061849, 3785696.032553407829255 ], [ 397762.461851475061849, 3785695.727365208324045 ], [ 397762.156663275673054, 3785695.422177009284496 ], [ 397762.156663275673054, 3785694.811800610274076 ], [ 397761.85147507628426, 3785694.506612410768867 ], [ 397761.85147507628426, 3785690.233977619558573 ], [ 397762.156663275673054, 3785689.928789420053363 ], [ 397762.461851475061849, 3785689.928789420053363 ], [ 397762.767039674450643, 3785689.623601220548153 ], [ 397763.377416073228233, 3785689.623601220548153 ], [ 397763.682604272617027, 3785689.928789420053363 ], [ 397764.598168870783411, 3785689.928789420053363 ], [ 397765.513733468949795, 3785690.844354018103331 ], [ 397766.124109867727384, 3785690.844354018103331 ], [ 397766.124109867727384, 3785691.149542217608541 ], [ 397766.429298067116179, 3785691.454730417113751 ], [ 397767.039674465893768, 3785691.454730417113751 ], [ 397767.344862665282562, 3785691.759918616618961 ], [ 397767.955239064118359, 3785691.759918616618961 ], [ 397768.260427263507154, 3785692.06510681565851 ], [ 397768.565615462895948, 3785692.06510681565851 ], [ 397769.175991861673538, 3785692.67548321466893 ], [ 397769.481180061062332, 3785692.67548321466893 ], [ 397769.786368260451127, 3785692.980671414174139 ], [ 397770.396744659228716, 3785692.980671414174139 ], [ 397770.701932858617511, 3785693.285859613213688 ], [ 397771.922685656172689, 3785693.285859613213688 ], [ 397772.227873855561484, 3785692.980671414174139 ], [ 397772.533062054950278, 3785693.285859613213688 ], [ 397772.838250254339073, 3785693.285859613213688 ], [ 397773.448626653116662, 3785693.896236012224108 ], [ 397773.448626653116662, 3785695.116988809779286 ], [ 397773.143438453727867, 3785695.422177009284496 ], [ 397773.143438453727867, 3785695.727365208324045 ], [ 397772.227873855561484, 3785696.642929806839675 ], [ 397771.922685656172689, 3785696.642929806839675 ], [ 397770.091556459839921, 3785698.474059002939612 ], [ 397769.481180061062332, 3785698.474059002939612 ], [ 397769.175991861673538, 3785698.779247202444822 ], [ 397766.429298067116179, 3785698.779247202444822 ] ] ] } },
{ "type": "Feature", "properties": { "confidence": 0.4152703583240509, "class": 1 }, "geometry": { "type": "Polygon", "coordinates": [ [ [ 397585.452695829095319, 3785613.936927772127092 ], [ 397585.452695829095319, 3785612.410986775066704 ], [ 397584.537131230928935, 3785611.495422177016735 ], [ 397584.537131230928935, 3785609.664292980451137 ], [ 397589.725330620538443, 3785609.664292980451137 ], [ 397589.725330620538443, 3785612.410986775066704 ], [ 397589.420142421149649, 3785612.716174974571913 ], [ 397589.420142421149649, 3785613.326551373116672 ], [ 397589.114954221760854, 3785613.631739572621882 ], [ 397588.504577822983265, 3785613.631739572621882 ], [ 397588.19938962359447, 3785613.936927772127092 ], [ 397585.452695829095319, 3785613.936927772127092 ] ] ] } },
{ "type": "Feature", "properties": { "confidence": 0.3758842945098877, "class": 1 }, "geometry": { "type": "Polygon", "coordinates": [ [ [ 397464.903357070172206, 3785526.347914547193795 ], [ 397464.292980671394616, 3785525.737538148649037 ], [ 397464.292980671394616, 3785525.127161749638617 ], [ 397464.598168870783411, 3785524.821973550133407 ], [ 397464.598168870783411, 3785524.516785351093858 ], [ 397464.903357070172206, 3785524.516785351093858 ], [ 397465.208545269561, 3785524.211597151588649 ], [ 397465.513733468949795, 3785524.211597151588649 ], [ 397465.818921668338589, 3785523.906408952083439 ], [ 397468.565615462895948, 3785523.906408952083439 ], [ 397468.870803662284743, 3785524.211597151588649 ], [ 397469.175991861673538, 3785524.211597151588649 ], [ 397469.175991861673538, 3785525.127161749638617 ], [ 397468.870803662284743, 3785525.432349949143827 ], [ 397468.870803662284743, 3785526.042726347688586 ], [ 397468.260427263507154, 3785526.042726347688586 ], [ 397467.955239064118359, 3785526.347914547193795 ], [ 397464.903357070172206, 3785526.347914547193795 ] ] ] } },
{ "type": "Feature", "properties": { "confidence": 0.34125298261642456, "class": 1 }, "geometry": { "type": "Polygon", "coordinates": [ [ [ 397665.412004069192335, 3785729.298067141324282 ], [ 397664.801627670414746, 3785728.687690742779523 ], [ 397664.801627670414746, 3785727.772126144263893 ], [ 397665.10681586980354, 3785727.466937945224345 ], [ 397665.10681586980354, 3785726.856561546213925 ], [ 397671.210579857579432, 3785726.856561546213925 ], [ 397671.210579857579432, 3785727.466937945224345 ], [ 397670.905391658190638, 3785727.466937945224345 ], [ 397670.295015259413049, 3785728.077314343769103 ], [ 397669.989827060024254, 3785728.077314343769103 ], [ 397669.684638860635459, 3785728.382502543274313 ], [ 397668.769074262469076, 3785728.382502543274313 ], [ 397668.463886063080281, 3785728.687690742779523 ], [ 397667.548321464913897, 3785728.687690742779523 ], [ 397667.243133265525103, 3785728.992878941819072 ], [ 397666.632756866747513, 3785728.992878941819072 ], [ 397666.327568667358719, 3785729.298067141324282 ], [ 397665.412004069192335, 3785729.298067141324282 ] ] ] } },
{ "type": "Feature", "properties": { "confidence": 0.33041933178901672, "class": 1 }, "geometry": { "type": "Polygon", "coordinates": [ [ [ 397686.164801627688576, 3785709.155645981896669 ], [ 397686.164801627688576, 3785707.93489318434149 ], [ 397685.859613428299781, 3785707.62970498483628 ], [ 397685.859613428299781, 3785707.019328585825861 ], [ 397685.554425228910986, 3785706.714140386786312 ], [ 397685.554425228910986, 3785705.493387589231133 ], [ 397685.859613428299781, 3785705.188199389725924 ], [ 397685.859613428299781, 3785704.883011190220714 ], [ 397686.46998982707737, 3785704.883011190220714 ], [ 397686.775178026466165, 3785704.577822990715504 ], [ 397689.827060020354111, 3785704.577822990715504 ], [ 397689.827060020354111, 3785707.32451678533107 ], [ 397689.521871820965316, 3785707.62970498483628 ], [ 397689.521871820965316, 3785707.93489318434149 ], [ 397688.606307222798932, 3785708.850457782391459 ], [ 397687.690742624632549, 3785708.850457782391459 ], [ 397687.385554425243754, 3785709.155645981896669 ], [ 397686.164801627688576, 3785709.155645981896669 ] ] ] } },
{ "type": "Feature", "properties": { "confidence": 0.31607300043106079, "class": 1 }, "geometry": { "type": "Polygon", "coordinates": [ [ [ 397646.795523906417657, 3785848.321464903187007 ], [ 397646.490335707028862, 3785848.016276704147458 ], [ 397646.490335707028862, 3785847.711088504642248 ], [ 397646.185147507640067, 3785847.405900305137038 ], [ 397646.185147507640067, 3785846.79552390659228 ], [ 397646.490335707028862, 3785846.49033570708707 ], [ 397646.490335707028862, 3785846.18514750758186 ], [ 397646.795523906417657, 3785845.87995930807665 ], [ 397647.100712105806451, 3785845.87995930807665 ], [ 397647.405900305195246, 3785845.574771109037101 ], [ 397647.405900305195246, 3785845.269582909531891 ], [ 397648.016276703972835, 3785845.269582909531891 ], [ 397648.32146490336163, 3785844.964394710026681 ], [ 397649.847405900305603, 3785844.964394710026681 ], [ 397649.847405900305603, 3785847.100712105631828 ], [ 397649.542217700916808, 3785847.405900305137038 ], [ 397649.542217700916808, 3785847.711088504642248 ], [ 397649.237029501528013, 3785848.016276704147458 ], [ 397648.931841302139219, 3785848.016276704147458 ], [ 397648.626653102750424, 3785848.321464903187007 ], [ 397646.795523906417657, 3785848.321464903187007 ] ] ] } },
{ "type": "Feature", "properties": { "confidence": 0.2954673171043396, "class": 1 }, "geometry": { "type": "Polygon", "coordinates": [ [ [ 397673.957273652078584, 3785734.791454730555415 ], [ 397673.652085452689789, 3785734.486266531050205 ], [ 397673.0417090539122, 3785734.486266531050205 ], [ 397672.736520854523405, 3785734.181078331544995 ], [ 397672.736520854523405, 3785733.875890132039785 ], [ 397672.431332655134611, 3785733.570701933000237 ], [ 397672.431332655134611, 3785733.265513733495027 ], [ 397672.126144455745816, 3785732.960325533989817 ], [ 397672.126144455745816, 3785732.655137334484607 ], [ 397671.820956256357022, 3785732.349949135445058 ], [ 397671.820956256357022, 3785731.739572736434639 ], [ 397671.515768056968227, 3785731.434384536929429 ], [ 397671.515768056968227, 3785730.51881993887946 ], [ 397671.820956256357022, 3785730.21363173937425 ], [ 397671.820956256357022, 3785729.908443540334702 ], [ 397672.431332655134611, 3785729.298067141324282 ], [ 397672.736520854523405, 3785729.298067141324282 ], [ 397673.0417090539122, 3785728.992878941819072 ], [ 397673.0417090539122, 3785728.687690742779523 ], [ 397673.652085452689789, 3785728.687690742779523 ], [ 397673.957273652078584, 3785728.382502543274313 ], [ 397673.957273652078584, 3785727.772126144263893 ], [ 397674.872838250244968, 3785727.772126144263893 ], [ 397675.178026449633762, 3785727.466937945224345 ], [ 397676.703967446577735, 3785727.466937945224345 ], [ 397677.00915564596653, 3785727.772126144263893 ], [ 397677.314343845355324, 3785727.772126144263893 ], [ 397677.619532044744119, 3785728.077314343769103 ], [ 397677.619532044744119, 3785728.382502543274313 ], [ 397677.924720244132914, 3785728.687690742779523 ], [ 397677.924720244132914, 3785729.603255340829492 ], [ 397678.229908443521708, 3785729.908443540334702 ], [ 397677.924720244132914, 3785730.21363173937425 ], [ 397677.924720244132914, 3785732.655137334484607 ], [ 397677.00915564596653, 3785733.570701933000237 ], [ 397677.00915564596653, 3785733.875890132039785 ], [ 397676.398779247188941, 3785734.486266531050205 ], [ 397675.788402848411351, 3785734.486266531050205 ], [ 397675.483214649022557, 3785734.791454730555415 ], [ 397673.957273652078584, 3785734.791454730555415 ] ] ] } },
{ "type": "Feature", "properties": { "confidence": 0.26522034406661987, "class": 1 }, "geometry": { "type": "Polygon", "coordinates": [ [ [ 397637.639877924695611, 3785845.574771109037101 ], [ 397637.334689725306816, 3785845.269582909531891 ], [ 397636.419125127140433, 3785845.269582909531891 ], [ 397635.808748728362843, 3785844.659206510521472 ], [ 397635.808748728362843, 3785844.048830111976713 ], [ 397643.133265513752121, 3785844.048830111976713 ], [ 397643.133265513752121, 3785844.354018311481923 ], [ 397642.828077314363327, 3785844.659206510521472 ], [ 397642.828077314363327, 3785844.964394710026681 ], [ 397642.522889114974532, 3785844.964394710026681 ], [ 397641.912512716196943, 3785845.574771109037101 ], [ 397637.639877924695611, 3785845.574771109037101 ] ] ] } },
{ "type": "Feature", "properties": { "confidence": 0.2567080557346344, "class": 1 }, "geometry": { "type": "Polygon", "coordinates": [ [ [ 397683.418107833189424, 3785730.82400813838467 ], [ 397683.11291963380063, 3785730.51881993887946 ], [ 397683.11291963380063, 3785729.603255340829492 ], [ 397682.807731434411835, 3785729.298067141324282 ], [ 397682.807731434411835, 3785728.992878941819072 ], [ 397682.50254323502304, 3785728.687690742779523 ], [ 397682.50254323502304, 3785728.382502543274313 ], [ 397682.197355035634246, 3785728.077314343769103 ], [ 397682.197355035634246, 3785727.772126144263893 ], [ 397681.892166836187243, 3785727.466937945224345 ], [ 397681.892166836187243, 3785726.856561546213925 ], [ 397687.385554425243754, 3785726.856561546213925 ], [ 397687.385554425243754, 3785728.382502543274313 ], [ 397686.46998982707737, 3785729.298067141324282 ], [ 397686.164801627688576, 3785729.298067141324282 ], [ 397685.859613428299781, 3785729.603255340829492 ], [ 397685.249237029522192, 3785729.603255340829492 ], [ 397684.944048830133397, 3785729.908443540334702 ], [ 397684.638860630744603, 3785729.908443540334702 ], [ 397683.723296032578219, 3785730.82400813838467 ], [ 397683.418107833189424, 3785730.82400813838467 ] ] ] } }
]
}
