{
"type": "FeatureCollection",
"name": "cell_00400_pre",
"crs": { "type": "name", "properties": { "name": "urn:ogc:def:crs:EPSG::32611" } },
"features": [
{ "type": "Feature", "properties": { "confidence": 0.94889730215072632, "class": 1 }, "geometry": { "type": "Polygon", "coordinates": [ [ [ 397346.795523906417657, 3786736.113936927635223 ], [ 397342.828077314363327, 3786732.146490335930139 ], [ 397342.828077314363327, 3786730.92573753837496 ], [ 397344.3540183113073, 3786730.92573753837496 ], [ 397344.659206510696094, 3786731.230925737414509 ], [ 397344.964394710084889, 3786731.230925737414509 ], [ 397345.574771108862478, 3786731.841302136424929 ], [ 397346.185147507640067, 3786731.841302136424929 ], [ 397346.490335707028862, 3786732.146490335930139 ], [ 397347.100712105806451, 3786732.146490335930139 ], [ 397347.71108850458404, 3786732.756866734474897 ], [ 397348.016276703972835, 3786732.756866734474897 ], [ 397348.32146490336163, 3786733.062054933980107 ], [ 397348.626653102750424, 3786733.062054933980107 ], [ 397349.237029501528013, 3786733.672431332524866 ], [ 397349.237029501528013, 3786734.587995931040496 ], [ 397348.931841302139219, 3786734.893184130080044 ], [ 397348.931841302139219, 3786735.198372329585254 ], [ 397348.32146490336163, 3786735.808748728595674 ], [ 397348.32146490336163, 3786736.113936927635223 ], [ 397346.795523906417657, 3786736.113936927635223 ] ] ] } },
{ "type": "Feature", "properties": { "confidence": 0.92858636379241943, "class": 1 }, "geometry": { "type": "Polygon", "coordinates": [ [ [ 397711.495422177016735, 3786856.968463886063546 ], [ 397710.885045778239146, 3786856.358087487053126 ], [ 397710.885045778239146, 3786853.306205493398011 ], [ 397711.495422177016735, 3786852.695829094387591 ], [ 397712.716174974571913, 3786852.695829094387591 ], [ 397713.021363173960708, 3786852.390640895348042 ], [ 397714.242115971515886, 3786852.390640895348042 ], [ 397714.547304170904681, 3786852.085452695842832 ], [ 397715.462868769071065, 3786852.085452695842832 ], [ 397715.768056968459859, 3786851.780264496337622 ], [ 397716.683621566626243, 3786851.780264496337622 ], [ 397716.988809766015038, 3786851.475076296832412 ], [ 397717.599186164792627, 3786851.475076296832412 ], [ 397718.209562563570216, 3786850.864699898287654 ], [ 397718.819938962347806, 3786850.864699898287654 ], [ 397719.1251271617366, 3786850.559511698782444 ], [ 397719.430315361125395, 3786850.559511698782444 ], [ 397719.735503560514189, 3786850.254323499277234 ], [ 397720.345879959291779, 3786850.254323499277234 ], [ 397720.651068158680573, 3786849.949135300237685 ], [ 397720.956256358069368, 3786849.949135300237685 ], [ 397721.261444557458162, 3786850.254323499277234 ], [ 397721.261444557458162, 3786851.475076296832412 ], [ 397721.566632756846957, 3786851.780264496337622 ], [ 397721.261444557458162, 3786852.085452695842832 ], [ 397721.261444557458162, 3786852.695829094387591 ], [ 397720.651068158680573, 3786853.306205493398011 ], [ 397720.651068158680573, 3786853.611393692903221 ], [ 397720.040691759902984, 3786853.611393692903221 ], [ 397718.819938962347806, 3786854.832146490458399 ], [ 397718.819938962347806, 3786855.137334689497948 ], [ 397718.514750762959011, 3786855.442522889003158 ], [ 397718.209562563570216, 3786855.442522889003158 ], [ 397717.904374364181422, 3786855.747711088508368 ], [ 397717.293997965403832, 3786855.747711088508368 ], [ 397716.988809766015038, 3786856.052899288013577 ], [ 397716.073245167848654, 3786856.052899288013577 ], [ 397715.768056968459859, 3786856.358087487053126 ], [ 397715.15768056968227, 3786856.358087487053126 ], [ 397714.852492370293476, 3786856.663275686558336 ], [ 397714.547304170904681, 3786856.663275686558336 ], [ 397714.242115971515886, 3786856.968463886063546 ], [ 397711.495422177016735, 3786856.968463886063546 ] ] ] } },
{ "type": "Feature", "properties": { "confidence": 0.77877223491668701, "class": 1 }, "geometry": { "type": "Polygon", "coordinates": [ [ [ 397652.28891149541596, 3786929.603255340829492 ], [ 397651.983723296027165, 3786929.298067141324282 ], [ 397651.373346897249576, 3786929.298067141324282 ], [ 397651.373346897249576, 3786928.992878941819072 ], [ 397651.068158697860781, 3786928.687690742779523 ], [ 397651.068158697860781, 3786926.856561546213925 ], [ 397656.256358087470289, 3786926.856561546213925 ], [ 397656.256358087470289, 3786927.161749745719135 ], [ 397654.730417090526316, 3786928.687690742779523 ], [ 397654.425228891137522, 3786928.687690742779523 ], [ 397654.120040691748727, 3786928.992878941819072 ], [ 397653.814852492359933, 3786928.992878941819072 ], [ 397653.509664292971138, 3786929.298067141324282 ], [ 397652.594099694804754, 3786929.298067141324282 ], [ 397652.28891149541596, 3786929.603255340829492 ] ] ] } },
{ "type": "Feature", "properties": { "confidence": 0.7602919340133667, "class": 1 }, "geometry": { "type": "Polygon", "coordinates": [ [ [ 397639.776195320475381, 3786926.856561546213925 ], [ 397638.860630722250789, 3786925.940996948163956 ], [ 397638.860630722250789, 3786925.330620549153537 ], [ 397638.555442522861995, 3786925.025432350113988 ], [ 397638.555442522861995, 3786922.583926755003631 ], [ 397638.860630722250789, 3786922.278738555498421 ], [ 397638.860630722250789, 3786921.973550355993211 ], [ 397639.165818921639584, 3786921.668362156488001 ], [ 397639.165818921639584, 3786921.363173957448453 ], [ 397639.471007121086586, 3786921.057985757943243 ], [ 397639.471007121086586, 3786920.752797558438033 ], [ 397640.081383519864175, 3786920.142421159893274 ], [ 397640.38657171925297, 3786920.142421159893274 ], [ 397640.691759918641765, 3786919.837232960388064 ], [ 397643.743641912529711, 3786919.837232960388064 ], [ 397644.3540183113073, 3786920.447609358932823 ], [ 397644.659206510696094, 3786920.447609358932823 ], [ 397644.659206510696094, 3786920.752797558438033 ], [ 397644.964394710084889, 3786921.057985757943243 ], [ 397644.964394710084889, 3786924.720244150608778 ], [ 397644.659206510696094, 3786924.720244150608778 ], [ 397644.3540183113073, 3786925.025432350113988 ], [ 397644.3540183113073, 3786925.330620549153537 ], [ 397643.438453713140916, 3786926.246185147669166 ], [ 397642.522889114974532, 3786926.246185147669166 ], [ 397642.217700915585738, 3786926.551373346708715 ], [ 397641.912512716196943, 3786926.551373346708715 ], [ 397641.607324516808148, 3786926.856561546213925 ], [ 397639.776195320475381, 3786926.856561546213925 ] ] ] } },
{ "type": "Feature", "properties": { "confidence": 0.7354203462600708, "class": 1 }, "geometry": { "type": "Polygon", "coordinates": [ [ [ 397203.662258392665535, 3787055.645981688518077 ], [ 397203.357070193276741, 3787055.340793489478528 ], [ 397203.357070193276741, 3787054.12004069192335 ], [ 397203.662258392665535, 3787053.81485249241814 ], [ 397203.662258392665535, 3787053.50966429291293 ], [ 397203.96744659205433, 3787053.20447609340772 ], [ 397204.272634791443124, 3787053.20447609340772 ], [ 397204.883011190220714, 3787052.594099694862962 ], [ 397205.188199389609508, 3787052.594099694862962 ], [ 397205.493387588998303, 3787052.288911495357752 ], [ 397206.408952187164687, 3787052.288911495357752 ], [ 397206.714140386553481, 3787051.983723295852542 ], [ 397209.155645981663838, 3787051.983723295852542 ], [ 397209.460834181052633, 3787052.288911495357752 ], [ 397209.766022380441427, 3787052.288911495357752 ], [ 397209.766022380441427, 3787053.20447609340772 ], [ 397209.460834181052633, 3787053.20447609340772 ], [ 397209.155645981663838, 3787053.50966429291293 ], [ 397208.850457782275043, 3787053.50966429291293 ], [ 397208.240081383497454, 3787054.12004069192335 ], [ 397207.93489318410866, 3787054.12004069192335 ], [ 397207.629704984719865, 3787054.425228890962899 ], [ 397206.408952187164687, 3787054.425228890962899 ], [ 397205.798575788387097, 3787055.035605289973319 ], [ 397205.493387588998303, 3787055.035605289973319 ], [ 397205.188199389609508, 3787055.340793489478528 ], [ 397205.188199389609508, 3787055.645981688518077 ], [ 397203.662258392665535, 3787055.645981688518077 ] ] ] } },
{ "type": "Feature", "properties": { "confidence": 0.62071597576141357, "class": 1 }, "geometry": { "type": "Polygon", "coordinates": [ [ [ 397373.0417090539122, 3787168.260427263565361 ], [ 397373.0417090539122, 3787167.344862665515393 ], [ 397373.346897253300995, 3787167.039674466010183 ], [ 397373.346897253300995, 3787166.429298066999763 ], [ 397373.652085452689789, 3787166.124109867960215 ], [ 397373.652085452689789, 3787165.818921668455005 ], [ 397373.957273652078584, 3787165.513733468949795 ], [ 397373.957273652078584, 3787165.208545269444585 ], [ 397374.262461851467378, 3787164.903357070405036 ], [ 397374.567650050856173, 3787164.903357070405036 ], [ 397374.872838250244968, 3787164.598168870899826 ], [ 397376.703967446577735, 3787164.598168870899826 ], [ 397377.00915564596653, 3787164.903357070405036 ], [ 397377.314343845355324, 3787164.903357070405036 ], [ 397377.314343845355324, 3787166.429298066999763 ], [ 397375.788402848411351, 3787167.955239064060152 ], [ 397375.178026449633762, 3787167.955239064060152 ], [ 397374.872838250244968, 3787168.260427263565361 ], [ 397373.0417090539122, 3787168.260427263565361 ] ] ] } },
{ "type": "Feature", "properties": { "confidence": 0.51609218120574951, "class": 1 }, "geometry": { "type": "Polygon", "coordinates": [ [ [ 397546.693794506601989, 3786730.62054933886975 ], [ 397546.388606307213195, 3786730.315361139364541 ], [ 397545.778229908435605, 3786730.315361139364541 ], [ 397545.473041709046811, 3786730.010172939859331 ], [ 397545.167853509658016, 3786730.010172939859331 ], [ 397545.167853509658016, 3786729.704984740819782 ], [ 397544.862665310269222, 3786729.399796541314572 ], [ 397544.862665310269222, 3786726.653102746699005 ], [ 397545.473041709046811, 3786726.042726347688586 ], [ 397545.778229908435605, 3786726.042726347688586 ], [ 397546.0834181078244, 3786725.737538148649037 ], [ 397546.388606307213195, 3786725.737538148649037 ], [ 397546.998982705990784, 3786725.127161749638617 ], [ 397546.998982705990784, 3786724.821973550133407 ], [ 397547.304170905379578, 3786724.516785351093858 ], [ 397547.304170905379578, 3786724.211597151588649 ], [ 397547.914547304157168, 3786723.601220752578229 ], [ 397549.440488301101141, 3786723.601220752578229 ], [ 397549.745676500489935, 3786723.906408952083439 ], [ 397550.356052899267524, 3786723.906408952083439 ], [ 397550.661241098656319, 3786724.211597151588649 ], [ 397550.661241098656319, 3786725.432349949143827 ], [ 397550.966429298045114, 3786725.737538148649037 ], [ 397550.966429298045114, 3786726.347914547193795 ], [ 397550.661241098656319, 3786726.653102746699005 ], [ 397550.661241098656319, 3786729.704984740819782 ], [ 397550.356052899267524, 3786730.010172939859331 ], [ 397550.356052899267524, 3786730.315361139364541 ], [ 397550.05086469987873, 3786730.62054933886975 ], [ 397546.693794506601989, 3786730.62054933886975 ] ] ] } },
{ "type": "Feature", "properties": { "confidence": 0.50174242258071899, "class": 1 }, "geometry": { "type": "Polygon", "coordinates": [ [ [ 397457.273652085452341, 3786719.328585961367935 ], [ 397456.968463886063546, 3786719.023397761862725 ], [ 397456.052899287897162, 3786719.023397761862725 ], [ 397455.747711088508368, 3786718.718209562357515 ], [ 397455.442522889119573, 3786718.718209562357515 ], [ 397454.832146490341984, 3786718.107833163812757 ], [ 397454.832146490341984, 3786717.802644964307547 ], [ 397455.137334689730778, 3786717.497456764802337 ], [ 397455.137334689730778, 3786716.276703967247158 ], [ 397455.442522889119573, 3786715.97151576820761 ], [ 397455.442522889119573, 3786715.6663275687024 ], [ 397456.663275686674751, 3786714.445574771147221 ], [ 397457.273652085452341, 3786714.445574771147221 ], [ 397457.578840284841135, 3786714.140386571642011 ], [ 397457.88402848422993, 3786714.140386571642011 ], [ 397458.189216683618724, 3786713.835198372136801 ], [ 397458.494404883007519, 3786713.835198372136801 ], [ 397458.799593082396314, 3786713.530010173097253 ], [ 397460.325534079340287, 3786713.530010173097253 ], [ 397460.630722278729081, 3786713.224821973592043 ], [ 397460.630722278729081, 3786712.919633774086833 ], [ 397462.767039674450643, 3786712.919633774086833 ], [ 397462.767039674450643, 3786713.224821973592043 ], [ 397463.072227873839438, 3786713.530010173097253 ], [ 397462.767039674450643, 3786713.835198372136801 ], [ 397462.767039674450643, 3786714.140386571642011 ], [ 397462.156663275673054, 3786714.750762970652431 ], [ 397462.156663275673054, 3786715.05595116969198 ], [ 397461.546286876895465, 3786715.6663275687024 ], [ 397461.546286876895465, 3786715.97151576820761 ], [ 397460.325534079340287, 3786717.192268565762788 ], [ 397460.325534079340287, 3786717.497456764802337 ], [ 397458.494404883007519, 3786719.328585961367935 ], [ 397457.273652085452341, 3786719.328585961367935 ] ] ] } },
{ "type": "Feature", "properties": { "confidence": 0.48589488863945007, "class": 1 }, "geometry": { "type": "Polygon", "coordinates": [ [ [ 397569.277721261430997, 3786701.932858596090227 ], [ 397568.972533062042203, 3786701.627670396585017 ], [ 397568.362156663264614, 3786701.627670396585017 ], [ 397568.056968463875819, 3786701.322482197545469 ], [ 397567.751780264487024, 3786701.322482197545469 ], [ 397567.44659206509823, 3786701.017293998040259 ], [ 397567.141403865709435, 3786701.017293998040259 ], [ 397566.836215666320641, 3786700.712105798535049 ], [ 397566.531027466931846, 3786700.712105798535049 ], [ 397566.225839267543051, 3786700.406917599029839 ], [ 397565.920651068154257, 3786700.406917599029839 ], [ 397565.005086469987873, 3786699.491353000979871 ], [ 397564.699898270599078, 3786699.491353000979871 ], [ 397564.394710071210284, 3786699.186164801474661 ], [ 397564.394710071210284, 3786698.880976602435112 ], [ 397562.868769074266311, 3786697.355035605374724 ], [ 397562.868769074266311, 3786696.744659206364304 ], [ 397562.563580874877516, 3786696.439471007324755 ], [ 397562.563580874877516, 3786695.829094608314335 ], [ 397563.173957273655105, 3786695.218718209769577 ], [ 397563.173957273655105, 3786694.913530010264367 ], [ 397565.005086469987873, 3786694.913530010264367 ], [ 397565.310274669376668, 3786694.608341810759157 ], [ 397565.310274669376668, 3786693.692777212709188 ], [ 397567.44659206509823, 3786693.692777212709188 ], [ 397567.44659206509823, 3786693.997965412214398 ], [ 397568.362156663264614, 3786694.913530010264367 ], [ 397568.667344862653408, 3786694.913530010264367 ], [ 397568.667344862653408, 3786695.218718209769577 ], [ 397568.972533062042203, 3786695.523906408809125 ], [ 397568.972533062042203, 3786695.829094608314335 ], [ 397569.277721261430997, 3786696.134282807819545 ], [ 397569.277721261430997, 3786696.439471007324755 ], [ 397570.193285859597381, 3786697.355035605374724 ], [ 397570.193285859597381, 3786697.660223804879934 ], [ 397570.498474058986176, 3786697.965412003919482 ], [ 397570.80366225837497, 3786697.965412003919482 ], [ 397570.80366225837497, 3786698.270600203424692 ], [ 397571.108850457763765, 3786698.575788402929902 ], [ 397571.108850457763765, 3786699.186164801474661 ], [ 397571.41403865715256, 3786699.491353000979871 ], [ 397571.108850457763765, 3786699.79654120048508 ], [ 397571.108850457763765, 3786700.406917599029839 ], [ 397570.498474058986176, 3786701.017293998040259 ], [ 397570.193285859597381, 3786701.017293998040259 ], [ 397569.888097660208587, 3786701.322482197545469 ], [ 397569.888097660208587, 3786701.627670396585017 ], [ 397569.582909460819792, 3786701.627670396585017 ], [ 397569.277721261430997, 3786701.932858596090227 ] ] ] } },
{ "type": "Feature", "properties": { "confidence": 0.39665654301643372, "class": 1 }, "geometry": { "type": "Polygon", "coordinates": [ [ [ 397466.124109867727384, 3786695.218718209769577 ], [ 397465.818921668338589, 3786694.913530010264367 ], [ 397465.818921668338589, 3786694.608341810759157 ], [ 397465.513733468949795, 3786694.303153611253947 ], [ 397465.513733468949795, 3786693.997965412214398 ], [ 397465.208545269561, 3786693.692777212709188 ], [ 397465.208545269561, 3786692.47202441515401 ], [ 397470.396744659228716, 3786692.47202441515401 ], [ 397470.396744659228716, 3786693.387589013203979 ], [ 397469.786368260451127, 3786693.997965412214398 ], [ 397469.481180061062332, 3786693.997965412214398 ], [ 397469.175991861673538, 3786694.303153611253947 ], [ 397468.260427263507154, 3786694.303153611253947 ], [ 397467.955239064118359, 3786694.608341810759157 ], [ 397467.650050864671357, 3786694.608341810759157 ], [ 397467.039674465893768, 3786695.218718209769577 ], [ 397466.124109867727384, 3786695.218718209769577 ] ] ] } },
{ "type": "Feature", "properties": { "confidence": 0.37260255217552185, "class": 1 }, "geometry": { "type": "Polygon", "coordinates": [ [ [ 397559.206510681600776, 3786725.737538148649037 ], [ 397558.901322482211981, 3786725.432349949143827 ], [ 397558.901322482211981, 3786725.127161749638617 ], [ 397558.596134282823186, 3786724.821973550133407 ], [ 397558.596134282823186, 3786723.906408952083439 ], [ 397558.901322482211981, 3786723.601220752578229 ], [ 397558.901322482211981, 3786723.29603255353868 ], [ 397559.51169888098957, 3786722.68565615452826 ], [ 397559.816887080378365, 3786722.68565615452826 ], [ 397560.122075279767159, 3786722.38046795502305 ], [ 397561.342828077322338, 3786722.38046795502305 ], [ 397561.648016276711132, 3786722.075279755983502 ], [ 397562.563580874877516, 3786722.075279755983502 ], [ 397562.868769074266311, 3786722.38046795502305 ], [ 397563.173957273655105, 3786722.38046795502305 ], [ 397563.173957273655105, 3786723.29603255353868 ], [ 397562.868769074266311, 3786723.601220752578229 ], [ 397562.868769074266311, 3786723.906408952083439 ], [ 397562.563580874877516, 3786724.211597151588649 ], [ 397562.563580874877516, 3786724.821973550133407 ], [ 397562.258392675488722, 3786725.127161749638617 ], [ 397561.648016276711132, 3786725.127161749638617 ], [ 397561.342828077322338, 3786725.432349949143827 ], [ 397560.732451678544749, 3786725.432349949143827 ], [ 397560.427263479155954, 3786725.737538148649037 ], [ 397559.206510681600776, 3786725.737538148649037 ] ] ] } },
{ "type": "Feature", "properties": { "confidence": 0.33547100424766541, "class": 1 }, "geometry": { "type": "Polygon", "coordinates": [ [ [ 397468.870803662284743, 3786848.423194303177297 ], [ 397468.870803662284743, 3786847.507629705127329 ], [ 397469.481180061062332, 3786846.897253306116909 ], [ 397469.481180061062332, 3786846.592065106611699 ], [ 397471.007121058006305, 3786845.066124110016972 ], [ 397471.3123092573951, 3786845.066124110016972 ], [ 397471.617497456783894, 3786844.760935910511762 ], [ 397472.533062054950278, 3786844.760935910511762 ], [ 397472.838250254339073, 3786844.455747711006552 ], [ 397473.143438453727867, 3786844.455747711006552 ], [ 397473.143438453727867, 3786847.812817904166877 ], [ 397472.838250254339073, 3786847.812817904166877 ], [ 397472.533062054950278, 3786848.118006103672087 ], [ 397472.533062054950278, 3786848.423194303177297 ], [ 397468.870803662284743, 3786848.423194303177297 ] ] ] } },
{ "type": "Feature", "properties": { "confidence": 0.3334934413433075, "class": 1 }, "geometry": { "type": "Polygon", "coordinates": [ [ [ 397565.310274669376668, 3786840.488301118835807 ], [ 397565.005086469987873, 3786840.183112919796258 ], [ 397565.005086469987873, 3786839.572736520785838 ], [ 397565.310274669376668, 3786839.267548321280628 ], [ 397565.310274669376668, 3786838.35198372323066 ], [ 397565.615462868765462, 3786838.04679552372545 ], [ 397565.615462868765462, 3786837.741607324685901 ], [ 397565.920651068154257, 3786837.436419125180691 ], [ 397565.920651068154257, 3786837.131230925675482 ], [ 397566.225839267543051, 3786836.826042726170272 ], [ 397566.225839267543051, 3786834.994913530070335 ], [ 397566.531027466931846, 3786834.689725330565125 ], [ 397566.531027466931846, 3786834.384537131059915 ], [ 397566.836215666320641, 3786834.079348932020366 ], [ 397566.836215666320641, 3786833.774160732515156 ], [ 397567.141403865709435, 3786833.774160732515156 ], [ 397567.44659206509823, 3786833.468972533009946 ], [ 397567.44659206509823, 3786833.163784333504736 ], [ 397567.751780264487024, 3786833.163784333504736 ], [ 397568.056968463875819, 3786832.858596134465188 ], [ 397568.056968463875819, 3786832.248219735454768 ], [ 397568.362156663264614, 3786832.248219735454768 ], [ 397568.667344862653408, 3786831.943031535949558 ], [ 397568.667344862653408, 3786831.637843336910009 ], [ 397568.972533062042203, 3786831.637843336910009 ], [ 397569.582909460819792, 3786831.02746693789959 ], [ 397570.193285859597381, 3786831.02746693789959 ], [ 397570.498474058986176, 3786830.72227873839438 ], [ 397571.108850457763765, 3786830.72227873839438 ], [ 397571.41403865715256, 3786831.02746693789959 ], [ 397572.024415055930149, 3786831.02746693789959 ], [ 397572.329603255318943, 3786831.332655137404799 ], [ 397572.634791454707738, 3786831.332655137404799 ], [ 397572.939979654096533, 3786831.637843336910009 ], [ 397572.939979654096533, 3786834.994913530070335 ], [ 397572.634791454707738, 3786835.300101729575545 ], [ 397572.634791454707738, 3786836.520854527130723 ], [ 397571.108850457763765, 3786838.04679552372545 ], [ 397570.80366225837497, 3786838.04679552372545 ], [ 397570.193285859597381, 3786838.65717192273587 ], [ 397569.888097660208587, 3786838.65717192273587 ], [ 397569.582909460819792, 3786838.96236012224108 ], [ 397568.972533062042203, 3786838.96236012224108 ], [ 397568.667344862653408, 3786839.267548321280628 ], [ 397568.362156663264614, 3786839.267548321280628 ], [ 397567.751780264487024, 3786839.877924720291048 ], [ 397567.141403865709435, 3786839.877924720291048 ], [ 397566.836215666320641, 3786840.183112919796258 ], [ 397566.531027466931846, 3786840.183112919796258 ], [ 397566.225839267543051, 3786840.488301118835807 ], [ 397565.310274669376668, 3786840.488301118835807 ] ] ] } },
{ "type": "Feature", "properties": { "confidence": 0.30693942308425903, "class": 1 }, "geometry": { "type": "Polygon", "coordinates": [ [ [ 397731.027466937957797, 3786863.377416073344648 ], [ 397730.722278738569003, 3786863.072227873839438 ], [ 397730.417090539180208, 3786863.072227873839438 ], [ 397730.417090539180208, 3786862.156663275789469 ], [ 397730.111902339791413, 3786861.85147507628426 ], [ 397730.111902339791413, 3786860.325534079223871 ], [ 397730.417090539180208, 3786860.020345880184323 ], [ 397730.417090539180208, 3786858.189216683618724 ], [ 397730.722278738569003, 3786858.189216683618724 ], [ 397731.027466937957797, 3786857.884028484113514 ], [ 397731.637843336735386, 3786857.884028484113514 ], [ 397731.943031536124181, 3786857.578840285073966 ], [ 397732.858596134290565, 3786857.578840285073966 ], [ 397733.468972533068154, 3786856.968463886063546 ], [ 397733.774160732456949, 3786856.968463886063546 ], [ 397734.079348931845743, 3786856.663275686558336 ], [ 397736.215666327567305, 3786856.663275686558336 ], [ 397736.5208545269561, 3786856.968463886063546 ], [ 397737.131230925733689, 3786856.968463886063546 ], [ 397737.436419125122484, 3786857.273652085568756 ], [ 397737.436419125122484, 3786857.578840285073966 ], [ 397737.741607324511278, 3786857.884028484113514 ], [ 397737.741607324511278, 3786858.799593082629144 ], [ 397738.046795523900073, 3786859.104781281668693 ], [ 397738.046795523900073, 3786860.630722278729081 ], [ 397738.351983723288868, 3786860.935910478234291 ], [ 397738.046795523900073, 3786861.241098677739501 ], [ 397738.046795523900073, 3786861.54628687677905 ], [ 397737.131230925733689, 3786862.461851475294679 ], [ 397736.826042726344895, 3786862.461851475294679 ], [ 397736.215666327567305, 3786863.072227873839438 ], [ 397731.332655137346592, 3786863.072227873839438 ], [ 397731.027466937957797, 3786863.377416073344648 ] ] ] } }
]
}
