{
"type": "FeatureCollection",
"name": "cell_00063_pre",
"crs": { "type": "name", "properties": { "name": "urn:ogc:def:crs:EPSG::32611" } },
"features": [
{ "type": "Feature", "properties": { "confidence": 0.92632764577865601, "class": 1 }, "geometry": { "type": "Polygon", "coordinates": [ [ [ 349320.549338758923113, 3770248.321464903187007 ], [ 349320.244150559534319, 3770248.016276704147458 ], [ 349319.938962360145524, 3770248.016276704147458 ], [ 349319.938962360145524, 3770247.711088504642248 ], [ 349319.63377416075673, 3770247.405900305137038 ], [ 349319.63377416075673, 3770246.49033570708707 ], [ 349319.328585961367935, 3770246.18514750758186 ], [ 349319.328585961367935, 3770244.048830111976713 ], [ 349324.821973550366238, 3770244.048830111976713 ], [ 349324.516785350977443, 3770244.354018311481923 ], [ 349324.516785350977443, 3770246.79552390659228 ], [ 349323.296032553422265, 3770248.016276704147458 ], [ 349322.99084435403347, 3770248.016276704147458 ], [ 349322.685656154644676, 3770248.321464903187007 ], [ 349320.549338758923113, 3770248.321464903187007 ] ] ] } },
{ "type": "Feature", "properties": { "confidence": 0.79252433776855469, "class": 1 }, "geometry": { "type": "Polygon", "coordinates": [ [ [ 349356.866734486247879, 3770363.682604272849858 ], [ 349356.561546286859084, 3770363.377416073344648 ], [ 349355.951169888081495, 3770363.377416073344648 ], [ 349355.035605289915111, 3770362.461851475294679 ], [ 349354.730417090526316, 3770362.461851475294679 ], [ 349354.120040691748727, 3770361.85147507628426 ], [ 349353.814852492359933, 3770361.85147507628426 ], [ 349353.509664292971138, 3770361.54628687677905 ], [ 349353.204476093582343, 3770361.54628687677905 ], [ 349352.594099694804754, 3770360.935910478234291 ], [ 349352.594099694804754, 3770359.104781281668693 ], [ 349352.899287894193549, 3770358.799593082629144 ], [ 349352.899287894193549, 3770358.494404883123934 ], [ 349353.814852492359933, 3770358.494404883123934 ], [ 349354.120040691748727, 3770358.189216683618724 ], [ 349355.6459816886927, 3770358.189216683618724 ], [ 349356.256358087470289, 3770358.799593082629144 ], [ 349356.561546286859084, 3770358.799593082629144 ], [ 349356.866734486247879, 3770359.104781281668693 ], [ 349356.866734486247879, 3770359.409969481173903 ], [ 349357.171922685636673, 3770359.715157680679113 ], [ 349357.477110885025468, 3770359.715157680679113 ], [ 349357.477110885025468, 3770360.020345880184323 ], [ 349357.782299084414262, 3770360.325534079223871 ], [ 349357.782299084414262, 3770363.072227873839438 ], [ 349357.477110885025468, 3770363.377416073344648 ], [ 349357.171922685636673, 3770363.377416073344648 ], [ 349356.866734486247879, 3770363.682604272849858 ] ] ] } },
{ "type": "Feature", "properties": { "confidence": 0.5929337739944458, "class": 1 }, "geometry": { "type": "Polygon", "coordinates": [ [ [ 349701.7293997965171, 3770013.021363174077123 ], [ 349701.119023397739511, 3770012.410986775066704 ], [ 349701.119023397739511, 3770012.105798575561494 ], [ 349700.813835198350716, 3770011.800610376521945 ], [ 349700.508646998961922, 3770011.800610376521945 ], [ 349699.287894201406743, 3770010.579857578966767 ], [ 349699.287894201406743, 3770009.664292980451137 ], [ 349707.527975584962405, 3770009.664292980451137 ], [ 349707.527975584962405, 3770011.800610376521945 ], [ 349706.917599186184816, 3770011.800610376521945 ], [ 349706.612410986796021, 3770012.105798575561494 ], [ 349706.307222787407227, 3770011.800610376521945 ], [ 349705.086469989852048, 3770011.800610376521945 ], [ 349704.781281790463254, 3770012.105798575561494 ], [ 349704.781281790463254, 3770012.716174974571913 ], [ 349704.476093591074459, 3770013.021363174077123 ], [ 349701.7293997965171, 3770013.021363174077123 ] ] ] } },
{ "type": "Feature", "properties": { "confidence": 0.58929896354675293, "class": 1 }, "geometry": { "type": "Polygon", "coordinates": [ [ [ 349242.421159715158865, 3770257.477110885083675 ], [ 349242.11597151577007, 3770257.171922685578465 ], [ 349239.979654120048508, 3770257.171922685578465 ], [ 349239.674465920659713, 3770256.866734486073256 ], [ 349239.369277721270919, 3770256.866734486073256 ], [ 349239.369277721270919, 3770256.561546287033707 ], [ 349239.064089521882124, 3770256.256358087528497 ], [ 349239.064089521882124, 3770255.645981688518077 ], [ 349238.453713123104535, 3770255.035605289973319 ], [ 349238.453713123104535, 3770254.425228890962899 ], [ 349238.14852492371574, 3770254.12004069192335 ], [ 349238.14852492371574, 3770253.50966429291293 ], [ 349237.843336724326946, 3770253.20447609340772 ], [ 349237.843336724326946, 3770251.983723295852542 ], [ 349238.14852492371574, 3770251.678535096812993 ], [ 349240.284842319437303, 3770251.678535096812993 ], [ 349240.590030518826097, 3770251.983723295852542 ], [ 349241.505595116992481, 3770251.983723295852542 ], [ 349241.810783316381276, 3770252.288911495357752 ], [ 349241.810783316381276, 3770252.594099694862962 ], [ 349242.11597151577007, 3770252.899287894368172 ], [ 349242.11597151577007, 3770253.20447609340772 ], [ 349242.421159715158865, 3770253.50966429291293 ], [ 349242.726347914547659, 3770253.50966429291293 ], [ 349243.336724313325249, 3770254.12004069192335 ], [ 349243.641912512714043, 3770254.12004069192335 ], [ 349244.252288911491632, 3770254.730417090468109 ], [ 349244.252288911491632, 3770255.035605289973319 ], [ 349244.557477110880427, 3770255.340793489478528 ], [ 349244.557477110880427, 3770255.645981688518077 ], [ 349244.862665310269222, 3770255.951169888023287 ], [ 349244.862665310269222, 3770256.866734486073256 ], [ 349244.252288911491632, 3770257.477110885083675 ], [ 349242.421159715158865, 3770257.477110885083675 ] ] ] } },
{ "type": "Feature", "properties": { "confidence": 0.53534722328186035, "class": 1 }, "geometry": { "type": "Polygon", "coordinates": [ [ [ 349630.620549338753335, 3770253.20447609340772 ], [ 349630.315361139364541, 3770252.899287894368172 ], [ 349630.010172939975746, 3770252.899287894368172 ], [ 349629.704984740586951, 3770252.594099694862962 ], [ 349629.399796541198157, 3770252.594099694862962 ], [ 349629.094608341809362, 3770252.288911495357752 ], [ 349628.179043743642978, 3770252.288911495357752 ], [ 349626.9582909460878, 3770251.068158697802573 ], [ 349626.9582909460878, 3770250.762970498297364 ], [ 349626.347914547310211, 3770250.152594099752605 ], [ 349626.347914547310211, 3770249.847405900247395 ], [ 349626.042726347921416, 3770249.542217700742185 ], [ 349626.042726347921416, 3770249.237029501702636 ], [ 349625.737538148532622, 3770248.931841302197427 ], [ 349625.737538148532622, 3770248.321464903187007 ], [ 349625.432349949143827, 3770248.016276704147458 ], [ 349625.432349949143827, 3770247.100712105631828 ], [ 349625.127161749755032, 3770246.79552390659228 ], [ 349625.127161749755032, 3770241.912512716371566 ], [ 349625.432349949143827, 3770241.607324516866356 ], [ 349626.9582909460878, 3770241.607324516866356 ], [ 349627.263479145476595, 3770241.912512716371566 ], [ 349627.873855544254184, 3770241.912512716371566 ], [ 349628.789420142420568, 3770242.828077314421535 ], [ 349629.094608341809362, 3770242.828077314421535 ], [ 349630.92573753814213, 3770244.659206510521472 ], [ 349631.230925737530924, 3770244.659206510521472 ], [ 349631.230925737530924, 3770244.964394710026681 ], [ 349632.756866734474897, 3770246.49033570708707 ], [ 349632.756866734474897, 3770247.405900305137038 ], [ 349633.062054933863692, 3770247.711088504642248 ], [ 349633.062054933863692, 3770252.899287894368172 ], [ 349632.756866734474897, 3770252.899287894368172 ], [ 349632.451678535086103, 3770253.20447609340772 ], [ 349630.620549338753335, 3770253.20447609340772 ] ] ] } },
{ "type": "Feature", "properties": { "confidence": 0.45529922842979431, "class": 1 }, "geometry": { "type": "Polygon", "coordinates": [ [ [ 349563.4791454730439, 3770256.256358087528497 ], [ 349563.173957273655105, 3770255.951169888023287 ], [ 349562.563580874877516, 3770255.951169888023287 ], [ 349562.258392675488722, 3770255.645981688518077 ], [ 349561.953204476099927, 3770255.645981688518077 ], [ 349561.953204476099927, 3770255.340793489478528 ], [ 349561.342828077322338, 3770254.730417090468109 ], [ 349561.037639877933543, 3770254.730417090468109 ], [ 349561.037639877933543, 3770254.425228890962899 ], [ 349560.732451678544749, 3770254.12004069192335 ], [ 349560.732451678544749, 3770253.50966429291293 ], [ 349560.427263479155954, 3770253.20447609340772 ], [ 349560.427263479155954, 3770252.594099694862962 ], [ 349560.122075279767159, 3770252.288911495357752 ], [ 349560.122075279767159, 3770246.79552390659228 ], [ 349560.427263479155954, 3770246.49033570708707 ], [ 349560.427263479155954, 3770246.18514750758186 ], [ 349561.037639877933543, 3770245.574771109037101 ], [ 349561.648016276711132, 3770245.574771109037101 ], [ 349561.953204476099927, 3770245.87995930807665 ], [ 349562.258392675488722, 3770245.87995930807665 ], [ 349563.4791454730439, 3770247.100712105631828 ], [ 349563.784333672432695, 3770247.100712105631828 ], [ 349567.141403865709435, 3770250.457782299257815 ], [ 349567.141403865709435, 3770250.762970498297364 ], [ 349567.44659206509823, 3770251.068158697802573 ], [ 349567.44659206509823, 3770251.373346897307783 ], [ 349567.751780264487024, 3770251.678535096812993 ], [ 349567.751780264487024, 3770252.288911495357752 ], [ 349567.44659206509823, 3770252.594099694862962 ], [ 349567.44659206509823, 3770253.20447609340772 ], [ 349567.141403865709435, 3770253.50966429291293 ], [ 349567.141403865709435, 3770253.81485249241814 ], [ 349566.531027466931846, 3770254.425228890962899 ], [ 349566.531027466931846, 3770254.730417090468109 ], [ 349566.225839267543051, 3770255.035605289973319 ], [ 349565.920651068154257, 3770255.035605289973319 ], [ 349565.310274669376668, 3770255.645981688518077 ], [ 349565.005086469987873, 3770255.645981688518077 ], [ 349564.699898270599078, 3770255.951169888023287 ], [ 349563.784333672432695, 3770255.951169888023287 ], [ 349563.4791454730439, 3770256.256358087528497 ] ] ] } },
{ "type": "Feature", "properties": { "confidence": 0.37903952598571777, "class": 1 }, "geometry": { "type": "Polygon", "coordinates": [ [ [ 349706.307222787407227, 3770013.326551373116672 ], [ 349706.002034588018432, 3770013.021363174077123 ], [ 349705.696846388629638, 3770013.021363174077123 ], [ 349705.696846388629638, 3770012.105798575561494 ], [ 349705.391658189240843, 3770011.800610376521945 ], [ 349704.781281790463254, 3770011.800610376521945 ], [ 349703.86571719229687, 3770010.885045778006315 ], [ 349703.560528992908075, 3770010.885045778006315 ], [ 349703.560528992908075, 3770009.664292980451137 ], [ 349707.527975584962405, 3770009.664292980451137 ], [ 349707.527975584962405, 3770013.326551373116672 ], [ 349706.307222787407227, 3770013.326551373116672 ] ] ] } },
{ "type": "Feature", "properties": { "confidence": 0.2794228196144104, "class": 1 }, "geometry": { "type": "Polygon", "coordinates": [ [ [ 349355.6459816886927, 3770363.072227873839438 ], [ 349354.730417090526316, 3770362.156663275789469 ], [ 349354.425228891137522, 3770362.156663275789469 ], [ 349353.204476093582343, 3770360.935910478234291 ], [ 349353.204476093582343, 3770360.020345880184323 ], [ 349353.509664292971138, 3770359.715157680679113 ], [ 349353.509664292971138, 3770359.104781281668693 ], [ 349354.120040691748727, 3770358.494404883123934 ], [ 349354.120040691748727, 3770358.189216683618724 ], [ 349354.425228891137522, 3770358.189216683618724 ], [ 349354.730417090526316, 3770357.884028484113514 ], [ 349355.951169888081495, 3770357.884028484113514 ], [ 349355.951169888081495, 3770363.072227873839438 ], [ 349355.6459816886927, 3770363.072227873839438 ] ] ] } }
]
}
