{
"type": "FeatureCollection",
"name": "cell_00399_pre",
"crs": { "type": "name", "properties": { "name": "urn:ogc:def:crs:EPSG::32611" } },
"features": [
{ "type": "Feature", "properties": { "confidence": 0.92350471019744873, "class": 1 }, "geometry": { "type": "Polygon", "coordinates": [ [ [ 397466.124109867727384, 3786033.570701933000237 ], [ 397465.818921668338589, 3786033.265513733495027 ], [ 397463.682604272617027, 3786033.265513733495027 ], [ 397463.377416073228233, 3786032.960325533989817 ], [ 397462.767039674450643, 3786032.960325533989817 ], [ 397462.156663275673054, 3786032.349949135445058 ], [ 397461.85147507628426, 3786032.349949135445058 ], [ 397461.546286876895465, 3786032.044760935939848 ], [ 397461.546286876895465, 3786031.12919633788988 ], [ 397461.24109867750667, 3786030.82400813838467 ], [ 397461.24109867750667, 3786029.603255340829492 ], [ 397460.935910478117876, 3786029.298067141324282 ], [ 397460.935910478117876, 3786026.246185147669166 ], [ 397461.24109867750667, 3786025.940996948163956 ], [ 397461.24109867750667, 3786025.330620549153537 ], [ 397461.546286876895465, 3786025.330620549153537 ], [ 397461.85147507628426, 3786025.025432350113988 ], [ 397463.987792472005822, 3786025.025432350113988 ], [ 397464.292980671394616, 3786024.720244150608778 ], [ 397465.818921668338589, 3786024.720244150608778 ], [ 397466.124109867727384, 3786025.025432350113988 ], [ 397466.124109867727384, 3786025.940996948163956 ], [ 397466.429298067116179, 3786026.246185147669166 ], [ 397466.734486266504973, 3786026.246185147669166 ], [ 397467.344862665282562, 3786026.856561546213925 ], [ 397468.565615462895948, 3786026.856561546213925 ], [ 397468.870803662284743, 3786027.161749745719135 ], [ 397469.175991861673538, 3786027.161749745719135 ], [ 397469.481180061062332, 3786027.466937945224345 ], [ 397470.701932858617511, 3786027.466937945224345 ], [ 397471.007121058006305, 3786027.772126144263893 ], [ 397471.007121058006305, 3786030.51881993887946 ], [ 397470.396744659228716, 3786031.12919633788988 ], [ 397470.396744659228716, 3786031.434384536929429 ], [ 397470.091556459839921, 3786031.739572736434639 ], [ 397470.091556459839921, 3786032.044760935939848 ], [ 397469.175991861673538, 3786032.960325533989817 ], [ 397468.870803662284743, 3786032.960325533989817 ], [ 397468.260427263507154, 3786033.570701933000237 ], [ 397466.124109867727384, 3786033.570701933000237 ] ] ] } },
{ "type": "Feature", "properties": { "confidence": 0.58375442028045654, "class": 1 }, "geometry": { "type": "Polygon", "coordinates": [ [ [ 397217.700915564608295, 3786132.451678534969687 ], [ 397217.3957273652195, 3786132.146490335930139 ], [ 397217.090539165830705, 3786132.146490335930139 ], [ 397216.785350966441911, 3786131.841302136424929 ], [ 397216.785350966441911, 3786130.010172939859331 ], [ 397216.480162767053116, 3786129.704984740819782 ], [ 397216.480162767053116, 3786128.789420142304152 ], [ 397216.174974567664322, 3786128.484231942798942 ], [ 397216.174974567664322, 3786127.873855544254184 ], [ 397216.480162767053116, 3786127.568667344748974 ], [ 397216.480162767053116, 3786127.263479145243764 ], [ 397216.785350966441911, 3786126.958290946204215 ], [ 397217.090539165830705, 3786126.958290946204215 ], [ 397217.3957273652195, 3786126.653102746699005 ], [ 397218.006103763997089, 3786126.653102746699005 ], [ 397218.311291963385884, 3786126.347914547193795 ], [ 397220.752797558496241, 3786126.347914547193795 ], [ 397221.36317395727383, 3786126.958290946204215 ], [ 397221.668362156662624, 3786126.958290946204215 ], [ 397221.973550356051419, 3786127.263479145243764 ], [ 397222.278738555440214, 3786127.263479145243764 ], [ 397223.194303153606597, 3786128.179043743759394 ], [ 397223.194303153606597, 3786130.62054933886975 ], [ 397223.499491352995392, 3786130.92573753837496 ], [ 397223.499491352995392, 3786131.230925737414509 ], [ 397223.194303153606597, 3786131.230925737414509 ], [ 397222.889114954217803, 3786131.536113936919719 ], [ 397222.278738555440214, 3786131.536113936919719 ], [ 397221.973550356051419, 3786131.841302136424929 ], [ 397221.36317395727383, 3786131.841302136424929 ], [ 397221.057985757885035, 3786132.146490335930139 ], [ 397219.226856561552268, 3786132.146490335930139 ], [ 397218.921668362163473, 3786132.451678534969687 ], [ 397217.700915564608295, 3786132.451678534969687 ] ] ] } },
{ "type": "Feature", "properties": { "confidence": 0.51402312517166138, "class": 1 }, "geometry": { "type": "Polygon", "coordinates": [ [ [ 397704.170905391685665, 3786217.904374364297837 ], [ 397703.86571719229687, 3786217.599186164792627 ], [ 397703.560528992908075, 3786217.599186164792627 ], [ 397703.255340793461073, 3786217.293997965287417 ], [ 397703.255340793461073, 3786216.988809766247869 ], [ 397702.339776195294689, 3786216.073245167732239 ], [ 397702.339776195294689, 3786215.76805696869269 ], [ 397702.034587995905895, 3786215.46286876918748 ], [ 397702.034587995905895, 3786213.326551373116672 ], [ 397701.7293997965171, 3786213.021363174077123 ], [ 397701.7293997965171, 3786211.190233977511525 ], [ 397702.034587995905895, 3786210.885045778006315 ], [ 397702.034587995905895, 3786209.664292980451137 ], [ 397706.307222787407227, 3786209.664292980451137 ], [ 397706.307222787407227, 3786209.969481179956347 ], [ 397706.612410986796021, 3786210.274669379461557 ], [ 397706.917599186184816, 3786210.274669379461557 ], [ 397706.917599186184816, 3786211.495422177016735 ], [ 397707.222787385573611, 3786211.800610376521945 ], [ 397707.527975584962405, 3786211.800610376521945 ], [ 397707.527975584962405, 3786216.988809766247869 ], [ 397707.222787385573611, 3786216.988809766247869 ], [ 397706.917599186184816, 3786217.293997965287417 ], [ 397706.002034588018432, 3786217.293997965287417 ], [ 397705.696846388629638, 3786217.599186164792627 ], [ 397705.391658189240843, 3786217.599186164792627 ], [ 397705.086469989852048, 3786217.904374364297837 ], [ 397704.170905391685665, 3786217.904374364297837 ] ] ] } },
{ "type": "Feature", "properties": { "confidence": 0.5077672004699707, "class": 1 }, "geometry": { "type": "Polygon", "coordinates": [ [ [ 397546.388606307213195, 3786405.595116988755763 ], [ 397546.388606307213195, 3786405.289928789250553 ], [ 397546.0834181078244, 3786404.984740590211004 ], [ 397545.473041709046811, 3786404.984740590211004 ], [ 397545.167853509658016, 3786404.679552390705794 ], [ 397544.862665310269222, 3786404.679552390705794 ], [ 397544.862665310269222, 3786404.374364191200584 ], [ 397544.252288911491632, 3786403.763987792655826 ], [ 397544.252288911491632, 3786403.458799593150616 ], [ 397543.641912512714043, 3786402.848423194140196 ], [ 397543.641912512714043, 3786402.543234995100647 ], [ 397543.336724313325249, 3786402.238046795595437 ], [ 397543.336724313325249, 3786398.270600203424692 ], [ 397543.641912512714043, 3786397.965412003919482 ], [ 397543.947100712102838, 3786397.965412003919482 ], [ 397544.252288911491632, 3786397.660223804879934 ], [ 397545.473041709046811, 3786397.660223804879934 ], [ 397546.0834181078244, 3786397.049847405869514 ], [ 397546.388606307213195, 3786397.049847405869514 ], [ 397546.693794506601989, 3786396.744659206364304 ], [ 397546.998982705990784, 3786396.744659206364304 ], [ 397547.609359104768373, 3786397.355035605374724 ], [ 397548.219735503545962, 3786397.355035605374724 ], [ 397548.830111902323551, 3786397.965412003919482 ], [ 397548.830111902323551, 3786398.270600203424692 ], [ 397549.135300101712346, 3786398.575788402929902 ], [ 397549.135300101712346, 3786399.186164801474661 ], [ 397549.440488301101141, 3786399.491353000979871 ], [ 397549.440488301101141, 3786400.406917599029839 ], [ 397549.135300101712346, 3786400.712105798535049 ], [ 397549.135300101712346, 3786404.069175991695374 ], [ 397548.830111902323551, 3786404.374364191200584 ], [ 397548.830111902323551, 3786404.679552390705794 ], [ 397548.524923702934757, 3786404.984740590211004 ], [ 397548.524923702934757, 3786405.289928789250553 ], [ 397548.219735503545962, 3786405.289928789250553 ], [ 397547.914547304157168, 3786405.595116988755763 ], [ 397546.388606307213195, 3786405.595116988755763 ] ] ] } },
{ "type": "Feature", "properties": { "confidence": 0.50088059902191162, "class": 1 }, "geometry": { "type": "Polygon", "coordinates": [ [ [ 397528.6876907426049, 3786448.016276704147458 ], [ 397528.382502543216106, 3786447.711088504642248 ], [ 397527.161749745660927, 3786447.711088504642248 ], [ 397526.856561546272133, 3786447.405900305137038 ], [ 397526.551373346883338, 3786447.405900305137038 ], [ 397526.246185147494543, 3786447.100712105631828 ], [ 397525.025432349939365, 3786447.100712105631828 ], [ 397524.72024415055057, 3786446.79552390659228 ], [ 397523.499491352995392, 3786446.79552390659228 ], [ 397523.194303153606597, 3786446.49033570708707 ], [ 397522.583926754829008, 3786446.49033570708707 ], [ 397521.668362156662624, 3786445.574771109037101 ], [ 397521.668362156662624, 3786444.659206510521472 ], [ 397531.739572736492846, 3786444.659206510521472 ], [ 397531.739572736492846, 3786446.18514750758186 ], [ 397531.434384537104052, 3786446.49033570708707 ], [ 397531.434384537104052, 3786447.711088504642248 ], [ 397531.129196337715257, 3786447.711088504642248 ], [ 397530.824008138326462, 3786448.016276704147458 ], [ 397528.6876907426049, 3786448.016276704147458 ] ] ] } },
{ "type": "Feature", "properties": { "confidence": 0.47804257273674011, "class": 1 }, "geometry": { "type": "Polygon", "coordinates": [ [ [ 397792.67548321466893, 3786075.686673448421061 ], [ 397792.370295015280135, 3786075.381485249381512 ], [ 397792.06510681589134, 3786075.381485249381512 ], [ 397791.759918616502546, 3786075.076297049876302 ], [ 397790.844354018336162, 3786075.076297049876302 ], [ 397790.539165818947367, 3786075.381485249381512 ], [ 397790.233977619558573, 3786075.076297049876302 ], [ 397789.928789420169778, 3786075.076297049876302 ], [ 397789.623601220780984, 3786074.771108850371093 ], [ 397789.623601220780984, 3786074.465920650865883 ], [ 397789.013224821945187, 3786073.855544252321124 ], [ 397789.013224821945187, 3786070.193285859655589 ], [ 397788.708036622556392, 3786069.888097660150379 ], [ 397788.708036622556392, 3786069.27772126160562 ], [ 397788.402848423167598, 3786068.97253306210041 ], [ 397788.708036622556392, 3786068.667344862595201 ], [ 397788.708036622556392, 3786068.362156663089991 ], [ 397789.318413021392189, 3786067.751780264545232 ], [ 397789.928789420169778, 3786067.751780264545232 ], [ 397790.233977619558573, 3786067.446592065040022 ], [ 397790.844354018336162, 3786067.446592065040022 ], [ 397791.149542217724957, 3786067.751780264545232 ], [ 397791.454730417113751, 3786067.751780264545232 ], [ 397791.454730417113751, 3786068.056968464050442 ], [ 397791.759918616502546, 3786068.362156663089991 ], [ 397791.759918616502546, 3786069.582909460645169 ], [ 397792.06510681589134, 3786069.888097660150379 ], [ 397792.06510681589134, 3786070.193285859655589 ], [ 397792.370295015280135, 3786070.498474059160799 ], [ 397792.67548321466893, 3786070.498474059160799 ], [ 397793.896236012224108, 3786071.719226856715977 ], [ 397794.201424211612903, 3786071.719226856715977 ], [ 397794.506612411001697, 3786072.024415055755526 ], [ 397794.506612411001697, 3786072.634791454765946 ], [ 397794.811800610390492, 3786072.939979654271156 ], [ 397794.811800610390492, 3786075.076297049876302 ], [ 397794.506612411001697, 3786075.076297049876302 ], [ 397794.201424211612903, 3786075.381485249381512 ], [ 397792.980671414057724, 3786075.381485249381512 ], [ 397792.67548321466893, 3786075.686673448421061 ] ] ] } },
{ "type": "Feature", "properties": { "confidence": 0.3478071391582489, "class": 1 }, "geometry": { "type": "Polygon", "coordinates": [ [ [ 397400.508646998961922, 3786330.82400813838467 ], [ 397399.287894201406743, 3786329.603255340829492 ], [ 397399.287894201406743, 3786329.298067141324282 ], [ 397398.37232960324036, 3786328.382502543274313 ], [ 397398.37232960324036, 3786326.856561546213925 ], [ 397405.696846388629638, 3786326.856561546213925 ], [ 397405.696846388629638, 3786328.687690742779523 ], [ 397405.391658189240843, 3786328.992878941819072 ], [ 397404.170905391685665, 3786328.992878941819072 ], [ 397403.255340793461073, 3786329.908443540334702 ], [ 397402.950152594072279, 3786329.908443540334702 ], [ 397402.339776195294689, 3786330.51881993887946 ], [ 397402.034587995905895, 3786330.51881993887946 ], [ 397401.7293997965171, 3786330.82400813838467 ], [ 397400.508646998961922, 3786330.82400813838467 ] ] ] } },
{ "type": "Feature", "properties": { "confidence": 0.29773777723312378, "class": 1 }, "geometry": { "type": "Polygon", "coordinates": [ [ [ 397789.623601220780984, 3786096.439471007324755 ], [ 397789.318413021392189, 3786096.134282807819545 ], [ 397788.097660223778803, 3786096.134282807819545 ], [ 397787.792472024390008, 3786095.829094608314335 ], [ 397787.182095625612419, 3786095.829094608314335 ], [ 397785.961342828057241, 3786094.608341810759157 ], [ 397785.656154628668446, 3786094.608341810759157 ], [ 397785.045778229890857, 3786093.997965412214398 ], [ 397784.740590030502062, 3786093.997965412214398 ], [ 397784.130213631724473, 3786093.387589013203979 ], [ 397784.130213631724473, 3786093.082400813698769 ], [ 397791.759918616502546, 3786093.082400813698769 ], [ 397791.759918616502546, 3786096.134282807819545 ], [ 397791.454730417113751, 3786096.439471007324755 ], [ 397789.623601220780984, 3786096.439471007324755 ] ] ] } },
{ "type": "Feature", "properties": { "confidence": 0.28156790137290955, "class": 1 }, "geometry": { "type": "Polygon", "coordinates": [ [ [ 397752.390640895231627, 3786330.21363173937425 ], [ 397751.780264496454038, 3786329.603255340829492 ], [ 397751.780264496454038, 3786328.077314343769103 ], [ 397752.085452695842832, 3786327.772126144263893 ], [ 397752.085452695842832, 3786327.466937945224345 ], [ 397757.578840284841135, 3786327.466937945224345 ], [ 397757.578840284841135, 3786328.077314343769103 ], [ 397757.273652085452341, 3786328.382502543274313 ], [ 397757.273652085452341, 3786328.687690742779523 ], [ 397756.968463886063546, 3786328.992878941819072 ], [ 397756.663275686674751, 3786328.992878941819072 ], [ 397756.358087487285957, 3786329.298067141324282 ], [ 397755.747711088508368, 3786329.298067141324282 ], [ 397755.442522889119573, 3786329.603255340829492 ], [ 397754.832146490341984, 3786329.603255340829492 ], [ 397754.526958290953189, 3786329.908443540334702 ], [ 397753.9165818921756, 3786329.908443540334702 ], [ 397753.611393692786805, 3786330.21363173937425 ], [ 397752.390640895231627, 3786330.21363173937425 ] ] ] } }
]
}
