{
"type": "FeatureCollection",
"name": "cell_00389_pre",
"crs": { "type": "name", "properties": { "name": "urn:ogc:def:crs:EPSG::32611" } },
"features": [
{ "type": "Feature", "properties": { "confidence": 0.94015288352966309, "class": 1 }, "geometry": { "type": "Polygon", "coordinates": [ [ [ 396980.264496439485811, 3786928.992878941819072 ], [ 396979.959308240097016, 3786928.687690742779523 ], [ 396979.654120040708221, 3786928.687690742779523 ], [ 396979.654120040708221, 3786928.382502543274313 ], [ 396979.043743641930632, 3786927.772126144263893 ], [ 396979.043743641930632, 3786926.856561546213925 ], [ 396986.063072227872908, 3786926.856561546213925 ], [ 396986.063072227872908, 3786927.161749745719135 ], [ 396986.368260427261703, 3786927.466937945224345 ], [ 396986.063072227872908, 3786927.772126144263893 ], [ 396986.063072227872908, 3786928.077314343769103 ], [ 396985.757884028484114, 3786928.382502543274313 ], [ 396985.452695829095319, 3786928.382502543274313 ], [ 396985.147507629706524, 3786928.687690742779523 ], [ 396984.231943031540141, 3786928.687690742779523 ], [ 396983.926754832151346, 3786928.992878941819072 ], [ 396980.264496439485811, 3786928.992878941819072 ] ] ] } },
{ "type": "Feature", "properties": { "confidence": 0.85298466682434082, "class": 1 }, "geometry": { "type": "Polygon", "coordinates": [ [ [ 396929.298067141382489, 3786702.848423194140196 ], [ 396928.992878941993695, 3786702.543234995100647 ], [ 396928.6876907426049, 3786702.543234995100647 ], [ 396928.382502543216106, 3786702.238046795595437 ], [ 396928.077314343827311, 3786702.238046795595437 ], [ 396927.772126144438516, 3786701.932858596090227 ], [ 396927.772126144438516, 3786701.627670396585017 ], [ 396926.856561546272133, 3786700.712105798535049 ], [ 396926.856561546272133, 3786700.406917599029839 ], [ 396926.551373346883338, 3786700.10172939999029 ], [ 396926.551373346883338, 3786699.79654120048508 ], [ 396926.246185147494543, 3786699.491353000979871 ], [ 396926.246185147494543, 3786696.134282807819545 ], [ 396925.940996948105749, 3786695.829094608314335 ], [ 396925.940996948105749, 3786693.387589013203979 ], [ 396926.246185147494543, 3786693.082400813698769 ], [ 396928.382502543216106, 3786693.082400813698769 ], [ 396928.6876907426049, 3786692.77721261465922 ], [ 396928.6876907426049, 3786692.47202441515401 ], [ 396931.129196337715257, 3786692.47202441515401 ], [ 396931.129196337715257, 3786692.77721261465922 ], [ 396931.434384537104052, 3786693.082400813698769 ], [ 396931.739572736492846, 3786693.082400813698769 ], [ 396931.739572736492846, 3786694.303153611253947 ], [ 396932.044760935881641, 3786694.608341810759157 ], [ 396932.044760935881641, 3786694.913530010264367 ], [ 396932.655137334717438, 3786695.523906408809125 ], [ 396932.655137334717438, 3786695.829094608314335 ], [ 396932.960325534106232, 3786696.134282807819545 ], [ 396932.960325534106232, 3786697.965412003919482 ], [ 396933.265513733495027, 3786698.270600203424692 ], [ 396933.265513733495027, 3786698.575788402929902 ], [ 396933.570701932883821, 3786698.880976602435112 ], [ 396933.570701932883821, 3786701.322482197545469 ], [ 396932.655137334717438, 3786702.238046795595437 ], [ 396932.349949135328643, 3786702.238046795595437 ], [ 396931.739572736492846, 3786702.848423194140196 ], [ 396929.298067141382489, 3786702.848423194140196 ] ] ] } },
{ "type": "Feature", "properties": { "confidence": 0.75129270553588867, "class": 1 }, "geometry": { "type": "Polygon", "coordinates": [ [ [ 397098.677517802629154, 3787048.321464903187007 ], [ 397098.067141403851565, 3787047.711088504642248 ], [ 397098.067141403851565, 3787046.18514750758186 ], [ 397097.76195320446277, 3787045.87995930807665 ], [ 397097.76195320446277, 3787044.659206510521472 ], [ 397102.950152594072279, 3787044.659206510521472 ], [ 397102.950152594072279, 3787045.87995930807665 ], [ 397102.644964394683484, 3787046.18514750758186 ], [ 397102.644964394683484, 3787046.79552390659228 ], [ 397101.424211597128306, 3787048.016276704147458 ], [ 397101.119023397739511, 3787048.016276704147458 ], [ 397100.813835198350716, 3787048.321464903187007 ], [ 397098.677517802629154, 3787048.321464903187007 ] ] ] } },
{ "type": "Feature", "properties": { "confidence": 0.73506665229797363, "class": 1 }, "geometry": { "type": "Polygon", "coordinates": [ [ [ 396863.987792472005822, 3786868.565615463070571 ], [ 396863.682604272617027, 3786868.260427263565361 ], [ 396863.377416073228233, 3786868.260427263565361 ], [ 396862.156663275673054, 3786867.039674466010183 ], [ 396862.156663275673054, 3786866.429298066999763 ], [ 396861.85147507628426, 3786866.124109867960215 ], [ 396861.85147507628426, 3786863.682604272849858 ], [ 396862.156663275673054, 3786863.377416073344648 ], [ 396862.156663275673054, 3786863.072227873839438 ], [ 396862.767039674450643, 3786863.072227873839438 ], [ 396863.682604272617027, 3786862.156663275789469 ], [ 396863.987792472005822, 3786862.156663275789469 ], [ 396864.292980671394616, 3786861.85147507628426 ], [ 396866.734486266504973, 3786861.85147507628426 ], [ 396867.039674465893768, 3786862.156663275789469 ], [ 396867.344862665282562, 3786862.156663275789469 ], [ 396867.344862665282562, 3786863.072227873839438 ], [ 396867.650050864671357, 3786863.377416073344648 ], [ 396867.650050864671357, 3786864.598168870899826 ], [ 396867.344862665282562, 3786864.903357070405036 ], [ 396867.344862665282562, 3786867.039674466010183 ], [ 396867.039674465893768, 3786867.344862665515393 ], [ 396867.039674465893768, 3786867.650050864554942 ], [ 396866.429298067116179, 3786868.260427263565361 ], [ 396866.124109867727384, 3786868.260427263565361 ], [ 396865.818921668338589, 3786868.565615463070571 ], [ 396863.987792472005822, 3786868.565615463070571 ] ] ] } },
{ "type": "Feature", "properties": { "confidence": 0.62135821580886841, "class": 1 }, "geometry": { "type": "Polygon", "coordinates": [ [ [ 397137.131230925733689, 3787048.321464903187007 ], [ 397136.826042726344895, 3787048.016276704147458 ], [ 397135.300101729400922, 3787048.016276704147458 ], [ 397134.689725330623332, 3787047.405900305137038 ], [ 397134.689725330623332, 3787047.100712105631828 ], [ 397133.774160732456949, 3787046.18514750758186 ], [ 397133.774160732456949, 3787045.269582909531891 ], [ 397134.384537131234538, 3787044.659206510521472 ], [ 397134.384537131234538, 3787044.048830111976713 ], [ 397141.709053916565608, 3787044.048830111976713 ], [ 397141.709053916565608, 3787044.354018311481923 ], [ 397141.403865717176814, 3787044.659206510521472 ], [ 397141.403865717176814, 3787045.269582909531891 ], [ 397141.098677517788019, 3787045.574771109037101 ], [ 397141.098677517788019, 3787046.18514750758186 ], [ 397140.793489318399224, 3787046.49033570708707 ], [ 397140.48830111901043, 3787046.49033570708707 ], [ 397140.183112919621635, 3787046.79552390659228 ], [ 397139.877924720232841, 3787046.79552390659228 ], [ 397139.572736520844046, 3787047.100712105631828 ], [ 397139.267548321455251, 3787047.100712105631828 ], [ 397138.962360122066457, 3787047.405900305137038 ], [ 397138.962360122066457, 3787047.711088504642248 ], [ 397138.657171922677662, 3787048.016276704147458 ], [ 397137.436419125122484, 3787048.016276704147458 ], [ 397137.131230925733689, 3787048.321464903187007 ] ] ] } },
{ "type": "Feature", "properties": { "confidence": 0.54955244064331055, "class": 1 }, "geometry": { "type": "Polygon", "coordinates": [ [ [ 396842.014242115954403, 3787097.456765004899353 ], [ 396841.709053916565608, 3787097.151576805859804 ], [ 396841.403865717176814, 3787097.151576805859804 ], [ 396841.098677517788019, 3787096.846388606354594 ], [ 396840.793489318399224, 3787096.846388606354594 ], [ 396840.48830111901043, 3787096.541200406849384 ], [ 396840.48830111901043, 3787096.236012207344174 ], [ 396840.183112919621635, 3787095.930824008304626 ], [ 396840.183112919621635, 3787095.625635808799416 ], [ 396839.877924720232841, 3787095.320447609294206 ], [ 396839.877924720232841, 3787093.794506612233818 ], [ 396840.183112919621635, 3787093.489318413194269 ], [ 396840.183112919621635, 3787092.573753814678639 ], [ 396840.48830111901043, 3787092.268565615639091 ], [ 396840.48830111901043, 3787091.658189216628671 ], [ 396841.098677517788019, 3787091.047812818083912 ], [ 396841.403865717176814, 3787091.047812818083912 ], [ 396841.709053916565608, 3787090.742624618578702 ], [ 396842.929806714120787, 3787090.742624618578702 ], [ 396843.234994913509581, 3787090.437436419073492 ], [ 396844.760935910453554, 3787090.437436419073492 ], [ 396845.066124109842349, 3787090.742624618578702 ], [ 396845.676500508619938, 3787090.742624618578702 ], [ 396845.981688708008733, 3787091.047812818083912 ], [ 396845.981688708008733, 3787091.353001017123461 ], [ 396846.59206510684453, 3787091.963377416133881 ], [ 396846.897253306233324, 3787091.963377416133881 ], [ 396846.897253306233324, 3787092.268565615639091 ], [ 396847.202441505622119, 3787092.573753814678639 ], [ 396847.507629705010913, 3787092.573753814678639 ], [ 396847.507629705010913, 3787093.184130213689059 ], [ 396847.812817904399708, 3787093.489318413194269 ], [ 396847.812817904399708, 3787095.015259409788996 ], [ 396847.507629705010913, 3787095.320447609294206 ], [ 396847.507629705010913, 3787096.236012207344174 ], [ 396847.202441505622119, 3787096.541200406849384 ], [ 396847.202441505622119, 3787096.846388606354594 ], [ 396846.897253306233324, 3787097.151576805859804 ], [ 396846.286876907397527, 3787097.151576805859804 ], [ 396845.981688708008733, 3787097.456765004899353 ], [ 396842.014242115954403, 3787097.456765004899353 ] ] ] } },
{ "type": "Feature", "properties": { "confidence": 0.49725472927093506, "class": 1 }, "geometry": { "type": "Polygon", "coordinates": [ [ [ 397101.119023397739511, 3787071.515768057201058 ], [ 397100.813835198350716, 3787071.210579857695848 ], [ 397100.508646998961922, 3787071.210579857695848 ], [ 397100.203458799573127, 3787070.905391658190638 ], [ 397098.067141403851565, 3787070.905391658190638 ], [ 397097.76195320446277, 3787070.600203458685428 ], [ 397097.76195320446277, 3787069.37945066113025 ], [ 397098.067141403851565, 3787069.07426246162504 ], [ 397098.067141403851565, 3787068.769074262585491 ], [ 397098.37232960324036, 3787068.463886063080281 ], [ 397098.37232960324036, 3787068.158697863575071 ], [ 397098.982706002017949, 3787067.548321465030313 ], [ 397100.813835198350716, 3787067.548321465030313 ], [ 397101.119023397739511, 3787067.243133265525103 ], [ 397101.424211597128306, 3787067.243133265525103 ], [ 397101.7293997965171, 3787066.937945066019893 ], [ 397102.644964394683484, 3787066.937945066019893 ], [ 397102.644964394683484, 3787067.243133265525103 ], [ 397102.950152594072279, 3787067.548321465030313 ], [ 397102.950152594072279, 3787068.158697863575071 ], [ 397102.644964394683484, 3787068.463886063080281 ], [ 397102.644964394683484, 3787069.37945066113025 ], [ 397102.339776195294689, 3787069.684638860635459 ], [ 397102.339776195294689, 3787069.989827060140669 ], [ 397102.034587995905895, 3787070.295015259180218 ], [ 397102.034587995905895, 3787071.210579857695848 ], [ 397101.7293997965171, 3787071.515768057201058 ], [ 397101.119023397739511, 3787071.515768057201058 ] ] ] } },
{ "type": "Feature", "properties": { "confidence": 0.49666789174079895, "class": 1 }, "geometry": { "type": "Polygon", "coordinates": [ [ [ 396969.277721261430997, 3786934.486266531050205 ], [ 396968.972533062042203, 3786934.181078331544995 ], [ 396968.667344862653408, 3786934.181078331544995 ], [ 396968.362156663264614, 3786933.875890132039785 ], [ 396968.056968463875819, 3786933.875890132039785 ], [ 396967.751780264487024, 3786933.570701933000237 ], [ 396967.44659206509823, 3786933.570701933000237 ], [ 396966.836215666320641, 3786932.960325533989817 ], [ 396966.531027466931846, 3786932.960325533989817 ], [ 396966.531027466931846, 3786932.655137334484607 ], [ 396966.225839267543051, 3786932.349949135445058 ], [ 396966.225839267543051, 3786932.044760935939848 ], [ 396965.615462868765462, 3786931.434384536929429 ], [ 396965.615462868765462, 3786931.12919633788988 ], [ 396965.005086469987873, 3786930.51881993887946 ], [ 396965.005086469987873, 3786930.21363173937425 ], [ 396964.699898270599078, 3786929.908443540334702 ], [ 396964.699898270599078, 3786929.603255340829492 ], [ 396964.394710071210284, 3786929.298067141324282 ], [ 396964.394710071210284, 3786928.992878941819072 ], [ 396964.089521871821489, 3786928.687690742779523 ], [ 396964.089521871821489, 3786926.856561546213925 ], [ 396971.719226856541354, 3786926.856561546213925 ], [ 396971.719226856541354, 3786927.466937945224345 ], [ 396971.41403865715256, 3786927.772126144263893 ], [ 396971.41403865715256, 3786931.12919633788988 ], [ 396971.108850457763765, 3786931.434384536929429 ], [ 396971.108850457763765, 3786932.655137334484607 ], [ 396970.80366225837497, 3786932.960325533989817 ], [ 396970.80366225837497, 3786933.570701933000237 ], [ 396970.498474058986176, 3786933.875890132039785 ], [ 396970.498474058986176, 3786934.181078331544995 ], [ 396970.193285859597381, 3786934.486266531050205 ], [ 396969.277721261430997, 3786934.486266531050205 ] ] ] } },
{ "type": "Feature", "properties": { "confidence": 0.48465976119041443, "class": 1 }, "geometry": { "type": "Polygon", "coordinates": [ [ [ 396705.289928789425176, 3786749.237029501702636 ], [ 396704.984740590036381, 3786748.931841302197427 ], [ 396704.679552390647586, 3786748.931841302197427 ], [ 396704.679552390647586, 3786747.405900305137038 ], [ 396704.984740590036381, 3786747.100712105631828 ], [ 396704.984740590036381, 3786746.79552390659228 ], [ 396705.289928789425176, 3786746.49033570708707 ], [ 396705.289928789425176, 3786746.18514750758186 ], [ 396705.900305188202765, 3786745.574771109037101 ], [ 396706.205493387591559, 3786745.574771109037101 ], [ 396706.510681586980354, 3786745.269582909531891 ], [ 396708.036622583924327, 3786745.269582909531891 ], [ 396708.952187182090711, 3786746.18514750758186 ], [ 396708.952187182090711, 3786747.405900305137038 ], [ 396707.731434384535532, 3786748.626653102692217 ], [ 396707.426246185146738, 3786748.626653102692217 ], [ 396707.121057985757943, 3786748.931841302197427 ], [ 396705.900305188202765, 3786748.931841302197427 ], [ 396705.59511698881397, 3786749.237029501702636 ], [ 396705.289928789425176, 3786749.237029501702636 ] ] ] } },
{ "type": "Feature", "properties": { "confidence": 0.44655868411064148, "class": 1 }, "geometry": { "type": "Polygon", "coordinates": [ [ [ 396837.131230925733689, 3786663.479145472869277 ], [ 396836.826042726344895, 3786663.173957273829728 ], [ 396836.215666327567305, 3786663.173957273829728 ], [ 396835.605289928789716, 3786662.563580874819309 ], [ 396835.605289928789716, 3786660.732451678719372 ], [ 396834.994913530012127, 3786660.122075279708952 ], [ 396834.994913530012127, 3786656.765005086548626 ], [ 396835.300101729400922, 3786656.765005086548626 ], [ 396835.605289928789716, 3786656.459816887043417 ], [ 396835.605289928789716, 3786656.154628687538207 ], [ 396835.910478128178511, 3786656.154628687538207 ], [ 396836.215666327567305, 3786655.849440488498658 ], [ 396836.5208545269561, 3786655.849440488498658 ], [ 396836.826042726344895, 3786655.544252288993448 ], [ 396837.436419125122484, 3786655.544252288993448 ], [ 396837.741607324511278, 3786655.239064089488238 ], [ 396838.351983723288868, 3786655.239064089488238 ], [ 396838.657171922677662, 3786655.544252288993448 ], [ 396838.962360122066457, 3786655.544252288993448 ], [ 396838.962360122066457, 3786655.849440488498658 ], [ 396839.267548321455251, 3786656.154628687538207 ], [ 396839.877924720232841, 3786656.154628687538207 ], [ 396840.793489318399224, 3786657.070193286053836 ], [ 396841.098677517788019, 3786657.070193286053836 ], [ 396841.098677517788019, 3786657.375381485093385 ], [ 396841.403865717176814, 3786657.680569684598595 ], [ 396841.709053916565608, 3786657.680569684598595 ], [ 396841.709053916565608, 3786658.290946083609015 ], [ 396842.014242115954403, 3786658.596134282648563 ], [ 396842.014242115954403, 3786661.03763987775892 ], [ 396841.403865717176814, 3786661.64801627676934 ], [ 396841.403865717176814, 3786661.95320447627455 ], [ 396841.098677517788019, 3786661.95320447627455 ], [ 396840.793489318399224, 3786662.258392675314099 ], [ 396840.793489318399224, 3786662.563580874819309 ], [ 396840.183112919621635, 3786663.173957273829728 ], [ 396839.877924720232841, 3786663.173957273829728 ], [ 396839.572736520844046, 3786663.479145472869277 ], [ 396837.131230925733689, 3786663.479145472869277 ] ] ] } },
{ "type": "Feature", "properties": { "confidence": 0.38164392113685608, "class": 1 }, "geometry": { "type": "Polygon", "coordinates": [ [ [ 397192.67548321466893, 3786702.848423194140196 ], [ 397192.370295015280135, 3786702.543234995100647 ], [ 397187.792472024390008, 3786702.543234995100647 ], [ 397187.487283825001214, 3786702.238046795595437 ], [ 397186.876907426223624, 3786702.238046795595437 ], [ 397186.266531027446035, 3786701.627670396585017 ], [ 397186.266531027446035, 3786701.322482197545469 ], [ 397185.961342828057241, 3786701.017293998040259 ], [ 397185.961342828057241, 3786697.965412003919482 ], [ 397186.57171922683483, 3786697.355035605374724 ], [ 397186.57171922683483, 3786697.049847405869514 ], [ 397186.876907426223624, 3786696.744659206364304 ], [ 397186.876907426223624, 3786696.439471007324755 ], [ 397187.182095625612419, 3786696.439471007324755 ], [ 397187.792472024390008, 3786695.829094608314335 ], [ 397187.792472024390008, 3786695.523906408809125 ], [ 397188.402848423167598, 3786695.523906408809125 ], [ 397188.708036622556392, 3786695.218718209769577 ], [ 397188.708036622556392, 3786694.913530010264367 ], [ 397195.116988809779286, 3786694.913530010264367 ], [ 397195.422177009168081, 3786695.218718209769577 ], [ 397195.727365208556876, 3786695.218718209769577 ], [ 397195.727365208556876, 3786695.523906408809125 ], [ 397196.642929806723259, 3786696.439471007324755 ], [ 397196.642929806723259, 3786697.355035605374724 ], [ 397196.948118006112054, 3786697.660223804879934 ], [ 397196.948118006112054, 3786700.712105798535049 ], [ 397196.642929806723259, 3786701.017293998040259 ], [ 397196.642929806723259, 3786701.322482197545469 ], [ 397196.337741607334465, 3786701.627670396585017 ], [ 397196.03255340794567, 3786701.627670396585017 ], [ 397195.727365208556876, 3786701.932858596090227 ], [ 397195.727365208556876, 3786702.238046795595437 ], [ 397195.422177009168081, 3786702.238046795595437 ], [ 397195.116988809779286, 3786702.543234995100647 ], [ 397194.201424211612903, 3786702.543234995100647 ], [ 397193.896236012224108, 3786702.848423194140196 ], [ 397192.67548321466893, 3786702.848423194140196 ] ] ] } },
{ "type": "Feature", "properties": { "confidence": 0.34110110998153687, "class": 1 }, "geometry": { "type": "Polygon", "coordinates": [ [ [ 396951.576805696822703, 3786951.271617497317493 ], [ 396951.576805696822703, 3786941.810783316381276 ], [ 396951.881993896211497, 3786941.810783316381276 ], [ 396952.797558494377881, 3786942.726347914431244 ], [ 396952.797558494377881, 3786943.031536113936454 ], [ 396953.102746693766676, 3786943.336724313441664 ], [ 396953.102746693766676, 3786944.557477110996842 ], [ 396953.40793489315547, 3786944.862665310502052 ], [ 396953.40793489315547, 3786946.083418108057231 ], [ 396953.102746693766676, 3786946.388606307096779 ], [ 396953.102746693766676, 3786947.609359104651958 ], [ 396952.797558494377881, 3786947.914547304157168 ], [ 396952.797558494377881, 3786948.524923703167588 ], [ 396952.492370294989087, 3786948.830111902207136 ], [ 396952.492370294989087, 3786949.440488301217556 ], [ 396951.881993896211497, 3786950.050864699762315 ], [ 396951.881993896211497, 3786951.271617497317493 ], [ 396951.576805696822703, 3786951.271617497317493 ] ] ] } },
{ "type": "Feature", "properties": { "confidence": 0.34054681658744812, "class": 1 }, "geometry": { "type": "Polygon", "coordinates": [ [ [ 397048.016276703972835, 3787046.79552390659228 ], [ 397047.71108850458404, 3787046.49033570708707 ], [ 397047.100712105806451, 3787046.49033570708707 ], [ 397046.490335707028862, 3787045.87995930807665 ], [ 397046.185147507640067, 3787045.87995930807665 ], [ 397046.185147507640067, 3787045.269582909531891 ], [ 397045.879959308251273, 3787044.964394710026681 ], [ 397045.879959308251273, 3787044.659206510521472 ], [ 397046.185147507640067, 3787044.354018311481923 ], [ 397046.185147507640067, 3787044.048830111976713 ], [ 397050.457782299083192, 3787044.048830111976713 ], [ 397050.457782299083192, 3787044.354018311481923 ], [ 397050.762970498471987, 3787044.659206510521472 ], [ 397050.762970498471987, 3787045.574771109037101 ], [ 397049.847405900305603, 3787046.49033570708707 ], [ 397049.542217700916808, 3787046.49033570708707 ], [ 397049.237029501528013, 3787046.79552390659228 ], [ 397048.016276703972835, 3787046.79552390659228 ] ] ] } },
{ "type": "Feature", "properties": { "confidence": 0.32694196701049805, "class": 1 }, "geometry": { "type": "Polygon", "coordinates": [ [ [ 396873.143438453727867, 3786635.096642929594964 ], [ 396872.838250254339073, 3786634.791454730555415 ], [ 396871.617497456783894, 3786634.791454730555415 ], [ 396871.3123092573951, 3786634.486266531050205 ], [ 396870.701932858617511, 3786634.486266531050205 ], [ 396870.396744659228716, 3786634.181078331544995 ], [ 396869.786368260451127, 3786634.181078331544995 ], [ 396869.481180061062332, 3786633.875890132039785 ], [ 396868.870803662284743, 3786633.875890132039785 ], [ 396868.260427263507154, 3786633.265513733495027 ], [ 396867.955239064118359, 3786633.265513733495027 ], [ 396865.818921668338589, 3786631.12919633788988 ], [ 396865.818921668338589, 3786628.992878941819072 ], [ 396867.955239064118359, 3786628.992878941819072 ], [ 396868.260427263507154, 3786629.298067141324282 ], [ 396868.565615462895948, 3786629.298067141324282 ], [ 396869.175991861673538, 3786629.908443540334702 ], [ 396869.786368260451127, 3786629.908443540334702 ], [ 396870.091556459839921, 3786630.21363173937425 ], [ 396870.701932858617511, 3786630.21363173937425 ], [ 396871.007121058006305, 3786630.51881993887946 ], [ 396871.617497456783894, 3786630.51881993887946 ], [ 396871.922685656172689, 3786630.82400813838467 ], [ 396872.227873855561484, 3786630.82400813838467 ], [ 396872.533062054950278, 3786631.12919633788988 ], [ 396872.838250254339073, 3786631.12919633788988 ], [ 396873.143438453727867, 3786631.434384536929429 ], [ 396873.448626653116662, 3786631.434384536929429 ], [ 396873.753814852505457, 3786631.739572736434639 ], [ 396875.27975584944943, 3786631.739572736434639 ], [ 396875.27975584944943, 3786633.875890132039785 ], [ 396874.974567650060635, 3786634.181078331544995 ], [ 396874.974567650060635, 3786634.486266531050205 ], [ 396874.66937945067184, 3786634.791454730555415 ], [ 396873.448626653116662, 3786634.791454730555415 ], [ 396873.143438453727867, 3786635.096642929594964 ] ] ] } },
{ "type": "Feature", "properties": { "confidence": 0.26692578196525574, "class": 1 }, "geometry": { "type": "Polygon", "coordinates": [ [ [ 397017.49745676497696, 3786695.218718209769577 ], [ 397017.192268565588165, 3786694.913530010264367 ], [ 397016.88708036619937, 3786694.913530010264367 ], [ 397016.581892166810576, 3786694.608341810759157 ], [ 397016.276703967421781, 3786694.608341810759157 ], [ 397015.971515768032987, 3786694.303153611253947 ], [ 397015.666327568644192, 3786694.303153611253947 ], [ 397015.361139369255397, 3786693.997965412214398 ], [ 397015.055951169866603, 3786693.997965412214398 ], [ 397014.750762970477808, 3786693.692777212709188 ], [ 397014.140386571700219, 3786693.692777212709188 ], [ 397013.835198372311424, 3786693.387589013203979 ], [ 397013.835198372311424, 3786692.47202441515401 ], [ 397019.938962360145524, 3786692.47202441515401 ], [ 397019.938962360145524, 3786692.77721261465922 ], [ 397019.63377416075673, 3786693.082400813698769 ], [ 397019.63377416075673, 3786693.692777212709188 ], [ 397019.328585961367935, 3786693.997965412214398 ], [ 397019.328585961367935, 3786694.303153611253947 ], [ 397018.413021363201551, 3786695.218718209769577 ], [ 397017.49745676497696, 3786695.218718209769577 ] ] ] } }
]
}
