{
"type": "FeatureCollection",
"name": "cell_00463_pre",
"crs": { "type": "name", "properties": { "name": "urn:ogc:def:crs:EPSG::32611" } },
"features": [
{ "type": "Feature", "properties": { "confidence": 0.96651244163513184, "class": 1 }, "geometry": { "type": "Polygon", "coordinates": [ [ [ 400468.565615462895948, 3785619.735503560397774 ], [ 400468.260427263507154, 3785619.430315361358225 ], [ 400467.344862665282562, 3785619.430315361358225 ], [ 400467.039674465893768, 3785619.125127161853015 ], [ 400466.734486266504973, 3785619.125127161853015 ], [ 400466.124109867727384, 3785618.514750762842596 ], [ 400466.124109867727384, 3785618.209562563803047 ], [ 400465.513733468949795, 3785617.599186164792627 ], [ 400465.513733468949795, 3785616.073245167732239 ], [ 400465.208545269561, 3785615.76805696869269 ], [ 400465.208545269561, 3785615.46286876918748 ], [ 400464.598168870783411, 3785614.85249237017706 ], [ 400464.598168870783411, 3785614.242115971632302 ], [ 400464.292980671394616, 3785613.936927772127092 ], [ 400464.292980671394616, 3785612.716174974571913 ], [ 400463.682604272617027, 3785612.105798575561494 ], [ 400463.682604272617027, 3785610.579857578966767 ], [ 400464.598168870783411, 3785610.579857578966767 ], [ 400464.903357070172206, 3785610.274669379461557 ], [ 400470.396744659228716, 3785610.274669379461557 ], [ 400470.701932858617511, 3785610.579857578966767 ], [ 400470.701932858617511, 3785612.105798575561494 ], [ 400470.396744659228716, 3785612.410986775066704 ], [ 400470.396744659228716, 3785615.15768056968227 ], [ 400470.091556459839921, 3785615.46286876918748 ], [ 400470.091556459839921, 3785616.378433367237449 ], [ 400470.396744659228716, 3785616.683621566742659 ], [ 400470.396744659228716, 3785618.819938962347806 ], [ 400470.091556459839921, 3785619.125127161853015 ], [ 400470.091556459839921, 3785619.430315361358225 ], [ 400469.481180061062332, 3785619.430315361358225 ], [ 400469.175991861673538, 3785619.735503560397774 ], [ 400468.565615462895948, 3785619.735503560397774 ] ] ] } },
{ "type": "Feature", "properties": { "confidence": 0.9487687349319458, "class": 1 }, "geometry": { "type": "Polygon", "coordinates": [ [ [ 400215.564598168886732, 3785544.354018311481923 ], [ 400214.954221770109143, 3785543.743641912471503 ], [ 400214.649033570720349, 3785543.743641912471503 ], [ 400214.343845371331554, 3785543.438453712966293 ], [ 400214.343845371331554, 3785543.133265513926744 ], [ 400214.038657171942759, 3785542.828077314421535 ], [ 400214.038657171942759, 3785541.912512716371566 ], [ 400214.343845371331554, 3785541.607324516866356 ], [ 400214.343845371331554, 3785540.996948117855936 ], [ 400214.649033570720349, 3785540.691759918816388 ], [ 400214.954221770109143, 3785540.691759918816388 ], [ 400215.564598168886732, 3785540.081383519805968 ], [ 400215.869786368275527, 3785540.081383519805968 ], [ 400216.174974567664322, 3785539.776195320300758 ], [ 400216.785350966441911, 3785539.776195320300758 ], [ 400217.090539165830705, 3785539.471007121261209 ], [ 400217.3957273652195, 3785539.471007121261209 ], [ 400217.700915564608295, 3785539.165818921755999 ], [ 400218.006103763997089, 3785539.165818921755999 ], [ 400218.616480162774678, 3785538.555442522745579 ], [ 400218.921668362163473, 3785538.555442522745579 ], [ 400219.532044760941062, 3785537.945066124200821 ], [ 400219.532044760941062, 3785537.639877924695611 ], [ 400219.837232960329857, 3785537.639877924695611 ], [ 400220.142421159718651, 3785537.334689725190401 ], [ 400221.973550356051419, 3785537.334689725190401 ], [ 400222.583926754829008, 3785537.945066124200821 ], [ 400222.583926754829008, 3785538.555442522745579 ], [ 400222.278738555440214, 3785538.860630722250789 ], [ 400222.278738555440214, 3785540.081383519805968 ], [ 400221.973550356051419, 3785540.386571719311178 ], [ 400221.973550356051419, 3785540.691759918816388 ], [ 400220.142421159718651, 3785542.522889114916325 ], [ 400220.142421159718651, 3785542.828077314421535 ], [ 400218.921668362163473, 3785544.048830111976713 ], [ 400218.616480162774678, 3785544.048830111976713 ], [ 400218.311291963385884, 3785544.354018311481923 ], [ 400215.564598168886732, 3785544.354018311481923 ] ] ] } },
{ "type": "Feature", "properties": { "confidence": 0.8776625394821167, "class": 1 }, "geometry": { "type": "Polygon", "coordinates": [ [ [ 400253.713123092602473, 3785557.477110885083675 ], [ 400253.40793489315547, 3785557.171922685578465 ], [ 400252.797558494377881, 3785557.171922685578465 ], [ 400252.492370294989087, 3785556.866734486073256 ], [ 400251.881993896211497, 3785556.866734486073256 ], [ 400251.576805696822703, 3785556.561546287033707 ], [ 400251.271617497433908, 3785556.561546287033707 ], [ 400250.05086469987873, 3785555.340793489478528 ], [ 400250.05086469987873, 3785554.12004069192335 ], [ 400250.356052899267524, 3785553.81485249241814 ], [ 400250.356052899267524, 3785553.50966429291293 ], [ 400250.661241098656319, 3785553.20447609340772 ], [ 400250.966429298045114, 3785553.20447609340772 ], [ 400251.271617497433908, 3785552.899287894368172 ], [ 400251.881993896211497, 3785552.899287894368172 ], [ 400252.187182095600292, 3785552.594099694862962 ], [ 400253.713123092602473, 3785552.594099694862962 ], [ 400254.018311291991267, 3785552.899287894368172 ], [ 400254.628687690768857, 3785552.899287894368172 ], [ 400255.239064089546446, 3785553.50966429291293 ], [ 400255.54425228893524, 3785553.50966429291293 ], [ 400256.459816887101624, 3785554.425228890962899 ], [ 400256.459816887101624, 3785554.730417090468109 ], [ 400256.765005086490419, 3785555.035605289973319 ], [ 400256.765005086490419, 3785555.645981688518077 ], [ 400257.070193285879213, 3785555.951169888023287 ], [ 400257.070193285879213, 3785556.866734486073256 ], [ 400256.765005086490419, 3785557.171922685578465 ], [ 400256.15462868771283, 3785557.171922685578465 ], [ 400255.849440488324035, 3785557.477110885083675 ], [ 400253.713123092602473, 3785557.477110885083675 ] ] ] } },
{ "type": "Feature", "properties": { "confidence": 0.84392648935317993, "class": 1 }, "geometry": { "type": "Polygon", "coordinates": [ [ [ 400367.853509664302692, 3785586.469989826902747 ], [ 400367.548321464913897, 3785586.164801627863199 ], [ 400367.243133265525103, 3785586.164801627863199 ], [ 400366.632756866747513, 3785585.554425228852779 ], [ 400366.632756866747513, 3785585.249237029347569 ], [ 400366.327568667358719, 3785584.94404883030802 ], [ 400366.327568667358719, 3785584.63886063080281 ], [ 400366.022380467969924, 3785584.3336724312976 ], [ 400366.022380467969924, 3785583.418107833247632 ], [ 400365.71719226858113, 3785583.112919633742422 ], [ 400365.71719226858113, 3785581.586978636682034 ], [ 400365.412004069192335, 3785581.281790437642485 ], [ 400365.412004069192335, 3785580.671414038632065 ], [ 400365.10681586980354, 3785580.366225839126855 ], [ 400365.10681586980354, 3785579.145473041571677 ], [ 400365.71719226858113, 3785578.535096643026918 ], [ 400365.71719226858113, 3785578.229908443521708 ], [ 400366.632756866747513, 3785577.31434384547174 ], [ 400366.937945066136308, 3785577.31434384547174 ], [ 400367.243133265525103, 3785577.00915564596653 ], [ 400369.07426246185787, 3785577.00915564596653 ], [ 400369.07426246185787, 3785577.31434384547174 ], [ 400369.379450661246665, 3785577.61953204497695 ], [ 400369.684638860635459, 3785577.61953204497695 ], [ 400369.684638860635459, 3785578.229908443521708 ], [ 400369.989827060024254, 3785578.535096643026918 ], [ 400370.295015259413049, 3785578.535096643026918 ], [ 400370.295015259413049, 3785578.840284842532128 ], [ 400371.210579857579432, 3785579.755849440582097 ], [ 400371.210579857579432, 3785580.061037640087306 ], [ 400372.431332655134611, 3785581.281790437642485 ], [ 400372.431332655134611, 3785581.586978636682034 ], [ 400372.736520854523405, 3785581.892166836187243 ], [ 400372.736520854523405, 3785582.807731434237212 ], [ 400373.0417090539122, 3785583.112919633742422 ], [ 400373.0417090539122, 3785583.723296032752842 ], [ 400372.736520854523405, 3785584.02848423179239 ], [ 400372.736520854523405, 3785584.63886063080281 ], [ 400372.126144455745816, 3785585.249237029347569 ], [ 400371.820956256357022, 3785585.249237029347569 ], [ 400371.515768056968227, 3785585.554425228852779 ], [ 400370.600203458801843, 3785585.554425228852779 ], [ 400370.295015259413049, 3785585.859613428357989 ], [ 400369.989827060024254, 3785585.859613428357989 ], [ 400369.684638860635459, 3785586.164801627863199 ], [ 400368.769074262469076, 3785586.164801627863199 ], [ 400368.463886063080281, 3785586.469989826902747 ], [ 400367.853509664302692, 3785586.469989826902747 ] ] ] } },
{ "type": "Feature", "properties": { "confidence": 0.74023371934890747, "class": 1 }, "geometry": { "type": "Polygon", "coordinates": [ [ [ 400377.924720244132914, 3785619.735503560397774 ], [ 400377.619532044744119, 3785619.430315361358225 ], [ 400377.00915564596653, 3785619.430315361358225 ], [ 400376.703967446577735, 3785619.125127161853015 ], [ 400376.398779247188941, 3785619.125127161853015 ], [ 400376.093591047800146, 3785618.819938962347806 ], [ 400376.093591047800146, 3785618.514750762842596 ], [ 400375.788402848411351, 3785618.209562563803047 ], [ 400375.483214649022557, 3785618.209562563803047 ], [ 400375.483214649022557, 3785617.293997965287417 ], [ 400375.178026449633762, 3785616.988809766247869 ], [ 400375.178026449633762, 3785616.073245167732239 ], [ 400374.872838250244968, 3785615.76805696869269 ], [ 400374.872838250244968, 3785613.936927772127092 ], [ 400374.567650050856173, 3785613.631739572621882 ], [ 400374.567650050856173, 3785612.105798575561494 ], [ 400374.872838250244968, 3785611.800610376521945 ], [ 400374.872838250244968, 3785611.495422177016735 ], [ 400375.178026449633762, 3785611.190233977511525 ], [ 400375.178026449633762, 3785610.885045778006315 ], [ 400375.788402848411351, 3785610.274669379461557 ], [ 400379.450661241076887, 3785610.274669379461557 ], [ 400379.755849440465681, 3785609.969481179956347 ], [ 400379.755849440465681, 3785609.664292980451137 ], [ 400380.671414038632065, 3785609.664292980451137 ], [ 400380.671414038632065, 3785609.969481179956347 ], [ 400380.97660223802086, 3785610.274669379461557 ], [ 400381.892166836187243, 3785610.274669379461557 ], [ 400382.197355035634246, 3785610.579857578966767 ], [ 400382.197355035634246, 3785612.105798575561494 ], [ 400382.50254323502304, 3785612.410986775066704 ], [ 400382.50254323502304, 3785612.716174974571913 ], [ 400383.11291963380063, 3785613.326551373116672 ], [ 400383.11291963380063, 3785613.631739572621882 ], [ 400383.418107833189424, 3785613.936927772127092 ], [ 400383.418107833189424, 3785615.15768056968227 ], [ 400383.723296032578219, 3785615.46286876918748 ], [ 400383.418107833189424, 3785615.76805696869269 ], [ 400383.418107833189424, 3785616.988809766247869 ], [ 400383.11291963380063, 3785617.293997965287417 ], [ 400383.11291963380063, 3785617.904374364297837 ], [ 400382.807731434411835, 3785618.209562563803047 ], [ 400382.807731434411835, 3785618.514750762842596 ], [ 400382.50254323502304, 3785618.819938962347806 ], [ 400382.197355035634246, 3785618.819938962347806 ], [ 400381.892166836187243, 3785619.125127161853015 ], [ 400381.281790437409654, 3785619.125127161853015 ], [ 400380.97660223802086, 3785619.430315361358225 ], [ 400379.145473041688092, 3785619.430315361358225 ], [ 400378.840284842299297, 3785619.735503560397774 ], [ 400377.924720244132914, 3785619.735503560397774 ] ] ] } },
{ "type": "Feature", "properties": { "confidence": 0.7386174201965332, "class": 1 }, "geometry": { "type": "Polygon", "coordinates": [ [ [ 400607.731434384535532, 3785731.12919633788988 ], [ 400607.426246185146738, 3785730.82400813838467 ], [ 400606.205493387591559, 3785730.82400813838467 ], [ 400605.900305188202765, 3785730.51881993887946 ], [ 400605.59511698881397, 3785730.51881993887946 ], [ 400605.289928789425176, 3785730.21363173937425 ], [ 400605.289928789425176, 3785727.772126144263893 ], [ 400604.984740590036381, 3785727.466937945224345 ], [ 400605.289928789425176, 3785727.161749745719135 ], [ 400605.289928789425176, 3785726.856561546213925 ], [ 400615.055951169866603, 3785726.856561546213925 ], [ 400615.055951169866603, 3785729.908443540334702 ], [ 400614.750762970477808, 3785730.21363173937425 ], [ 400613.835198372311424, 3785730.21363173937425 ], [ 400613.53001017292263, 3785730.51881993887946 ], [ 400611.393692777201068, 3785730.51881993887946 ], [ 400611.088504577812273, 3785730.82400813838467 ], [ 400608.341810783313122, 3785730.82400813838467 ], [ 400608.036622583924327, 3785731.12919633788988 ], [ 400607.731434384535532, 3785731.12919633788988 ] ] ] } },
{ "type": "Feature", "properties": { "confidence": 0.70502328872680664, "class": 1 }, "geometry": { "type": "Polygon", "coordinates": [ [ [ 400241.505595116992481, 3785590.132248219568282 ], [ 400241.200406917603686, 3785589.827060020528734 ], [ 400240.590030518826097, 3785589.827060020528734 ], [ 400240.284842319437303, 3785589.521871821023524 ], [ 400240.284842319437303, 3785588.911495422013104 ], [ 400239.979654120048508, 3785588.606307222973555 ], [ 400239.979654120048508, 3785587.080366225913167 ], [ 400240.284842319437303, 3785586.775178026407957 ], [ 400240.284842319437303, 3785586.164801627863199 ], [ 400242.726347914547659, 3785583.723296032752842 ], [ 400243.031536113936454, 3785583.723296032752842 ], [ 400243.641912512714043, 3785583.112919633742422 ], [ 400245.473041709046811, 3785583.112919633742422 ], [ 400245.778229908435605, 3785582.807731434237212 ], [ 400246.0834181078244, 3785583.112919633742422 ], [ 400246.388606307213195, 3785583.112919633742422 ], [ 400246.388606307213195, 3785584.63886063080281 ], [ 400246.693794506601989, 3785584.94404883030802 ], [ 400246.693794506601989, 3785585.249237029347569 ], [ 400246.998982705990784, 3785585.554425228852779 ], [ 400246.998982705990784, 3785586.775178026407957 ], [ 400246.388606307213195, 3785587.385554425418377 ], [ 400246.388606307213195, 3785587.690742624457926 ], [ 400246.0834181078244, 3785587.995930823963135 ], [ 400246.0834181078244, 3785588.301119023468345 ], [ 400245.473041709046811, 3785588.911495422013104 ], [ 400244.862665310269222, 3785588.911495422013104 ], [ 400244.557477110880427, 3785589.216683621518314 ], [ 400243.947100712102838, 3785589.216683621518314 ], [ 400243.336724313325249, 3785589.827060020528734 ], [ 400242.726347914547659, 3785589.827060020528734 ], [ 400242.421159715158865, 3785590.132248219568282 ], [ 400241.505595116992481, 3785590.132248219568282 ] ] ] } },
{ "type": "Feature", "properties": { "confidence": 0.69131487607955933, "class": 1 }, "geometry": { "type": "Polygon", "coordinates": [ [ [ 400550.966429298045114, 3785665.208545269444585 ], [ 400550.356052899267524, 3785664.598168870899826 ], [ 400550.356052899267524, 3785664.292980671394616 ], [ 400549.745676500489935, 3785663.682604272849858 ], [ 400549.745676500489935, 3785663.377416073344648 ], [ 400549.135300101712346, 3785662.767039674334228 ], [ 400549.135300101712346, 3785660.325534079223871 ], [ 400548.830111902323551, 3785660.020345880184323 ], [ 400548.830111902323551, 3785659.715157680679113 ], [ 400549.135300101712346, 3785659.409969481173903 ], [ 400549.135300101712346, 3785658.799593082629144 ], [ 400549.440488301101141, 3785658.494404883123934 ], [ 400550.05086469987873, 3785658.494404883123934 ], [ 400550.356052899267524, 3785658.189216683618724 ], [ 400551.576805696822703, 3785658.189216683618724 ], [ 400551.881993896211497, 3785657.884028484113514 ], [ 400553.40793489315547, 3785657.884028484113514 ], [ 400553.713123092602473, 3785658.189216683618724 ], [ 400554.018311291991267, 3785658.189216683618724 ], [ 400554.323499491380062, 3785658.494404883123934 ], [ 400554.628687690768857, 3785658.494404883123934 ], [ 400555.239064089546446, 3785659.104781281668693 ], [ 400555.54425228893524, 3785659.104781281668693 ], [ 400556.15462868771283, 3785659.715157680679113 ], [ 400556.459816887101624, 3785659.715157680679113 ], [ 400556.765005086490419, 3785660.020345880184323 ], [ 400556.765005086490419, 3785660.935910478234291 ], [ 400556.459816887101624, 3785661.241098677739501 ], [ 400556.459816887101624, 3785661.85147507628426 ], [ 400556.15462868771283, 3785662.156663275789469 ], [ 400556.15462868771283, 3785662.461851475294679 ], [ 400554.933875890157651, 3785663.682604272849858 ], [ 400554.933875890157651, 3785663.987792471889406 ], [ 400554.628687690768857, 3785664.292980671394616 ], [ 400554.323499491380062, 3785664.292980671394616 ], [ 400554.018311291991267, 3785664.598168870899826 ], [ 400553.713123092602473, 3785664.598168870899826 ], [ 400553.40793489315547, 3785664.903357070405036 ], [ 400552.797558494377881, 3785664.903357070405036 ], [ 400552.492370294989087, 3785665.208545269444585 ], [ 400550.966429298045114, 3785665.208545269444585 ] ] ] } },
{ "type": "Feature", "properties": { "confidence": 0.69127625226974487, "class": 1 }, "geometry": { "type": "Polygon", "coordinates": [ [ [ 400274.465920651040506, 3785799.79654120048508 ], [ 400274.160732451651711, 3785799.491353000979871 ], [ 400273.855544252262916, 3785799.491353000979871 ], [ 400273.550356052874122, 3785799.186164801474661 ], [ 400273.245167853485327, 3785799.186164801474661 ], [ 400273.245167853485327, 3785798.880976602435112 ], [ 400272.939979654096533, 3785798.575788402929902 ], [ 400272.939979654096533, 3785798.270600203424692 ], [ 400272.634791454707738, 3785797.965412003919482 ], [ 400272.634791454707738, 3785797.660223804879934 ], [ 400272.329603255318943, 3785797.355035605374724 ], [ 400272.329603255318943, 3785795.829094608314335 ], [ 400272.939979654096533, 3785795.218718209769577 ], [ 400274.7711088504293, 3785795.218718209769577 ], [ 400275.076297049876302, 3785795.523906408809125 ], [ 400275.686673448653892, 3785795.523906408809125 ], [ 400275.991861648042686, 3785795.829094608314335 ], [ 400276.297049847431481, 3785795.829094608314335 ], [ 400276.602238046820275, 3785796.134282807819545 ], [ 400276.90742624620907, 3785796.134282807819545 ], [ 400277.212614445597865, 3785796.439471007324755 ], [ 400277.517802644986659, 3785796.439471007324755 ], [ 400277.822990844375454, 3785796.744659206364304 ], [ 400278.128179043764248, 3785796.744659206364304 ], [ 400278.128179043764248, 3785797.049847405869514 ], [ 400278.433367243153043, 3785797.355035605374724 ], [ 400278.433367243153043, 3785797.660223804879934 ], [ 400277.822990844375454, 3785798.270600203424692 ], [ 400277.517802644986659, 3785798.270600203424692 ], [ 400276.602238046820275, 3785799.186164801474661 ], [ 400276.297049847431481, 3785799.186164801474661 ], [ 400275.991861648042686, 3785799.491353000979871 ], [ 400275.686673448653892, 3785799.491353000979871 ], [ 400275.381485249265097, 3785799.79654120048508 ], [ 400274.465920651040506, 3785799.79654120048508 ] ] ] } },
{ "type": "Feature", "properties": { "confidence": 0.68118983507156372, "class": 1 }, "geometry": { "type": "Polygon", "coordinates": [ [ [ 400500.0, 3785612.716174974571913 ], [ 400499.694811800611205, 3785612.410986775066704 ], [ 400499.389623601222411, 3785612.410986775066704 ], [ 400498.779247202444822, 3785611.800610376521945 ], [ 400498.779247202444822, 3785611.190233977511525 ], [ 400498.474059003056027, 3785610.885045778006315 ], [ 400498.474059003056027, 3785609.664292980451137 ], [ 400502.136317395721562, 3785609.664292980451137 ], [ 400502.136317395721562, 3785612.105798575561494 ], [ 400501.831129196332768, 3785612.410986775066704 ], [ 400501.220752797555178, 3785612.410986775066704 ], [ 400500.915564598166384, 3785612.716174974571913 ], [ 400500.0, 3785612.716174974571913 ] ] ] } },
{ "type": "Feature", "properties": { "confidence": 0.60431128740310669, "class": 1 }, "geometry": { "type": "Polygon", "coordinates": [ [ [ 400209.766022380441427, 3785633.163784333504736 ], [ 400209.460834181052633, 3785632.858596134465188 ], [ 400209.155645981663838, 3785632.858596134465188 ], [ 400208.850457782275043, 3785632.553407934959978 ], [ 400207.93489318410866, 3785632.553407934959978 ], [ 400207.32451678533107, 3785631.943031535949558 ], [ 400207.019328585942276, 3785631.943031535949558 ], [ 400207.019328585942276, 3785631.02746693789959 ], [ 400206.714140386553481, 3785630.72227873839438 ], [ 400206.714140386553481, 3785630.417090539354831 ], [ 400206.408952187164687, 3785630.111902339849621 ], [ 400206.408952187164687, 3785629.806714140344411 ], [ 400206.103763987775892, 3785629.501525940839201 ], [ 400206.103763987775892, 3785627.670396744739264 ], [ 400206.408952187164687, 3785627.670396744739264 ], [ 400206.714140386553481, 3785627.365208545234054 ], [ 400206.714140386553481, 3785627.060020345728844 ], [ 400207.629704984719865, 3785627.060020345728844 ], [ 400208.240081383497454, 3785627.670396744739264 ], [ 400208.850457782275043, 3785627.670396744739264 ], [ 400209.155645981663838, 3785627.975584944244474 ], [ 400210.376398779219016, 3785627.975584944244474 ], [ 400210.681586978607811, 3785628.280773143284023 ], [ 400211.597151576832402, 3785628.280773143284023 ], [ 400211.902339776221197, 3785628.585961342789233 ], [ 400212.207527975609992, 3785628.585961342789233 ], [ 400212.817904374387581, 3785629.196337741799653 ], [ 400212.817904374387581, 3785632.553407934959978 ], [ 400212.512716174998786, 3785632.858596134465188 ], [ 400212.207527975609992, 3785632.858596134465188 ], [ 400211.902339776221197, 3785633.163784333504736 ], [ 400209.766022380441427, 3785633.163784333504736 ] ] ] } },
{ "type": "Feature", "properties": { "confidence": 0.60106480121612549, "class": 1 }, "geometry": { "type": "Polygon", "coordinates": [ [ [ 400582.400813835207373, 3785934.994913530070335 ], [ 400582.095625635818578, 3785934.689725330565125 ], [ 400581.790437436429784, 3785934.689725330565125 ], [ 400581.485249237040989, 3785934.384537131059915 ], [ 400581.180061037652194, 3785934.384537131059915 ], [ 400580.8748728382634, 3785934.079348932020366 ], [ 400580.264496439485811, 3785934.079348932020366 ], [ 400579.959308240097016, 3785933.774160732515156 ], [ 400579.348931841319427, 3785933.774160732515156 ], [ 400579.043743641930632, 3785933.468972533009946 ], [ 400578.738555442541838, 3785933.468972533009946 ], [ 400578.433367243153043, 3785933.163784333504736 ], [ 400577.822990844375454, 3785933.163784333504736 ], [ 400577.517802644986659, 3785932.858596134465188 ], [ 400577.212614445597865, 3785932.858596134465188 ], [ 400576.297049847431481, 3785931.943031535949558 ], [ 400576.297049847431481, 3785931.637843336910009 ], [ 400575.991861648042686, 3785931.332655137404799 ], [ 400575.991861648042686, 3785931.02746693789959 ], [ 400575.076297049876302, 3785930.111902339849621 ], [ 400575.076297049876302, 3785929.501525940839201 ], [ 400574.7711088504293, 3785929.196337741799653 ], [ 400574.7711088504293, 3785927.670396744739264 ], [ 400575.076297049876302, 3785927.365208545234054 ], [ 400575.381485249265097, 3785927.365208545234054 ], [ 400575.686673448653892, 3785927.060020345728844 ], [ 400575.991861648042686, 3785927.060020345728844 ], [ 400576.297049847431481, 3785926.754832146689296 ], [ 400576.602238046820275, 3785926.754832146689296 ], [ 400576.90742624620907, 3785926.449643947184086 ], [ 400577.212614445597865, 3785926.449643947184086 ], [ 400577.517802644986659, 3785926.144455747678876 ], [ 400577.822990844375454, 3785926.144455747678876 ], [ 400578.128179043764248, 3785925.839267548173666 ], [ 400578.433367243153043, 3785925.839267548173666 ], [ 400578.738555442541838, 3785925.534079349134117 ], [ 400581.180061037652194, 3785925.534079349134117 ], [ 400581.485249237040989, 3785925.839267548173666 ], [ 400581.790437436429784, 3785925.839267548173666 ], [ 400582.400813835207373, 3785926.449643947184086 ], [ 400582.400813835207373, 3785927.060020345728844 ], [ 400583.011190233984962, 3785927.670396744739264 ], [ 400583.011190233984962, 3785927.975584944244474 ], [ 400583.316378433373757, 3785928.280773143284023 ], [ 400583.316378433373757, 3785928.585961342789233 ], [ 400583.621566632762551, 3785928.891149542294443 ], [ 400583.621566632762551, 3785932.248219735454768 ], [ 400583.926754832151346, 3785932.553407934959978 ], [ 400583.926754832151346, 3785933.774160732515156 ], [ 400582.706002034596168, 3785934.994913530070335 ], [ 400582.400813835207373, 3785934.994913530070335 ] ] ] } },
{ "type": "Feature", "properties": { "confidence": 0.55223852396011353, "class": 1 }, "geometry": { "type": "Polygon", "coordinates": [ [ [ 400654.120040691748727, 3785844.964394710026681 ], [ 400654.120040691748727, 3785844.659206510521472 ], [ 400653.814852492359933, 3785844.354018311481923 ], [ 400653.814852492359933, 3785843.743641912471503 ], [ 400654.730417090526316, 3785842.828077314421535 ], [ 400655.035605289915111, 3785842.828077314421535 ], [ 400655.6459816886927, 3785842.217700915411115 ], [ 400655.951169888081495, 3785842.217700915411115 ], [ 400656.256358087470289, 3785841.912512716371566 ], [ 400656.561546286859084, 3785841.912512716371566 ], [ 400657.171922685636673, 3785841.302136317361146 ], [ 400657.477110885025468, 3785841.302136317361146 ], [ 400658.087487283803057, 3785840.691759918816388 ], [ 400658.392675483191852, 3785840.691759918816388 ], [ 400658.697863682580646, 3785840.386571719311178 ], [ 400660.223804679524619, 3785840.386571719311178 ], [ 400660.528992878913414, 3785840.691759918816388 ], [ 400660.528992878913414, 3785842.522889114916325 ], [ 400660.223804679524619, 3785842.828077314421535 ], [ 400659.918616480135825, 3785842.828077314421535 ], [ 400659.61342828074703, 3785843.133265513926744 ], [ 400658.697863682580646, 3785843.133265513926744 ], [ 400658.392675483191852, 3785843.438453712966293 ], [ 400658.087487283803057, 3785843.438453712966293 ], [ 400657.782299084414262, 3785843.743641912471503 ], [ 400657.171922685636673, 3785843.743641912471503 ], [ 400656.866734486247879, 3785844.048830111976713 ], [ 400656.561546286859084, 3785844.048830111976713 ], [ 400655.951169888081495, 3785844.659206510521472 ], [ 400655.6459816886927, 3785844.659206510521472 ], [ 400655.340793489303906, 3785844.964394710026681 ], [ 400654.120040691748727, 3785844.964394710026681 ] ] ] } },
{ "type": "Feature", "properties": { "confidence": 0.54899376630783081, "class": 1 }, "geometry": { "type": "Polygon", "coordinates": [ [ [ 400278.738555442541838, 3785614.242115971632302 ], [ 400277.822990844375454, 3785613.326551373116672 ], [ 400277.517802644986659, 3785613.326551373116672 ], [ 400277.517802644986659, 3785610.579857578966767 ], [ 400277.822990844375454, 3785610.274669379461557 ], [ 400277.822990844375454, 3785609.664292980451137 ], [ 400281.485249237040989, 3785609.664292980451137 ], [ 400281.180061037652194, 3785609.969481179956347 ], [ 400281.180061037652194, 3785610.579857578966767 ], [ 400280.569684638874605, 3785611.190233977511525 ], [ 400280.569684638874605, 3785612.105798575561494 ], [ 400280.264496439485811, 3785612.410986775066704 ], [ 400280.264496439485811, 3785613.631739572621882 ], [ 400279.654120040708221, 3785614.242115971632302 ], [ 400278.738555442541838, 3785614.242115971632302 ] ] ] } },
{ "type": "Feature", "properties": { "confidence": 0.51380568742752075, "class": 1 }, "geometry": { "type": "Polygon", "coordinates": [ [ [ 400371.210579857579432, 3785852.594099694862962 ], [ 400370.905391658190638, 3785852.288911495357752 ], [ 400370.600203458801843, 3785852.288911495357752 ], [ 400370.600203458801843, 3785851.983723295852542 ], [ 400370.295015259413049, 3785851.678535096812993 ], [ 400370.295015259413049, 3785848.321464903187007 ], [ 400370.600203458801843, 3785848.016276704147458 ], [ 400370.600203458801843, 3785847.405900305137038 ], [ 400370.905391658190638, 3785847.100712105631828 ], [ 400370.905391658190638, 3785844.659206510521472 ], [ 400371.210579857579432, 3785844.659206510521472 ], [ 400371.515768056968227, 3785844.354018311481923 ], [ 400371.515768056968227, 3785844.048830111976713 ], [ 400377.00915564596653, 3785844.048830111976713 ], [ 400377.00915564596653, 3785844.354018311481923 ], [ 400377.314343845355324, 3785844.659206510521472 ], [ 400377.314343845355324, 3785845.574771109037101 ], [ 400377.00915564596653, 3785845.87995930807665 ], [ 400377.00915564596653, 3785847.405900305137038 ], [ 400376.703967446577735, 3785847.711088504642248 ], [ 400376.703967446577735, 3785848.016276704147458 ], [ 400376.093591047800146, 3785848.626653102692217 ], [ 400376.093591047800146, 3785848.931841302197427 ], [ 400375.788402848411351, 3785849.237029501702636 ], [ 400375.788402848411351, 3785849.542217700742185 ], [ 400374.872838250244968, 3785850.457782299257815 ], [ 400374.872838250244968, 3785850.762970498297364 ], [ 400374.567650050856173, 3785850.762970498297364 ], [ 400374.262461851467378, 3785851.068158697802573 ], [ 400374.262461851467378, 3785851.373346897307783 ], [ 400373.957273652078584, 3785851.678535096812993 ], [ 400373.957273652078584, 3785851.983723295852542 ], [ 400373.346897253300995, 3785852.594099694862962 ], [ 400371.210579857579432, 3785852.594099694862962 ] ] ] } },
{ "type": "Feature", "properties": { "confidence": 0.50113117694854736, "class": 1 }, "geometry": { "type": "Polygon", "coordinates": [ [ [ 400424.008138351957314, 3785544.659206510521472 ], [ 400423.09257375379093, 3785543.743641912471503 ], [ 400423.09257375379093, 3785543.133265513926744 ], [ 400422.787385554402135, 3785542.828077314421535 ], [ 400422.787385554402135, 3785540.386571719311178 ], [ 400423.09257375379093, 3785540.081383519805968 ], [ 400423.09257375379093, 3785539.776195320300758 ], [ 400423.397761953179725, 3785539.471007121261209 ], [ 400423.702950152568519, 3785539.471007121261209 ], [ 400424.008138351957314, 3785539.165818921755999 ], [ 400424.313326551346108, 3785539.165818921755999 ], [ 400424.618514750734903, 3785538.860630722250789 ], [ 400425.534079348959494, 3785538.860630722250789 ], [ 400425.839267548348289, 3785538.555442522745579 ], [ 400427.670396744681057, 3785538.555442522745579 ], [ 400427.975584944069851, 3785538.250254323706031 ], [ 400428.58596134284744, 3785538.250254323706031 ], [ 400428.891149542236235, 3785537.945066124200821 ], [ 400429.806714140402619, 3785537.945066124200821 ], [ 400430.417090539180208, 3785537.334689725190401 ], [ 400432.55340793490177, 3785537.334689725190401 ], [ 400432.55340793490177, 3785537.639877924695611 ], [ 400432.858596134290565, 3785537.945066124200821 ], [ 400432.858596134290565, 3785539.165818921755999 ], [ 400432.55340793490177, 3785539.471007121261209 ], [ 400432.55340793490177, 3785540.081383519805968 ], [ 400432.248219735512976, 3785540.386571719311178 ], [ 400431.943031536124181, 3785540.386571719311178 ], [ 400431.637843336735386, 3785540.691759918816388 ], [ 400431.332655137346592, 3785540.691759918816388 ], [ 400430.722278738569003, 3785541.302136317361146 ], [ 400430.417090539180208, 3785541.302136317361146 ], [ 400429.806714140402619, 3785541.912512716371566 ], [ 400429.806714140402619, 3785542.217700915411115 ], [ 400429.501525941013824, 3785542.522889114916325 ], [ 400429.19633774162503, 3785542.522889114916325 ], [ 400428.891149542236235, 3785542.828077314421535 ], [ 400428.58596134284744, 3785542.828077314421535 ], [ 400428.280773143458646, 3785543.133265513926744 ], [ 400427.975584944069851, 3785543.133265513926744 ], [ 400427.670396744681057, 3785543.438453712966293 ], [ 400427.365208545292262, 3785543.438453712966293 ], [ 400426.754832146514673, 3785544.048830111976713 ], [ 400426.449643947125878, 3785544.048830111976713 ], [ 400425.839267548348289, 3785544.659206510521472 ], [ 400424.008138351957314, 3785544.659206510521472 ] ] ] } },
{ "type": "Feature", "properties": { "confidence": 0.47885650396347046, "class": 1 }, "geometry": { "type": "Polygon", "coordinates": [ [ [ 400507.32451678533107, 3785496.744659206364304 ], [ 400507.019328585942276, 3785496.439471007324755 ], [ 400507.019328585942276, 3785494.913530010264367 ], [ 400507.32451678533107, 3785494.608341810759157 ], [ 400507.32451678533107, 3785493.082400813698769 ], [ 400507.629704984719865, 3785492.77721261465922 ], [ 400507.629704984719865, 3785492.47202441515401 ], [ 400513.42828077316517, 3785492.47202441515401 ], [ 400513.42828077316517, 3785492.77721261465922 ], [ 400512.207527975609992, 3785493.997965412214398 ], [ 400512.207527975609992, 3785494.303153611253947 ], [ 400511.902339776221197, 3785494.303153611253947 ], [ 400511.291963377443608, 3785494.913530010264367 ], [ 400510.071210579830222, 3785494.913530010264367 ], [ 400508.545269582886249, 3785496.439471007324755 ], [ 400507.93489318410866, 3785496.439471007324755 ], [ 400507.629704984719865, 3785496.744659206364304 ], [ 400507.32451678533107, 3785496.744659206364304 ] ] ] } },
{ "type": "Feature", "properties": { "confidence": 0.47488003969192505, "class": 1 }, "geometry": { "type": "Polygon", "coordinates": [ [ [ 400538.75890132249333, 3785495.523906408809125 ], [ 400538.453713123104535, 3785495.218718209769577 ], [ 400537.843336724326946, 3785495.218718209769577 ], [ 400536.622583926771767, 3785493.997965412214398 ], [ 400536.622583926771767, 3785493.692777212709188 ], [ 400536.317395727382973, 3785493.387589013203979 ], [ 400536.317395727382973, 3785492.47202441515401 ], [ 400544.557477110880427, 3785492.47202441515401 ], [ 400544.557477110880427, 3785493.997965412214398 ], [ 400544.252288911491632, 3785494.303153611253947 ], [ 400544.252288911491632, 3785494.913530010264367 ], [ 400543.336724313325249, 3785494.913530010264367 ], [ 400543.031536113936454, 3785495.218718209769577 ], [ 400541.200406917603686, 3785495.218718209769577 ], [ 400540.895218718214892, 3785495.523906408809125 ], [ 400538.75890132249333, 3785495.523906408809125 ] ] ] } },
{ "type": "Feature", "properties": { "confidence": 0.47291383147239685, "class": 1 }, "geometry": { "type": "Polygon", "coordinates": [ [ [ 400389.827060020354111, 3785613.631739572621882 ], [ 400389.521871820965316, 3785613.326551373116672 ], [ 400389.216683621576522, 3785613.326551373116672 ], [ 400388.606307222798932, 3785612.716174974571913 ], [ 400388.606307222798932, 3785612.105798575561494 ], [ 400388.301119023410138, 3785611.800610376521945 ], [ 400388.301119023410138, 3785611.190233977511525 ], [ 400387.995930824021343, 3785610.885045778006315 ], [ 400387.995930824021343, 3785609.664292980451137 ], [ 400393.794506612408441, 3785609.664292980451137 ], [ 400393.794506612408441, 3785609.969481179956347 ], [ 400394.40488301118603, 3785610.579857578966767 ], [ 400394.40488301118603, 3785610.885045778006315 ], [ 400394.710071210574824, 3785611.190233977511525 ], [ 400394.710071210574824, 3785612.105798575561494 ], [ 400394.099694811797235, 3785612.716174974571913 ], [ 400394.099694811797235, 3785613.021363174077123 ], [ 400393.489318413019646, 3785613.631739572621882 ], [ 400389.827060020354111, 3785613.631739572621882 ] ] ] } },
{ "type": "Feature", "properties": { "confidence": 0.46192535758018494, "class": 1 }, "geometry": { "type": "Polygon", "coordinates": [ [ [ 400555.54425228893524, 3785869.37945066113025 ], [ 400555.239064089546446, 3785869.07426246162504 ], [ 400555.239064089546446, 3785868.769074262585491 ], [ 400554.933875890157651, 3785868.463886063080281 ], [ 400554.933875890157651, 3785868.158697863575071 ], [ 400555.239064089546446, 3785867.853509664069861 ], [ 400555.239064089546446, 3785867.548321465030313 ], [ 400556.15462868771283, 3785866.632756866514683 ], [ 400556.15462868771283, 3785866.327568667475134 ], [ 400556.765005086490419, 3785865.717192268464714 ], [ 400556.765005086490419, 3785865.412004068959504 ], [ 400557.070193285879213, 3785865.106815869919956 ], [ 400557.070193285879213, 3785864.801627670414746 ], [ 400557.680569684656803, 3785864.191251271404326 ], [ 400558.596134282823186, 3785864.191251271404326 ], [ 400558.901322482211981, 3785863.886063072364777 ], [ 400561.342828077322338, 3785863.886063072364777 ], [ 400561.342828077322338, 3785864.191251271404326 ], [ 400561.648016276711132, 3785864.496439470909536 ], [ 400561.648016276711132, 3785865.412004068959504 ], [ 400561.342828077322338, 3785865.717192268464714 ], [ 400561.342828077322338, 3785866.022380467969924 ], [ 400559.816887080378365, 3785867.548321465030313 ], [ 400559.51169888098957, 3785867.548321465030313 ], [ 400559.206510681600776, 3785867.853509664069861 ], [ 400558.596134282823186, 3785867.853509664069861 ], [ 400557.070193285879213, 3785869.37945066113025 ], [ 400555.54425228893524, 3785869.37945066113025 ] ] ] } },
{ "type": "Feature", "properties": { "confidence": 0.40758487582206726, "class": 1 }, "geometry": { "type": "Polygon", "coordinates": [ [ [ 400353.204476093582343, 3785847.405900305137038 ], [ 400352.594099694804754, 3785846.79552390659228 ], [ 400352.28891149541596, 3785846.79552390659228 ], [ 400351.67853509663837, 3785846.18514750758186 ], [ 400351.67853509663837, 3785844.964394710026681 ], [ 400351.373346897249576, 3785844.659206510521472 ], [ 400358.697863682580646, 3785844.659206510521472 ], [ 400358.697863682580646, 3785845.269582909531891 ], [ 400359.003051881969441, 3785845.574771109037101 ], [ 400359.003051881969441, 3785846.79552390659228 ], [ 400358.697863682580646, 3785846.79552390659228 ], [ 400358.392675483191852, 3785847.100712105631828 ], [ 400357.171922685636673, 3785847.100712105631828 ], [ 400356.866734486247879, 3785847.405900305137038 ], [ 400353.204476093582343, 3785847.405900305137038 ] ] ] } },
{ "type": "Feature", "properties": { "confidence": 0.39187395572662354, "class": 1 }, "geometry": { "type": "Polygon", "coordinates": [ [ [ 400727.670396744681057, 3785416.480162767227739 ], [ 400727.365208545292262, 3785416.174974567722529 ], [ 400726.754832146514673, 3785416.174974567722529 ], [ 400725.839267548348289, 3785415.259409969672561 ], [ 400725.839267548348289, 3785413.123092573601753 ], [ 400726.144455747737084, 3785412.817904374562204 ], [ 400726.144455747737084, 3785411.902339776046574 ], [ 400726.449643947125878, 3785411.597151577007025 ], [ 400726.449643947125878, 3785407.019328585825861 ], [ 400726.144455747737084, 3785406.714140386786312 ], [ 400726.144455747737084, 3785404.883011190220714 ], [ 400726.449643947125878, 3785404.577822990715504 ], [ 400726.449643947125878, 3785404.272634791675955 ], [ 400726.754832146514673, 3785403.967446592170745 ], [ 400726.754832146514673, 3785403.662258392665535 ], [ 400727.060020345903467, 3785403.357070193160325 ], [ 400727.060020345903467, 3785403.051881994120777 ], [ 400727.365208545292262, 3785402.746693794615567 ], [ 400727.975584944069851, 3785402.746693794615567 ], [ 400728.280773143458646, 3785402.441505595110357 ], [ 400729.806714140402619, 3785402.441505595110357 ], [ 400730.417090539180208, 3785403.051881994120777 ], [ 400730.722278738569003, 3785403.051881994120777 ], [ 400730.722278738569003, 3785403.357070193160325 ], [ 400731.332655137346592, 3785403.967446592170745 ], [ 400732.55340793490177, 3785403.967446592170745 ], [ 400732.858596134290565, 3785404.272634791675955 ], [ 400733.163784333679359, 3785404.272634791675955 ], [ 400733.163784333679359, 3785405.493387589231133 ], [ 400733.468972533068154, 3785405.798575788270682 ], [ 400733.468972533068154, 3785407.93489318434149 ], [ 400733.163784333679359, 3785408.240081383381039 ], [ 400733.163784333679359, 3785409.155645981896669 ], [ 400732.55340793490177, 3785409.766022380441427 ], [ 400732.55340793490177, 3785410.376398779451847 ], [ 400731.943031536124181, 3785410.986775177996606 ], [ 400731.943031536124181, 3785414.038657172117382 ], [ 400731.637843336735386, 3785414.343845371156931 ], [ 400731.637843336735386, 3785414.954221770167351 ], [ 400731.332655137346592, 3785415.259409969672561 ], [ 400731.332655137346592, 3785415.564598168712109 ], [ 400730.111902339791413, 3785415.564598168712109 ], [ 400729.806714140402619, 3785415.869786368217319 ], [ 400729.501525941013824, 3785415.869786368217319 ], [ 400729.19633774162503, 3785416.174974567722529 ], [ 400728.891149542236235, 3785416.174974567722529 ], [ 400728.58596134284744, 3785416.480162767227739 ], [ 400727.670396744681057, 3785416.480162767227739 ] ] ] } },
{ "type": "Feature", "properties": { "confidence": 0.37021583318710327, "class": 1 }, "geometry": { "type": "Polygon", "coordinates": [ [ [ 400584.231943031540141, 3785486.978636825922877 ], [ 400583.926754832151346, 3785486.673448626883328 ], [ 400583.316378433373757, 3785486.673448626883328 ], [ 400583.011190233984962, 3785486.368260427378118 ], [ 400582.706002034596168, 3785486.368260427378118 ], [ 400582.706002034596168, 3785484.84231943031773 ], [ 400582.400813835207373, 3785484.53713123081252 ], [ 400582.400813835207373, 3785483.621566632762551 ], [ 400582.095625635818578, 3785483.316378433257341 ], [ 400582.095625635818578, 3785483.011190233752131 ], [ 400581.790437436429784, 3785482.706002034712583 ], [ 400581.790437436429784, 3785482.095625635702163 ], [ 400582.095625635818578, 3785481.790437436196953 ], [ 400582.095625635818578, 3785481.180061037652194 ], [ 400582.400813835207373, 3785480.874872838146985 ], [ 400582.706002034596168, 3785480.874872838146985 ], [ 400583.011190233984962, 3785480.569684638641775 ], [ 400586.673448626650497, 3785480.569684638641775 ], [ 400586.673448626650497, 3785480.874872838146985 ], [ 400586.368260427261703, 3785481.180061037652194 ], [ 400586.368260427261703, 3785484.84231943031773 ], [ 400586.673448626650497, 3785485.14750762982294 ], [ 400586.673448626650497, 3785486.368260427378118 ], [ 400586.368260427261703, 3785486.673448626883328 ], [ 400585.757884028484114, 3785486.673448626883328 ], [ 400585.452695829095319, 3785486.978636825922877 ], [ 400584.231943031540141, 3785486.978636825922877 ] ] ] } },
{ "type": "Feature", "properties": { "confidence": 0.36693072319030762, "class": 1 }, "geometry": { "type": "Polygon", "coordinates": [ [ [ 400554.933875890157651, 3785630.417090539354831 ], [ 400554.628687690768857, 3785630.111902339849621 ], [ 400554.628687690768857, 3785627.975584944244474 ], [ 400555.239064089546446, 3785627.365208545234054 ], [ 400555.54425228893524, 3785627.365208545234054 ], [ 400555.849440488324035, 3785627.060020345728844 ], [ 400556.15462868771283, 3785627.060020345728844 ], [ 400556.765005086490419, 3785626.449643947184086 ], [ 400557.070193285879213, 3785626.449643947184086 ], [ 400557.680569684656803, 3785625.839267548173666 ], [ 400558.596134282823186, 3785625.839267548173666 ], [ 400558.901322482211981, 3785625.534079349134117 ], [ 400559.816887080378365, 3785625.534079349134117 ], [ 400560.122075279767159, 3785625.228891149628907 ], [ 400560.427263479155954, 3785625.228891149628907 ], [ 400560.427263479155954, 3785625.534079349134117 ], [ 400560.732451678544749, 3785625.839267548173666 ], [ 400560.427263479155954, 3785626.144455747678876 ], [ 400560.427263479155954, 3785626.754832146689296 ], [ 400560.122075279767159, 3785627.060020345728844 ], [ 400560.122075279767159, 3785627.365208545234054 ], [ 400559.816887080378365, 3785627.365208545234054 ], [ 400559.206510681600776, 3785627.975584944244474 ], [ 400558.901322482211981, 3785627.975584944244474 ], [ 400558.290946083434392, 3785628.585961342789233 ], [ 400557.985757884045597, 3785628.585961342789233 ], [ 400557.680569684656803, 3785628.891149542294443 ], [ 400557.070193285879213, 3785628.891149542294443 ], [ 400556.765005086490419, 3785629.196337741799653 ], [ 400556.459816887101624, 3785629.196337741799653 ], [ 400555.849440488324035, 3785629.806714140344411 ], [ 400555.849440488324035, 3785630.111902339849621 ], [ 400555.54425228893524, 3785630.417090539354831 ], [ 400554.933875890157651, 3785630.417090539354831 ] ] ] } },
{ "type": "Feature", "properties": { "confidence": 0.36239480972290039, "class": 1 }, "geometry": { "type": "Polygon", "coordinates": [ [ [ 400263.784333672432695, 3785571.820956256240606 ], [ 400263.4791454730439, 3785571.515768057201058 ], [ 400262.868769074266311, 3785571.515768057201058 ], [ 400262.563580874877516, 3785571.210579857695848 ], [ 400262.258392675488722, 3785571.210579857695848 ], [ 400261.953204476099927, 3785570.905391658190638 ], [ 400261.953204476099927, 3785570.600203458685428 ], [ 400261.342828077322338, 3785569.989827060140669 ], [ 400261.342828077322338, 3785568.463886063080281 ], [ 400261.648016276711132, 3785568.158697863575071 ], [ 400261.953204476099927, 3785568.158697863575071 ], [ 400262.258392675488722, 3785567.853509664069861 ], [ 400262.563580874877516, 3785567.853509664069861 ], [ 400262.868769074266311, 3785567.548321465030313 ], [ 400263.173957273655105, 3785567.548321465030313 ], [ 400263.784333672432695, 3785566.937945066019893 ], [ 400265.615462868765462, 3785566.937945066019893 ], [ 400266.225839267543051, 3785567.548321465030313 ], [ 400266.531027466931846, 3785567.548321465030313 ], [ 400266.531027466931846, 3785568.463886063080281 ], [ 400265.920651068154257, 3785569.07426246162504 ], [ 400265.920651068154257, 3785569.37945066113025 ], [ 400265.310274669376668, 3785569.989827060140669 ], [ 400265.310274669376668, 3785570.600203458685428 ], [ 400264.394710071210284, 3785571.515768057201058 ], [ 400264.089521871821489, 3785571.515768057201058 ], [ 400263.784333672432695, 3785571.820956256240606 ] ] ] } },
{ "type": "Feature", "properties": { "confidence": 0.35825678706169128, "class": 1 }, "geometry": { "type": "Polygon", "coordinates": [ [ [ 400344.3540183113073, 3785409.460834180936217 ], [ 400343.438453713140916, 3785408.545269582886249 ], [ 400343.743641912529711, 3785408.240081383381039 ], [ 400343.743641912529711, 3785407.019328585825861 ], [ 400344.048830111918505, 3785406.714140386786312 ], [ 400344.048830111918505, 3785406.408952187281102 ], [ 400344.3540183113073, 3785406.103763987775892 ], [ 400344.3540183113073, 3785405.493387589231133 ], [ 400344.659206510696094, 3785405.188199389725924 ], [ 400344.659206510696094, 3785404.883011190220714 ], [ 400344.964394710084889, 3785404.577822990715504 ], [ 400344.964394710084889, 3785404.272634791675955 ], [ 400345.269582909473684, 3785403.967446592170745 ], [ 400345.574771108862478, 3785403.967446592170745 ], [ 400345.879959308251273, 3785403.662258392665535 ], [ 400346.490335707028862, 3785403.662258392665535 ], [ 400346.795523906417657, 3785403.967446592170745 ], [ 400347.71108850458404, 3785403.967446592170745 ], [ 400348.016276703972835, 3785404.272634791675955 ], [ 400348.931841302139219, 3785404.272634791675955 ], [ 400349.237029501528013, 3785403.967446592170745 ], [ 400351.068158697860781, 3785403.967446592170745 ], [ 400351.373346897249576, 3785404.272634791675955 ], [ 400351.67853509663837, 3785404.272634791675955 ], [ 400351.67853509663837, 3785405.188199389725924 ], [ 400351.373346897249576, 3785405.493387589231133 ], [ 400351.373346897249576, 3785405.798575788270682 ], [ 400351.068158697860781, 3785406.103763987775892 ], [ 400351.068158697860781, 3785406.408952187281102 ], [ 400350.762970498471987, 3785406.408952187281102 ], [ 400350.457782299083192, 3785406.714140386786312 ], [ 400350.457782299083192, 3785407.019328585825861 ], [ 400350.152594099694397, 3785407.019328585825861 ], [ 400349.847405900305603, 3785407.32451678533107 ], [ 400349.847405900305603, 3785407.62970498483628 ], [ 400348.32146490336163, 3785409.155645981896669 ], [ 400347.71108850458404, 3785409.155645981896669 ], [ 400347.405900305195246, 3785409.460834180936217 ], [ 400344.3540183113073, 3785409.460834180936217 ] ] ] } },
{ "type": "Feature", "properties": { "confidence": 0.32728785276412964, "class": 1 }, "geometry": { "type": "Polygon", "coordinates": [ [ [ 400686.46998982707737, 3785955.137334689497948 ], [ 400686.164801627688576, 3785954.832146490458399 ], [ 400685.554425228910986, 3785954.832146490458399 ], [ 400684.944048830133397, 3785954.221770091447979 ], [ 400684.638860630744603, 3785954.221770091447979 ], [ 400683.723296032578219, 3785953.306205493398011 ], [ 400683.723296032578219, 3785952.695829094387591 ], [ 400684.028484231967013, 3785952.390640895348042 ], [ 400684.028484231967013, 3785952.085452695842832 ], [ 400684.333672431355808, 3785952.085452695842832 ], [ 400684.944048830133397, 3785951.475076296832412 ], [ 400685.249237029522192, 3785951.475076296832412 ], [ 400685.554425228910986, 3785951.169888097792864 ], [ 400685.859613428299781, 3785951.169888097792864 ], [ 400686.164801627688576, 3785950.864699898287654 ], [ 400687.080366225854959, 3785950.864699898287654 ], [ 400687.385554425243754, 3785950.559511698782444 ], [ 400687.690742624632549, 3785950.559511698782444 ], [ 400687.995930824021343, 3785950.864699898287654 ], [ 400688.606307222798932, 3785950.864699898287654 ], [ 400688.911495422187727, 3785951.169888097792864 ], [ 400688.911495422187727, 3785951.780264496337622 ], [ 400689.216683621576522, 3785952.085452695842832 ], [ 400689.216683621576522, 3785954.526958290953189 ], [ 400688.911495422187727, 3785954.526958290953189 ], [ 400688.606307222798932, 3785954.832146490458399 ], [ 400688.301119023410138, 3785954.832146490458399 ], [ 400687.995930824021343, 3785955.137334689497948 ], [ 400686.46998982707737, 3785955.137334689497948 ] ] ] } },
{ "type": "Feature", "properties": { "confidence": 0.31789907813072205, "class": 1 }, "geometry": { "type": "Polygon", "coordinates": [ [ [ 400304.374364191258792, 3785731.739572736434639 ], [ 400304.069175991869997, 3785731.434384536929429 ], [ 400304.069175991869997, 3785731.12919633788988 ], [ 400304.374364191258792, 3785730.82400813838467 ], [ 400304.374364191258792, 3785728.077314343769103 ], [ 400304.069175991869997, 3785727.772126144263893 ], [ 400304.069175991869997, 3785727.466937945224345 ], [ 400310.478128179034684, 3785727.466937945224345 ], [ 400310.172939979645889, 3785727.772126144263893 ], [ 400310.172939979645889, 3785728.077314343769103 ], [ 400309.867751780257095, 3785728.077314343769103 ], [ 400307.731434384535532, 3785730.21363173937425 ], [ 400307.426246185146738, 3785730.21363173937425 ], [ 400307.121057985757943, 3785730.51881993887946 ], [ 400306.815869786369149, 3785730.51881993887946 ], [ 400306.205493387591559, 3785731.12919633788988 ], [ 400305.900305188202765, 3785731.12919633788988 ], [ 400305.59511698881397, 3785731.434384536929429 ], [ 400305.289928789425176, 3785731.434384536929429 ], [ 400304.984740590036381, 3785731.739572736434639 ], [ 400304.374364191258792, 3785731.739572736434639 ] ] ] } },
{ "type": "Feature", "properties": { "confidence": 0.31627148389816284, "class": 1 }, "geometry": { "type": "Polygon", "coordinates": [ [ [ 400511.597151576832402, 3785615.46286876918748 ], [ 400511.291963377443608, 3785615.15768056968227 ], [ 400511.291963377443608, 3785614.85249237017706 ], [ 400510.681586978607811, 3785614.242115971632302 ], [ 400510.681586978607811, 3785613.936927772127092 ], [ 400510.071210579830222, 3785613.326551373116672 ], [ 400510.071210579830222, 3785613.021363174077123 ], [ 400509.766022380441427, 3785612.716174974571913 ], [ 400509.766022380441427, 3785612.410986775066704 ], [ 400509.460834181052633, 3785612.105798575561494 ], [ 400509.460834181052633, 3785611.495422177016735 ], [ 400509.155645981663838, 3785611.190233977511525 ], [ 400509.155645981663838, 3785609.664292980451137 ], [ 400512.817904374387581, 3785609.664292980451137 ], [ 400512.817904374387581, 3785610.885045778006315 ], [ 400513.123092573776376, 3785611.190233977511525 ], [ 400513.123092573776376, 3785611.495422177016735 ], [ 400513.42828077316517, 3785611.800610376521945 ], [ 400513.42828077316517, 3785612.105798575561494 ], [ 400514.038657171942759, 3785612.716174974571913 ], [ 400514.038657171942759, 3785613.326551373116672 ], [ 400514.343845371331554, 3785613.631739572621882 ], [ 400514.343845371331554, 3785614.242115971632302 ], [ 400514.038657171942759, 3785614.547304171137512 ], [ 400514.038657171942759, 3785614.85249237017706 ], [ 400513.42828077316517, 3785615.46286876918748 ], [ 400511.597151576832402, 3785615.46286876918748 ] ] ] } },
{ "type": "Feature", "properties": { "confidence": 0.29047173261642456, "class": 1 }, "geometry": { "type": "Polygon", "coordinates": [ [ [ 400472.838250254339073, 3785539.165818921755999 ], [ 400472.533062054950278, 3785538.860630722250789 ], [ 400471.617497456783894, 3785538.860630722250789 ], [ 400471.617497456783894, 3785538.250254323706031 ], [ 400471.3123092573951, 3785537.945066124200821 ], [ 400471.3123092573951, 3785535.198372329585254 ], [ 400471.617497456783894, 3785534.893184130080044 ], [ 400471.617497456783894, 3785533.977619532030076 ], [ 400471.922685656172689, 3785533.672431332524866 ], [ 400471.922685656172689, 3785533.367243133485317 ], [ 400472.227873855561484, 3785533.062054933980107 ], [ 400472.227873855561484, 3785532.756866734474897 ], [ 400472.533062054950278, 3785532.451678534969687 ], [ 400473.143438453727867, 3785532.451678534969687 ], [ 400473.143438453727867, 3785539.165818921755999 ], [ 400472.838250254339073, 3785539.165818921755999 ] ] ] } },
{ "type": "Feature", "properties": { "confidence": 0.29007068276405334, "class": 1 }, "geometry": { "type": "Polygon", "coordinates": [ [ [ 400563.4791454730439, 3785613.631739572621882 ], [ 400563.173957273655105, 3785613.326551373116672 ], [ 400563.173957273655105, 3785611.190233977511525 ], [ 400562.868769074266311, 3785610.885045778006315 ], [ 400562.868769074266311, 3785609.664292980451137 ], [ 400566.531027466931846, 3785609.664292980451137 ], [ 400566.531027466931846, 3785610.885045778006315 ], [ 400566.225839267543051, 3785611.190233977511525 ], [ 400566.225839267543051, 3785612.105798575561494 ], [ 400564.699898270599078, 3785613.631739572621882 ], [ 400563.4791454730439, 3785613.631739572621882 ] ] ] } },
{ "type": "Feature", "properties": { "confidence": 0.28225761651992798, "class": 1 }, "geometry": { "type": "Polygon", "coordinates": [ [ [ 400767.650050864671357, 3785901.119023397564888 ], [ 400767.344862665282562, 3785900.813835198525339 ], [ 400767.344862665282562, 3785900.20345879951492 ], [ 400767.650050864671357, 3785899.89827060000971 ], [ 400767.650050864671357, 3785899.593082400970161 ], [ 400769.175991861673538, 3785898.067141403909773 ], [ 400769.481180061062332, 3785898.067141403909773 ], [ 400770.091556459839921, 3785897.456765004899353 ], [ 400770.396744659228716, 3785897.456765004899353 ], [ 400770.701932858617511, 3785897.151576805859804 ], [ 400771.922685656172689, 3785897.151576805859804 ], [ 400772.227873855561484, 3785897.456765004899353 ], [ 400772.227873855561484, 3785898.067141403909773 ], [ 400772.533062054950278, 3785898.372329603414983 ], [ 400772.533062054950278, 3785899.89827060000971 ], [ 400772.227873855561484, 3785900.20345879951492 ], [ 400772.227873855561484, 3785900.508646999020129 ], [ 400771.922685656172689, 3785900.508646999020129 ], [ 400771.617497456783894, 3785900.813835198525339 ], [ 400771.3123092573951, 3785900.813835198525339 ], [ 400771.007121058006305, 3785901.119023397564888 ], [ 400767.650050864671357, 3785901.119023397564888 ] ] ] } },
{ "type": "Feature", "properties": { "confidence": 0.28075659275054932, "class": 1 }, "geometry": { "type": "Polygon", "coordinates": [ [ [ 400274.7711088504293, 3785591.963377416133881 ], [ 400274.465920651040506, 3785591.658189216628671 ], [ 400273.855544252262916, 3785591.658189216628671 ], [ 400273.550356052874122, 3785591.353001017123461 ], [ 400273.245167853485327, 3785591.353001017123461 ], [ 400272.634791454707738, 3785590.742624618578702 ], [ 400272.329603255318943, 3785590.742624618578702 ], [ 400271.719226856541354, 3785590.132248219568282 ], [ 400271.719226856541354, 3785589.827060020528734 ], [ 400270.498474058986176, 3785588.606307222973555 ], [ 400270.498474058986176, 3785586.469989826902747 ], [ 400270.80366225837497, 3785586.469989826902747 ], [ 400271.108850457763765, 3785586.775178026407957 ], [ 400272.329603255318943, 3785586.775178026407957 ], [ 400272.634791454707738, 3785586.469989826902747 ], [ 400272.939979654096533, 3785586.469989826902747 ], [ 400273.245167853485327, 3785586.164801627863199 ], [ 400273.855544252262916, 3785586.164801627863199 ], [ 400273.855544252262916, 3785587.690742624457926 ], [ 400274.160732451651711, 3785587.995930823963135 ], [ 400275.076297049876302, 3785587.995930823963135 ], [ 400275.381485249265097, 3785588.301119023468345 ], [ 400275.686673448653892, 3785588.301119023468345 ], [ 400277.212614445597865, 3785589.827060020528734 ], [ 400277.212614445597865, 3785591.047812818083912 ], [ 400276.602238046820275, 3785591.658189216628671 ], [ 400276.297049847431481, 3785591.658189216628671 ], [ 400275.991861648042686, 3785591.963377416133881 ], [ 400274.7711088504293, 3785591.963377416133881 ] ] ] } },
{ "type": "Feature", "properties": { "confidence": 0.26836290955543518, "class": 1 }, "geometry": { "type": "Polygon", "coordinates": [ [ [ 400648.32146490336163, 3785847.100712105631828 ], [ 400647.71108850458404, 3785846.49033570708707 ], [ 400647.71108850458404, 3785846.18514750758186 ], [ 400646.490335707028862, 3785844.964394710026681 ], [ 400646.490335707028862, 3785844.659206510521472 ], [ 400651.67853509663837, 3785844.659206510521472 ], [ 400651.67853509663837, 3785846.18514750758186 ], [ 400651.373346897249576, 3785846.49033570708707 ], [ 400651.373346897249576, 3785846.79552390659228 ], [ 400651.068158697860781, 3785847.100712105631828 ], [ 400648.32146490336163, 3785847.100712105631828 ] ] ] } },
{ "type": "Feature", "properties": { "confidence": 0.2664608359336853, "class": 1 }, "geometry": { "type": "Polygon", "coordinates": [ [ [ 400412.716174974571913, 3785738.14852492371574 ], [ 400412.410986775183119, 3785737.843336724210531 ], [ 400411.495422177016735, 3785737.843336724210531 ], [ 400410.579857578850351, 3785736.927772126160562 ], [ 400410.579857578850351, 3785735.401831129100174 ], [ 400410.885045778239146, 3785735.096642929594964 ], [ 400410.885045778239146, 3785733.875890132039785 ], [ 400411.80061037640553, 3785732.960325533989817 ], [ 400412.105798575794324, 3785732.960325533989817 ], [ 400412.716174974571913, 3785732.349949135445058 ], [ 400412.716174974571913, 3785732.044760935939848 ], [ 400413.021363173960708, 3785732.044760935939848 ], [ 400413.326551373349503, 3785731.739572736434639 ], [ 400415.462868769071065, 3785731.739572736434639 ], [ 400415.768056968459859, 3785731.434384536929429 ], [ 400416.378433367237449, 3785731.434384536929429 ], [ 400416.683621566626243, 3785731.739572736434639 ], [ 400417.599186164792627, 3785731.739572736434639 ], [ 400417.904374364181422, 3785732.044760935939848 ], [ 400417.904374364181422, 3785732.349949135445058 ], [ 400418.209562563570216, 3785732.655137334484607 ], [ 400418.209562563570216, 3785734.181078331544995 ], [ 400417.904374364181422, 3785734.486266531050205 ], [ 400417.904374364181422, 3785735.096642929594964 ], [ 400417.599186164792627, 3785735.401831129100174 ], [ 400417.293997965403832, 3785735.401831129100174 ], [ 400416.683621566626243, 3785736.012207528110594 ], [ 400416.378433367237449, 3785736.012207528110594 ], [ 400415.15768056968227, 3785737.232960325665772 ], [ 400415.15768056968227, 3785737.843336724210531 ], [ 400414.852492370293476, 3785737.843336724210531 ], [ 400414.547304170904681, 3785738.14852492371574 ], [ 400412.716174974571913, 3785738.14852492371574 ] ] ] } }
]
}
