{
"type": "FeatureCollection",
"name": "cell_00136_pre",
"crs": { "type": "name", "properties": { "name": "urn:ogc:def:crs:EPSG::32611" } },
"features": [
{ "type": "Feature", "properties": { "confidence": 0.70988035202026367, "class": 1 }, "geometry": { "type": "Polygon", "coordinates": [ [ [ 354270.396744659228716, 3771017.090539165772498 ], [ 354270.091556459839921, 3771016.785350966267288 ], [ 354268.870803662284743, 3771016.785350966267288 ], [ 354267.955239064118359, 3771015.869786368217319 ], [ 354267.955239064118359, 3771014.649033570662141 ], [ 354267.650050864671357, 3771014.343845371156931 ], [ 354267.650050864671357, 3771011.902339776046574 ], [ 354267.955239064118359, 3771011.597151577007025 ], [ 354267.955239064118359, 3771011.291963377501816 ], [ 354268.260427263507154, 3771010.986775177996606 ], [ 354268.260427263507154, 3771010.681586978491396 ], [ 354268.565615462895948, 3771010.376398779451847 ], [ 354268.565615462895948, 3771009.155645981896669 ], [ 354268.260427263507154, 3771008.850457782391459 ], [ 354268.260427263507154, 3771007.93489318434149 ], [ 354268.870803662284743, 3771007.93489318434149 ], [ 354269.175991861673538, 3771008.240081383381039 ], [ 354269.481180061062332, 3771008.240081383381039 ], [ 354269.481180061062332, 3771008.545269582886249 ], [ 354269.786368260451127, 3771008.850457782391459 ], [ 354271.3123092573951, 3771008.850457782391459 ], [ 354271.922685656172689, 3771009.460834180936217 ], [ 354272.533062054950278, 3771009.460834180936217 ], [ 354272.838250254339073, 3771009.766022380441427 ], [ 354273.143438453727867, 3771009.766022380441427 ], [ 354273.143438453727867, 3771017.090539165772498 ], [ 354270.396744659228716, 3771017.090539165772498 ] ] ] } },
{ "type": "Feature", "properties": { "confidence": 0.64074528217315674, "class": 1 }, "geometry": { "type": "Polygon", "coordinates": [ [ [ 354093.692777212592773, 3771100.10172939999029 ], [ 354093.387589013203979, 3771099.79654120048508 ], [ 354092.472024415037595, 3771099.79654120048508 ], [ 354092.1668362156488, 3771099.491353000979871 ], [ 354091.556459816871211, 3771099.491353000979871 ], [ 354091.251271617482416, 3771099.186164801474661 ], [ 354090.640895218704827, 3771099.186164801474661 ], [ 354090.335707019316033, 3771098.880976602435112 ], [ 354089.725330620538443, 3771098.880976602435112 ], [ 354089.420142421149649, 3771098.575788402929902 ], [ 354088.504577822983265, 3771098.575788402929902 ], [ 354088.19938962359447, 3771098.270600203424692 ], [ 354085.757884028484114, 3771098.270600203424692 ], [ 354085.452695829095319, 3771097.965412003919482 ], [ 354085.147507629706524, 3771097.965412003919482 ], [ 354085.147507629706524, 3771097.355035605374724 ], [ 354084.84231943031773, 3771097.049847405869514 ], [ 354084.537131230928935, 3771097.049847405869514 ], [ 354083.926754832151346, 3771096.439471007324755 ], [ 354083.621566632762551, 3771096.439471007324755 ], [ 354082.706002034596168, 3771095.523906408809125 ], [ 354082.400813835207373, 3771095.523906408809125 ], [ 354082.400813835207373, 3771094.913530010264367 ], [ 354082.706002034596168, 3771094.913530010264367 ], [ 354083.926754832151346, 3771093.692777212709188 ], [ 354086.368260427261703, 3771093.692777212709188 ], [ 354086.673448626650497, 3771093.997965412214398 ], [ 354086.978636826039292, 3771093.997965412214398 ], [ 354087.283825025428087, 3771094.303153611253947 ], [ 354087.589013224816881, 3771094.303153611253947 ], [ 354087.894201424205676, 3771094.608341810759157 ], [ 354089.114954221760854, 3771094.608341810759157 ], [ 354089.420142421149649, 3771094.913530010264367 ], [ 354091.251271617482416, 3771094.913530010264367 ], [ 354091.556459816871211, 3771095.218718209769577 ], [ 354092.1668362156488, 3771095.218718209769577 ], [ 354092.472024415037595, 3771095.523906408809125 ], [ 354093.692777212592773, 3771095.523906408809125 ], [ 354094.608341810759157, 3771096.439471007324755 ], [ 354094.608341810759157, 3771099.491353000979871 ], [ 354094.913530010147952, 3771099.79654120048508 ], [ 354094.608341810759157, 3771100.10172939999029 ], [ 354093.692777212592773, 3771100.10172939999029 ] ] ] } },
{ "type": "Feature", "properties": { "confidence": 0.61782217025756836, "class": 1 }, "geometry": { "type": "Polygon", "coordinates": [ [ [ 354468.769074262469076, 3771491.658189216628671 ], [ 354468.769074262469076, 3771481.892166836187243 ], [ 354469.379450661246665, 3771481.892166836187243 ], [ 354469.379450661246665, 3771482.197355035692453 ], [ 354472.431332655134611, 3771485.249237029347569 ], [ 354472.431332655134611, 3771486.469989826902747 ], [ 354472.126144455745816, 3771486.775178026407957 ], [ 354472.126144455745816, 3771487.080366225913167 ], [ 354471.820956256357022, 3771487.385554425418377 ], [ 354471.820956256357022, 3771487.690742624457926 ], [ 354471.210579857579432, 3771488.301119023468345 ], [ 354471.210579857579432, 3771488.606307222973555 ], [ 354470.600203458801843, 3771489.216683621518314 ], [ 354470.600203458801843, 3771489.521871821023524 ], [ 354470.295015259413049, 3771489.827060020528734 ], [ 354470.295015259413049, 3771490.437436419073492 ], [ 354469.684638860635459, 3771491.047812818083912 ], [ 354469.684638860635459, 3771491.353001017123461 ], [ 354469.379450661246665, 3771491.353001017123461 ], [ 354469.07426246185787, 3771491.658189216628671 ], [ 354468.769074262469076, 3771491.658189216628671 ] ] ] } },
{ "type": "Feature", "properties": { "confidence": 0.37423419952392578, "class": 1 }, "geometry": { "type": "Polygon", "coordinates": [ [ [ 354127.873855544254184, 3771482.197355035692453 ], [ 354127.568667344865389, 3771481.892166836187243 ], [ 354125.737538148532622, 3771481.892166836187243 ], [ 354125.432349949143827, 3771481.586978636682034 ], [ 354125.127161749755032, 3771481.586978636682034 ], [ 354124.516785350977443, 3771480.976602238137275 ], [ 354124.211597151588649, 3771480.976602238137275 ], [ 354124.211597151588649, 3771480.671414038632065 ], [ 354123.296032553422265, 3771479.755849440582097 ], [ 354123.296032553422265, 3771479.450661241076887 ], [ 354122.99084435403347, 3771479.145473041571677 ], [ 354122.685656154644676, 3771479.145473041571677 ], [ 354122.685656154644676, 3771477.61953204497695 ], [ 354122.99084435403347, 3771477.31434384547174 ], [ 354124.211597151588649, 3771477.31434384547174 ], [ 354124.516785350977443, 3771477.00915564596653 ], [ 354125.127161749755032, 3771477.00915564596653 ], [ 354125.432349949143827, 3771477.31434384547174 ], [ 354126.042726347921416, 3771477.31434384547174 ], [ 354126.347914547310211, 3771477.00915564596653 ], [ 354126.653102746699005, 3771477.00915564596653 ], [ 354126.9582909460878, 3771476.70396744646132 ], [ 354127.263479145476595, 3771476.70396744646132 ], [ 354127.568667344865389, 3771476.398779247421771 ], [ 354127.873855544254184, 3771476.398779247421771 ], [ 354128.179043743642978, 3771476.093591047916561 ], [ 354129.704984740586951, 3771476.093591047916561 ], [ 354130.010172939975746, 3771476.398779247421771 ], [ 354130.620549338753335, 3771476.398779247421771 ], [ 354131.230925737530924, 3771477.00915564596653 ], [ 354131.536113936919719, 3771477.00915564596653 ], [ 354131.536113936919719, 3771477.61953204497695 ], [ 354131.841302136308514, 3771477.924720244016498 ], [ 354131.841302136308514, 3771480.366225839126855 ], [ 354131.230925737530924, 3771480.976602238137275 ], [ 354131.230925737530924, 3771481.281790437642485 ], [ 354130.620549338753335, 3771481.892166836187243 ], [ 354129.704984740586951, 3771481.892166836187243 ], [ 354129.399796541198157, 3771482.197355035692453 ], [ 354127.873855544254184, 3771482.197355035692453 ] ] ] } }
]
}
