{
"type": "FeatureCollection",
"name": "cell_00528_pre",
"crs": { "type": "name", "properties": { "name": "urn:ogc:def:crs:EPSG::32611" } },
"features": [
{ "type": "Feature", "properties": { "confidence": 0.93784236907958984, "class": 1 }, "geometry": { "type": "Polygon", "coordinates": [ [ [ 404183.621566632762551, 3783979.959308240097016 ], [ 404183.316378433373757, 3783979.654120040591806 ], [ 404183.011190233984962, 3783979.654120040591806 ], [ 404182.400813835207373, 3783979.043743642047048 ], [ 404182.400813835207373, 3783978.738555442541838 ], [ 404182.095625635818578, 3783978.433367243036628 ], [ 404182.095625635818578, 3783976.907426245976239 ], [ 404182.706002034596168, 3783976.297049847431481 ], [ 404182.706002034596168, 3783975.991861647926271 ], [ 404183.316378433373757, 3783975.381485249381512 ], [ 404183.621566632762551, 3783975.381485249381512 ], [ 404184.231943031540141, 3783974.771108850371093 ], [ 404184.537131230928935, 3783974.771108850371093 ], [ 404184.84231943031773, 3783974.465920650865883 ], [ 404185.147507629706524, 3783974.465920650865883 ], [ 404185.452695829095319, 3783974.160732451826334 ], [ 404185.757884028484114, 3783974.160732451826334 ], [ 404186.368260427261703, 3783973.550356052815914 ], [ 404186.673448626650497, 3783973.550356052815914 ], [ 404187.283825025428087, 3783972.939979654271156 ], [ 404187.589013224816881, 3783972.939979654271156 ], [ 404187.894201424205676, 3783972.634791454765946 ], [ 404188.504577822983265, 3783972.634791454765946 ], [ 404188.80976602237206, 3783972.329603255260736 ], [ 404189.725330620538443, 3783972.329603255260736 ], [ 404190.030518819927238, 3783972.634791454765946 ], [ 404191.251271617482416, 3783972.634791454765946 ], [ 404191.556459816871211, 3783972.939979654271156 ], [ 404191.861648016260006, 3783972.939979654271156 ], [ 404192.1668362156488, 3783973.245167853310704 ], [ 404192.1668362156488, 3783975.076297049876302 ], [ 404191.861648016260006, 3783975.381485249381512 ], [ 404191.861648016260006, 3783976.297049847431481 ], [ 404191.556459816871211, 3783976.602238046936691 ], [ 404191.556459816871211, 3783976.907426245976239 ], [ 404191.251271617482416, 3783976.907426245976239 ], [ 404190.640895218704827, 3783977.517802644986659 ], [ 404190.335707019316033, 3783977.517802644986659 ], [ 404190.030518819927238, 3783977.822990844491869 ], [ 404189.420142421149649, 3783977.822990844491869 ], [ 404188.80976602237206, 3783978.433367243036628 ], [ 404188.504577822983265, 3783978.433367243036628 ], [ 404188.19938962359447, 3783978.738555442541838 ], [ 404187.283825025428087, 3783978.738555442541838 ], [ 404186.978636826039292, 3783979.043743642047048 ], [ 404186.368260427261703, 3783979.043743642047048 ], [ 404185.757884028484114, 3783979.654120040591806 ], [ 404185.147507629706524, 3783979.654120040591806 ], [ 404184.84231943031773, 3783979.959308240097016 ], [ 404183.621566632762551, 3783979.959308240097016 ] ] ] } },
{ "type": "Feature", "properties": { "confidence": 0.92388051748275757, "class": 1 }, "geometry": { "type": "Polygon", "coordinates": [ [ [ 403818.921668362163473, 3783676.907426245976239 ], [ 403818.616480162774678, 3783676.602238046936691 ], [ 403817.700915564608295, 3783676.602238046936691 ], [ 403817.700915564608295, 3783676.297049847431481 ], [ 403817.090539165830705, 3783675.686673448421061 ], [ 403817.090539165830705, 3783674.771108850371093 ], [ 403816.785350966441911, 3783674.465920650865883 ], [ 403816.785350966441911, 3783673.245167853310704 ], [ 403816.480162767053116, 3783672.939979654271156 ], [ 403816.480162767053116, 3783671.719226856715977 ], [ 403816.174974567664322, 3783671.414038657210767 ], [ 403816.174974567664322, 3783670.803662258200347 ], [ 403815.869786368275527, 3783670.498474059160799 ], [ 403815.869786368275527, 3783668.667344862595201 ], [ 403816.174974567664322, 3783668.362156663089991 ], [ 403816.785350966441911, 3783668.362156663089991 ], [ 403817.090539165830705, 3783668.056968464050442 ], [ 403818.311291963385884, 3783668.056968464050442 ], [ 403818.616480162774678, 3783668.362156663089991 ], [ 403819.532044760941062, 3783668.362156663089991 ], [ 403819.837232960329857, 3783668.667344862595201 ], [ 403820.142421159718651, 3783668.667344862595201 ], [ 403820.447609359107446, 3783668.97253306210041 ], [ 403820.752797558496241, 3783668.97253306210041 ], [ 403821.057985757885035, 3783669.27772126160562 ], [ 403821.36317395727383, 3783669.27772126160562 ], [ 403821.36317395727383, 3783669.582909460645169 ], [ 403821.668362156662624, 3783669.888097660150379 ], [ 403822.583926754829008, 3783669.888097660150379 ], [ 403822.889114954217803, 3783670.193285859655589 ], [ 403823.194303153606597, 3783670.193285859655589 ], [ 403823.499491352995392, 3783670.498474059160799 ], [ 403823.499491352995392, 3783672.634791454765946 ], [ 403823.194303153606597, 3783672.939979654271156 ], [ 403823.194303153606597, 3783674.160732451826334 ], [ 403822.889114954217803, 3783674.465920650865883 ], [ 403822.889114954217803, 3783675.686673448421061 ], [ 403822.583926754829008, 3783675.991861647926271 ], [ 403822.583926754829008, 3783676.297049847431481 ], [ 403821.973550356051419, 3783676.907426245976239 ], [ 403818.921668362163473, 3783676.907426245976239 ] ] ] } },
{ "type": "Feature", "properties": { "confidence": 0.85233944654464722, "class": 1 }, "geometry": { "type": "Polygon", "coordinates": [ [ [ 404069.481180061062332, 3783844.150559511501342 ], [ 404069.175991861673538, 3783843.845371312461793 ], [ 404066.429298067116179, 3783843.845371312461793 ], [ 404066.124109867727384, 3783843.540183112956583 ], [ 404065.818921668338589, 3783843.540183112956583 ], [ 404065.818921668338589, 3783841.403865717351437 ], [ 404065.513733468949795, 3783841.098677517846227 ], [ 404065.513733468949795, 3783840.488301118835807 ], [ 404065.208545269561, 3783840.183112919796258 ], [ 404065.208545269561, 3783837.131230925675482 ], [ 404064.903357070172206, 3783836.826042726170272 ], [ 404064.903357070172206, 3783836.520854527130723 ], [ 404064.598168870783411, 3783836.215666327625513 ], [ 404064.903357070172206, 3783835.910478128120303 ], [ 404064.903357070172206, 3783835.605289928615093 ], [ 404065.513733468949795, 3783834.994913530070335 ], [ 404065.818921668338589, 3783834.994913530070335 ], [ 404066.124109867727384, 3783834.689725330565125 ], [ 404066.429298067116179, 3783834.689725330565125 ], [ 404066.734486266504973, 3783834.384537131059915 ], [ 404067.650050864671357, 3783834.384537131059915 ], [ 404067.955239064118359, 3783834.689725330565125 ], [ 404068.565615462895948, 3783834.689725330565125 ], [ 404069.175991861673538, 3783835.300101729575545 ], [ 404069.481180061062332, 3783835.300101729575545 ], [ 404070.091556459839921, 3783835.910478128120303 ], [ 404070.396744659228716, 3783835.910478128120303 ], [ 404070.701932858617511, 3783836.215666327625513 ], [ 404071.007121058006305, 3783836.215666327625513 ], [ 404071.3123092573951, 3783836.520854527130723 ], [ 404071.617497456783894, 3783836.520854527130723 ], [ 404072.227873855561484, 3783837.131230925675482 ], [ 404072.227873855561484, 3783839.572736520785838 ], [ 404071.922685656172689, 3783839.877924720291048 ], [ 404071.922685656172689, 3783840.183112919796258 ], [ 404071.617497456783894, 3783840.488301118835807 ], [ 404071.617497456783894, 3783842.624618514906615 ], [ 404071.3123092573951, 3783842.929806713946164 ], [ 404071.3123092573951, 3783843.234994913451374 ], [ 404070.701932858617511, 3783843.845371312461793 ], [ 404070.396744659228716, 3783843.845371312461793 ], [ 404070.091556459839921, 3783844.150559511501342 ], [ 404069.481180061062332, 3783844.150559511501342 ] ] ] } },
{ "type": "Feature", "properties": { "confidence": 0.82273519039154053, "class": 1 }, "geometry": { "type": "Polygon", "coordinates": [ [ [ 404039.572736520844046, 3783849.338758901227266 ], [ 404039.267548321455251, 3783849.033570701722056 ], [ 404039.267548321455251, 3783847.507629705127329 ], [ 404039.572736520844046, 3783847.202441505622119 ], [ 404039.572736520844046, 3783846.897253306116909 ], [ 404039.877924720232841, 3783846.592065106611699 ], [ 404039.877924720232841, 3783846.28687690757215 ], [ 404040.48830111901043, 3783845.67650050856173 ], [ 404040.48830111901043, 3783845.37131230905652 ], [ 404041.098677517788019, 3783844.760935910511762 ], [ 404041.098677517788019, 3783844.455747711006552 ], [ 404043.84537131228717, 3783841.709053916390985 ], [ 404044.150559511675965, 3783841.709053916390985 ], [ 404044.45574771106476, 3783841.403865717351437 ], [ 404044.760935910453554, 3783841.403865717351437 ], [ 404045.066124109842349, 3783841.098677517846227 ], [ 404046.59206510684453, 3783841.098677517846227 ], [ 404047.202441505622119, 3783841.709053916390985 ], [ 404047.202441505622119, 3783843.234994913451374 ], [ 404046.59206510684453, 3783843.845371312461793 ], [ 404046.286876907397527, 3783843.845371312461793 ], [ 404045.981688708008733, 3783844.150559511501342 ], [ 404045.676500508619938, 3783844.150559511501342 ], [ 404045.371312309231143, 3783844.455747711006552 ], [ 404045.371312309231143, 3783844.760935910511762 ], [ 404041.709053916565608, 3783848.423194303177297 ], [ 404041.709053916565608, 3783848.728382502682507 ], [ 404041.403865717176814, 3783848.728382502682507 ], [ 404041.098677517788019, 3783849.033570701722056 ], [ 404040.793489318399224, 3783849.033570701722056 ], [ 404040.48830111901043, 3783849.338758901227266 ], [ 404039.572736520844046, 3783849.338758901227266 ] ] ] } },
{ "type": "Feature", "properties": { "confidence": 0.79720813035964966, "class": 1 }, "geometry": { "type": "Polygon", "coordinates": [ [ [ 403996.846388606296387, 3783870.396744659170508 ], [ 403996.541200406907592, 3783870.091556459665298 ], [ 403996.541200406907592, 3783869.17599186161533 ], [ 403996.846388606296387, 3783868.87080366211012 ], [ 403996.846388606296387, 3783867.650050864554942 ], [ 403997.151576805685181, 3783867.344862665515393 ], [ 403997.456765005073976, 3783867.344862665515393 ], [ 403997.76195320446277, 3783867.039674466010183 ], [ 403999.593082400795538, 3783867.039674466010183 ], [ 404000.203458799573127, 3783867.650050864554942 ], [ 404000.203458799573127, 3783869.48118006112054 ], [ 403999.898270600184333, 3783869.78636826062575 ], [ 403999.593082400795538, 3783869.78636826062575 ], [ 403999.287894201406743, 3783870.091556459665298 ], [ 403998.677517802629154, 3783870.091556459665298 ], [ 403998.37232960324036, 3783870.396744659170508 ], [ 403996.846388606296387, 3783870.396744659170508 ] ] ] } },
{ "type": "Feature", "properties": { "confidence": 0.79651987552642822, "class": 1 }, "geometry": { "type": "Polygon", "coordinates": [ [ [ 404134.181078331661411, 3783930.51881993887946 ], [ 404133.875890132272616, 3783930.21363173937425 ], [ 404133.570701932883821, 3783930.21363173937425 ], [ 404133.570701932883821, 3783929.908443540334702 ], [ 404132.960325534106232, 3783929.298067141324282 ], [ 404132.960325534106232, 3783928.382502543274313 ], [ 404133.875890132272616, 3783927.466937945224345 ], [ 404133.875890132272616, 3783926.856561546213925 ], [ 404137.843336724326946, 3783926.856561546213925 ], [ 404137.843336724326946, 3783927.161749745719135 ], [ 404137.538148524938151, 3783927.466937945224345 ], [ 404137.538148524938151, 3783928.687690742779523 ], [ 404137.232960325549357, 3783928.992878941819072 ], [ 404137.232960325549357, 3783929.298067141324282 ], [ 404136.317395727382973, 3783930.21363173937425 ], [ 404136.012207527994178, 3783930.21363173937425 ], [ 404135.707019328605384, 3783930.51881993887946 ], [ 404134.181078331661411, 3783930.51881993887946 ] ] ] } },
{ "type": "Feature", "properties": { "confidence": 0.7870745062828064, "class": 1 }, "geometry": { "type": "Polygon", "coordinates": [ [ [ 404354.832146490341984, 3784118.514750762842596 ], [ 404354.526958290953189, 3784118.209562563803047 ], [ 404352.390640895231627, 3784118.209562563803047 ], [ 404352.085452695842832, 3784117.904374364297837 ], [ 404351.780264496454038, 3784117.904374364297837 ], [ 404351.780264496454038, 3784117.599186164792627 ], [ 404351.475076297065243, 3784117.293997965287417 ], [ 404351.780264496454038, 3784116.988809766247869 ], [ 404351.780264496454038, 3784116.073245167732239 ], [ 404352.085452695842832, 3784115.76805696869269 ], [ 404352.085452695842832, 3784113.936927772127092 ], [ 404352.390640895231627, 3784113.631739572621882 ], [ 404352.390640895231627, 3784113.326551373116672 ], [ 404352.695829094620422, 3784113.326551373116672 ], [ 404353.001017294009216, 3784113.021363174077123 ], [ 404357.273652085452341, 3784113.021363174077123 ], [ 404357.578840284841135, 3784113.326551373116672 ], [ 404357.88402848422993, 3784113.326551373116672 ], [ 404358.189216683618724, 3784113.631739572621882 ], [ 404358.189216683618724, 3784116.683621566742659 ], [ 404357.88402848422993, 3784116.988809766247869 ], [ 404357.88402848422993, 3784117.599186164792627 ], [ 404357.578840284841135, 3784117.904374364297837 ], [ 404357.273652085452341, 3784117.904374364297837 ], [ 404356.968463886063546, 3784118.209562563803047 ], [ 404356.968463886063546, 3784118.514750762842596 ], [ 404354.832146490341984, 3784118.514750762842596 ] ] ] } },
{ "type": "Feature", "properties": { "confidence": 0.76885992288589478, "class": 1 }, "geometry": { "type": "Polygon", "coordinates": [ [ [ 404154.323499491380062, 3783930.21363173937425 ], [ 404153.40793489315547, 3783929.298067141324282 ], [ 404153.40793489315547, 3783928.992878941819072 ], [ 404153.102746693766676, 3783928.687690742779523 ], [ 404153.102746693766676, 3783928.077314343769103 ], [ 404153.40793489315547, 3783927.772126144263893 ], [ 404153.40793489315547, 3783927.466937945224345 ], [ 404159.206510681600776, 3783927.466937945224345 ], [ 404159.206510681600776, 3783927.772126144263893 ], [ 404158.901322482211981, 3783928.077314343769103 ], [ 404158.901322482211981, 3783928.687690742779523 ], [ 404158.290946083434392, 3783929.298067141324282 ], [ 404157.680569684656803, 3783929.298067141324282 ], [ 404157.375381485268008, 3783929.603255340829492 ], [ 404156.765005086490419, 3783929.603255340829492 ], [ 404156.459816887101624, 3783929.908443540334702 ], [ 404155.54425228893524, 3783929.908443540334702 ], [ 404155.239064089546446, 3783930.21363173937425 ], [ 404154.323499491380062, 3783930.21363173937425 ] ] ] } },
{ "type": "Feature", "properties": { "confidence": 0.74516654014587402, "class": 1 }, "geometry": { "type": "Polygon", "coordinates": [ [ [ 403939.165818921639584, 3783835.910478128120303 ], [ 403938.555442522861995, 3783835.300101729575545 ], [ 403938.555442522861995, 3783831.943031535949558 ], [ 403938.860630722250789, 3783831.637843336910009 ], [ 403939.165818921639584, 3783831.637843336910009 ], [ 403939.471007121086586, 3783831.332655137404799 ], [ 403939.776195320475381, 3783831.332655137404799 ], [ 403940.38657171925297, 3783830.72227873839438 ], [ 403940.996948118030559, 3783830.72227873839438 ], [ 403941.302136317419354, 3783830.417090539354831 ], [ 403942.828077314363327, 3783830.417090539354831 ], [ 403943.133265513752121, 3783830.72227873839438 ], [ 403943.743641912529711, 3783830.72227873839438 ], [ 403944.048830111918505, 3783831.02746693789959 ], [ 403944.048830111918505, 3783831.637843336910009 ], [ 403943.743641912529711, 3783831.943031535949558 ], [ 403943.743641912529711, 3783832.248219735454768 ], [ 403943.133265513752121, 3783832.858596134465188 ], [ 403943.133265513752121, 3783833.163784333504736 ], [ 403942.522889114974532, 3783833.774160732515156 ], [ 403942.522889114974532, 3783834.079348932020366 ], [ 403941.912512716196943, 3783834.689725330565125 ], [ 403941.607324516808148, 3783834.689725330565125 ], [ 403940.996948118030559, 3783835.300101729575545 ], [ 403940.691759918641765, 3783835.300101729575545 ], [ 403940.38657171925297, 3783835.605289928615093 ], [ 403939.776195320475381, 3783835.605289928615093 ], [ 403939.471007121086586, 3783835.910478128120303 ], [ 403939.165818921639584, 3783835.910478128120303 ] ] ] } },
{ "type": "Feature", "properties": { "confidence": 0.74231719970703125, "class": 1 }, "geometry": { "type": "Polygon", "coordinates": [ [ [ 404186.368260427261703, 3783784.02848423179239 ], [ 404186.063072227872908, 3783783.723296032752842 ], [ 404185.757884028484114, 3783783.723296032752842 ], [ 404185.452695829095319, 3783783.418107833247632 ], [ 404184.84231943031773, 3783783.418107833247632 ], [ 404184.537131230928935, 3783783.112919633742422 ], [ 404183.621566632762551, 3783783.112919633742422 ], [ 404183.316378433373757, 3783782.807731434237212 ], [ 404183.316378433373757, 3783782.502543235197663 ], [ 404183.011190233984962, 3783782.197355035692453 ], [ 404183.011190233984962, 3783780.671414038632065 ], [ 404183.316378433373757, 3783780.366225839126855 ], [ 404183.316378433373757, 3783779.450661241076887 ], [ 404183.011190233984962, 3783779.145473041571677 ], [ 404183.011190233984962, 3783777.31434384547174 ], [ 404182.706002034596168, 3783777.00915564596653 ], [ 404182.706002034596168, 3783774.872838250361383 ], [ 404182.400813835207373, 3783774.567650050856173 ], [ 404182.400813835207373, 3783773.041709053795785 ], [ 404182.706002034596168, 3783772.736520854756236 ], [ 404182.706002034596168, 3783772.431332655251026 ], [ 404183.011190233984962, 3783772.126144455745816 ], [ 404183.011190233984962, 3783771.820956256240606 ], [ 404183.926754832151346, 3783770.905391658190638 ], [ 404184.231943031540141, 3783770.905391658190638 ], [ 404184.537131230928935, 3783770.600203458685428 ], [ 404185.757884028484114, 3783770.600203458685428 ], [ 404186.063072227872908, 3783770.905391658190638 ], [ 404186.368260427261703, 3783770.905391658190638 ], [ 404186.368260427261703, 3783771.210579857695848 ], [ 404186.978636826039292, 3783771.820956256240606 ], [ 404186.978636826039292, 3783772.431332655251026 ], [ 404188.19938962359447, 3783773.652085452806205 ], [ 404188.19938962359447, 3783773.957273652311414 ], [ 404188.504577822983265, 3783774.262461851350963 ], [ 404188.504577822983265, 3783777.31434384547174 ], [ 404188.80976602237206, 3783777.61953204497695 ], [ 404188.80976602237206, 3783782.807731434237212 ], [ 404188.504577822983265, 3783783.112919633742422 ], [ 404188.504577822983265, 3783783.723296032752842 ], [ 404188.19938962359447, 3783784.02848423179239 ], [ 404186.368260427261703, 3783784.02848423179239 ] ] ] } },
{ "type": "Feature", "properties": { "confidence": 0.72905778884887695, "class": 1 }, "geometry": { "type": "Polygon", "coordinates": [ [ [ 404078.026449643948581, 3783819.430315361358225 ], [ 404077.721261444559786, 3783819.125127161853015 ], [ 404077.416073245170992, 3783819.125127161853015 ], [ 404077.416073245170992, 3783818.819938962347806 ], [ 404077.110885045782197, 3783818.514750762842596 ], [ 404077.110885045782197, 3783817.599186164792627 ], [ 404077.416073245170992, 3783817.293997965287417 ], [ 404077.721261444559786, 3783817.293997965287417 ], [ 404078.026449643948581, 3783816.988809766247869 ], [ 404078.331637843337376, 3783816.988809766247869 ], [ 404078.63682604272617, 3783816.683621566742659 ], [ 404078.942014242114965, 3783816.683621566742659 ], [ 404079.247202441503759, 3783816.378433367237449 ], [ 404080.467955239058938, 3783816.378433367237449 ], [ 404081.078331637836527, 3783816.988809766247869 ], [ 404081.383519837225322, 3783816.988809766247869 ], [ 404081.688708036614116, 3783817.293997965287417 ], [ 404081.688708036614116, 3783818.819938962347806 ], [ 404081.383519837225322, 3783819.125127161853015 ], [ 404081.078331637836527, 3783819.125127161853015 ], [ 404080.773143438447732, 3783819.430315361358225 ], [ 404078.026449643948581, 3783819.430315361358225 ] ] ] } },
{ "type": "Feature", "properties": { "confidence": 0.62457370758056641, "class": 1 }, "geometry": { "type": "Polygon", "coordinates": [ [ [ 404089.318413021392189, 3783890.539165819063783 ], [ 404089.013224821945187, 3783890.233977619558573 ], [ 404088.402848423167598, 3783890.233977619558573 ], [ 404087.792472024390008, 3783889.623601220548153 ], [ 404087.792472024390008, 3783889.013224822003394 ], [ 404087.487283825001214, 3783888.708036622498184 ], [ 404087.487283825001214, 3783885.961342827882618 ], [ 404087.792472024390008, 3783885.961342827882618 ], [ 404088.402848423167598, 3783885.350966429337859 ], [ 404089.013224821945187, 3783885.350966429337859 ], [ 404089.623601220780984, 3783885.961342827882618 ], [ 404089.623601220780984, 3783886.266531027387828 ], [ 404089.928789420169778, 3783886.571719226893038 ], [ 404090.539165818947367, 3783886.571719226893038 ], [ 404090.844354018336162, 3783886.266531027387828 ], [ 404091.149542217724957, 3783886.266531027387828 ], [ 404091.454730417113751, 3783885.961342827882618 ], [ 404092.370295015280135, 3783885.961342827882618 ], [ 404092.67548321466893, 3783885.656154628843069 ], [ 404093.285859613446519, 3783885.656154628843069 ], [ 404093.591047812835313, 3783885.961342827882618 ], [ 404093.591047812835313, 3783887.487283824943006 ], [ 404093.285859613446519, 3783887.792472024448216 ], [ 404093.285859613446519, 3783888.402848422992975 ], [ 404092.980671414057724, 3783888.708036622498184 ], [ 404092.980671414057724, 3783889.013224822003394 ], [ 404092.67548321466893, 3783889.318413021508604 ], [ 404092.67548321466893, 3783889.623601220548153 ], [ 404091.759918616502546, 3783890.539165819063783 ], [ 404089.318413021392189, 3783890.539165819063783 ] ] ] } },
{ "type": "Feature", "properties": { "confidence": 0.53088384866714478, "class": 1 }, "geometry": { "type": "Polygon", "coordinates": [ [ [ 404088.097660223778803, 3783865.513733468949795 ], [ 404088.097660223778803, 3783863.682604272849858 ], [ 404088.402848423167598, 3783863.377416073344648 ], [ 404088.402848423167598, 3783863.072227873839438 ], [ 404088.708036622556392, 3783862.767039674334228 ], [ 404088.708036622556392, 3783861.54628687677905 ], [ 404088.402848423167598, 3783861.241098677739501 ], [ 404088.402848423167598, 3783860.325534079223871 ], [ 404088.097660223778803, 3783860.020345880184323 ], [ 404088.097660223778803, 3783859.715157680679113 ], [ 404088.402848423167598, 3783859.409969481173903 ], [ 404089.013224821945187, 3783859.409969481173903 ], [ 404089.318413021392189, 3783859.104781281668693 ], [ 404091.149542217724957, 3783859.104781281668693 ], [ 404091.454730417113751, 3783858.799593082629144 ], [ 404091.759918616502546, 3783859.104781281668693 ], [ 404092.67548321466893, 3783859.104781281668693 ], [ 404092.980671414057724, 3783859.409969481173903 ], [ 404092.980671414057724, 3783862.156663275789469 ], [ 404092.67548321466893, 3783862.461851475294679 ], [ 404092.67548321466893, 3783862.767039674334228 ], [ 404092.370295015280135, 3783863.072227873839438 ], [ 404092.370295015280135, 3783863.377416073344648 ], [ 404092.06510681589134, 3783863.682604272849858 ], [ 404092.06510681589134, 3783863.987792471889406 ], [ 404091.149542217724957, 3783864.903357070405036 ], [ 404090.539165818947367, 3783864.903357070405036 ], [ 404090.233977619558573, 3783865.208545269444585 ], [ 404089.623601220780984, 3783865.208545269444585 ], [ 404089.318413021392189, 3783865.513733468949795 ], [ 404088.097660223778803, 3783865.513733468949795 ] ] ] } },
{ "type": "Feature", "properties": { "confidence": 0.48832881450653076, "class": 1 }, "geometry": { "type": "Polygon", "coordinates": [ [ [ 403990.742624618520495, 3783706.815869786310941 ], [ 403990.4374364191317, 3783706.510681586805731 ], [ 403990.132248219742905, 3783706.510681586805731 ], [ 403989.827060020354111, 3783706.205493387766182 ], [ 403989.521871820965316, 3783706.205493387766182 ], [ 403989.216683621576522, 3783705.900305188260972 ], [ 403989.216683621576522, 3783705.595116988755763 ], [ 403988.911495422187727, 3783705.289928789250553 ], [ 403988.911495422187727, 3783704.374364191200584 ], [ 403989.216683621576522, 3783704.069175991695374 ], [ 403989.216683621576522, 3783703.763987792655826 ], [ 403989.827060020354111, 3783703.153611393645406 ], [ 403989.827060020354111, 3783702.848423194140196 ], [ 403990.132248219742905, 3783702.543234995100647 ], [ 403990.4374364191317, 3783702.543234995100647 ], [ 403990.742624618520495, 3783702.238046795595437 ], [ 403992.573753814853262, 3783702.238046795595437 ], [ 403992.878942014242057, 3783702.543234995100647 ], [ 403993.489318413019646, 3783702.543234995100647 ], [ 403993.794506612408441, 3783702.848423194140196 ], [ 403994.099694811797235, 3783702.848423194140196 ], [ 403994.710071210574824, 3783703.458799593150616 ], [ 403995.015259409963619, 3783703.458799593150616 ], [ 403995.320447609352414, 3783703.763987792655826 ], [ 403995.625635808741208, 3783703.763987792655826 ], [ 403995.625635808741208, 3783704.069175991695374 ], [ 403995.930824008130003, 3783704.374364191200584 ], [ 403995.320447609352414, 3783704.984740590211004 ], [ 403995.015259409963619, 3783704.984740590211004 ], [ 403994.710071210574824, 3783705.289928789250553 ], [ 403994.40488301118603, 3783705.289928789250553 ], [ 403993.489318413019646, 3783706.205493387766182 ], [ 403993.184130213630851, 3783706.205493387766182 ], [ 403992.878942014242057, 3783706.510681586805731 ], [ 403992.268565615464468, 3783706.510681586805731 ], [ 403991.963377416075673, 3783706.815869786310941 ], [ 403990.742624618520495, 3783706.815869786310941 ] ] ] } },
{ "type": "Feature", "properties": { "confidence": 0.48456817865371704, "class": 1 }, "geometry": { "type": "Polygon", "coordinates": [ [ [ 404281.586978636798449, 3783818.209562563803047 ], [ 404281.281790437409654, 3783817.904374364297837 ], [ 404280.97660223802086, 3783817.904374364297837 ], [ 404280.97660223802086, 3783817.599186164792627 ], [ 404280.671414038632065, 3783817.293997965287417 ], [ 404280.671414038632065, 3783816.683621566742659 ], [ 404280.97660223802086, 3783816.378433367237449 ], [ 404280.97660223802086, 3783816.073245167732239 ], [ 404281.281790437409654, 3783815.76805696869269 ], [ 404281.586978636798449, 3783815.76805696869269 ], [ 404281.892166836187243, 3783815.46286876918748 ], [ 404282.50254323502304, 3783815.46286876918748 ], [ 404282.807731434411835, 3783815.15768056968227 ], [ 404283.418107833189424, 3783815.15768056968227 ], [ 404283.723296032578219, 3783814.85249237017706 ], [ 404284.944048830133397, 3783814.85249237017706 ], [ 404285.554425228910986, 3783814.242115971632302 ], [ 404287.080366225854959, 3783814.242115971632302 ], [ 404287.385554425243754, 3783814.547304171137512 ], [ 404287.385554425243754, 3783815.15768056968227 ], [ 404287.080366225854959, 3783815.46286876918748 ], [ 404287.080366225854959, 3783815.76805696869269 ], [ 404286.775178026466165, 3783815.76805696869269 ], [ 404285.249237029522192, 3783817.293997965287417 ], [ 404284.944048830133397, 3783817.293997965287417 ], [ 404284.638860630744603, 3783817.599186164792627 ], [ 404284.333672431355808, 3783817.599186164792627 ], [ 404284.028484231967013, 3783817.904374364297837 ], [ 404283.723296032578219, 3783817.904374364297837 ], [ 404283.418107833189424, 3783818.209562563803047 ], [ 404281.586978636798449, 3783818.209562563803047 ] ] ] } },
{ "type": "Feature", "properties": { "confidence": 0.47114363312721252, "class": 1 }, "geometry": { "type": "Polygon", "coordinates": [ [ [ 403810.071210579830222, 3783618.006103763822466 ], [ 403809.155645981663838, 3783617.090539165772498 ], [ 403809.155645981663838, 3783616.785350966267288 ], [ 403808.850457782275043, 3783616.480162767227739 ], [ 403808.850457782275043, 3783616.174974567722529 ], [ 403808.545269582886249, 3783615.869786368217319 ], [ 403808.545269582886249, 3783615.564598168712109 ], [ 403808.240081383497454, 3783615.259409969672561 ], [ 403808.240081383497454, 3783613.123092573601753 ], [ 403807.93489318410866, 3783612.817904374562204 ], [ 403807.93489318410866, 3783610.986775177996606 ], [ 403809.766022380441427, 3783609.155645981896669 ], [ 403809.766022380441427, 3783608.850457782391459 ], [ 403810.071210579830222, 3783608.545269582886249 ], [ 403810.376398779219016, 3783608.545269582886249 ], [ 403810.681586978607811, 3783608.240081383381039 ], [ 403812.207527975609992, 3783608.240081383381039 ], [ 403812.512716174998786, 3783608.545269582886249 ], [ 403813.42828077316517, 3783608.545269582886249 ], [ 403813.733468972553965, 3783608.850457782391459 ], [ 403814.038657171942759, 3783608.850457782391459 ], [ 403814.038657171942759, 3783609.155645981896669 ], [ 403814.343845371331554, 3783609.460834180936217 ], [ 403814.343845371331554, 3783610.681586978491396 ], [ 403814.649033570720349, 3783610.986775177996606 ], [ 403814.649033570720349, 3783615.564598168712109 ], [ 403814.343845371331554, 3783615.869786368217319 ], [ 403814.343845371331554, 3783616.174974567722529 ], [ 403813.733468972553965, 3783616.785350966267288 ], [ 403813.42828077316517, 3783616.785350966267288 ], [ 403813.123092573776376, 3783617.090539165772498 ], [ 403812.817904374387581, 3783617.090539165772498 ], [ 403812.512716174998786, 3783617.395727365277708 ], [ 403811.902339776221197, 3783617.395727365277708 ], [ 403811.597151576832402, 3783617.700915564782917 ], [ 403810.376398779219016, 3783617.700915564782917 ], [ 403810.071210579830222, 3783618.006103763822466 ] ] ] } },
{ "type": "Feature", "properties": { "confidence": 0.45259076356887817, "class": 1 }, "geometry": { "type": "Polygon", "coordinates": [ [ [ 404234.28280773141887, 3783847.202441505622119 ], [ 404233.977619532030076, 3783846.897253306116909 ], [ 404233.672431332641281, 3783846.897253306116909 ], [ 404233.672431332641281, 3783846.592065106611699 ], [ 404233.062054933863692, 3783845.98168870806694 ], [ 404233.062054933863692, 3783845.37131230905652 ], [ 404232.756866734474897, 3783845.066124110016972 ], [ 404232.756866734474897, 3783843.845371312461793 ], [ 404232.451678535086103, 3783843.540183112956583 ], [ 404232.451678535086103, 3783843.234994913451374 ], [ 404232.146490335697308, 3783842.929806713946164 ], [ 404232.146490335697308, 3783841.709053916390985 ], [ 404232.451678535086103, 3783841.403865717351437 ], [ 404232.451678535086103, 3783841.098677517846227 ], [ 404232.756866734474897, 3783840.793489318341017 ], [ 404233.062054933863692, 3783840.793489318341017 ], [ 404233.367243133252487, 3783840.488301118835807 ], [ 404234.587995930807665, 3783840.488301118835807 ], [ 404234.89318413019646, 3783840.183112919796258 ], [ 404237.029501525918022, 3783840.183112919796258 ], [ 404237.334689725306816, 3783840.488301118835807 ], [ 404237.639877924695611, 3783840.488301118835807 ], [ 404237.945066124084406, 3783840.793489318341017 ], [ 404237.945066124084406, 3783843.845371312461793 ], [ 404238.2502543234732, 3783844.150559511501342 ], [ 404238.2502543234732, 3783845.066124110016972 ], [ 404238.555442522861995, 3783845.37131230905652 ], [ 404238.555442522861995, 3783846.592065106611699 ], [ 404237.945066124084406, 3783847.202441505622119 ], [ 404234.28280773141887, 3783847.202441505622119 ] ] ] } },
{ "type": "Feature", "properties": { "confidence": 0.40636736154556274, "class": 1 }, "geometry": { "type": "Polygon", "coordinates": [ [ [ 404384.435401831113268, 3783715.05595116969198 ], [ 404384.130213631724473, 3783714.750762970652431 ], [ 404383.519837232946884, 3783714.750762970652431 ], [ 404382.909460834169295, 3783714.140386571642011 ], [ 404382.6042726347805, 3783714.140386571642011 ], [ 404382.6042726347805, 3783713.835198372136801 ], [ 404382.299084435391705, 3783713.530010173097253 ], [ 404382.299084435391705, 3783712.614445574581623 ], [ 404381.993896236002911, 3783712.309257375542074 ], [ 404381.993896236002911, 3783711.393692777026445 ], [ 404381.688708036614116, 3783711.088504577986896 ], [ 404381.688708036614116, 3783710.172939979471266 ], [ 404381.993896236002911, 3783709.867751780431718 ], [ 404382.299084435391705, 3783709.867751780431718 ], [ 404382.6042726347805, 3783709.562563580926508 ], [ 404383.519837232946884, 3783709.562563580926508 ], [ 404383.825025432335678, 3783709.867751780431718 ], [ 404387.792472024390008, 3783709.867751780431718 ], [ 404388.097660223778803, 3783710.172939979471266 ], [ 404388.097660223778803, 3783710.478128178976476 ], [ 404388.402848423167598, 3783710.783316378481686 ], [ 404388.402848423167598, 3783713.224821973592043 ], [ 404387.792472024390008, 3783713.835198372136801 ], [ 404387.487283825001214, 3783713.835198372136801 ], [ 404387.182095625612419, 3783714.140386571642011 ], [ 404386.876907426223624, 3783714.140386571642011 ], [ 404386.57171922683483, 3783714.445574771147221 ], [ 404386.266531027446035, 3783714.445574771147221 ], [ 404385.961342828057241, 3783714.750762970652431 ], [ 404385.350966429279651, 3783714.750762970652431 ], [ 404385.045778229890857, 3783715.05595116969198 ], [ 404384.435401831113268, 3783715.05595116969198 ] ] ] } },
{ "type": "Feature", "properties": { "confidence": 0.38602557778358459, "class": 1 }, "geometry": { "type": "Polygon", "coordinates": [ [ [ 404274.262461851467378, 3783869.78636826062575 ], [ 404273.957273652078584, 3783869.48118006112054 ], [ 404273.346897253300995, 3783869.48118006112054 ], [ 404273.0417090539122, 3783869.17599186161533 ], [ 404272.736520854523405, 3783869.17599186161533 ], [ 404272.431332655134611, 3783868.87080366211012 ], [ 404272.431332655134611, 3783868.565615463070571 ], [ 404272.126144455745816, 3783868.260427263565361 ], [ 404272.126144455745816, 3783867.650050864554942 ], [ 404271.820956256357022, 3783867.344862665515393 ], [ 404271.515768056968227, 3783867.344862665515393 ], [ 404271.515768056968227, 3783866.429298066999763 ], [ 404271.820956256357022, 3783866.124109867960215 ], [ 404271.820956256357022, 3783865.818921668455005 ], [ 404272.126144455745816, 3783865.818921668455005 ], [ 404272.431332655134611, 3783865.513733468949795 ], [ 404272.736520854523405, 3783865.513733468949795 ], [ 404273.346897253300995, 3783864.903357070405036 ], [ 404273.652085452689789, 3783864.903357070405036 ], [ 404273.957273652078584, 3783864.598168870899826 ], [ 404274.872838250244968, 3783864.598168870899826 ], [ 404275.788402848411351, 3783865.513733468949795 ], [ 404275.788402848411351, 3783865.818921668455005 ], [ 404276.398779247188941, 3783866.429298066999763 ], [ 404276.398779247188941, 3783866.734486266504973 ], [ 404276.703967446577735, 3783867.039674466010183 ], [ 404276.703967446577735, 3783869.17599186161533 ], [ 404276.398779247188941, 3783869.17599186161533 ], [ 404276.093591047800146, 3783869.48118006112054 ], [ 404275.483214649022557, 3783869.48118006112054 ], [ 404275.178026449633762, 3783869.78636826062575 ], [ 404274.262461851467378, 3783869.78636826062575 ] ] ] } },
{ "type": "Feature", "properties": { "confidence": 0.37344327569007874, "class": 1 }, "geometry": { "type": "Polygon", "coordinates": [ [ [ 403952.594099694804754, 3783807.52797558484599 ], [ 403951.983723296027165, 3783806.917599186301231 ], [ 403951.983723296027165, 3783806.002034587785602 ], [ 403952.594099694804754, 3783805.391658189240843 ], [ 403952.594099694804754, 3783805.086469989735633 ], [ 403953.509664292971138, 3783804.170905391685665 ], [ 403953.814852492359933, 3783804.170905391685665 ], [ 403954.120040691748727, 3783803.865717192180455 ], [ 403955.6459816886927, 3783803.865717192180455 ], [ 403955.951169888081495, 3783803.560528992675245 ], [ 403955.951169888081495, 3783807.22278738534078 ], [ 403954.120040691748727, 3783807.22278738534078 ], [ 403953.814852492359933, 3783807.52797558484599 ], [ 403952.594099694804754, 3783807.52797558484599 ] ] ] } },
{ "type": "Feature", "properties": { "confidence": 0.36308965086936951, "class": 1 }, "geometry": { "type": "Polygon", "coordinates": [ [ [ 403977.314343845355324, 3783812.716174974571913 ], [ 403977.00915564596653, 3783812.410986775066704 ], [ 403976.398779247188941, 3783812.410986775066704 ], [ 403976.093591047800146, 3783812.105798575561494 ], [ 403975.788402848411351, 3783812.105798575561494 ], [ 403975.788402848411351, 3783810.274669379461557 ], [ 403976.093591047800146, 3783810.274669379461557 ], [ 403976.398779247188941, 3783809.969481179956347 ], [ 403976.398779247188941, 3783809.664292980451137 ], [ 403980.671414038632065, 3783809.664292980451137 ], [ 403980.671414038632065, 3783809.969481179956347 ], [ 403980.97660223802086, 3783810.274669379461557 ], [ 403980.97660223802086, 3783810.579857578966767 ], [ 403979.755849440465681, 3783811.800610376521945 ], [ 403979.450661241076887, 3783811.800610376521945 ], [ 403979.145473041688092, 3783812.105798575561494 ], [ 403978.840284842299297, 3783812.105798575561494 ], [ 403978.535096642910503, 3783812.410986775066704 ], [ 403977.924720244132914, 3783812.410986775066704 ], [ 403977.619532044744119, 3783812.716174974571913 ], [ 403977.314343845355324, 3783812.716174974571913 ] ] ] } },
{ "type": "Feature", "properties": { "confidence": 0.28715643286705017, "class": 1 }, "geometry": { "type": "Polygon", "coordinates": [ [ [ 404216.88708036619937, 3784048.016276704147458 ], [ 404216.581892166810576, 3784047.711088504642248 ], [ 404216.276703967421781, 3784047.711088504642248 ], [ 404216.276703967421781, 3784045.87995930807665 ], [ 404216.581892166810576, 3784045.574771109037101 ], [ 404216.581892166810576, 3784044.659206510521472 ], [ 404216.276703967421781, 3784044.354018311481923 ], [ 404216.276703967421781, 3784044.048830111976713 ], [ 404221.159715157700703, 3784044.048830111976713 ], [ 404221.159715157700703, 3784044.354018311481923 ], [ 404220.854526958311908, 3784044.659206510521472 ], [ 404220.854526958311908, 3784045.269582909531891 ], [ 404218.718209562590346, 3784047.405900305137038 ], [ 404218.413021363201551, 3784047.405900305137038 ], [ 404218.107833163812757, 3784047.711088504642248 ], [ 404217.49745676497696, 3784047.711088504642248 ], [ 404217.192268565588165, 3784048.016276704147458 ], [ 404216.88708036619937, 3784048.016276704147458 ] ] ] } },
{ "type": "Feature", "properties": { "confidence": 0.26795491576194763, "class": 1 }, "geometry": { "type": "Polygon", "coordinates": [ [ [ 403872.634791454707738, 3783760.528992878738791 ], [ 403872.329603255318943, 3783760.223804679699242 ], [ 403871.719226856541354, 3783760.223804679699242 ], [ 403871.108850457763765, 3783759.613428280688822 ], [ 403871.108850457763765, 3783757.782299084588885 ], [ 403872.024415055930149, 3783756.866734486073256 ], [ 403872.329603255318943, 3783756.866734486073256 ], [ 403872.634791454707738, 3783756.561546287033707 ], [ 403874.160732451651711, 3783756.561546287033707 ], [ 403874.465920651040506, 3783756.866734486073256 ], [ 403874.7711088504293, 3783756.866734486073256 ], [ 403875.381485249265097, 3783757.477110885083675 ], [ 403875.381485249265097, 3783759.308240081183612 ], [ 403874.465920651040506, 3783760.223804679699242 ], [ 403874.160732451651711, 3783760.223804679699242 ], [ 403873.855544252262916, 3783760.528992878738791 ], [ 403872.634791454707738, 3783760.528992878738791 ] ] ] } }
]
}
