{
"type": "FeatureCollection",
"name": "cell_00478_pre",
"crs": { "type": "name", "properties": { "name": "urn:ogc:def:crs:EPSG::32611" } },
"features": [
{ "type": "Feature", "properties": { "confidence": 0.94302076101303101, "class": 1 }, "geometry": { "type": "Polygon", "coordinates": [ [ [ 401272.431332655134611, 3786216.988809766247869 ], [ 401272.431332655134611, 3786213.631739572621882 ], [ 401272.736520854523405, 3786213.326551373116672 ], [ 401272.736520854523405, 3786212.716174974571913 ], [ 401273.652085452689789, 3786211.800610376521945 ], [ 401273.652085452689789, 3786211.495422177016735 ], [ 401273.957273652078584, 3786211.190233977511525 ], [ 401273.957273652078584, 3786210.579857578966767 ], [ 401275.178026449633762, 3786210.579857578966767 ], [ 401275.483214649022557, 3786210.274669379461557 ], [ 401278.229908443521708, 3786210.274669379461557 ], [ 401278.229908443521708, 3786211.495422177016735 ], [ 401277.924720244132914, 3786211.800610376521945 ], [ 401277.924720244132914, 3786212.105798575561494 ], [ 401277.619532044744119, 3786212.410986775066704 ], [ 401277.314343845355324, 3786212.410986775066704 ], [ 401277.00915564596653, 3786212.716174974571913 ], [ 401277.00915564596653, 3786213.021363174077123 ], [ 401276.703967446577735, 3786213.326551373116672 ], [ 401276.703967446577735, 3786213.631739572621882 ], [ 401276.093591047800146, 3786214.242115971632302 ], [ 401276.093591047800146, 3786214.547304171137512 ], [ 401274.872838250244968, 3786215.76805696869269 ], [ 401274.872838250244968, 3786216.073245167732239 ], [ 401273.957273652078584, 3786216.988809766247869 ], [ 401272.431332655134611, 3786216.988809766247869 ] ] ] } },
{ "type": "Feature", "properties": { "confidence": 0.92140406370162964, "class": 1 }, "geometry": { "type": "Polygon", "coordinates": [ [ [ 401044.760935910453554, 3786282.299084435217083 ], [ 401044.45574771106476, 3786281.993896236177534 ], [ 401043.84537131228717, 3786281.993896236177534 ], [ 401043.540183112898376, 3786281.688708036672324 ], [ 401043.234994913509581, 3786281.688708036672324 ], [ 401043.234994913509581, 3786281.383519837167114 ], [ 401042.624618514731992, 3786280.773143438622355 ], [ 401042.624618514731992, 3786280.467955239117146 ], [ 401042.319430315343197, 3786280.162767039611936 ], [ 401042.319430315343197, 3786279.247202441561967 ], [ 401042.014242115954403, 3786278.942014242056757 ], [ 401042.014242115954403, 3786276.80569684645161 ], [ 401042.319430315343197, 3786276.5005086469464 ], [ 401042.319430315343197, 3786275.890132248401642 ], [ 401042.624618514731992, 3786275.584944048896432 ], [ 401042.624618514731992, 3786275.279755849391222 ], [ 401042.929806714120787, 3786275.279755849391222 ], [ 401043.540183112898376, 3786274.669379450846463 ], [ 401043.84537131228717, 3786274.669379450846463 ], [ 401044.150559511675965, 3786274.364191251341254 ], [ 401044.45574771106476, 3786274.364191251341254 ], [ 401045.066124109842349, 3786273.753814852330834 ], [ 401045.371312309231143, 3786273.753814852330834 ], [ 401045.676500508619938, 3786273.448626653291285 ], [ 401047.812817904399708, 3786273.448626653291285 ], [ 401048.118006103788503, 3786273.753814852330834 ], [ 401048.728382502566092, 3786273.753814852330834 ], [ 401049.033570701954886, 3786274.059003051836044 ], [ 401049.338758901343681, 3786274.059003051836044 ], [ 401049.94913530012127, 3786274.669379450846463 ], [ 401050.254323499510065, 3786274.669379450846463 ], [ 401050.559511698898859, 3786274.974567649886012 ], [ 401051.169888097676449, 3786274.974567649886012 ], [ 401051.169888097676449, 3786275.279755849391222 ], [ 401051.475076297065243, 3786275.584944048896432 ], [ 401051.475076297065243, 3786276.5005086469464 ], [ 401051.169888097676449, 3786276.80569684645161 ], [ 401051.169888097676449, 3786277.416073244996369 ], [ 401050.864699898287654, 3786277.721261444501579 ], [ 401050.864699898287654, 3786278.331637843511999 ], [ 401050.559511698898859, 3786278.636826042551547 ], [ 401050.559511698898859, 3786278.942014242056757 ], [ 401050.254323499510065, 3786279.247202441561967 ], [ 401050.254323499510065, 3786279.552390641067177 ], [ 401048.728382502566092, 3786281.078331637661904 ], [ 401048.423194303177297, 3786281.078331637661904 ], [ 401048.118006103788503, 3786281.383519837167114 ], [ 401048.118006103788503, 3786281.688708036672324 ], [ 401047.812817904399708, 3786281.688708036672324 ], [ 401047.202441505622119, 3786282.299084435217083 ], [ 401044.760935910453554, 3786282.299084435217083 ] ] ] } },
{ "type": "Feature", "properties": { "confidence": 0.90826171636581421, "class": 1 }, "geometry": { "type": "Polygon", "coordinates": [ [ [ 400901.322482197370846, 3786124.516785351093858 ], [ 400901.017293997982051, 3786124.211597151588649 ], [ 400900.406917599204462, 3786124.211597151588649 ], [ 400900.101729399815667, 3786123.906408952083439 ], [ 400899.796541200426873, 3786123.906408952083439 ], [ 400899.186164801649284, 3786123.29603255353868 ], [ 400898.880976602260489, 3786123.29603255353868 ], [ 400898.880976602260489, 3786122.99084435403347 ], [ 400898.575788402871694, 3786122.68565615452826 ], [ 400898.575788402871694, 3786122.075279755983502 ], [ 400898.880976602260489, 3786121.770091556478292 ], [ 400898.880976602260489, 3786121.464903356973082 ], [ 400899.186164801649284, 3786121.159715157467872 ], [ 400899.186164801649284, 3786119.633774160873145 ], [ 400898.880976602260489, 3786119.328585961367935 ], [ 400899.186164801649284, 3786119.023397761862725 ], [ 400899.186164801649284, 3786118.413021363317966 ], [ 400899.491353001038078, 3786118.107833163812757 ], [ 400899.491353001038078, 3786115.97151576820761 ], [ 400900.101729399815667, 3786115.36113936919719 ], [ 400902.543234994926024, 3786115.36113936919719 ], [ 400902.848423194314819, 3786115.6663275687024 ], [ 400903.153611393703613, 3786115.6663275687024 ], [ 400904.374364191258792, 3786116.887080366257578 ], [ 400904.679552390647586, 3786116.887080366257578 ], [ 400904.679552390647586, 3786117.192268565762788 ], [ 400904.984740590036381, 3786117.497456764802337 ], [ 400905.289928789425176, 3786117.497456764802337 ], [ 400906.205493387591559, 3786118.413021363317966 ], [ 400906.205493387591559, 3786119.328585961367935 ], [ 400906.510681586980354, 3786119.633774160873145 ], [ 400906.510681586980354, 3786120.854526958428323 ], [ 400906.815869786369149, 3786121.159715157467872 ], [ 400906.815869786369149, 3786121.464903356973082 ], [ 400906.510681586980354, 3786121.770091556478292 ], [ 400906.510681586980354, 3786122.075279755983502 ], [ 400905.59511698881397, 3786122.99084435403347 ], [ 400905.59511698881397, 3786123.29603255353868 ], [ 400904.984740590036381, 3786123.29603255353868 ], [ 400904.679552390647586, 3786123.601220752578229 ], [ 400904.069175991869997, 3786123.601220752578229 ], [ 400903.763987792481203, 3786123.906408952083439 ], [ 400903.458799593092408, 3786123.906408952083439 ], [ 400903.153611393703613, 3786124.211597151588649 ], [ 400902.848423194314819, 3786124.211597151588649 ], [ 400902.543234994926024, 3786124.516785351093858 ], [ 400901.322482197370846, 3786124.516785351093858 ] ] ] } },
{ "type": "Feature", "properties": { "confidence": 0.85360687971115112, "class": 1 }, "geometry": { "type": "Polygon", "coordinates": [ [ [ 401116.174974567664322, 3786032.349949135445058 ], [ 401115.869786368275527, 3786032.044760935939848 ], [ 401115.259409969497938, 3786032.044760935939848 ], [ 401115.259409969497938, 3786030.82400813838467 ], [ 401115.564598168886732, 3786030.51881993887946 ], [ 401115.564598168886732, 3786030.21363173937425 ], [ 401116.480162767053116, 3786029.298067141324282 ], [ 401116.480162767053116, 3786028.992878941819072 ], [ 401118.921668362163473, 3786026.551373346708715 ], [ 401118.921668362163473, 3786026.246185147669166 ], [ 401119.226856561552268, 3786026.246185147669166 ], [ 401119.837232960329857, 3786025.635808748658746 ], [ 401120.142421159718651, 3786025.635808748658746 ], [ 401120.447609359107446, 3786025.330620549153537 ], [ 401120.752797558496241, 3786025.330620549153537 ], [ 401121.057985757885035, 3786025.025432350113988 ], [ 401121.36317395727383, 3786025.025432350113988 ], [ 401121.668362156662624, 3786024.720244150608778 ], [ 401122.278738555440214, 3786024.720244150608778 ], [ 401122.583926754829008, 3786025.025432350113988 ], [ 401122.889114954217803, 3786025.025432350113988 ], [ 401123.194303153606597, 3786025.330620549153537 ], [ 401123.194303153606597, 3786026.551373346708715 ], [ 401123.499491352995392, 3786026.856561546213925 ], [ 401123.499491352995392, 3786027.466937945224345 ], [ 401123.804679552384187, 3786027.772126144263893 ], [ 401123.804679552384187, 3786028.382502543274313 ], [ 401124.109867751772981, 3786028.687690742779523 ], [ 401123.804679552384187, 3786028.992878941819072 ], [ 401123.804679552384187, 3786029.603255340829492 ], [ 401122.583926754829008, 3786030.82400813838467 ], [ 401122.278738555440214, 3786030.82400813838467 ], [ 401121.36317395727383, 3786031.739572736434639 ], [ 401120.752797558496241, 3786031.739572736434639 ], [ 401120.447609359107446, 3786032.044760935939848 ], [ 401118.311291963385884, 3786032.044760935939848 ], [ 401118.006103763997089, 3786032.349949135445058 ], [ 401116.174974567664322, 3786032.349949135445058 ] ] ] } },
{ "type": "Feature", "properties": { "confidence": 0.84260320663452148, "class": 1 }, "geometry": { "type": "Polygon", "coordinates": [ [ [ 401247.100712105806451, 3786048.219735503662378 ], [ 401246.795523906417657, 3786047.914547304157168 ], [ 401245.879959308251273, 3786047.914547304157168 ], [ 401245.574771108862478, 3786047.609359104651958 ], [ 401245.269582909473684, 3786047.609359104651958 ], [ 401244.964394710084889, 3786047.304170905612409 ], [ 401244.659206510696094, 3786047.304170905612409 ], [ 401244.3540183113073, 3786046.998982706107199 ], [ 401243.743641912529711, 3786046.998982706107199 ], [ 401243.743641912529711, 3786045.167853509541601 ], [ 401244.048830111918505, 3786044.862665310502052 ], [ 401244.048830111918505, 3786042.726347914431244 ], [ 401245.269582909473684, 3786041.505595116876066 ], [ 401245.574771108862478, 3786041.505595116876066 ], [ 401246.185147507640067, 3786040.895218718331307 ], [ 401246.490335707028862, 3786040.895218718331307 ], [ 401246.795523906417657, 3786040.590030518826097 ], [ 401247.100712105806451, 3786040.590030518826097 ], [ 401247.405900305195246, 3786040.284842319320887 ], [ 401248.016276703972835, 3786040.284842319320887 ], [ 401248.32146490336163, 3786039.979654119815677 ], [ 401250.457782299083192, 3786039.979654119815677 ], [ 401250.762970498471987, 3786040.284842319320887 ], [ 401250.762970498471987, 3786040.590030518826097 ], [ 401251.373346897249576, 3786041.200406917370856 ], [ 401251.373346897249576, 3786041.505595116876066 ], [ 401251.983723296027165, 3786042.115971515886486 ], [ 401252.28891149541596, 3786042.115971515886486 ], [ 401252.28891149541596, 3786042.421159714926034 ], [ 401253.204476093582343, 3786043.336724313441664 ], [ 401253.204476093582343, 3786043.641912512946874 ], [ 401253.509664292971138, 3786043.947100711986423 ], [ 401253.509664292971138, 3786044.557477110996842 ], [ 401253.814852492359933, 3786044.862665310502052 ], [ 401253.814852492359933, 3786045.473041709046811 ], [ 401253.204476093582343, 3786046.083418108057231 ], [ 401251.67853509663837, 3786046.083418108057231 ], [ 401251.373346897249576, 3786046.388606307096779 ], [ 401251.068158697860781, 3786046.388606307096779 ], [ 401250.762970498471987, 3786046.693794506601989 ], [ 401250.457782299083192, 3786046.693794506601989 ], [ 401250.152594099694397, 3786046.998982706107199 ], [ 401249.847405900305603, 3786046.998982706107199 ], [ 401249.542217700916808, 3786047.304170905612409 ], [ 401249.542217700916808, 3786047.609359104651958 ], [ 401249.237029501528013, 3786047.914547304157168 ], [ 401248.931841302139219, 3786047.914547304157168 ], [ 401248.626653102750424, 3786048.219735503662378 ], [ 401247.100712105806451, 3786048.219735503662378 ] ] ] } },
{ "type": "Feature", "properties": { "confidence": 0.84146302938461304, "class": 1 }, "geometry": { "type": "Polygon", "coordinates": [ [ [ 401260.528992878913414, 3786319.532044760882854 ], [ 401260.223804679524619, 3786319.226856561377645 ], [ 401259.918616480135825, 3786319.226856561377645 ], [ 401259.918616480135825, 3786317.395727365277708 ], [ 401260.223804679524619, 3786317.090539165772498 ], [ 401260.223804679524619, 3786316.785350966267288 ], [ 401261.444557477138005, 3786315.564598168712109 ], [ 401261.7497456765268, 3786315.564598168712109 ], [ 401262.360122075304389, 3786314.954221770167351 ], [ 401263.275686673470773, 3786314.954221770167351 ], [ 401263.886063072248362, 3786314.343845371156931 ], [ 401264.496439471025951, 3786314.343845371156931 ], [ 401264.801627670414746, 3786314.038657172117382 ], [ 401265.10681586980354, 3786314.038657172117382 ], [ 401265.412004069192335, 3786314.343845371156931 ], [ 401265.412004069192335, 3786314.954221770167351 ], [ 401265.10681586980354, 3786315.259409969672561 ], [ 401265.10681586980354, 3786315.564598168712109 ], [ 401263.275686673470773, 3786317.395727365277708 ], [ 401263.275686673470773, 3786317.700915564782917 ], [ 401262.970498474081978, 3786317.700915564782917 ], [ 401262.665310274693184, 3786318.006103763822466 ], [ 401262.665310274693184, 3786318.311291963327676 ], [ 401262.360122075304389, 3786318.311291963327676 ], [ 401261.444557477138005, 3786319.226856561377645 ], [ 401261.139369277749211, 3786319.226856561377645 ], [ 401260.834181078360416, 3786319.532044760882854 ], [ 401260.528992878913414, 3786319.532044760882854 ] ] ] } },
{ "type": "Feature", "properties": { "confidence": 0.69256287813186646, "class": 1 }, "geometry": { "type": "Polygon", "coordinates": [ [ [ 400994.40488301118603, 3786054.32349949143827 ], [ 400994.099694811797235, 3786054.01831129193306 ], [ 400994.099694811797235, 3786053.71312309242785 ], [ 400993.794506612408441, 3786053.407934893388301 ], [ 400993.489318413019646, 3786053.407934893388301 ], [ 400993.489318413019646, 3786053.102746693883091 ], [ 400993.184130213630851, 3786052.797558494377881 ], [ 400990.132248219742905, 3786052.797558494377881 ], [ 400989.216683621576522, 3786051.881993896327913 ], [ 400989.216683621576522, 3786048.219735503662378 ], [ 400989.521871820965316, 3786047.914547304157168 ], [ 400989.521871820965316, 3786047.304170905612409 ], [ 400989.827060020354111, 3786046.998982706107199 ], [ 400989.827060020354111, 3786046.388606307096779 ], [ 400990.132248219742905, 3786046.083418108057231 ], [ 400990.132248219742905, 3786045.167853509541601 ], [ 400991.047812817909289, 3786044.252288911491632 ], [ 400991.658189216686878, 3786044.252288911491632 ], [ 400991.963377416075673, 3786043.947100711986423 ], [ 400992.268565615464468, 3786043.947100711986423 ], [ 400992.573753814853262, 3786043.641912512946874 ], [ 400993.184130213630851, 3786043.641912512946874 ], [ 400993.489318413019646, 3786043.336724313441664 ], [ 400997.151576805685181, 3786043.336724313441664 ], [ 400997.456765005073976, 3786043.641912512946874 ], [ 400997.456765005073976, 3786044.557477110996842 ], [ 400998.37232960324036, 3786045.473041709046811 ], [ 400998.37232960324036, 3786045.778229908552021 ], [ 400998.677517802629154, 3786046.083418108057231 ], [ 400998.677517802629154, 3786047.914547304157168 ], [ 400998.37232960324036, 3786048.219735503662378 ], [ 400998.37232960324036, 3786049.135300101712346 ], [ 400998.677517802629154, 3786049.440488301217556 ], [ 400998.677517802629154, 3786050.050864699762315 ], [ 400998.982706002017949, 3786050.356052899267524 ], [ 400998.982706002017949, 3786051.576805696822703 ], [ 400998.677517802629154, 3786051.881993896327913 ], [ 400998.677517802629154, 3786052.187182095833123 ], [ 400998.37232960324036, 3786052.492370294872671 ], [ 400998.067141403851565, 3786052.492370294872671 ], [ 400997.76195320446277, 3786052.797558494377881 ], [ 400997.456765005073976, 3786052.797558494377881 ], [ 400996.541200406907592, 3786053.71312309242785 ], [ 400995.930824008130003, 3786053.71312309242785 ], [ 400995.625635808741208, 3786054.01831129193306 ], [ 400995.320447609352414, 3786054.01831129193306 ], [ 400995.015259409963619, 3786054.32349949143827 ], [ 400994.40488301118603, 3786054.32349949143827 ] ] ] } },
{ "type": "Feature", "properties": { "confidence": 0.63961362838745117, "class": 1 }, "geometry": { "type": "Polygon", "coordinates": [ [ [ 400985.249237029522192, 3786459.918616480194032 ], [ 400984.944048830133397, 3786459.613428280688822 ], [ 400984.028484231967013, 3786459.613428280688822 ], [ 400983.11291963380063, 3786458.697863682638854 ], [ 400983.11291963380063, 3786455.951169888023287 ], [ 400983.418107833189424, 3786455.645981688518077 ], [ 400983.723296032578219, 3786455.645981688518077 ], [ 400984.028484231967013, 3786455.340793489478528 ], [ 400986.775178026466165, 3786455.340793489478528 ], [ 400987.080366225854959, 3786455.645981688518077 ], [ 400988.606307222798932, 3786455.645981688518077 ], [ 400988.911495422187727, 3786455.951169888023287 ], [ 400989.521871820965316, 3786455.951169888023287 ], [ 400989.827060020354111, 3786456.256358087528497 ], [ 400990.4374364191317, 3786456.256358087528497 ], [ 400990.742624618520495, 3786456.561546287033707 ], [ 400991.047812817909289, 3786456.561546287033707 ], [ 400991.353001017298084, 3786456.866734486073256 ], [ 400991.658189216686878, 3786456.866734486073256 ], [ 400991.963377416075673, 3786457.171922685578465 ], [ 400992.268565615464468, 3786457.171922685578465 ], [ 400992.268565615464468, 3786458.087487283628434 ], [ 400992.573753814853262, 3786458.392675483133644 ], [ 400992.573753814853262, 3786459.003051882144064 ], [ 400992.268565615464468, 3786459.308240081183612 ], [ 400991.963377416075673, 3786459.308240081183612 ], [ 400991.658189216686878, 3786459.613428280688822 ], [ 400988.911495422187727, 3786459.613428280688822 ], [ 400988.606307222798932, 3786459.918616480194032 ], [ 400985.249237029522192, 3786459.918616480194032 ] ] ] } },
{ "type": "Feature", "properties": { "confidence": 0.61966544389724731, "class": 1 }, "geometry": { "type": "Polygon", "coordinates": [ [ [ 400962.360122075304389, 3786330.51881993887946 ], [ 400962.054933875915594, 3786330.21363173937425 ], [ 400962.054933875915594, 3786326.856561546213925 ], [ 400965.10681586980354, 3786326.856561546213925 ], [ 400965.10681586980354, 3786327.772126144263893 ], [ 400964.801627670414746, 3786328.077314343769103 ], [ 400964.801627670414746, 3786328.992878941819072 ], [ 400964.496439471025951, 3786329.298067141324282 ], [ 400964.496439471025951, 3786329.603255340829492 ], [ 400963.886063072248362, 3786330.21363173937425 ], [ 400963.580874872859567, 3786330.21363173937425 ], [ 400963.275686673470773, 3786330.51881993887946 ], [ 400962.360122075304389, 3786330.51881993887946 ] ] ] } },
{ "type": "Feature", "properties": { "confidence": 0.6069176197052002, "class": 1 }, "geometry": { "type": "Polygon", "coordinates": [ [ [ 401243.743641912529711, 3786262.156663275789469 ], [ 401243.743641912529711, 3786259.715157680679113 ], [ 401244.048830111918505, 3786259.715157680679113 ], [ 401244.3540183113073, 3786259.409969481173903 ], [ 401244.659206510696094, 3786259.409969481173903 ], [ 401245.269582909473684, 3786258.799593082629144 ], [ 401246.490335707028862, 3786258.799593082629144 ], [ 401246.795523906417657, 3786259.104781281668693 ], [ 401247.100712105806451, 3786259.104781281668693 ], [ 401247.405900305195246, 3786259.409969481173903 ], [ 401247.405900305195246, 3786260.630722278729081 ], [ 401247.100712105806451, 3786260.935910478234291 ], [ 401247.100712105806451, 3786261.241098677739501 ], [ 401246.795523906417657, 3786261.54628687677905 ], [ 401246.490335707028862, 3786261.54628687677905 ], [ 401246.185147507640067, 3786261.85147507628426 ], [ 401245.269582909473684, 3786261.85147507628426 ], [ 401244.964394710084889, 3786262.156663275789469 ], [ 401243.743641912529711, 3786262.156663275789469 ] ] ] } },
{ "type": "Feature", "properties": { "confidence": 0.53252232074737549, "class": 1 }, "geometry": { "type": "Polygon", "coordinates": [ [ [ 401158.596134282823186, 3786330.82400813838467 ], [ 401158.290946083434392, 3786330.51881993887946 ], [ 401157.985757884045597, 3786330.51881993887946 ], [ 401157.985757884045597, 3786330.21363173937425 ], [ 401157.680569684656803, 3786329.908443540334702 ], [ 401157.680569684656803, 3786328.992878941819072 ], [ 401157.375381485268008, 3786328.687690742779523 ], [ 401157.375381485268008, 3786327.772126144263893 ], [ 401157.070193285879213, 3786327.466937945224345 ], [ 401162.258392675488722, 3786327.466937945224345 ], [ 401162.258392675488722, 3786328.077314343769103 ], [ 401161.953204476099927, 3786328.382502543274313 ], [ 401161.953204476099927, 3786329.298067141324282 ], [ 401161.648016276711132, 3786329.603255340829492 ], [ 401161.648016276711132, 3786329.908443540334702 ], [ 401161.342828077322338, 3786330.21363173937425 ], [ 401161.342828077322338, 3786330.51881993887946 ], [ 401161.037639877933543, 3786330.82400813838467 ], [ 401158.596134282823186, 3786330.82400813838467 ] ] ] } },
{ "type": "Feature", "properties": { "confidence": 0.51869672536849976, "class": 1 }, "geometry": { "type": "Polygon", "coordinates": [ [ [ 401253.509664292971138, 3786222.177009155508131 ], [ 401253.204476093582343, 3786221.871820956468582 ], [ 401253.204476093582343, 3786221.261444557458162 ], [ 401253.509664292971138, 3786220.956256357952952 ], [ 401253.509664292971138, 3786220.040691759902984 ], [ 401253.814852492359933, 3786219.735503560397774 ], [ 401253.814852492359933, 3786218.819938962347806 ], [ 401254.120040691748727, 3786218.514750762842596 ], [ 401254.120040691748727, 3786218.209562563803047 ], [ 401254.730417090526316, 3786217.599186164792627 ], [ 401254.730417090526316, 3786217.293997965287417 ], [ 401255.340793489303906, 3786216.683621566742659 ], [ 401255.6459816886927, 3786216.683621566742659 ], [ 401256.256358087470289, 3786216.073245167732239 ], [ 401257.477110885025468, 3786216.073245167732239 ], [ 401257.477110885025468, 3786216.683621566742659 ], [ 401257.171922685636673, 3786216.988809766247869 ], [ 401257.171922685636673, 3786217.293997965287417 ], [ 401256.866734486247879, 3786217.599186164792627 ], [ 401256.866734486247879, 3786218.209562563803047 ], [ 401256.561546286859084, 3786218.514750762842596 ], [ 401256.561546286859084, 3786219.125127161853015 ], [ 401256.256358087470289, 3786219.430315361358225 ], [ 401256.256358087470289, 3786219.735503560397774 ], [ 401255.340793489303906, 3786220.651068158913404 ], [ 401255.340793489303906, 3786220.956256357952952 ], [ 401255.035605289915111, 3786220.956256357952952 ], [ 401254.730417090526316, 3786221.261444557458162 ], [ 401254.730417090526316, 3786221.566632756963372 ], [ 401254.425228891137522, 3786221.566632756963372 ], [ 401254.120040691748727, 3786221.871820956468582 ], [ 401253.814852492359933, 3786221.871820956468582 ], [ 401253.509664292971138, 3786222.177009155508131 ] ] ] } },
{ "type": "Feature", "properties": { "confidence": 0.47197693586349487, "class": 1 }, "geometry": { "type": "Polygon", "coordinates": [ [ [ 401175.381485249265097, 3786041.810783316381276 ], [ 401175.076297049876302, 3786041.505595116876066 ], [ 401174.465920651040506, 3786041.505595116876066 ], [ 401174.160732451651711, 3786041.200406917370856 ], [ 401173.855544252262916, 3786041.200406917370856 ], [ 401173.245167853485327, 3786040.590030518826097 ], [ 401172.939979654096533, 3786040.590030518826097 ], [ 401172.634791454707738, 3786040.284842319320887 ], [ 401172.634791454707738, 3786039.979654119815677 ], [ 401172.329603255318943, 3786039.674465920776129 ], [ 401172.329603255318943, 3786039.369277721270919 ], [ 401172.024415055930149, 3786039.064089521765709 ], [ 401172.024415055930149, 3786036.012207528110594 ], [ 401172.329603255318943, 3786035.707019328605384 ], [ 401172.329603255318943, 3786035.096642929594964 ], [ 401174.465920651040506, 3786035.096642929594964 ], [ 401174.465920651040506, 3786035.401831129100174 ], [ 401174.7711088504293, 3786035.707019328605384 ], [ 401175.381485249265097, 3786035.707019328605384 ], [ 401175.686673448653892, 3786036.012207528110594 ], [ 401176.297049847431481, 3786036.012207528110594 ], [ 401176.602238046820275, 3786036.317395727150142 ], [ 401177.212614445597865, 3786036.317395727150142 ], [ 401177.517802644986659, 3786036.622583926655352 ], [ 401178.738555442541838, 3786036.622583926655352 ], [ 401179.043743641930632, 3786036.927772126160562 ], [ 401180.264496439485811, 3786036.927772126160562 ], [ 401180.569684638874605, 3786037.232960325665772 ], [ 401182.095625635818578, 3786037.232960325665772 ], [ 401182.400813835207373, 3786037.538148524705321 ], [ 401182.400813835207373, 3786038.758901322260499 ], [ 401182.706002034596168, 3786039.064089521765709 ], [ 401182.400813835207373, 3786039.369277721270919 ], [ 401182.400813835207373, 3786039.979654119815677 ], [ 401182.095625635818578, 3786040.284842319320887 ], [ 401181.180061037652194, 3786040.284842319320887 ], [ 401180.8748728382634, 3786040.590030518826097 ], [ 401180.264496439485811, 3786040.590030518826097 ], [ 401179.959308240097016, 3786040.895218718331307 ], [ 401179.348931841319427, 3786040.895218718331307 ], [ 401179.043743641930632, 3786041.200406917370856 ], [ 401178.433367243153043, 3786041.200406917370856 ], [ 401178.128179043764248, 3786041.505595116876066 ], [ 401177.212614445597865, 3786041.505595116876066 ], [ 401176.90742624620907, 3786041.810783316381276 ], [ 401175.381485249265097, 3786041.810783316381276 ] ] ] } },
{ "type": "Feature", "properties": { "confidence": 0.46878114342689514, "class": 1 }, "geometry": { "type": "Polygon", "coordinates": [ [ [ 400988.606307222798932, 3786036.012207528110594 ], [ 400987.995930824021343, 3786035.401831129100174 ], [ 400987.995930824021343, 3786034.486266531050205 ], [ 400988.301119023410138, 3786034.486266531050205 ], [ 400988.606307222798932, 3786034.181078331544995 ], [ 400989.521871820965316, 3786034.181078331544995 ], [ 400989.827060020354111, 3786033.875890132039785 ], [ 400991.047812817909289, 3786033.875890132039785 ], [ 400991.353001017298084, 3786033.570701933000237 ], [ 400992.878942014242057, 3786033.570701933000237 ], [ 400993.184130213630851, 3786033.875890132039785 ], [ 400993.489318413019646, 3786033.875890132039785 ], [ 400993.489318413019646, 3786034.181078331544995 ], [ 400992.268565615464468, 3786035.401831129100174 ], [ 400991.963377416075673, 3786035.401831129100174 ], [ 400991.658189216686878, 3786035.707019328605384 ], [ 400991.047812817909289, 3786035.707019328605384 ], [ 400990.742624618520495, 3786036.012207528110594 ], [ 400988.606307222798932, 3786036.012207528110594 ] ] ] } },
{ "type": "Feature", "properties": { "confidence": 0.45672497153282166, "class": 1 }, "geometry": { "type": "Polygon", "coordinates": [ [ [ 401223.906408952199854, 3786338.14852492371574 ], [ 401223.601220752811059, 3786337.843336724210531 ], [ 401222.075279755867086, 3786337.843336724210531 ], [ 401221.770091556478292, 3786337.538148524705321 ], [ 401221.159715157700703, 3786337.538148524705321 ], [ 401220.854526958311908, 3786337.232960325665772 ], [ 401219.328585961367935, 3786337.232960325665772 ], [ 401219.02339776197914, 3786336.927772126160562 ], [ 401218.718209562590346, 3786336.927772126160562 ], [ 401218.718209562590346, 3786336.622583926655352 ], [ 401218.413021363201551, 3786336.317395727150142 ], [ 401218.413021363201551, 3786332.349949135445058 ], [ 401218.718209562590346, 3786332.044760935939848 ], [ 401218.718209562590346, 3786331.739572736434639 ], [ 401219.02339776197914, 3786331.434384536929429 ], [ 401219.02339776197914, 3786331.12919633788988 ], [ 401219.328585961367935, 3786330.82400813838467 ], [ 401219.328585961367935, 3786330.51881993887946 ], [ 401219.63377416075673, 3786330.21363173937425 ], [ 401219.938962360145524, 3786330.21363173937425 ], [ 401220.244150559534319, 3786329.908443540334702 ], [ 401220.549338758923113, 3786329.908443540334702 ], [ 401220.854526958311908, 3786329.603255340829492 ], [ 401221.159715157700703, 3786329.603255340829492 ], [ 401221.464903357089497, 3786329.298067141324282 ], [ 401223.601220752811059, 3786329.298067141324282 ], [ 401223.906408952199854, 3786328.992878941819072 ], [ 401224.821973550366238, 3786328.992878941819072 ], [ 401225.127161749755032, 3786329.298067141324282 ], [ 401226.347914547310211, 3786329.298067141324282 ], [ 401227.263479145476595, 3786330.21363173937425 ], [ 401227.568667344865389, 3786330.21363173937425 ], [ 401227.568667344865389, 3786330.51881993887946 ], [ 401227.873855544254184, 3786330.82400813838467 ], [ 401227.873855544254184, 3786331.12919633788988 ], [ 401228.179043743642978, 3786331.434384536929429 ], [ 401228.179043743642978, 3786332.655137334484607 ], [ 401227.873855544254184, 3786332.960325533989817 ], [ 401227.873855544254184, 3786333.570701933000237 ], [ 401227.568667344865389, 3786333.875890132039785 ], [ 401227.568667344865389, 3786334.486266531050205 ], [ 401227.263479145476595, 3786334.791454730555415 ], [ 401227.263479145476595, 3786336.927772126160562 ], [ 401226.347914547310211, 3786337.843336724210531 ], [ 401226.042726347921416, 3786337.843336724210531 ], [ 401225.737538148532622, 3786338.14852492371574 ], [ 401223.906408952199854, 3786338.14852492371574 ] ] ] } },
{ "type": "Feature", "properties": { "confidence": 0.4564092755317688, "class": 1 }, "geometry": { "type": "Polygon", "coordinates": [ [ [ 401071.007121058006305, 3786131.230925737414509 ], [ 401071.007121058006305, 3786128.484231942798942 ], [ 401071.3123092573951, 3786128.179043743759394 ], [ 401071.3123092573951, 3786127.263479145243764 ], [ 401071.617497456783894, 3786126.958290946204215 ], [ 401071.617497456783894, 3786126.347914547193795 ], [ 401072.227873855561484, 3786125.737538148649037 ], [ 401073.143438453727867, 3786125.737538148649037 ], [ 401073.143438453727867, 3786131.230925737414509 ], [ 401071.007121058006305, 3786131.230925737414509 ] ] ] } },
{ "type": "Feature", "properties": { "confidence": 0.38789582252502441, "class": 1 }, "geometry": { "type": "Polygon", "coordinates": [ [ [ 400836.012207527994178, 3786057.375381485093385 ], [ 400835.707019328605384, 3786057.070193286053836 ], [ 400835.707019328605384, 3786055.544252288993448 ], [ 400836.012207527994178, 3786055.239064089488238 ], [ 400836.012207527994178, 3786054.933875889983028 ], [ 400836.317395727382973, 3786054.62868769094348 ], [ 400836.317395727382973, 3786054.32349949143827 ], [ 400836.622583926771767, 3786054.32349949143827 ], [ 400838.75890132249333, 3786052.187182095833123 ], [ 400838.75890132249333, 3786051.881993896327913 ], [ 400839.369277721270919, 3786051.271617497317493 ], [ 400839.674465920659713, 3786051.271617497317493 ], [ 400839.979654120048508, 3786050.966429298277944 ], [ 400841.200406917603686, 3786050.966429298277944 ], [ 400841.505595116992481, 3786051.271617497317493 ], [ 400841.810783316381276, 3786051.271617497317493 ], [ 400842.11597151577007, 3786051.576805696822703 ], [ 400842.11597151577007, 3786053.407934893388301 ], [ 400841.810783316381276, 3786053.71312309242785 ], [ 400841.810783316381276, 3786054.01831129193306 ], [ 400841.505595116992481, 3786054.32349949143827 ], [ 400841.505595116992481, 3786054.62868769094348 ], [ 400840.895218718214892, 3786055.239064089488238 ], [ 400840.895218718214892, 3786055.849440488498658 ], [ 400840.590030518826097, 3786056.154628687538207 ], [ 400840.590030518826097, 3786056.459816887043417 ], [ 400840.284842319437303, 3786056.765005086548626 ], [ 400839.369277721270919, 3786056.765005086548626 ], [ 400839.064089521882124, 3786057.070193286053836 ], [ 400838.453713123104535, 3786057.070193286053836 ], [ 400838.14852492371574, 3786057.375381485093385 ], [ 400836.012207527994178, 3786057.375381485093385 ] ] ] } },
{ "type": "Feature", "properties": { "confidence": 0.37533307075500488, "class": 1 }, "geometry": { "type": "Polygon", "coordinates": [ [ [ 401268.769074262469076, 3786102.238046795595437 ], [ 401268.769074262469076, 3786093.997965412214398 ], [ 401269.379450661246665, 3786093.997965412214398 ], [ 401269.684638860635459, 3786093.692777212709188 ], [ 401269.684638860635459, 3786093.387589013203979 ], [ 401269.989827060024254, 3786093.387589013203979 ], [ 401269.989827060024254, 3786093.692777212709188 ], [ 401270.295015259413049, 3786093.997965412214398 ], [ 401270.295015259413049, 3786094.303153611253947 ], [ 401270.600203458801843, 3786094.608341810759157 ], [ 401270.600203458801843, 3786100.712105798535049 ], [ 401269.989827060024254, 3786101.322482197545469 ], [ 401269.684638860635459, 3786101.322482197545469 ], [ 401269.07426246185787, 3786101.932858596090227 ], [ 401269.07426246185787, 3786102.238046795595437 ], [ 401268.769074262469076, 3786102.238046795595437 ] ] ] } },
{ "type": "Feature", "properties": { "confidence": 0.3750232458114624, "class": 1 }, "geometry": { "type": "Polygon", "coordinates": [ [ [ 400930.620549338753335, 3786221.261444557458162 ], [ 400930.315361139364541, 3786220.956256357952952 ], [ 400929.704984740586951, 3786220.956256357952952 ], [ 400929.399796541198157, 3786220.651068158913404 ], [ 400929.094608341809362, 3786220.651068158913404 ], [ 400928.789420142420568, 3786220.345879959408194 ], [ 400928.179043743642978, 3786220.345879959408194 ], [ 400927.873855544254184, 3786220.040691759902984 ], [ 400927.568667344865389, 3786220.040691759902984 ], [ 400926.653102746699005, 3786219.125127161853015 ], [ 400926.653102746699005, 3786218.819938962347806 ], [ 400926.042726347921416, 3786218.209562563803047 ], [ 400926.042726347921416, 3786217.904374364297837 ], [ 400925.737538148532622, 3786217.599186164792627 ], [ 400925.737538148532622, 3786216.378433367237449 ], [ 400926.042726347921416, 3786216.073245167732239 ], [ 400926.042726347921416, 3786215.76805696869269 ], [ 400926.9582909460878, 3786214.85249237017706 ], [ 400930.010172939975746, 3786214.85249237017706 ], [ 400930.315361139364541, 3786215.15768056968227 ], [ 400930.92573753814213, 3786215.15768056968227 ], [ 400931.536113936919719, 3786215.76805696869269 ], [ 400931.841302136308514, 3786215.76805696869269 ], [ 400932.146490335697308, 3786216.073245167732239 ], [ 400932.451678535086103, 3786216.073245167732239 ], [ 400933.062054933863692, 3786216.683621566742659 ], [ 400933.367243133252487, 3786216.683621566742659 ], [ 400933.367243133252487, 3786217.293997965287417 ], [ 400933.977619532030076, 3786217.904374364297837 ], [ 400933.977619532030076, 3786219.125127161853015 ], [ 400934.28280773141887, 3786219.430315361358225 ], [ 400934.28280773141887, 3786220.040691759902984 ], [ 400933.977619532030076, 3786220.345879959408194 ], [ 400933.977619532030076, 3786220.651068158913404 ], [ 400933.672431332641281, 3786220.651068158913404 ], [ 400933.367243133252487, 3786220.956256357952952 ], [ 400932.756866734474897, 3786220.956256357952952 ], [ 400932.451678535086103, 3786221.261444557458162 ], [ 400930.620549338753335, 3786221.261444557458162 ] ] ] } },
{ "type": "Feature", "properties": { "confidence": 0.3574272096157074, "class": 1 }, "geometry": { "type": "Polygon", "coordinates": [ [ [ 401151.576805696822703, 3786190.132248219568282 ], [ 401151.576805696822703, 3786186.775178026407957 ], [ 401151.881993896211497, 3786186.775178026407957 ], [ 401152.187182095600292, 3786186.469989826902747 ], [ 401152.187182095600292, 3786183.112919633742422 ], [ 401152.492370294989087, 3786182.807731434237212 ], [ 401152.797558494377881, 3786182.807731434237212 ], [ 401153.40793489315547, 3786182.197355035692453 ], [ 401154.018311291991267, 3786182.197355035692453 ], [ 401154.323499491380062, 3786181.892166836187243 ], [ 401154.628687690768857, 3786181.892166836187243 ], [ 401154.933875890157651, 3786182.197355035692453 ], [ 401155.54425228893524, 3786182.197355035692453 ], [ 401156.15462868771283, 3786182.807731434237212 ], [ 401156.459816887101624, 3786182.807731434237212 ], [ 401156.765005086490419, 3786183.112919633742422 ], [ 401156.765005086490419, 3786185.554425228852779 ], [ 401156.459816887101624, 3786185.859613428357989 ], [ 401156.459816887101624, 3786187.690742624457926 ], [ 401155.54425228893524, 3786188.606307222973555 ], [ 401155.239064089546446, 3786188.606307222973555 ], [ 401154.933875890157651, 3786188.911495422013104 ], [ 401154.628687690768857, 3786188.911495422013104 ], [ 401153.713123092602473, 3786189.827060020528734 ], [ 401153.102746693766676, 3786189.827060020528734 ], [ 401152.797558494377881, 3786190.132248219568282 ], [ 401151.576805696822703, 3786190.132248219568282 ] ] ] } },
{ "type": "Feature", "properties": { "confidence": 0.3433583676815033, "class": 1 }, "geometry": { "type": "Polygon", "coordinates": [ [ [ 400850.356052899267524, 3786011.597151577007025 ], [ 400850.05086469987873, 3786011.291963377501816 ], [ 400848.524923702934757, 3786011.291963377501816 ], [ 400847.914547304157168, 3786010.681586978491396 ], [ 400847.914547304157168, 3786006.408952187281102 ], [ 400848.219735503545962, 3786006.103763987775892 ], [ 400848.219735503545962, 3786005.188199389725924 ], [ 400849.135300101712346, 3786004.272634791675955 ], [ 400849.440488301101141, 3786004.272634791675955 ], [ 400849.745676500489935, 3786003.967446592170745 ], [ 400850.05086469987873, 3786003.967446592170745 ], [ 400850.05086469987873, 3786004.272634791675955 ], [ 400850.356052899267524, 3786004.577822990715504 ], [ 400850.966429298045114, 3786004.577822990715504 ], [ 400851.576805696822703, 3786005.188199389725924 ], [ 400852.797558494377881, 3786005.188199389725924 ], [ 400853.102746693766676, 3786005.493387589231133 ], [ 400854.323499491380062, 3786005.493387589231133 ], [ 400854.628687690768857, 3786005.798575788270682 ], [ 400854.933875890157651, 3786005.798575788270682 ], [ 400855.239064089546446, 3786006.103763987775892 ], [ 400856.15462868771283, 3786006.103763987775892 ], [ 400856.459816887101624, 3786006.408952187281102 ], [ 400856.459816887101624, 3786006.714140386786312 ], [ 400856.765005086490419, 3786007.019328585825861 ], [ 400856.765005086490419, 3786007.32451678533107 ], [ 400857.070193285879213, 3786007.62970498483628 ], [ 400857.070193285879213, 3786010.376398779451847 ], [ 400857.375381485268008, 3786010.681586978491396 ], [ 400857.680569684656803, 3786010.681586978491396 ], [ 400857.680569684656803, 3786011.291963377501816 ], [ 400855.849440488324035, 3786011.291963377501816 ], [ 400855.54425228893524, 3786011.597151577007025 ], [ 400850.356052899267524, 3786011.597151577007025 ] ] ] } },
{ "type": "Feature", "properties": { "confidence": 0.31075462698936462, "class": 1 }, "geometry": { "type": "Polygon", "coordinates": [ [ [ 401299.898270600184333, 3786335.401831129100174 ], [ 401299.593082400795538, 3786335.096642929594964 ], [ 401298.982706002017949, 3786335.096642929594964 ], [ 401298.677517802629154, 3786334.791454730555415 ], [ 401298.37232960324036, 3786334.791454730555415 ], [ 401298.067141403851565, 3786334.486266531050205 ], [ 401298.067141403851565, 3786334.181078331544995 ], [ 401297.76195320446277, 3786333.875890132039785 ], [ 401297.76195320446277, 3786333.570701933000237 ], [ 401297.456765005073976, 3786333.265513733495027 ], [ 401297.456765005073976, 3786331.434384536929429 ], [ 401297.151576805685181, 3786331.12919633788988 ], [ 401297.151576805685181, 3786327.466937945224345 ], [ 401297.456765005073976, 3786327.161749745719135 ], [ 401297.456765005073976, 3786326.856561546213925 ], [ 401301.424211597128306, 3786326.856561546213925 ], [ 401301.424211597128306, 3786327.466937945224345 ], [ 401301.119023397739511, 3786327.772126144263893 ], [ 401301.119023397739511, 3786328.687690742779523 ], [ 401300.813835198350716, 3786328.992878941819072 ], [ 401300.813835198350716, 3786330.21363173937425 ], [ 401300.508646998961922, 3786330.51881993887946 ], [ 401300.508646998961922, 3786332.655137334484607 ], [ 401300.203458799573127, 3786332.960325533989817 ], [ 401300.203458799573127, 3786335.096642929594964 ], [ 401299.898270600184333, 3786335.401831129100174 ] ] ] } },
{ "type": "Feature", "properties": { "confidence": 0.29436662793159485, "class": 1 }, "geometry": { "type": "Polygon", "coordinates": [ [ [ 401247.100712105806451, 3786102.238046795595437 ], [ 401246.795523906417657, 3786101.932858596090227 ], [ 401246.490335707028862, 3786101.932858596090227 ], [ 401245.574771108862478, 3786101.017293998040259 ], [ 401245.574771108862478, 3786098.575788402929902 ], [ 401245.879959308251273, 3786098.270600203424692 ], [ 401245.879959308251273, 3786097.049847405869514 ], [ 401246.185147507640067, 3786096.744659206364304 ], [ 401246.185147507640067, 3786096.439471007324755 ], [ 401246.490335707028862, 3786096.134282807819545 ], [ 401246.795523906417657, 3786096.134282807819545 ], [ 401247.100712105806451, 3786095.829094608314335 ], [ 401247.100712105806451, 3786095.523906408809125 ], [ 401247.71108850458404, 3786095.523906408809125 ], [ 401248.32146490336163, 3786094.913530010264367 ], [ 401248.931841302139219, 3786094.913530010264367 ], [ 401248.931841302139219, 3786095.218718209769577 ], [ 401249.237029501528013, 3786095.523906408809125 ], [ 401249.847405900305603, 3786095.523906408809125 ], [ 401250.152594099694397, 3786095.829094608314335 ], [ 401251.67853509663837, 3786095.829094608314335 ], [ 401252.899287894193549, 3786094.608341810759157 ], [ 401253.204476093582343, 3786094.608341810759157 ], [ 401253.509664292971138, 3786094.303153611253947 ], [ 401253.509664292971138, 3786093.997965412214398 ], [ 401253.814852492359933, 3786093.692777212709188 ], [ 401253.814852492359933, 3786093.387589013203979 ], [ 401254.730417090526316, 3786093.387589013203979 ], [ 401255.035605289915111, 3786093.082400813698769 ], [ 401257.171922685636673, 3786093.082400813698769 ], [ 401257.477110885025468, 3786093.387589013203979 ], [ 401257.477110885025468, 3786096.134282807819545 ], [ 401256.866734486247879, 3786096.744659206364304 ], [ 401256.866734486247879, 3786097.049847405869514 ], [ 401255.6459816886927, 3786098.270600203424692 ], [ 401255.6459816886927, 3786098.575788402929902 ], [ 401255.340793489303906, 3786098.880976602435112 ], [ 401255.340793489303906, 3786099.186164801474661 ], [ 401254.730417090526316, 3786099.79654120048508 ], [ 401254.730417090526316, 3786100.10172939999029 ], [ 401254.120040691748727, 3786100.712105798535049 ], [ 401253.509664292971138, 3786100.712105798535049 ], [ 401253.204476093582343, 3786101.017293998040259 ], [ 401252.899287894193549, 3786101.017293998040259 ], [ 401252.28891149541596, 3786101.627670396585017 ], [ 401251.373346897249576, 3786101.627670396585017 ], [ 401251.068158697860781, 3786101.932858596090227 ], [ 401250.457782299083192, 3786101.932858596090227 ], [ 401250.152594099694397, 3786102.238046795595437 ], [ 401247.100712105806451, 3786102.238046795595437 ] ] ] } },
{ "type": "Feature", "properties": { "confidence": 0.28034016489982605, "class": 1 }, "geometry": { "type": "Polygon", "coordinates": [ [ [ 401042.624618514731992, 3786235.605289928615093 ], [ 401042.319430315343197, 3786235.300101729575545 ], [ 401041.403865717176814, 3786235.300101729575545 ], [ 401041.098677517788019, 3786234.994913530070335 ], [ 401041.098677517788019, 3786234.689725330565125 ], [ 401040.793489318399224, 3786234.384537131059915 ], [ 401040.793489318399224, 3786231.943031535949558 ], [ 401041.098677517788019, 3786231.637843336910009 ], [ 401041.098677517788019, 3786231.02746693789959 ], [ 401041.403865717176814, 3786230.72227873839438 ], [ 401041.403865717176814, 3786230.111902339849621 ], [ 401042.319430315343197, 3786229.196337741799653 ], [ 401042.319430315343197, 3786228.891149542294443 ], [ 401042.624618514731992, 3786228.585961342789233 ], [ 401042.624618514731992, 3786228.280773143284023 ], [ 401042.929806714120787, 3786227.975584944244474 ], [ 401043.234994913509581, 3786227.975584944244474 ], [ 401043.540183112898376, 3786227.670396744739264 ], [ 401045.676500508619938, 3786227.670396744739264 ], [ 401045.981688708008733, 3786227.365208545234054 ], [ 401046.897253306233324, 3786227.365208545234054 ], [ 401047.202441505622119, 3786227.060020345728844 ], [ 401049.94913530012127, 3786227.060020345728844 ], [ 401050.254323499510065, 3786227.365208545234054 ], [ 401050.254323499510065, 3786228.585961342789233 ], [ 401049.94913530012127, 3786228.891149542294443 ], [ 401049.94913530012127, 3786230.111902339849621 ], [ 401049.033570701954886, 3786231.02746693789959 ], [ 401049.033570701954886, 3786231.332655137404799 ], [ 401048.423194303177297, 3786231.943031535949558 ], [ 401048.423194303177297, 3786232.248219735454768 ], [ 401048.118006103788503, 3786232.553407934959978 ], [ 401048.118006103788503, 3786232.858596134465188 ], [ 401047.812817904399708, 3786232.858596134465188 ], [ 401047.202441505622119, 3786233.468972533009946 ], [ 401047.202441505622119, 3786233.774160732515156 ], [ 401046.897253306233324, 3786234.079348932020366 ], [ 401046.59206510684453, 3786234.079348932020366 ], [ 401045.981688708008733, 3786234.689725330565125 ], [ 401045.676500508619938, 3786234.689725330565125 ], [ 401045.066124109842349, 3786235.300101729575545 ], [ 401043.84537131228717, 3786235.300101729575545 ], [ 401043.540183112898376, 3786235.605289928615093 ], [ 401042.624618514731992, 3786235.605289928615093 ] ] ] } },
{ "type": "Feature", "properties": { "confidence": 0.27689826488494873, "class": 1 }, "geometry": { "type": "Polygon", "coordinates": [ [ [ 401344.150559511675965, 3786315.869786368217319 ], [ 401344.150559511675965, 3786315.259409969672561 ], [ 401343.540183112898376, 3786314.649033570662141 ], [ 401343.540183112898376, 3786313.428280773106962 ], [ 401343.84537131228717, 3786313.123092573601753 ], [ 401344.150559511675965, 3786313.123092573601753 ], [ 401344.45574771106476, 3786312.817904374562204 ], [ 401344.45574771106476, 3786312.512716175056994 ], [ 401344.760935910453554, 3786312.512716175056994 ], [ 401345.066124109842349, 3786312.207527975551784 ], [ 401345.371312309231143, 3786312.207527975551784 ], [ 401346.286876907397527, 3786311.291963377501816 ], [ 401346.59206510684453, 3786311.291963377501816 ], [ 401346.897253306233324, 3786310.986775177996606 ], [ 401347.202441505622119, 3786310.986775177996606 ], [ 401347.507629705010913, 3786310.681586978491396 ], [ 401347.507629705010913, 3786310.376398779451847 ], [ 401347.812817904399708, 3786310.376398779451847 ], [ 401348.118006103788503, 3786310.071210579946637 ], [ 401348.118006103788503, 3786309.766022380441427 ], [ 401348.423194303177297, 3786309.766022380441427 ], [ 401348.728382502566092, 3786309.460834180936217 ], [ 401349.643947100732476, 3786309.460834180936217 ], [ 401350.254323499510065, 3786310.071210579946637 ], [ 401350.254323499510065, 3786311.902339776046574 ], [ 401349.643947100732476, 3786312.512716175056994 ], [ 401349.643947100732476, 3786312.817904374562204 ], [ 401349.033570701954886, 3786313.428280773106962 ], [ 401349.033570701954886, 3786313.733468972612172 ], [ 401348.118006103788503, 3786314.649033570662141 ], [ 401347.202441505622119, 3786314.649033570662141 ], [ 401346.59206510684453, 3786315.259409969672561 ], [ 401346.286876907397527, 3786315.259409969672561 ], [ 401345.676500508619938, 3786315.869786368217319 ], [ 401344.150559511675965, 3786315.869786368217319 ] ] ] } },
{ "type": "Feature", "properties": { "confidence": 0.27646106481552124, "class": 1 }, "geometry": { "type": "Polygon", "coordinates": [ [ [ 400882.706002034596168, 3786333.570701933000237 ], [ 400882.095625635818578, 3786332.960325533989817 ], [ 400882.095625635818578, 3786332.655137334484607 ], [ 400881.790437436429784, 3786332.349949135445058 ], [ 400881.790437436429784, 3786331.12919633788988 ], [ 400882.095625635818578, 3786330.82400813838467 ], [ 400882.095625635818578, 3786328.992878941819072 ], [ 400882.400813835207373, 3786328.687690742779523 ], [ 400882.400813835207373, 3786328.382502543274313 ], [ 400882.706002034596168, 3786328.077314343769103 ], [ 400882.706002034596168, 3786327.772126144263893 ], [ 400883.011190233984962, 3786327.466937945224345 ], [ 400888.19938962359447, 3786327.466937945224345 ], [ 400888.19938962359447, 3786328.382502543274313 ], [ 400887.894201424205676, 3786328.687690742779523 ], [ 400887.894201424205676, 3786329.603255340829492 ], [ 400887.589013224816881, 3786329.908443540334702 ], [ 400887.283825025428087, 3786329.908443540334702 ], [ 400886.673448626650497, 3786330.51881993887946 ], [ 400886.063072227872908, 3786330.51881993887946 ], [ 400885.757884028484114, 3786330.82400813838467 ], [ 400885.452695829095319, 3786330.82400813838467 ], [ 400885.147507629706524, 3786331.12919633788988 ], [ 400885.147507629706524, 3786331.434384536929429 ], [ 400883.011190233984962, 3786333.570701933000237 ], [ 400882.706002034596168, 3786333.570701933000237 ] ] ] } },
{ "type": "Feature", "properties": { "confidence": 0.26525071263313293, "class": 1 }, "geometry": { "type": "Polygon", "coordinates": [ [ [ 401276.093591047800146, 3786095.829094608314335 ], [ 401275.178026449633762, 3786094.913530010264367 ], [ 401274.872838250244968, 3786094.913530010264367 ], [ 401274.872838250244968, 3786094.608341810759157 ], [ 401274.262461851467378, 3786093.997965412214398 ], [ 401274.262461851467378, 3786093.387589013203979 ], [ 401273.957273652078584, 3786093.082400813698769 ], [ 401273.957273652078584, 3786092.47202441515401 ], [ 401281.586978636798449, 3786092.47202441515401 ], [ 401281.586978636798449, 3786093.082400813698769 ], [ 401280.97660223802086, 3786093.692777212709188 ], [ 401280.671414038632065, 3786093.692777212709188 ], [ 401280.36622583924327, 3786093.997965412214398 ], [ 401280.061037639854476, 3786093.997965412214398 ], [ 401279.755849440465681, 3786094.303153611253947 ], [ 401279.450661241076887, 3786094.303153611253947 ], [ 401278.840284842299297, 3786094.913530010264367 ], [ 401278.535096642910503, 3786094.913530010264367 ], [ 401277.619532044744119, 3786095.829094608314335 ], [ 401276.093591047800146, 3786095.829094608314335 ] ] ] } },
{ "type": "Feature", "properties": { "confidence": 0.25454562902450562, "class": 1 }, "geometry": { "type": "Polygon", "coordinates": [ [ [ 401247.100712105806451, 3786093.082400813698769 ], [ 401247.100712105806451, 3786092.77721261465922 ], [ 401247.405900305195246, 3786092.47202441515401 ], [ 401247.405900305195246, 3786092.1668362156488 ], [ 401248.016276703972835, 3786091.556459817104042 ], [ 401248.32146490336163, 3786091.556459817104042 ], [ 401248.931841302139219, 3786090.946083418093622 ], [ 401249.237029501528013, 3786090.946083418093622 ], [ 401249.542217700916808, 3786090.640895218588412 ], [ 401249.847405900305603, 3786090.640895218588412 ], [ 401250.457782299083192, 3786090.030518820043653 ], [ 401253.509664292971138, 3786090.030518820043653 ], [ 401253.814852492359933, 3786090.335707019548863 ], [ 401253.204476093582343, 3786090.946083418093622 ], [ 401252.899287894193549, 3786090.946083418093622 ], [ 401252.28891149541596, 3786091.556459817104042 ], [ 401251.983723296027165, 3786091.556459817104042 ], [ 401251.373346897249576, 3786092.1668362156488 ], [ 401251.068158697860781, 3786092.1668362156488 ], [ 401250.457782299083192, 3786092.77721261465922 ], [ 401249.847405900305603, 3786092.77721261465922 ], [ 401249.542217700916808, 3786093.082400813698769 ], [ 401247.100712105806451, 3786093.082400813698769 ] ] ] } }
]
}
