{
"type": "FeatureCollection",
"name": "cell_00387_pre",
"crs": { "type": "name", "properties": { "name": "urn:ogc:def:crs:EPSG::32611" } },
"features": [
{ "type": "Feature", "properties": { "confidence": 0.60646522045135498, "class": 1 }, "geometry": { "type": "Polygon", "coordinates": [ [ [ 397019.63377416075673, 3785846.18514750758186 ], [ 397019.328585961367935, 3785845.87995930807665 ], [ 397019.02339776197914, 3785845.87995930807665 ], [ 397018.413021363201551, 3785845.269582909531891 ], [ 397018.107833163812757, 3785845.269582909531891 ], [ 397017.802644964365754, 3785844.964394710026681 ], [ 397017.802644964365754, 3785844.048830111976713 ], [ 397023.601220752811059, 3785844.048830111976713 ], [ 397023.601220752811059, 3785844.964394710026681 ], [ 397023.296032553422265, 3785844.964394710026681 ], [ 397022.99084435403347, 3785845.269582909531891 ], [ 397022.685656154644676, 3785845.269582909531891 ], [ 397022.075279755867086, 3785845.87995930807665 ], [ 397021.464903357089497, 3785845.87995930807665 ], [ 397021.159715157700703, 3785846.18514750758186 ], [ 397019.63377416075673, 3785846.18514750758186 ] ] ] } },
{ "type": "Feature", "properties": { "confidence": 0.53560250997543335, "class": 1 }, "geometry": { "type": "Polygon", "coordinates": [ [ [ 396751.67853509663837, 3785619.430315361358225 ], [ 396751.068158697860781, 3785618.819938962347806 ], [ 396750.762970498471987, 3785618.819938962347806 ], [ 396750.457782299083192, 3785618.514750762842596 ], [ 396749.542217700916808, 3785618.514750762842596 ], [ 396748.931841302139219, 3785617.904374364297837 ], [ 396748.626653102750424, 3785617.904374364297837 ], [ 396748.32146490336163, 3785617.599186164792627 ], [ 396748.32146490336163, 3785617.293997965287417 ], [ 396747.405900305195246, 3785616.378433367237449 ], [ 396747.405900305195246, 3785616.073245167732239 ], [ 396746.795523906417657, 3785615.46286876918748 ], [ 396746.795523906417657, 3785615.15768056968227 ], [ 396746.490335707028862, 3785614.85249237017706 ], [ 396746.490335707028862, 3785613.936927772127092 ], [ 396746.185147507640067, 3785613.631739572621882 ], [ 396746.185147507640067, 3785612.105798575561494 ], [ 396746.490335707028862, 3785611.800610376521945 ], [ 396746.490335707028862, 3785611.495422177016735 ], [ 396747.100712105806451, 3785611.495422177016735 ], [ 396747.405900305195246, 3785611.190233977511525 ], [ 396748.016276703972835, 3785611.190233977511525 ], [ 396748.32146490336163, 3785610.885045778006315 ], [ 396749.237029501528013, 3785610.885045778006315 ], [ 396749.542217700916808, 3785610.579857578966767 ], [ 396749.847405900305603, 3785610.885045778006315 ], [ 396751.068158697860781, 3785610.885045778006315 ], [ 396751.068158697860781, 3785611.190233977511525 ], [ 396751.373346897249576, 3785611.495422177016735 ], [ 396752.28891149541596, 3785611.495422177016735 ], [ 396753.204476093582343, 3785612.410986775066704 ], [ 396753.509664292971138, 3785612.410986775066704 ], [ 396753.509664292971138, 3785613.021363174077123 ], [ 396753.814852492359933, 3785613.326551373116672 ], [ 396753.814852492359933, 3785618.209562563803047 ], [ 396753.204476093582343, 3785618.819938962347806 ], [ 396753.204476093582343, 3785619.125127161853015 ], [ 396752.899287894193549, 3785619.430315361358225 ], [ 396751.67853509663837, 3785619.430315361358225 ] ] ] } },
{ "type": "Feature", "properties": { "confidence": 0.30269673466682434, "class": 1 }, "geometry": { "type": "Polygon", "coordinates": [ [ [ 396928.382502543216106, 3785449.440488301217556 ], [ 396928.382502543216106, 3785449.135300101712346 ], [ 396928.077314343827311, 3785448.830111902207136 ], [ 396928.077314343827311, 3785446.083418108057231 ], [ 396928.992878941993695, 3785445.167853509541601 ], [ 396929.298067141382489, 3785445.167853509541601 ], [ 396929.603255340771284, 3785445.473041709046811 ], [ 396929.908443540160079, 3785445.473041709046811 ], [ 396930.518819938937668, 3785446.083418108057231 ], [ 396930.824008138326462, 3785446.083418108057231 ], [ 396931.434384537104052, 3785446.693794506601989 ], [ 396931.739572736492846, 3785446.693794506601989 ], [ 396932.044760935881641, 3785446.998982706107199 ], [ 396932.044760935881641, 3785448.524923703167588 ], [ 396931.739572736492846, 3785448.830111902207136 ], [ 396931.739572736492846, 3785449.135300101712346 ], [ 396931.434384537104052, 3785449.135300101712346 ], [ 396931.129196337715257, 3785449.440488301217556 ], [ 396928.382502543216106, 3785449.440488301217556 ] ] ] } }
]
}
