{
"type": "FeatureCollection",
"name": "cell_00156_pre",
"crs": { "type": "name", "properties": { "name": "urn:ogc:def:crs:EPSG::32611" } },
"features": [
{ "type": "Feature", "properties": { "confidence": 0.63803881406784058, "class": 1 }, "geometry": { "type": "Polygon", "coordinates": [ [ [ 355583.926754832151346, 3770853.50966429291293 ], [ 355583.621566632762551, 3770853.20447609340772 ], [ 355582.706002034596168, 3770853.20447609340772 ], [ 355582.400813835207373, 3770852.899287894368172 ], [ 355582.095625635818578, 3770852.899287894368172 ], [ 355581.485249237040989, 3770852.288911495357752 ], [ 355581.180061037652194, 3770852.288911495357752 ], [ 355580.569684638874605, 3770851.678535096812993 ], [ 355580.264496439485811, 3770851.678535096812993 ], [ 355579.959308240097016, 3770851.373346897307783 ], [ 355579.348931841319427, 3770851.373346897307783 ], [ 355579.043743641930632, 3770851.068158697802573 ], [ 355578.433367243153043, 3770851.068158697802573 ], [ 355576.90742624620907, 3770849.542217700742185 ], [ 355576.90742624620907, 3770849.237029501702636 ], [ 355576.602238046820275, 3770848.931841302197427 ], [ 355576.602238046820275, 3770848.626653102692217 ], [ 355576.297049847431481, 3770848.321464903187007 ], [ 355576.297049847431481, 3770847.100712105631828 ], [ 355575.991861648042686, 3770846.79552390659228 ], [ 355575.991861648042686, 3770845.87995930807665 ], [ 355576.297049847431481, 3770845.574771109037101 ], [ 355576.297049847431481, 3770844.964394710026681 ], [ 355576.90742624620907, 3770844.964394710026681 ], [ 355577.212614445597865, 3770844.659206510521472 ], [ 355583.621566632762551, 3770844.659206510521472 ], [ 355583.926754832151346, 3770844.964394710026681 ], [ 355584.537131230928935, 3770844.964394710026681 ], [ 355584.84231943031773, 3770844.659206510521472 ], [ 355585.147507629706524, 3770844.964394710026681 ], [ 355586.063072227872908, 3770844.964394710026681 ], [ 355586.368260427261703, 3770845.269582909531891 ], [ 355586.368260427261703, 3770845.574771109037101 ], [ 355586.978636826039292, 3770846.18514750758186 ], [ 355586.978636826039292, 3770846.79552390659228 ], [ 355587.283825025428087, 3770847.100712105631828 ], [ 355587.283825025428087, 3770848.626653102692217 ], [ 355587.589013224816881, 3770848.931841302197427 ], [ 355587.589013224816881, 3770850.457782299257815 ], [ 355587.894201424205676, 3770850.762970498297364 ], [ 355587.894201424205676, 3770852.288911495357752 ], [ 355587.589013224816881, 3770852.594099694862962 ], [ 355587.589013224816881, 3770852.899287894368172 ], [ 355587.283825025428087, 3770852.899287894368172 ], [ 355586.978636826039292, 3770853.20447609340772 ], [ 355586.063072227872908, 3770853.20447609340772 ], [ 355585.757884028484114, 3770853.50966429291293 ], [ 355583.926754832151346, 3770853.50966429291293 ] ] ] } },
{ "type": "Feature", "properties": { "confidence": 0.40712055563926697, "class": 1 }, "geometry": { "type": "Polygon", "coordinates": [ [ [ 355672.431332655134611, 3770845.574771109037101 ], [ 355672.126144455745816, 3770845.269582909531891 ], [ 355669.989827060024254, 3770845.269582909531891 ], [ 355669.684638860635459, 3770844.964394710026681 ], [ 355669.684638860635459, 3770844.048830111976713 ], [ 355677.314343845355324, 3770844.048830111976713 ], [ 355677.314343845355324, 3770844.354018311481923 ], [ 355677.00915564596653, 3770844.659206510521472 ], [ 355677.00915564596653, 3770845.269582909531891 ], [ 355676.093591047800146, 3770845.269582909531891 ], [ 355675.788402848411351, 3770845.574771109037101 ], [ 355672.431332655134611, 3770845.574771109037101 ] ] ] } },
{ "type": "Feature", "properties": { "confidence": 0.27643311023712158, "class": 1 }, "geometry": { "type": "Polygon", "coordinates": [ [ [ 355678.840284842299297, 3770612.105798575561494 ], [ 355678.535096642910503, 3770611.800610376521945 ], [ 355677.619532044744119, 3770611.800610376521945 ], [ 355677.314343845355324, 3770611.495422177016735 ], [ 355677.00915564596653, 3770611.495422177016735 ], [ 355676.703967446577735, 3770611.190233977511525 ], [ 355676.703967446577735, 3770610.579857578966767 ], [ 355676.398779247188941, 3770610.274669379461557 ], [ 355676.398779247188941, 3770609.664292980451137 ], [ 355681.281790437409654, 3770609.664292980451137 ], [ 355681.281790437409654, 3770610.885045778006315 ], [ 355680.36622583924327, 3770611.800610376521945 ], [ 355680.061037639854476, 3770611.800610376521945 ], [ 355679.755849440465681, 3770612.105798575561494 ], [ 355678.840284842299297, 3770612.105798575561494 ] ] ] } }
]
}
