{
"type": "FeatureCollection",
"name": "cell_00487_pre",
"crs": { "type": "name", "properties": { "name": "urn:ogc:def:crs:EPSG::32611" } },
"features": [
{ "type": "Feature", "properties": { "confidence": 0.9613947868347168, "class": 1 }, "geometry": { "type": "Polygon", "coordinates": [ [ [ 401423.804679552384187, 3783714.140386571642011 ], [ 401423.499491352995392, 3783713.835198372136801 ], [ 401423.499491352995392, 3783711.393692777026445 ], [ 401423.804679552384187, 3783711.088504577986896 ], [ 401423.804679552384187, 3783708.952187181916088 ], [ 401424.415055951161776, 3783708.341810783371329 ], [ 401424.72024415055057, 3783708.341810783371329 ], [ 401425.635808748716954, 3783707.426246185321361 ], [ 401425.940996948105749, 3783707.426246185321361 ], [ 401426.856561546272133, 3783706.510681586805731 ], [ 401428.077314343827311, 3783706.510681586805731 ], [ 401428.382502543216106, 3783706.205493387766182 ], [ 401429.298067141382489, 3783706.205493387766182 ], [ 401429.603255340771284, 3783706.510681586805731 ], [ 401430.213631739548873, 3783706.510681586805731 ], [ 401430.518819938937668, 3783706.815869786310941 ], [ 401430.824008138326462, 3783706.815869786310941 ], [ 401430.824008138326462, 3783707.121057985816151 ], [ 401431.129196337715257, 3783707.426246185321361 ], [ 401431.434384537104052, 3783707.426246185321361 ], [ 401431.739572736492846, 3783707.731434384360909 ], [ 401432.349949135328643, 3783707.731434384360909 ], [ 401432.349949135328643, 3783708.036622583866119 ], [ 401432.960325534106232, 3783708.646998982876539 ], [ 401432.960325534106232, 3783710.172939979471266 ], [ 401432.655137334717438, 3783710.478128178976476 ], [ 401432.655137334717438, 3783710.783316378481686 ], [ 401432.044760935881641, 3783710.783316378481686 ], [ 401431.739572736492846, 3783711.088504577986896 ], [ 401431.434384537104052, 3783711.088504577986896 ], [ 401430.824008138326462, 3783711.698880976531655 ], [ 401430.213631739548873, 3783711.698880976531655 ], [ 401429.908443540160079, 3783712.004069176036865 ], [ 401429.603255340771284, 3783712.004069176036865 ], [ 401429.298067141382489, 3783712.309257375542074 ], [ 401428.6876907426049, 3783712.309257375542074 ], [ 401428.382502543216106, 3783712.614445574581623 ], [ 401428.382502543216106, 3783712.919633774086833 ], [ 401427.772126144438516, 3783713.530010173097253 ], [ 401427.161749745660927, 3783713.530010173097253 ], [ 401426.856561546272133, 3783713.835198372136801 ], [ 401425.33062054932816, 3783713.835198372136801 ], [ 401425.025432349939365, 3783714.140386571642011 ], [ 401423.804679552384187, 3783714.140386571642011 ] ] ] } },
{ "type": "Feature", "properties": { "confidence": 0.94602948427200317, "class": 1 }, "geometry": { "type": "Polygon", "coordinates": [ [ [ 401812.309257375367451, 3784011.088504577986896 ], [ 401812.309257375367451, 3784010.172939979471266 ], [ 401812.614445574756246, 3784009.867751780431718 ], [ 401812.614445574756246, 3784008.646998982876539 ], [ 401812.919633774145041, 3784008.341810783371329 ], [ 401813.224821973533835, 3784008.341810783371329 ], [ 401814.445574771089014, 3784007.121057985816151 ], [ 401815.971515768032987, 3784007.121057985816151 ], [ 401816.276703967421781, 3784007.426246185321361 ], [ 401816.88708036619937, 3784007.426246185321361 ], [ 401817.192268565588165, 3784007.731434384360909 ], [ 401817.802644964365754, 3784007.731434384360909 ], [ 401818.107833163812757, 3784008.036622583866119 ], [ 401818.107833163812757, 3784008.952187181916088 ], [ 401817.802644964365754, 3784008.952187181916088 ], [ 401817.49745676497696, 3784009.257375381421298 ], [ 401817.192268565588165, 3784009.257375381421298 ], [ 401816.88708036619937, 3784009.562563580926508 ], [ 401816.276703967421781, 3784009.562563580926508 ], [ 401815.971515768032987, 3784009.867751780431718 ], [ 401815.666327568644192, 3784009.867751780431718 ], [ 401815.361139369255397, 3784010.172939979471266 ], [ 401814.750762970477808, 3784010.172939979471266 ], [ 401814.445574771089014, 3784010.478128178976476 ], [ 401814.140386571700219, 3784010.478128178976476 ], [ 401813.835198372311424, 3784010.783316378481686 ], [ 401813.53001017292263, 3784010.783316378481686 ], [ 401813.224821973533835, 3784011.088504577986896 ], [ 401812.309257375367451, 3784011.088504577986896 ] ] ] } },
{ "type": "Feature", "properties": { "confidence": 0.90159010887145996, "class": 1 }, "geometry": { "type": "Polygon", "coordinates": [ [ [ 401671.007121058006305, 3783871.617497456725687 ], [ 401670.701932858617511, 3783871.312309257220477 ], [ 401670.091556459839921, 3783871.312309257220477 ], [ 401669.786368260451127, 3783871.007121058180928 ], [ 401669.786368260451127, 3783870.701932858675718 ], [ 401669.481180061062332, 3783870.396744659170508 ], [ 401669.481180061062332, 3783870.091556459665298 ], [ 401669.786368260451127, 3783869.78636826062575 ], [ 401669.786368260451127, 3783868.87080366211012 ], [ 401670.701932858617511, 3783867.955239064060152 ], [ 401671.007121058006305, 3783867.955239064060152 ], [ 401671.3123092573951, 3783867.650050864554942 ], [ 401671.922685656172689, 3783867.650050864554942 ], [ 401672.533062054950278, 3783867.039674466010183 ], [ 401673.448626653116662, 3783867.039674466010183 ], [ 401673.753814852505457, 3783866.734486266504973 ], [ 401674.059003051894251, 3783866.734486266504973 ], [ 401674.364191251283046, 3783867.039674466010183 ], [ 401674.974567650060635, 3783867.039674466010183 ], [ 401675.27975584944943, 3783867.344862665515393 ], [ 401675.584944048838224, 3783867.344862665515393 ], [ 401675.584944048838224, 3783867.650050864554942 ], [ 401675.890132248227019, 3783867.955239064060152 ], [ 401675.890132248227019, 3783868.87080366211012 ], [ 401675.584944048838224, 3783869.17599186161533 ], [ 401675.584944048838224, 3783870.701932858675718 ], [ 401674.974567650060635, 3783871.312309257220477 ], [ 401673.143438453727867, 3783871.312309257220477 ], [ 401672.838250254339073, 3783871.617497456725687 ], [ 401671.007121058006305, 3783871.617497456725687 ] ] ] } },
{ "type": "Feature", "properties": { "confidence": 0.80807435512542725, "class": 1 }, "geometry": { "type": "Polygon", "coordinates": [ [ [ 401848.32146490336163, 3783934.791454730555415 ], [ 401848.016276703972835, 3783934.486266531050205 ], [ 401847.405900305195246, 3783934.486266531050205 ], [ 401847.405900305195246, 3783934.181078331544995 ], [ 401847.100712105806451, 3783933.875890132039785 ], [ 401847.100712105806451, 3783933.265513733495027 ], [ 401846.795523906417657, 3783932.960325533989817 ], [ 401846.795523906417657, 3783932.655137334484607 ], [ 401847.100712105806451, 3783932.349949135445058 ], [ 401847.100712105806451, 3783932.044760935939848 ], [ 401847.405900305195246, 3783931.739572736434639 ], [ 401847.405900305195246, 3783931.434384536929429 ], [ 401847.71108850458404, 3783931.12919633788988 ], [ 401847.71108850458404, 3783930.82400813838467 ], [ 401848.016276703972835, 3783930.51881993887946 ], [ 401848.32146490336163, 3783930.51881993887946 ], [ 401848.626653102750424, 3783930.21363173937425 ], [ 401848.626653102750424, 3783929.908443540334702 ], [ 401849.237029501528013, 3783929.298067141324282 ], [ 401849.542217700916808, 3783929.298067141324282 ], [ 401849.847405900305603, 3783928.992878941819072 ], [ 401850.152594099694397, 3783928.992878941819072 ], [ 401850.457782299083192, 3783928.687690742779523 ], [ 401850.457782299083192, 3783928.382502543274313 ], [ 401850.762970498471987, 3783928.382502543274313 ], [ 401851.068158697860781, 3783928.077314343769103 ], [ 401851.373346897249576, 3783928.077314343769103 ], [ 401851.373346897249576, 3783930.21363173937425 ], [ 401851.068158697860781, 3783930.51881993887946 ], [ 401851.068158697860781, 3783931.739572736434639 ], [ 401850.762970498471987, 3783932.044760935939848 ], [ 401850.762970498471987, 3783932.349949135445058 ], [ 401850.457782299083192, 3783932.655137334484607 ], [ 401850.457782299083192, 3783932.960325533989817 ], [ 401850.152594099694397, 3783933.265513733495027 ], [ 401850.152594099694397, 3783933.570701933000237 ], [ 401849.847405900305603, 3783933.875890132039785 ], [ 401849.847405900305603, 3783934.181078331544995 ], [ 401849.542217700916808, 3783934.486266531050205 ], [ 401849.237029501528013, 3783934.486266531050205 ], [ 401848.931841302139219, 3783934.791454730555415 ], [ 401848.32146490336163, 3783934.791454730555415 ] ] ] } },
{ "type": "Feature", "properties": { "confidence": 0.800819993019104, "class": 1 }, "geometry": { "type": "Polygon", "coordinates": [ [ [ 401808.952187182090711, 3783856.358087487053126 ], [ 401808.952187182090711, 3783856.052899288013577 ], [ 401808.646998982701916, 3783855.747711088508368 ], [ 401808.341810783313122, 3783855.747711088508368 ], [ 401808.341810783313122, 3783855.442522889003158 ], [ 401807.731434384535532, 3783854.832146490458399 ], [ 401807.731434384535532, 3783854.526958290953189 ], [ 401807.426246185146738, 3783854.221770091447979 ], [ 401806.815869786369149, 3783854.221770091447979 ], [ 401806.510681586980354, 3783853.916581891942769 ], [ 401806.510681586980354, 3783853.611393692903221 ], [ 401806.205493387591559, 3783853.306205493398011 ], [ 401806.205493387591559, 3783852.085452695842832 ], [ 401805.900305188202765, 3783851.780264496337622 ], [ 401805.900305188202765, 3783847.202441505622119 ], [ 401806.205493387591559, 3783846.897253306116909 ], [ 401806.205493387591559, 3783846.28687690757215 ], [ 401806.510681586980354, 3783845.98168870806694 ], [ 401806.510681586980354, 3783845.67650050856173 ], [ 401806.815869786369149, 3783845.37131230905652 ], [ 401808.036622583924327, 3783845.37131230905652 ], [ 401808.036622583924327, 3783845.67650050856173 ], [ 401808.646998982701916, 3783846.28687690757215 ], [ 401808.952187182090711, 3783846.28687690757215 ], [ 401809.5625635808683, 3783846.897253306116909 ], [ 401810.478128179034684, 3783846.897253306116909 ], [ 401810.783316378423478, 3783847.202441505622119 ], [ 401811.698880976589862, 3783847.202441505622119 ], [ 401812.309257375367451, 3783847.812817904166877 ], [ 401812.614445574756246, 3783847.812817904166877 ], [ 401813.53001017292263, 3783848.728382502682507 ], [ 401813.53001017292263, 3783851.169888097792864 ], [ 401813.835198372311424, 3783851.475076296832412 ], [ 401813.835198372311424, 3783852.390640895348042 ], [ 401814.140386571700219, 3783852.695829094387591 ], [ 401814.140386571700219, 3783853.306205493398011 ], [ 401813.835198372311424, 3783853.611393692903221 ], [ 401813.835198372311424, 3783854.832146490458399 ], [ 401812.614445574756246, 3783856.052899288013577 ], [ 401812.309257375367451, 3783856.052899288013577 ], [ 401812.004069175978657, 3783856.358087487053126 ], [ 401808.952187182090711, 3783856.358087487053126 ] ] ] } },
{ "type": "Feature", "properties": { "confidence": 0.69120043516159058, "class": 1 }, "geometry": { "type": "Polygon", "coordinates": [ [ [ 401419.226856561552268, 3784148.423194303177297 ], [ 401418.921668362163473, 3784148.118006103672087 ], [ 401418.921668362163473, 3784147.812817904166877 ], [ 401419.226856561552268, 3784147.507629705127329 ], [ 401419.226856561552268, 3784147.202441505622119 ], [ 401420.447609359107446, 3784145.98168870806694 ], [ 401420.752797558496241, 3784145.98168870806694 ], [ 401421.057985757885035, 3784145.67650050856173 ], [ 401421.36317395727383, 3784145.67650050856173 ], [ 401421.973550356051419, 3784145.066124110016972 ], [ 401422.278738555440214, 3784145.066124110016972 ], [ 401422.583926754829008, 3784144.760935910511762 ], [ 401424.109867751772981, 3784144.760935910511762 ], [ 401424.415055951161776, 3784145.066124110016972 ], [ 401424.415055951161776, 3784145.67650050856173 ], [ 401422.278738555440214, 3784147.812817904166877 ], [ 401421.668362156662624, 3784147.812817904166877 ], [ 401421.36317395727383, 3784148.118006103672087 ], [ 401419.837232960329857, 3784148.118006103672087 ], [ 401419.532044760941062, 3784148.423194303177297 ], [ 401419.226856561552268, 3784148.423194303177297 ] ] ] } },
{ "type": "Feature", "properties": { "confidence": 0.67753607034683228, "class": 1 }, "geometry": { "type": "Polygon", "coordinates": [ [ [ 401659.409969481173903, 3783873.143438453786075 ], [ 401659.104781281785108, 3783872.838250254280865 ], [ 401658.799593082396314, 3783872.838250254280865 ], [ 401657.578840284841135, 3783871.617497456725687 ], [ 401657.578840284841135, 3783871.312309257220477 ], [ 401657.273652085452341, 3783871.007121058180928 ], [ 401657.273652085452341, 3783869.48118006112054 ], [ 401657.578840284841135, 3783869.17599186161533 ], [ 401657.578840284841135, 3783868.87080366211012 ], [ 401657.88402848422993, 3783868.565615463070571 ], [ 401658.189216683618724, 3783868.565615463070571 ], [ 401658.494404883007519, 3783868.260427263565361 ], [ 401659.409969481173903, 3783868.260427263565361 ], [ 401660.935910478117876, 3783869.78636826062575 ], [ 401660.935910478117876, 3783870.091556459665298 ], [ 401661.24109867750667, 3783870.396744659170508 ], [ 401661.24109867750667, 3783872.227873855736107 ], [ 401660.630722278729081, 3783872.838250254280865 ], [ 401660.325534079340287, 3783872.838250254280865 ], [ 401660.020345879951492, 3783873.143438453786075 ], [ 401659.409969481173903, 3783873.143438453786075 ] ] ] } },
{ "type": "Feature", "properties": { "confidence": 0.64806258678436279, "class": 1 }, "geometry": { "type": "Polygon", "coordinates": [ [ [ 401883.11291963380063, 3783895.116988809779286 ], [ 401882.807731434411835, 3783894.811800610274076 ], [ 401882.50254323502304, 3783894.811800610274076 ], [ 401882.197355035634246, 3783894.506612410768867 ], [ 401881.586978636798449, 3783894.506612410768867 ], [ 401881.281790437409654, 3783894.201424211729318 ], [ 401880.671414038632065, 3783894.201424211729318 ], [ 401880.061037639854476, 3783893.591047812718898 ], [ 401880.061037639854476, 3783892.67548321466893 ], [ 401879.755849440465681, 3783892.37029501516372 ], [ 401879.755849440465681, 3783891.454730417113751 ], [ 401880.061037639854476, 3783891.149542217608541 ], [ 401880.061037639854476, 3783890.844354018103331 ], [ 401882.50254323502304, 3783888.402848422992975 ], [ 401882.50254323502304, 3783887.792472024448216 ], [ 401882.197355035634246, 3783887.487283824943006 ], [ 401882.197355035634246, 3783886.571719226893038 ], [ 401882.807731434411835, 3783886.571719226893038 ], [ 401883.11291963380063, 3783886.266531027387828 ], [ 401883.723296032578219, 3783886.266531027387828 ], [ 401884.028484231967013, 3783886.571719226893038 ], [ 401884.944048830133397, 3783886.571719226893038 ], [ 401884.333672431355808, 3783887.182095625437796 ], [ 401884.333672431355808, 3783889.013224822003394 ], [ 401884.638860630744603, 3783889.318413021508604 ], [ 401884.944048830133397, 3783889.318413021508604 ], [ 401884.944048830133397, 3783889.623601220548153 ], [ 401885.554425228910986, 3783890.233977619558573 ], [ 401885.554425228910986, 3783890.539165819063783 ], [ 401886.164801627688576, 3783891.149542217608541 ], [ 401886.164801627688576, 3783892.37029501516372 ], [ 401886.46998982707737, 3783892.67548321466893 ], [ 401886.46998982707737, 3783893.896236012224108 ], [ 401886.775178026466165, 3783894.201424211729318 ], [ 401886.775178026466165, 3783894.506612410768867 ], [ 401886.46998982707737, 3783894.811800610274076 ], [ 401886.164801627688576, 3783894.811800610274076 ], [ 401885.859613428299781, 3783895.116988809779286 ], [ 401883.11291963380063, 3783895.116988809779286 ] ] ] } },
{ "type": "Feature", "properties": { "confidence": 0.64252835512161255, "class": 1 }, "geometry": { "type": "Polygon", "coordinates": [ [ [ 401887.080366225854959, 3783933.265513733495027 ], [ 401886.775178026466165, 3783932.960325533989817 ], [ 401885.859613428299781, 3783932.960325533989817 ], [ 401884.944048830133397, 3783932.044760935939848 ], [ 401884.944048830133397, 3783931.434384536929429 ], [ 401885.249237029522192, 3783931.12919633788988 ], [ 401885.249237029522192, 3783930.21363173937425 ], [ 401885.554425228910986, 3783929.908443540334702 ], [ 401885.554425228910986, 3783929.603255340829492 ], [ 401885.859613428299781, 3783929.298067141324282 ], [ 401885.859613428299781, 3783928.992878941819072 ], [ 401886.164801627688576, 3783928.687690742779523 ], [ 401886.164801627688576, 3783928.382502543274313 ], [ 401886.46998982707737, 3783928.077314343769103 ], [ 401886.46998982707737, 3783927.772126144263893 ], [ 401886.775178026466165, 3783927.466937945224345 ], [ 401886.775178026466165, 3783927.161749745719135 ], [ 401887.385554425243754, 3783926.551373346708715 ], [ 401887.385554425243754, 3783926.246185147669166 ], [ 401887.995930824021343, 3783925.635808748658746 ], [ 401888.301119023410138, 3783925.635808748658746 ], [ 401889.216683621576522, 3783924.720244150608778 ], [ 401889.521871820965316, 3783924.720244150608778 ], [ 401889.827060020354111, 3783924.415055951103568 ], [ 401890.132248219742905, 3783924.415055951103568 ], [ 401890.4374364191317, 3783924.109867751598358 ], [ 401890.742624618520495, 3783924.109867751598358 ], [ 401891.047812817909289, 3783923.80467955255881 ], [ 401892.268565615464468, 3783923.80467955255881 ], [ 401892.573753814853262, 3783923.4994913530536 ], [ 401893.794506612408441, 3783923.4994913530536 ], [ 401894.099694811797235, 3783923.80467955255881 ], [ 401894.710071210574824, 3783923.80467955255881 ], [ 401894.710071210574824, 3783925.635808748658746 ], [ 401894.40488301118603, 3783925.940996948163956 ], [ 401894.40488301118603, 3783928.077314343769103 ], [ 401894.099694811797235, 3783928.382502543274313 ], [ 401894.099694811797235, 3783928.992878941819072 ], [ 401894.40488301118603, 3783929.298067141324282 ], [ 401894.40488301118603, 3783930.21363173937425 ], [ 401892.573753814853262, 3783932.044760935939848 ], [ 401892.268565615464468, 3783932.044760935939848 ], [ 401891.963377416075673, 3783932.349949135445058 ], [ 401891.658189216686878, 3783932.349949135445058 ], [ 401891.353001017298084, 3783932.655137334484607 ], [ 401891.047812817909289, 3783932.655137334484607 ], [ 401890.742624618520495, 3783932.960325533989817 ], [ 401889.827060020354111, 3783932.960325533989817 ], [ 401889.521871820965316, 3783933.265513733495027 ], [ 401887.080366225854959, 3783933.265513733495027 ] ] ] } },
{ "type": "Feature", "properties": { "confidence": 0.63609063625335693, "class": 1 }, "geometry": { "type": "Polygon", "coordinates": [ [ [ 401667.955239064118359, 3783878.636826042551547 ], [ 401667.650050864671357, 3783878.331637843511999 ], [ 401667.039674465893768, 3783878.331637843511999 ], [ 401666.734486266504973, 3783878.026449644006789 ], [ 401666.734486266504973, 3783877.11088504595682 ], [ 401666.124109867727384, 3783876.5005086469464 ], [ 401666.124109867727384, 3783876.19532044744119 ], [ 401665.818921668338589, 3783875.890132248401642 ], [ 401665.818921668338589, 3783874.669379450846463 ], [ 401666.124109867727384, 3783874.364191251341254 ], [ 401667.039674465893768, 3783874.364191251341254 ], [ 401667.344862665282562, 3783874.059003051836044 ], [ 401670.396744659228716, 3783874.059003051836044 ], [ 401670.701932858617511, 3783874.364191251341254 ], [ 401672.227873855561484, 3783874.364191251341254 ], [ 401672.227873855561484, 3783874.669379450846463 ], [ 401672.533062054950278, 3783874.974567649886012 ], [ 401672.533062054950278, 3783877.721261444501579 ], [ 401671.922685656172689, 3783878.331637843511999 ], [ 401669.175991861673538, 3783878.331637843511999 ], [ 401668.870803662284743, 3783878.636826042551547 ], [ 401667.955239064118359, 3783878.636826042551547 ] ] ] } },
{ "type": "Feature", "properties": { "confidence": 0.59362208843231201, "class": 1 }, "geometry": { "type": "Polygon", "coordinates": [ [ [ 401835.808748728362843, 3784017.192268565762788 ], [ 401835.503560528974049, 3784016.887080366257578 ], [ 401834.587995930807665, 3784016.887080366257578 ], [ 401834.28280773141887, 3784016.581892166752368 ], [ 401833.367243133252487, 3784016.581892166752368 ], [ 401833.062054933863692, 3784016.276703967247158 ], [ 401832.756866734474897, 3784016.276703967247158 ], [ 401832.451678535086103, 3784015.97151576820761 ], [ 401832.146490335697308, 3784015.97151576820761 ], [ 401831.536113936919719, 3784015.36113936919719 ], [ 401831.536113936919719, 3784015.05595116969198 ], [ 401831.230925737530924, 3784014.750762970652431 ], [ 401831.230925737530924, 3784014.445574771147221 ], [ 401830.620549338753335, 3784013.835198372136801 ], [ 401830.620549338753335, 3784013.224821973592043 ], [ 401830.315361139364541, 3784012.919633774086833 ], [ 401830.315361139364541, 3784011.393692777026445 ], [ 401830.620549338753335, 3784011.088504577986896 ], [ 401831.536113936919719, 3784011.088504577986896 ], [ 401831.841302136308514, 3784010.783316378481686 ], [ 401832.146490335697308, 3784011.088504577986896 ], [ 401833.672431332641281, 3784011.088504577986896 ], [ 401833.977619532030076, 3784010.783316378481686 ], [ 401834.28280773141887, 3784011.088504577986896 ], [ 401834.89318413019646, 3784011.088504577986896 ], [ 401835.198372329585254, 3784011.393692777026445 ], [ 401835.198372329585254, 3784011.698880976531655 ], [ 401836.113936927751638, 3784012.614445574581623 ], [ 401836.419125127140433, 3784012.614445574581623 ], [ 401836.724313326529227, 3784012.919633774086833 ], [ 401836.724313326529227, 3784014.140386571642011 ], [ 401837.029501525918022, 3784014.445574771147221 ], [ 401837.029501525918022, 3784015.05595116969198 ], [ 401837.334689725306816, 3784015.36113936919719 ], [ 401837.334689725306816, 3784016.581892166752368 ], [ 401837.029501525918022, 3784016.887080366257578 ], [ 401836.724313326529227, 3784016.887080366257578 ], [ 401836.419125127140433, 3784017.192268565762788 ], [ 401835.808748728362843, 3784017.192268565762788 ] ] ] } },
{ "type": "Feature", "properties": { "confidence": 0.58719497919082642, "class": 1 }, "geometry": { "type": "Polygon", "coordinates": [ [ [ 401793.387589013203979, 3783976.602238046936691 ], [ 401793.082400813815184, 3783976.297049847431481 ], [ 401793.082400813815184, 3783975.991861647926271 ], [ 401792.777212614426389, 3783975.686673448421061 ], [ 401792.777212614426389, 3783975.381485249381512 ], [ 401792.472024415037595, 3783975.076297049876302 ], [ 401792.472024415037595, 3783974.465920650865883 ], [ 401792.1668362156488, 3783974.160732451826334 ], [ 401792.1668362156488, 3783973.550356052815914 ], [ 401791.861648016260006, 3783973.245167853310704 ], [ 401791.861648016260006, 3783972.939979654271156 ], [ 401791.556459816871211, 3783972.634791454765946 ], [ 401791.556459816871211, 3783972.329603255260736 ], [ 401791.251271617482416, 3783972.024415055755526 ], [ 401791.251271617482416, 3783968.667344862595201 ], [ 401791.861648016260006, 3783968.056968464050442 ], [ 401792.1668362156488, 3783968.056968464050442 ], [ 401792.472024415037595, 3783967.751780264545232 ], [ 401793.387589013203979, 3783967.751780264545232 ], [ 401793.997965411981568, 3783968.362156663089991 ], [ 401793.997965411981568, 3783968.97253306210041 ], [ 401794.608341810759157, 3783969.582909460645169 ], [ 401794.913530010147952, 3783969.582909460645169 ], [ 401795.218718209536746, 3783969.888097660150379 ], [ 401795.523906408925541, 3783969.888097660150379 ], [ 401796.13428280770313, 3783970.498474059160799 ], [ 401796.439471007150132, 3783970.498474059160799 ], [ 401796.744659206538927, 3783970.803662258200347 ], [ 401797.049847405927721, 3783970.803662258200347 ], [ 401797.660223804705311, 3783971.414038657210767 ], [ 401797.965412004094105, 3783971.414038657210767 ], [ 401798.2706002034829, 3783971.719226856715977 ], [ 401798.575788402871694, 3783971.719226856715977 ], [ 401799.186164801649284, 3783972.329603255260736 ], [ 401799.186164801649284, 3783972.634791454765946 ], [ 401799.491353001038078, 3783972.939979654271156 ], [ 401799.491353001038078, 3783974.771108850371093 ], [ 401799.186164801649284, 3783975.076297049876302 ], [ 401798.880976602260489, 3783975.076297049876302 ], [ 401798.2706002034829, 3783975.686673448421061 ], [ 401797.660223804705311, 3783975.686673448421061 ], [ 401797.355035605316516, 3783975.991861647926271 ], [ 401795.829094608314335, 3783975.991861647926271 ], [ 401795.523906408925541, 3783976.297049847431481 ], [ 401794.608341810759157, 3783976.297049847431481 ], [ 401794.303153611370362, 3783976.602238046936691 ], [ 401793.387589013203979, 3783976.602238046936691 ] ] ] } },
{ "type": "Feature", "properties": { "confidence": 0.55966567993164062, "class": 1 }, "geometry": { "type": "Polygon", "coordinates": [ [ [ 401463.173957273655105, 3783885.961342827882618 ], [ 401462.868769074266311, 3783885.656154628843069 ], [ 401462.868769074266311, 3783885.350966429337859 ], [ 401462.563580874877516, 3783885.045778229832649 ], [ 401462.563580874877516, 3783884.435401831287891 ], [ 401462.258392675488722, 3783884.130213631782681 ], [ 401462.258392675488722, 3783879.857578840106726 ], [ 401461.953204476099927, 3783879.552390641067177 ], [ 401461.953204476099927, 3783878.942014242056757 ], [ 401461.648016276711132, 3783878.636826042551547 ], [ 401461.953204476099927, 3783878.331637843511999 ], [ 401461.953204476099927, 3783877.721261444501579 ], [ 401463.173957273655105, 3783876.5005086469464 ], [ 401463.173957273655105, 3783875.890132248401642 ], [ 401463.784333672432695, 3783875.279755849391222 ], [ 401463.784333672432695, 3783874.974567649886012 ], [ 401464.394710071210284, 3783874.974567649886012 ], [ 401464.699898270599078, 3783874.669379450846463 ], [ 401465.005086469987873, 3783874.669379450846463 ], [ 401465.310274669376668, 3783874.974567649886012 ], [ 401465.920651068154257, 3783874.974567649886012 ], [ 401466.225839267543051, 3783875.279755849391222 ], [ 401466.531027466931846, 3783875.279755849391222 ], [ 401467.141403865709435, 3783875.890132248401642 ], [ 401467.44659206509823, 3783875.890132248401642 ], [ 401467.751780264487024, 3783876.19532044744119 ], [ 401469.277721261430997, 3783876.19532044744119 ], [ 401469.582909460819792, 3783876.5005086469464 ], [ 401469.888097660208587, 3783876.5005086469464 ], [ 401470.193285859597381, 3783876.80569684645161 ], [ 401470.193285859597381, 3783878.331637843511999 ], [ 401470.498474058986176, 3783878.636826042551547 ], [ 401470.193285859597381, 3783878.942014242056757 ], [ 401470.193285859597381, 3783881.078331637661904 ], [ 401469.888097660208587, 3783881.383519837167114 ], [ 401469.888097660208587, 3783882.299084435217083 ], [ 401469.582909460819792, 3783882.604272634722292 ], [ 401469.582909460819792, 3783882.909460834227502 ], [ 401468.667344862653408, 3783883.825025432277471 ], [ 401467.44659206509823, 3783883.825025432277471 ], [ 401465.920651068154257, 3783885.350966429337859 ], [ 401465.615462868765462, 3783885.350966429337859 ], [ 401465.005086469987873, 3783885.961342827882618 ], [ 401463.173957273655105, 3783885.961342827882618 ] ] ] } },
{ "type": "Feature", "properties": { "confidence": 0.55030345916748047, "class": 1 }, "geometry": { "type": "Polygon", "coordinates": [ [ [ 401917.904374364181422, 3783923.4994913530536 ], [ 401917.599186164792627, 3783923.19430315354839 ], [ 401917.599186164792627, 3783922.88911495404318 ], [ 401917.904374364181422, 3783922.583926755003631 ], [ 401917.904374364181422, 3783921.973550355993211 ], [ 401918.514750762959011, 3783921.363173957448453 ], [ 401918.514750762959011, 3783921.057985757943243 ], [ 401918.819938962347806, 3783920.752797558438033 ], [ 401918.819938962347806, 3783920.447609358932823 ], [ 401919.1251271617366, 3783920.142421159893274 ], [ 401919.1251271617366, 3783919.837232960388064 ], [ 401920.651068158680573, 3783918.311291963327676 ], [ 401920.956256358069368, 3783918.311291963327676 ], [ 401921.261444557458162, 3783918.006103763822466 ], [ 401921.871820956235752, 3783918.006103763822466 ], [ 401922.177009155624546, 3783917.700915564782917 ], [ 401923.09257375379093, 3783917.700915564782917 ], [ 401923.397761953179725, 3783917.395727365277708 ], [ 401926.144455747737084, 3783917.395727365277708 ], [ 401926.449643947125878, 3783917.700915564782917 ], [ 401926.449643947125878, 3783918.006103763822466 ], [ 401926.754832146514673, 3783918.311291963327676 ], [ 401926.754832146514673, 3783918.921668362338096 ], [ 401926.449643947125878, 3783919.226856561377645 ], [ 401926.449643947125878, 3783919.532044760882854 ], [ 401925.839267548348289, 3783920.142421159893274 ], [ 401925.534079348959494, 3783920.142421159893274 ], [ 401925.2288911495707, 3783920.447609358932823 ], [ 401924.923702950123698, 3783920.447609358932823 ], [ 401924.313326551346108, 3783921.057985757943243 ], [ 401924.008138351957314, 3783921.057985757943243 ], [ 401923.397761953179725, 3783921.668362156488001 ], [ 401923.09257375379093, 3783921.668362156488001 ], [ 401922.787385554402135, 3783921.973550355993211 ], [ 401922.482197355013341, 3783921.973550355993211 ], [ 401922.177009155624546, 3783922.278738555498421 ], [ 401921.871820956235752, 3783922.278738555498421 ], [ 401921.566632756846957, 3783922.583926755003631 ], [ 401921.261444557458162, 3783922.583926755003631 ], [ 401920.956256358069368, 3783922.88911495404318 ], [ 401920.651068158680573, 3783922.88911495404318 ], [ 401920.345879959291779, 3783923.19430315354839 ], [ 401920.040691759902984, 3783923.19430315354839 ], [ 401919.735503560514189, 3783923.4994913530536 ], [ 401917.904374364181422, 3783923.4994913530536 ] ] ] } },
{ "type": "Feature", "properties": { "confidence": 0.53329402208328247, "class": 1 }, "geometry": { "type": "Polygon", "coordinates": [ [ [ 401671.007121058006305, 3783871.312309257220477 ], [ 401670.701932858617511, 3783871.007121058180928 ], [ 401669.481180061062332, 3783871.007121058180928 ], [ 401669.481180061062332, 3783869.78636826062575 ], [ 401669.786368260451127, 3783869.48118006112054 ], [ 401669.786368260451127, 3783869.17599186161533 ], [ 401670.091556459839921, 3783868.87080366211012 ], [ 401670.091556459839921, 3783868.565615463070571 ], [ 401670.396744659228716, 3783868.260427263565361 ], [ 401670.701932858617511, 3783868.260427263565361 ], [ 401671.3123092573951, 3783867.650050864554942 ], [ 401671.922685656172689, 3783867.650050864554942 ], [ 401672.227873855561484, 3783867.344862665515393 ], [ 401672.838250254339073, 3783867.344862665515393 ], [ 401673.143438453727867, 3783867.039674466010183 ], [ 401673.143438453727867, 3783870.701932858675718 ], [ 401672.533062054950278, 3783870.701932858675718 ], [ 401672.227873855561484, 3783871.007121058180928 ], [ 401671.3123092573951, 3783871.007121058180928 ], [ 401671.007121058006305, 3783871.312309257220477 ] ] ] } },
{ "type": "Feature", "properties": { "confidence": 0.518393874168396, "class": 1 }, "geometry": { "type": "Polygon", "coordinates": [ [ [ 401828.789420142420568, 3784024.211597151588649 ], [ 401827.263479145476595, 3784022.68565615452826 ], [ 401826.9582909460878, 3784022.68565615452826 ], [ 401825.432349949143827, 3784021.159715157467872 ], [ 401825.432349949143827, 3784020.244150559417903 ], [ 401825.127161749755032, 3784019.938962359912694 ], [ 401825.127161749755032, 3784019.023397761862725 ], [ 401824.821973550366238, 3784018.718209562357515 ], [ 401824.821973550366238, 3784018.413021363317966 ], [ 401824.516785350977443, 3784018.107833163812757 ], [ 401824.516785350977443, 3784017.497456764802337 ], [ 401824.821973550366238, 3784017.192268565762788 ], [ 401825.127161749755032, 3784017.192268565762788 ], [ 401825.432349949143827, 3784016.887080366257578 ], [ 401827.568667344865389, 3784016.887080366257578 ], [ 401827.873855544254184, 3784017.192268565762788 ], [ 401828.179043743642978, 3784017.192268565762788 ], [ 401828.179043743642978, 3784017.497456764802337 ], [ 401828.789420142420568, 3784018.107833163812757 ], [ 401828.789420142420568, 3784018.413021363317966 ], [ 401829.094608341809362, 3784018.718209562357515 ], [ 401829.094608341809362, 3784019.633774160873145 ], [ 401830.92573753814213, 3784021.464903356973082 ], [ 401830.92573753814213, 3784021.770091556478292 ], [ 401831.230925737530924, 3784022.075279755983502 ], [ 401831.230925737530924, 3784023.906408952083439 ], [ 401830.92573753814213, 3784024.211597151588649 ], [ 401828.789420142420568, 3784024.211597151588649 ] ] ] } },
{ "type": "Feature", "properties": { "confidence": 0.47876614332199097, "class": 1 }, "geometry": { "type": "Polygon", "coordinates": [ [ [ 401892.878942014242057, 3783949.135300101712346 ], [ 401892.268565615464468, 3783948.524923703167588 ], [ 401891.963377416075673, 3783948.524923703167588 ], [ 401891.963377416075673, 3783947.914547304157168 ], [ 401891.658189216686878, 3783947.609359104651958 ], [ 401891.658189216686878, 3783946.083418108057231 ], [ 401891.353001017298084, 3783945.778229908552021 ], [ 401891.047812817909289, 3783945.778229908552021 ], [ 401891.047812817909289, 3783945.473041709046811 ], [ 401890.742624618520495, 3783945.167853509541601 ], [ 401890.742624618520495, 3783943.947100711986423 ], [ 401891.047812817909289, 3783943.641912512946874 ], [ 401891.047812817909289, 3783943.336724313441664 ], [ 401892.268565615464468, 3783942.115971515886486 ], [ 401893.184130213630851, 3783942.115971515886486 ], [ 401893.184130213630851, 3783942.726347914431244 ], [ 401893.489318413019646, 3783943.031536113936454 ], [ 401893.489318413019646, 3783943.336724313441664 ], [ 401893.794506612408441, 3783943.641912512946874 ], [ 401894.099694811797235, 3783943.641912512946874 ], [ 401894.40488301118603, 3783943.947100711986423 ], [ 401894.710071210574824, 3783943.947100711986423 ], [ 401895.015259409963619, 3783944.252288911491632 ], [ 401895.320447609352414, 3783944.252288911491632 ], [ 401895.625635808741208, 3783944.557477110996842 ], [ 401895.930824008130003, 3783944.557477110996842 ], [ 401896.236012207518797, 3783944.862665310502052 ], [ 401896.541200406907592, 3783944.862665310502052 ], [ 401896.541200406907592, 3783945.167853509541601 ], [ 401896.846388606296387, 3783945.473041709046811 ], [ 401897.151576805685181, 3783945.473041709046811 ], [ 401897.456765005073976, 3783945.778229908552021 ], [ 401897.76195320446277, 3783945.778229908552021 ], [ 401897.76195320446277, 3783946.693794506601989 ], [ 401898.067141403851565, 3783946.998982706107199 ], [ 401898.067141403851565, 3783948.830111902207136 ], [ 401897.76195320446277, 3783948.830111902207136 ], [ 401897.456765005073976, 3783949.135300101712346 ], [ 401892.878942014242057, 3783949.135300101712346 ] ] ] } },
{ "type": "Feature", "properties": { "confidence": 0.47012200951576233, "class": 1 }, "geometry": { "type": "Polygon", "coordinates": [ [ [ 401992.06510681589134, 3784046.18514750758186 ], [ 401991.759918616502546, 3784045.87995930807665 ], [ 401991.454730417113751, 3784045.87995930807665 ], [ 401991.149542217724957, 3784045.574771109037101 ], [ 401990.844354018336162, 3784045.574771109037101 ], [ 401990.539165818947367, 3784045.269582909531891 ], [ 401990.539165818947367, 3784044.964394710026681 ], [ 401990.233977619558573, 3784044.659206510521472 ], [ 401990.233977619558573, 3784044.048830111976713 ], [ 401995.727365208556876, 3784044.048830111976713 ], [ 401995.727365208556876, 3784044.964394710026681 ], [ 401995.422177009168081, 3784045.269582909531891 ], [ 401995.422177009168081, 3784045.574771109037101 ], [ 401994.811800610390492, 3784046.18514750758186 ], [ 401992.06510681589134, 3784046.18514750758186 ] ] ] } },
{ "type": "Feature", "properties": { "confidence": 0.46785274147987366, "class": 1 }, "geometry": { "type": "Polygon", "coordinates": [ [ [ 401746.998982705990784, 3783838.96236012224108 ], [ 401746.693794506601989, 3783838.65717192273587 ], [ 401746.388606307213195, 3783838.65717192273587 ], [ 401746.0834181078244, 3783838.35198372323066 ], [ 401745.778229908435605, 3783838.35198372323066 ], [ 401745.778229908435605, 3783837.741607324685901 ], [ 401745.473041709046811, 3783837.436419125180691 ], [ 401745.167853509658016, 3783837.436419125180691 ], [ 401744.557477110880427, 3783836.826042726170272 ], [ 401743.947100712102838, 3783836.826042726170272 ], [ 401743.641912512714043, 3783836.520854527130723 ], [ 401743.031536113936454, 3783836.520854527130723 ], [ 401742.726347914547659, 3783836.215666327625513 ], [ 401742.726347914547659, 3783835.910478128120303 ], [ 401742.421159715158865, 3783835.605289928615093 ], [ 401742.421159715158865, 3783835.300101729575545 ], [ 401742.11597151577007, 3783834.994913530070335 ], [ 401742.11597151577007, 3783832.248219735454768 ], [ 401741.810783316381276, 3783831.943031535949558 ], [ 401742.11597151577007, 3783831.637843336910009 ], [ 401742.11597151577007, 3783831.332655137404799 ], [ 401742.421159715158865, 3783831.02746693789959 ], [ 401743.947100712102838, 3783831.02746693789959 ], [ 401744.252288911491632, 3783830.72227873839438 ], [ 401744.557477110880427, 3783830.72227873839438 ], [ 401744.862665310269222, 3783830.417090539354831 ], [ 401747.914547304157168, 3783830.417090539354831 ], [ 401748.219735503545962, 3783830.72227873839438 ], [ 401748.219735503545962, 3783831.637843336910009 ], [ 401748.830111902323551, 3783832.248219735454768 ], [ 401748.830111902323551, 3783832.858596134465188 ], [ 401749.135300101712346, 3783833.163784333504736 ], [ 401749.135300101712346, 3783834.994913530070335 ], [ 401748.830111902323551, 3783835.300101729575545 ], [ 401748.830111902323551, 3783836.520854527130723 ], [ 401748.524923702934757, 3783836.826042726170272 ], [ 401748.524923702934757, 3783837.131230925675482 ], [ 401748.219735503545962, 3783837.436419125180691 ], [ 401748.219735503545962, 3783837.741607324685901 ], [ 401747.914547304157168, 3783838.04679552372545 ], [ 401747.914547304157168, 3783838.65717192273587 ], [ 401747.609359104768373, 3783838.65717192273587 ], [ 401747.304170905379578, 3783838.96236012224108 ], [ 401746.998982705990784, 3783838.96236012224108 ] ] ] } },
{ "type": "Feature", "properties": { "confidence": 0.4415644109249115, "class": 1 }, "geometry": { "type": "Polygon", "coordinates": [ [ [ 401887.080366225854959, 3783990.335707019548863 ], [ 401885.859613428299781, 3783989.114954221993685 ], [ 401885.859613428299781, 3783988.809766022488475 ], [ 401885.554425228910986, 3783988.504577822983265 ], [ 401885.554425228910986, 3783988.199389623478055 ], [ 401885.859613428299781, 3783987.894201424438506 ], [ 401885.859613428299781, 3783987.283825025428087 ], [ 401886.46998982707737, 3783986.673448626883328 ], [ 401886.775178026466165, 3783986.673448626883328 ], [ 401888.911495422187727, 3783984.53713123081252 ], [ 401889.216683621576522, 3783984.53713123081252 ], [ 401889.521871820965316, 3783984.23194303130731 ], [ 401891.047812817909289, 3783984.23194303130731 ], [ 401891.047812817909289, 3783986.673448626883328 ], [ 401890.742624618520495, 3783986.978636825922877 ], [ 401890.742624618520495, 3783987.589013224933296 ], [ 401890.4374364191317, 3783987.894201424438506 ], [ 401890.4374364191317, 3783988.504577822983265 ], [ 401890.132248219742905, 3783988.809766022488475 ], [ 401890.132248219742905, 3783989.114954221993685 ], [ 401888.911495422187727, 3783990.335707019548863 ], [ 401887.080366225854959, 3783990.335707019548863 ] ] ] } },
{ "type": "Feature", "properties": { "confidence": 0.40336605906486511, "class": 1 }, "geometry": { "type": "Polygon", "coordinates": [ [ [ 401666.734486266504973, 3784140.488301118835807 ], [ 401666.429298067116179, 3784140.183112919796258 ], [ 401663.987792472005822, 3784140.183112919796258 ], [ 401663.377416073228233, 3784139.572736520785838 ], [ 401663.377416073228233, 3784139.267548321280628 ], [ 401663.072227873839438, 3784138.96236012224108 ], [ 401663.072227873839438, 3784137.741607324685901 ], [ 401663.377416073228233, 3784137.436419125180691 ], [ 401663.377416073228233, 3784136.826042726170272 ], [ 401663.682604272617027, 3784136.520854527130723 ], [ 401663.682604272617027, 3784136.215666327625513 ], [ 401664.292980671394616, 3784135.605289928615093 ], [ 401664.292980671394616, 3784135.300101729575545 ], [ 401664.598168870783411, 3784134.994913530070335 ], [ 401665.513733468949795, 3784134.994913530070335 ], [ 401666.124109867727384, 3784135.605289928615093 ], [ 401666.429298067116179, 3784135.605289928615093 ], [ 401666.734486266504973, 3784135.910478128120303 ], [ 401667.650050864671357, 3784135.910478128120303 ], [ 401667.955239064118359, 3784136.215666327625513 ], [ 401667.955239064118359, 3784136.520854527130723 ], [ 401668.260427263507154, 3784136.826042726170272 ], [ 401668.260427263507154, 3784138.65717192273587 ], [ 401667.955239064118359, 3784138.96236012224108 ], [ 401667.955239064118359, 3784140.183112919796258 ], [ 401667.650050864671357, 3784140.183112919796258 ], [ 401667.344862665282562, 3784140.488301118835807 ], [ 401666.734486266504973, 3784140.488301118835807 ] ] ] } },
{ "type": "Feature", "properties": { "confidence": 0.39687734842300415, "class": 1 }, "geometry": { "type": "Polygon", "coordinates": [ [ [ 401858.087487283803057, 3783928.992878941819072 ], [ 401857.782299084414262, 3783928.687690742779523 ], [ 401857.477110885025468, 3783928.687690742779523 ], [ 401857.477110885025468, 3783928.382502543274313 ], [ 401857.171922685636673, 3783928.077314343769103 ], [ 401857.171922685636673, 3783927.772126144263893 ], [ 401856.866734486247879, 3783927.466937945224345 ], [ 401856.866734486247879, 3783926.856561546213925 ], [ 401864.496439471025951, 3783926.856561546213925 ], [ 401864.496439471025951, 3783927.161749745719135 ], [ 401864.191251271637157, 3783927.466937945224345 ], [ 401864.191251271637157, 3783927.772126144263893 ], [ 401863.580874872859567, 3783928.382502543274313 ], [ 401863.275686673470773, 3783928.382502543274313 ], [ 401862.970498474081978, 3783928.687690742779523 ], [ 401862.665310274693184, 3783928.687690742779523 ], [ 401862.360122075304389, 3783928.992878941819072 ], [ 401858.087487283803057, 3783928.992878941819072 ] ] ] } },
{ "type": "Feature", "properties": { "confidence": 0.36145630478858948, "class": 1 }, "geometry": { "type": "Polygon", "coordinates": [ [ [ 401413.123092573776376, 3783701.627670396585017 ], [ 401412.817904374387581, 3783701.322482197545469 ], [ 401411.597151576832402, 3783701.322482197545469 ], [ 401411.597151576832402, 3783701.017293998040259 ], [ 401411.291963377443608, 3783700.712105798535049 ], [ 401410.681586978607811, 3783700.712105798535049 ], [ 401410.681586978607811, 3783700.406917599029839 ], [ 401410.376398779219016, 3783700.10172939999029 ], [ 401410.376398779219016, 3783699.186164801474661 ], [ 401410.681586978607811, 3783698.880976602435112 ], [ 401410.681586978607811, 3783698.270600203424692 ], [ 401410.376398779219016, 3783697.965412003919482 ], [ 401410.376398779219016, 3783697.660223804879934 ], [ 401409.460834181052633, 3783696.744659206364304 ], [ 401409.460834181052633, 3783696.439471007324755 ], [ 401410.071210579830222, 3783695.829094608314335 ], [ 401410.071210579830222, 3783695.218718209769577 ], [ 401410.376398779219016, 3783694.913530010264367 ], [ 401410.376398779219016, 3783694.303153611253947 ], [ 401410.986775178054813, 3783693.692777212709188 ], [ 401411.597151576832402, 3783693.692777212709188 ], [ 401411.902339776221197, 3783693.387589013203979 ], [ 401414.038657171942759, 3783693.387589013203979 ], [ 401414.343845371331554, 3783693.692777212709188 ], [ 401414.649033570720349, 3783693.692777212709188 ], [ 401414.649033570720349, 3783696.134282807819545 ], [ 401414.954221770109143, 3783696.439471007324755 ], [ 401415.259409969497938, 3783696.439471007324755 ], [ 401415.564598168886732, 3783696.744659206364304 ], [ 401415.869786368275527, 3783696.744659206364304 ], [ 401416.480162767053116, 3783697.355035605374724 ], [ 401416.480162767053116, 3783698.880976602435112 ], [ 401416.785350966441911, 3783699.186164801474661 ], [ 401416.785350966441911, 3783701.627670396585017 ], [ 401413.123092573776376, 3783701.627670396585017 ] ] ] } },
{ "type": "Feature", "properties": { "confidence": 0.35901707410812378, "class": 1 }, "geometry": { "type": "Polygon", "coordinates": [ [ [ 401785.147507629706524, 3784158.494404883123934 ], [ 401784.84231943031773, 3784158.189216683618724 ], [ 401784.537131230928935, 3784158.189216683618724 ], [ 401783.926754832151346, 3784157.578840285073966 ], [ 401783.926754832151346, 3784157.273652085568756 ], [ 401783.621566632762551, 3784156.968463886063546 ], [ 401783.621566632762551, 3784155.747711088508368 ], [ 401783.316378433373757, 3784155.442522889003158 ], [ 401783.316378433373757, 3784154.832146490458399 ], [ 401783.011190233984962, 3784154.526958290953189 ], [ 401783.011190233984962, 3784154.221770091447979 ], [ 401782.706002034596168, 3784153.916581891942769 ], [ 401782.706002034596168, 3784153.306205493398011 ], [ 401782.400813835207373, 3784153.001017293892801 ], [ 401782.400813835207373, 3784151.780264496337622 ], [ 401782.095625635818578, 3784151.475076296832412 ], [ 401782.095625635818578, 3784150.254323499277234 ], [ 401782.400813835207373, 3784149.949135300237685 ], [ 401782.400813835207373, 3784149.643947100732476 ], [ 401783.621566632762551, 3784148.423194303177297 ], [ 401784.231943031540141, 3784148.423194303177297 ], [ 401784.537131230928935, 3784148.118006103672087 ], [ 401785.452695829095319, 3784148.118006103672087 ], [ 401785.757884028484114, 3784148.423194303177297 ], [ 401786.063072227872908, 3784148.423194303177297 ], [ 401786.063072227872908, 3784149.033570701722056 ], [ 401786.368260427261703, 3784149.338758901227266 ], [ 401786.673448626650497, 3784149.338758901227266 ], [ 401786.673448626650497, 3784149.949135300237685 ], [ 401786.978636826039292, 3784150.254323499277234 ], [ 401786.978636826039292, 3784150.559511698782444 ], [ 401787.283825025428087, 3784150.864699898287654 ], [ 401787.283825025428087, 3784151.169888097792864 ], [ 401787.589013224816881, 3784151.475076296832412 ], [ 401787.589013224816881, 3784152.390640895348042 ], [ 401787.894201424205676, 3784152.695829094387591 ], [ 401787.894201424205676, 3784153.306205493398011 ], [ 401788.19938962359447, 3784153.611393692903221 ], [ 401788.19938962359447, 3784156.052899288013577 ], [ 401787.894201424205676, 3784156.358087487053126 ], [ 401787.894201424205676, 3784156.968463886063546 ], [ 401787.589013224816881, 3784157.273652085568756 ], [ 401787.589013224816881, 3784157.578840285073966 ], [ 401786.978636826039292, 3784158.189216683618724 ], [ 401786.063072227872908, 3784158.189216683618724 ], [ 401785.757884028484114, 3784158.494404883123934 ], [ 401785.147507629706524, 3784158.494404883123934 ] ] ] } },
{ "type": "Feature", "properties": { "confidence": 0.34563946723937988, "class": 1 }, "geometry": { "type": "Polygon", "coordinates": [ [ [ 401874.567650050856173, 3784015.97151576820761 ], [ 401874.262461851467378, 3784015.6663275687024 ], [ 401873.652085452689789, 3784015.6663275687024 ], [ 401873.0417090539122, 3784015.05595116969198 ], [ 401872.736520854523405, 3784015.05595116969198 ], [ 401872.736520854523405, 3784014.445574771147221 ], [ 401872.431332655134611, 3784014.140386571642011 ], [ 401872.736520854523405, 3784013.835198372136801 ], [ 401872.736520854523405, 3784012.919633774086833 ], [ 401873.0417090539122, 3784012.614445574581623 ], [ 401873.0417090539122, 3784012.309257375542074 ], [ 401873.652085452689789, 3784011.698880976531655 ], [ 401873.957273652078584, 3784011.698880976531655 ], [ 401875.178026449633762, 3784010.478128178976476 ], [ 401875.788402848411351, 3784010.478128178976476 ], [ 401876.093591047800146, 3784010.172939979471266 ], [ 401876.398779247188941, 3784010.172939979471266 ], [ 401876.703967446577735, 3784009.867751780431718 ], [ 401878.229908443521708, 3784009.867751780431718 ], [ 401878.229908443521708, 3784012.004069176036865 ], [ 401877.924720244132914, 3784012.309257375542074 ], [ 401877.924720244132914, 3784015.05595116969198 ], [ 401877.619532044744119, 3784015.36113936919719 ], [ 401877.619532044744119, 3784015.6663275687024 ], [ 401877.314343845355324, 3784015.6663275687024 ], [ 401877.00915564596653, 3784015.97151576820761 ], [ 401874.567650050856173, 3784015.97151576820761 ] ] ] } },
{ "type": "Feature", "properties": { "confidence": 0.34497159719467163, "class": 1 }, "geometry": { "type": "Polygon", "coordinates": [ [ [ 401693.896236012224108, 3783834.994913530070335 ], [ 401693.591047812835313, 3783834.689725330565125 ], [ 401693.591047812835313, 3783834.384537131059915 ], [ 401693.285859613446519, 3783834.079348932020366 ], [ 401693.285859613446519, 3783833.468972533009946 ], [ 401692.980671414057724, 3783833.163784333504736 ], [ 401692.980671414057724, 3783828.891149542294443 ], [ 401693.285859613446519, 3783828.585961342789233 ], [ 401693.285859613446519, 3783828.280773143284023 ], [ 401693.591047812835313, 3783827.975584944244474 ], [ 401693.591047812835313, 3783827.670396744739264 ], [ 401694.201424211612903, 3783827.060020345728844 ], [ 401694.201424211612903, 3783826.144455747678876 ], [ 401694.506612411001697, 3783825.839267548173666 ], [ 401694.506612411001697, 3783825.228891149628907 ], [ 401694.811800610390492, 3783824.923702950123698 ], [ 401695.116988809779286, 3783824.923702950123698 ], [ 401695.422177009168081, 3783824.618514750618488 ], [ 401696.03255340794567, 3783824.618514750618488 ], [ 401696.337741607334465, 3783824.313326551578939 ], [ 401697.558494404889643, 3783824.313326551578939 ], [ 401700.0, 3783826.754832146689296 ], [ 401700.0, 3783827.060020345728844 ], [ 401700.610376398777589, 3783827.670396744739264 ], [ 401700.610376398777589, 3783829.196337741799653 ], [ 401700.305188199388795, 3783829.501525940839201 ], [ 401700.305188199388795, 3783830.111902339849621 ], [ 401700.0, 3783830.417090539354831 ], [ 401700.0, 3783830.72227873839438 ], [ 401699.694811800611205, 3783831.02746693789959 ], [ 401699.694811800611205, 3783831.332655137404799 ], [ 401699.084435401833616, 3783831.943031535949558 ], [ 401699.084435401833616, 3783832.248219735454768 ], [ 401698.779247202444822, 3783832.248219735454768 ], [ 401698.474059003056027, 3783832.553407934959978 ], [ 401698.474059003056027, 3783832.858596134465188 ], [ 401697.253306205500849, 3783834.079348932020366 ], [ 401696.642929806723259, 3783834.079348932020366 ], [ 401696.337741607334465, 3783834.384537131059915 ], [ 401696.03255340794567, 3783834.384537131059915 ], [ 401695.727365208556876, 3783834.689725330565125 ], [ 401694.811800610390492, 3783834.689725330565125 ], [ 401694.506612411001697, 3783834.994913530070335 ], [ 401693.896236012224108, 3783834.994913530070335 ] ] ] } },
{ "type": "Feature", "properties": { "confidence": 0.33893480896949768, "class": 1 }, "geometry": { "type": "Polygon", "coordinates": [ [ [ 401759.816887080378365, 3783815.76805696869269 ], [ 401759.206510681600776, 3783815.15768056968227 ], [ 401758.901322482211981, 3783815.15768056968227 ], [ 401758.290946083434392, 3783814.547304171137512 ], [ 401758.290946083434392, 3783813.936927772127092 ], [ 401757.985757884045597, 3783813.631739572621882 ], [ 401757.985757884045597, 3783809.969481179956347 ], [ 401758.596134282823186, 3783809.359104781411588 ], [ 401758.596134282823186, 3783809.053916581906378 ], [ 401758.901322482211981, 3783808.748728382401168 ], [ 401759.206510681600776, 3783808.748728382401168 ], [ 401759.51169888098957, 3783808.443540182895958 ], [ 401761.953204476099927, 3783808.443540182895958 ], [ 401762.258392675488722, 3783808.748728382401168 ], [ 401762.868769074266311, 3783808.748728382401168 ], [ 401763.784333672432695, 3783809.664292980451137 ], [ 401764.089521871821489, 3783809.664292980451137 ], [ 401764.089521871821489, 3783809.969481179956347 ], [ 401764.699898270599078, 3783810.579857578966767 ], [ 401764.699898270599078, 3783811.495422177016735 ], [ 401765.005086469987873, 3783811.800610376521945 ], [ 401765.005086469987873, 3783812.105798575561494 ], [ 401764.699898270599078, 3783812.410986775066704 ], [ 401764.699898270599078, 3783813.326551373116672 ], [ 401764.394710071210284, 3783813.631739572621882 ], [ 401764.394710071210284, 3783814.242115971632302 ], [ 401763.173957273655105, 3783815.46286876918748 ], [ 401762.868769074266311, 3783815.46286876918748 ], [ 401762.563580874877516, 3783815.76805696869269 ], [ 401759.816887080378365, 3783815.76805696869269 ] ] ] } },
{ "type": "Feature", "properties": { "confidence": 0.32083499431610107, "class": 1 }, "geometry": { "type": "Polygon", "coordinates": [ [ [ 401412.512716174998786, 3783934.791454730555415 ], [ 401411.902339776221197, 3783934.181078331544995 ], [ 401411.902339776221197, 3783933.265513733495027 ], [ 401411.597151576832402, 3783932.960325533989817 ], [ 401411.597151576832402, 3783931.739572736434639 ], [ 401411.291963377443608, 3783931.434384536929429 ], [ 401411.291963377443608, 3783930.82400813838467 ], [ 401411.597151576832402, 3783930.51881993887946 ], [ 401411.597151576832402, 3783929.603255340829492 ], [ 401411.902339776221197, 3783929.298067141324282 ], [ 401411.902339776221197, 3783928.687690742779523 ], [ 401412.207527975609992, 3783928.382502543274313 ], [ 401412.207527975609992, 3783927.772126144263893 ], [ 401412.817904374387581, 3783927.772126144263893 ], [ 401413.123092573776376, 3783927.466937945224345 ], [ 401417.3957273652195, 3783927.466937945224345 ], [ 401417.700915564608295, 3783927.772126144263893 ], [ 401417.3957273652195, 3783928.077314343769103 ], [ 401417.3957273652195, 3783928.382502543274313 ], [ 401417.090539165830705, 3783928.687690742779523 ], [ 401417.090539165830705, 3783930.21363173937425 ], [ 401416.785350966441911, 3783930.51881993887946 ], [ 401416.785350966441911, 3783930.82400813838467 ], [ 401416.480162767053116, 3783931.12919633788988 ], [ 401416.480162767053116, 3783931.434384536929429 ], [ 401416.174974567664322, 3783931.739572736434639 ], [ 401416.174974567664322, 3783932.044760935939848 ], [ 401415.869786368275527, 3783932.044760935939848 ], [ 401415.564598168886732, 3783932.349949135445058 ], [ 401415.564598168886732, 3783933.265513733495027 ], [ 401415.259409969497938, 3783933.570701933000237 ], [ 401415.259409969497938, 3783933.875890132039785 ], [ 401414.649033570720349, 3783934.486266531050205 ], [ 401414.343845371331554, 3783934.486266531050205 ], [ 401414.038657171942759, 3783934.791454730555415 ], [ 401412.512716174998786, 3783934.791454730555415 ] ] ] } },
{ "type": "Feature", "properties": { "confidence": 0.30666440725326538, "class": 1 }, "geometry": { "type": "Polygon", "coordinates": [ [ [ 401831.536113936919719, 3783924.720244150608778 ], [ 401831.230925737530924, 3783924.415055951103568 ], [ 401831.230925737530924, 3783921.973550355993211 ], [ 401831.536113936919719, 3783921.668362156488001 ], [ 401831.536113936919719, 3783921.057985757943243 ], [ 401833.672431332641281, 3783918.921668362338096 ], [ 401834.587995930807665, 3783918.921668362338096 ], [ 401834.89318413019646, 3783919.226856561377645 ], [ 401835.198372329585254, 3783919.226856561377645 ], [ 401835.503560528974049, 3783919.532044760882854 ], [ 401835.503560528974049, 3783920.447609358932823 ], [ 401834.89318413019646, 3783921.057985757943243 ], [ 401834.89318413019646, 3783921.668362156488001 ], [ 401834.587995930807665, 3783921.973550355993211 ], [ 401834.587995930807665, 3783922.278738555498421 ], [ 401833.977619532030076, 3783922.88911495404318 ], [ 401833.977619532030076, 3783923.19430315354839 ], [ 401833.672431332641281, 3783923.4994913530536 ], [ 401833.062054933863692, 3783923.4994913530536 ], [ 401831.841302136308514, 3783924.720244150608778 ], [ 401831.536113936919719, 3783924.720244150608778 ] ] ] } },
{ "type": "Feature", "properties": { "confidence": 0.28565999865531921, "class": 1 }, "geometry": { "type": "Polygon", "coordinates": [ [ [ 401821.159715157700703, 3783973.245167853310704 ], [ 401820.854526958311908, 3783972.939979654271156 ], [ 401820.244150559534319, 3783972.939979654271156 ], [ 401819.938962360145524, 3783972.634791454765946 ], [ 401819.63377416075673, 3783972.634791454765946 ], [ 401819.328585961367935, 3783972.329603255260736 ], [ 401819.328585961367935, 3783972.024415055755526 ], [ 401818.718209562590346, 3783971.414038657210767 ], [ 401818.718209562590346, 3783970.193285859655589 ], [ 401819.328585961367935, 3783969.582909460645169 ], [ 401819.63377416075673, 3783969.582909460645169 ], [ 401819.938962360145524, 3783969.27772126160562 ], [ 401820.244150559534319, 3783969.27772126160562 ], [ 401820.549338758923113, 3783968.97253306210041 ], [ 401821.464903357089497, 3783968.97253306210041 ], [ 401821.770091556478292, 3783968.667344862595201 ], [ 401822.685656154644676, 3783968.667344862595201 ], [ 401822.99084435403347, 3783968.362156663089991 ], [ 401824.211597151588649, 3783968.362156663089991 ], [ 401824.211597151588649, 3783970.803662258200347 ], [ 401823.601220752811059, 3783971.414038657210767 ], [ 401823.601220752811059, 3783971.719226856715977 ], [ 401822.685656154644676, 3783972.634791454765946 ], [ 401822.380467955255881, 3783972.634791454765946 ], [ 401822.075279755867086, 3783972.939979654271156 ], [ 401821.464903357089497, 3783972.939979654271156 ], [ 401821.159715157700703, 3783973.245167853310704 ] ] ] } },
{ "type": "Feature", "properties": { "confidence": 0.26209685206413269, "class": 1 }, "geometry": { "type": "Polygon", "coordinates": [ [ [ 401408.545269582886249, 3784139.877924720291048 ], [ 401407.629704984719865, 3784138.96236012224108 ], [ 401407.629704984719865, 3784138.04679552372545 ], [ 401407.93489318410866, 3784137.741607324685901 ], [ 401407.93489318410866, 3784135.910478128120303 ], [ 401408.240081383497454, 3784135.605289928615093 ], [ 401408.240081383497454, 3784134.689725330565125 ], [ 401408.545269582886249, 3784134.384537131059915 ], [ 401408.545269582886249, 3784133.774160732515156 ], [ 401408.850457782275043, 3784133.468972533009946 ], [ 401408.850457782275043, 3784132.858596134465188 ], [ 401409.155645981663838, 3784132.553407934959978 ], [ 401409.155645981663838, 3784131.637843336910009 ], [ 401409.766022380441427, 3784131.637843336910009 ], [ 401410.681586978607811, 3784132.553407934959978 ], [ 401410.986775178054813, 3784132.553407934959978 ], [ 401411.597151576832402, 3784133.163784333504736 ], [ 401411.902339776221197, 3784133.163784333504736 ], [ 401411.902339776221197, 3784133.468972533009946 ], [ 401412.207527975609992, 3784133.774160732515156 ], [ 401412.512716174998786, 3784133.774160732515156 ], [ 401412.512716174998786, 3784134.079348932020366 ], [ 401412.817904374387581, 3784134.384537131059915 ], [ 401413.123092573776376, 3784134.384537131059915 ], [ 401413.123092573776376, 3784134.689725330565125 ], [ 401413.42828077316517, 3784134.994913530070335 ], [ 401413.42828077316517, 3784137.741607324685901 ], [ 401412.817904374387581, 3784138.35198372323066 ], [ 401412.512716174998786, 3784138.35198372323066 ], [ 401411.597151576832402, 3784139.267548321280628 ], [ 401410.986775178054813, 3784139.267548321280628 ], [ 401410.681586978607811, 3784139.572736520785838 ], [ 401410.376398779219016, 3784139.572736520785838 ], [ 401410.071210579830222, 3784139.877924720291048 ], [ 401408.545269582886249, 3784139.877924720291048 ] ] ] } },
{ "type": "Feature", "properties": { "confidence": 0.25688579678535461, "class": 1 }, "geometry": { "type": "Polygon", "coordinates": [ [ [ 401432.960325534106232, 3783818.514750762842596 ], [ 401432.655137334717438, 3783818.209562563803047 ], [ 401432.655137334717438, 3783817.904374364297837 ], [ 401432.349949135328643, 3783817.599186164792627 ], [ 401432.349949135328643, 3783816.988809766247869 ], [ 401432.044760935881641, 3783816.683621566742659 ], [ 401432.044760935881641, 3783815.76805696869269 ], [ 401431.739572736492846, 3783815.46286876918748 ], [ 401431.739572736492846, 3783814.85249237017706 ], [ 401431.434384537104052, 3783814.547304171137512 ], [ 401431.434384537104052, 3783811.495422177016735 ], [ 401431.129196337715257, 3783811.190233977511525 ], [ 401431.129196337715257, 3783810.274669379461557 ], [ 401432.044760935881641, 3783810.274669379461557 ], [ 401432.349949135328643, 3783809.969481179956347 ], [ 401432.349949135328643, 3783809.664292980451137 ], [ 401439.064089521882124, 3783809.664292980451137 ], [ 401439.064089521882124, 3783809.969481179956347 ], [ 401439.369277721270919, 3783810.274669379461557 ], [ 401439.369277721270919, 3783811.495422177016735 ], [ 401439.064089521882124, 3783811.800610376521945 ], [ 401439.064089521882124, 3783814.242115971632302 ], [ 401438.75890132249333, 3783814.547304171137512 ], [ 401438.75890132249333, 3783814.85249237017706 ], [ 401437.843336724326946, 3783815.76805696869269 ], [ 401437.843336724326946, 3783816.073245167732239 ], [ 401437.232960325549357, 3783816.683621566742659 ], [ 401437.232960325549357, 3783817.293997965287417 ], [ 401436.317395727382973, 3783818.209562563803047 ], [ 401436.012207527994178, 3783818.209562563803047 ], [ 401435.707019328605384, 3783818.514750762842596 ], [ 401432.960325534106232, 3783818.514750762842596 ] ] ] } }
]
}
