{
"type": "FeatureCollection",
"name": "cell_00137_pre",
"crs": { "type": "name", "properties": { "name": "urn:ogc:def:crs:EPSG::32611" } },
"features": [
{ "type": "Feature", "properties": { "confidence": 0.99018573760986328, "class": 1 }, "geometry": { "type": "Polygon", "coordinates": [ [ [ 354127.873855544254184, 3771644.862665310502052 ], [ 354127.568667344865389, 3771644.557477110996842 ], [ 354126.9582909460878, 3771644.557477110996842 ], [ 354126.653102746699005, 3771644.252288911491632 ], [ 354126.347914547310211, 3771644.252288911491632 ], [ 354126.042726347921416, 3771643.947100711986423 ], [ 354125.737538148532622, 3771643.947100711986423 ], [ 354125.432349949143827, 3771643.641912512946874 ], [ 354125.127161749755032, 3771643.641912512946874 ], [ 354124.516785350977443, 3771643.031536113936454 ], [ 354124.211597151588649, 3771643.031536113936454 ], [ 354123.906408952199854, 3771642.726347914431244 ], [ 354123.601220752811059, 3771642.726347914431244 ], [ 354123.601220752811059, 3771642.421159714926034 ], [ 354123.296032553422265, 3771642.115971515886486 ], [ 354122.99084435403347, 3771642.115971515886486 ], [ 354121.770091556478292, 3771640.895218718331307 ], [ 354121.770091556478292, 3771640.590030518826097 ], [ 354121.464903357089497, 3771640.284842319320887 ], [ 354121.159715157700703, 3771640.284842319320887 ], [ 354121.159715157700703, 3771639.979654119815677 ], [ 354120.854526958311908, 3771639.674465920776129 ], [ 354120.854526958311908, 3771639.369277721270919 ], [ 354120.549338758923113, 3771639.064089521765709 ], [ 354120.549338758923113, 3771638.14852492371574 ], [ 354121.159715157700703, 3771637.538148524705321 ], [ 354121.464903357089497, 3771637.538148524705321 ], [ 354121.770091556478292, 3771637.232960325665772 ], [ 354122.075279755867086, 3771637.232960325665772 ], [ 354122.380467955255881, 3771636.927772126160562 ], [ 354124.211597151588649, 3771636.927772126160562 ], [ 354125.737538148532622, 3771638.45371312322095 ], [ 354126.042726347921416, 3771638.45371312322095 ], [ 354126.042726347921416, 3771638.758901322260499 ], [ 354127.263479145476595, 3771639.979654119815677 ], [ 354127.568667344865389, 3771639.979654119815677 ], [ 354129.094608341809362, 3771641.505595116876066 ], [ 354129.094608341809362, 3771642.115971515886486 ], [ 354129.399796541198157, 3771642.421159714926034 ], [ 354129.399796541198157, 3771644.557477110996842 ], [ 354128.789420142420568, 3771644.557477110996842 ], [ 354128.484231943031773, 3771644.862665310502052 ], [ 354127.873855544254184, 3771644.862665310502052 ] ] ] } },
{ "type": "Feature", "properties": { "confidence": 0.78780847787857056, "class": 1 }, "geometry": { "type": "Polygon", "coordinates": [ [ [ 354159.003051881969441, 3771671.719226856715977 ], [ 354158.697863682580646, 3771671.414038657210767 ], [ 354157.782299084414262, 3771671.414038657210767 ], [ 354157.477110885025468, 3771671.108850457705557 ], [ 354156.561546286859084, 3771671.108850457705557 ], [ 354155.6459816886927, 3771670.193285859655589 ], [ 354155.6459816886927, 3771669.888097660150379 ], [ 354155.340793489303906, 3771669.582909460645169 ], [ 354155.340793489303906, 3771669.27772126160562 ], [ 354154.730417090526316, 3771668.667344862595201 ], [ 354154.730417090526316, 3771668.056968464050442 ], [ 354154.425228891137522, 3771667.751780264545232 ], [ 354154.425228891137522, 3771667.141403865534812 ], [ 354153.814852492359933, 3771666.531027466990054 ], [ 354153.814852492359933, 3771664.394710071384907 ], [ 354154.120040691748727, 3771664.394710071384907 ], [ 354154.425228891137522, 3771664.089521871879697 ], [ 354158.392675483191852, 3771664.089521871879697 ], [ 354158.697863682580646, 3771664.394710071384907 ], [ 354159.308240081358235, 3771664.394710071384907 ], [ 354159.61342828074703, 3771664.699898270424455 ], [ 354160.834181078360416, 3771664.699898270424455 ], [ 354161.444557477138005, 3771665.310274669434875 ], [ 354161.139369277749211, 3771665.615462868940085 ], [ 354161.139369277749211, 3771666.836215666495264 ], [ 354160.834181078360416, 3771667.141403865534812 ], [ 354160.834181078360416, 3771667.751780264545232 ], [ 354160.528992878913414, 3771668.056968464050442 ], [ 354160.528992878913414, 3771669.888097660150379 ], [ 354160.834181078360416, 3771670.193285859655589 ], [ 354160.528992878913414, 3771670.498474059160799 ], [ 354160.528992878913414, 3771671.108850457705557 ], [ 354159.918616480135825, 3771671.719226856715977 ], [ 354159.003051881969441, 3771671.719226856715977 ] ] ] } },
{ "type": "Feature", "properties": { "confidence": 0.7363969087600708, "class": 1 }, "geometry": { "type": "Polygon", "coordinates": [ [ [ 354367.141403865709435, 3772048.016276704147458 ], [ 354366.225839267543051, 3772047.100712105631828 ], [ 354366.225839267543051, 3772046.79552390659228 ], [ 354365.920651068154257, 3772046.49033570708707 ], [ 354365.615462868765462, 3772046.49033570708707 ], [ 354365.310274669376668, 3772046.18514750758186 ], [ 354365.005086469987873, 3772046.18514750758186 ], [ 354364.699898270599078, 3772045.87995930807665 ], [ 354364.699898270599078, 3772045.574771109037101 ], [ 354364.394710071210284, 3772045.269582909531891 ], [ 354364.394710071210284, 3772044.048830111976713 ], [ 354373.550356052874122, 3772044.048830111976713 ], [ 354373.550356052874122, 3772044.964394710026681 ], [ 354373.245167853485327, 3772045.269582909531891 ], [ 354373.245167853485327, 3772045.87995930807665 ], [ 354372.939979654096533, 3772046.18514750758186 ], [ 354372.024415055930149, 3772046.18514750758186 ], [ 354371.719226856541354, 3772046.49033570708707 ], [ 354370.80366225837497, 3772046.49033570708707 ], [ 354370.193285859597381, 3772047.100712105631828 ], [ 354369.888097660208587, 3772047.100712105631828 ], [ 354369.582909460819792, 3772047.405900305137038 ], [ 354369.277721261430997, 3772047.405900305137038 ], [ 354368.972533062042203, 3772047.711088504642248 ], [ 354368.362156663264614, 3772047.711088504642248 ], [ 354368.056968463875819, 3772048.016276704147458 ], [ 354367.141403865709435, 3772048.016276704147458 ] ] ] } },
{ "type": "Feature", "properties": { "confidence": 0.53946918249130249, "class": 1 }, "geometry": { "type": "Polygon", "coordinates": [ [ [ 354375.686673448653892, 3771936.012207528110594 ], [ 354375.381485249265097, 3771935.707019328605384 ], [ 354374.465920651040506, 3771935.707019328605384 ], [ 354374.160732451651711, 3771935.401831129100174 ], [ 354373.245167853485327, 3771935.401831129100174 ], [ 354372.939979654096533, 3771935.096642929594964 ], [ 354372.939979654096533, 3771934.791454730555415 ], [ 354371.108850457763765, 3771932.960325533989817 ], [ 354371.108850457763765, 3771932.655137334484607 ], [ 354370.80366225837497, 3771932.349949135445058 ], [ 354370.80366225837497, 3771930.82400813838467 ], [ 354371.41403865715256, 3771930.21363173937425 ], [ 354373.550356052874122, 3771930.21363173937425 ], [ 354373.855544252262916, 3771930.51881993887946 ], [ 354374.160732451651711, 3771930.51881993887946 ], [ 354375.076297049876302, 3771931.434384536929429 ], [ 354375.381485249265097, 3771931.434384536929429 ], [ 354376.602238046820275, 3771932.655137334484607 ], [ 354376.90742624620907, 3771932.655137334484607 ], [ 354376.90742624620907, 3771932.960325533989817 ], [ 354377.517802644986659, 3771933.570701933000237 ], [ 354377.517802644986659, 3771934.181078331544995 ], [ 354377.822990844375454, 3771934.486266531050205 ], [ 354377.822990844375454, 3771935.096642929594964 ], [ 354377.517802644986659, 3771935.401831129100174 ], [ 354377.212614445597865, 3771935.401831129100174 ], [ 354376.90742624620907, 3771935.707019328605384 ], [ 354376.602238046820275, 3771935.707019328605384 ], [ 354376.297049847431481, 3771936.012207528110594 ], [ 354375.686673448653892, 3771936.012207528110594 ] ] ] } },
{ "type": "Feature", "properties": { "confidence": 0.43782591819763184, "class": 1 }, "geometry": { "type": "Polygon", "coordinates": [ [ [ 354260.630722278729081, 3771681.180061037652194 ], [ 354260.325534079340287, 3771680.874872838146985 ], [ 354259.715157680562697, 3771680.874872838146985 ], [ 354259.409969481173903, 3771680.569684638641775 ], [ 354259.104781281785108, 3771680.569684638641775 ], [ 354258.799593082396314, 3771680.264496439602226 ], [ 354258.494404883007519, 3771680.264496439602226 ], [ 354257.273652085452341, 3771679.043743642047048 ], [ 354256.968463886063546, 3771679.043743642047048 ], [ 354256.968463886063546, 3771678.738555442541838 ], [ 354256.358087487285957, 3771678.128179043531418 ], [ 354256.358087487285957, 3771677.822990844491869 ], [ 354256.052899287897162, 3771677.517802644986659 ], [ 354256.052899287897162, 3771677.212614445481449 ], [ 354255.747711088508368, 3771676.907426245976239 ], [ 354255.747711088508368, 3771676.602238046936691 ], [ 354255.442522889119573, 3771676.297049847431481 ], [ 354255.442522889119573, 3771675.076297049876302 ], [ 354255.137334689730778, 3771674.771108850371093 ], [ 354255.137334689730778, 3771674.465920650865883 ], [ 354255.442522889119573, 3771674.160732451826334 ], [ 354255.442522889119573, 3771673.245167853310704 ], [ 354255.747711088508368, 3771673.245167853310704 ], [ 354256.052899287897162, 3771672.939979654271156 ], [ 354257.578840284841135, 3771672.939979654271156 ], [ 354257.88402848422993, 3771673.245167853310704 ], [ 354259.104781281785108, 3771673.245167853310704 ], [ 354259.409969481173903, 3771672.939979654271156 ], [ 354260.020345879951492, 3771672.939979654271156 ], [ 354260.630722278729081, 3771672.329603255260736 ], [ 354261.85147507628426, 3771672.329603255260736 ], [ 354262.156663275673054, 3771672.634791454765946 ], [ 354262.461851475061849, 3771672.634791454765946 ], [ 354262.461851475061849, 3771672.939979654271156 ], [ 354262.767039674450643, 3771673.245167853310704 ], [ 354262.767039674450643, 3771675.381485249381512 ], [ 354262.461851475061849, 3771675.686673448421061 ], [ 354262.461851475061849, 3771676.907426245976239 ], [ 354262.156663275673054, 3771677.212614445481449 ], [ 354262.156663275673054, 3771678.433367243036628 ], [ 354261.85147507628426, 3771678.738555442541838 ], [ 354261.85147507628426, 3771679.043743642047048 ], [ 354261.546286876895465, 3771679.348931841086596 ], [ 354261.546286876895465, 3771680.569684638641775 ], [ 354261.24109867750667, 3771680.874872838146985 ], [ 354260.935910478117876, 3771680.874872838146985 ], [ 354260.630722278729081, 3771681.180061037652194 ] ] ] } }
]
}
