{
"type": "FeatureCollection",
"name": "cell_00497_pre",
"crs": { "type": "name", "properties": { "name": "urn:ogc:def:crs:EPSG::32611" } },
"features": [
{ "type": "Feature", "properties": { "confidence": 0.9845041036605835, "class": 1 }, "geometry": { "type": "Polygon", "coordinates": [ [ [ 402454.425228891137522, 3782760.427263479214162 ], [ 402454.120040691748727, 3782760.122075279708952 ], [ 402453.509664292971138, 3782760.122075279708952 ], [ 402453.204476093582343, 3782759.816887080203742 ], [ 402452.899287894193549, 3782759.816887080203742 ], [ 402452.28891149541596, 3782759.206510681658983 ], [ 402451.983723296027165, 3782759.206510681658983 ], [ 402451.373346897249576, 3782758.596134282648563 ], [ 402451.373346897249576, 3782758.290946083609015 ], [ 402450.152594099694397, 3782757.070193286053836 ], [ 402450.152594099694397, 3782756.765005086548626 ], [ 402449.847405900305603, 3782756.459816887043417 ], [ 402449.847405900305603, 3782756.154628687538207 ], [ 402449.542217700916808, 3782755.849440488498658 ], [ 402449.542217700916808, 3782754.32349949143827 ], [ 402449.847405900305603, 3782754.01831129193306 ], [ 402451.983723296027165, 3782754.01831129193306 ], [ 402452.28891149541596, 3782753.71312309242785 ], [ 402453.204476093582343, 3782753.71312309242785 ], [ 402453.814852492359933, 3782754.32349949143827 ], [ 402453.814852492359933, 3782754.62868769094348 ], [ 402455.035605289915111, 3782755.849440488498658 ], [ 402455.340793489303906, 3782755.849440488498658 ], [ 402455.6459816886927, 3782756.154628687538207 ], [ 402455.951169888081495, 3782756.154628687538207 ], [ 402456.561546286859084, 3782756.765005086548626 ], [ 402456.561546286859084, 3782759.511698881164193 ], [ 402456.256358087470289, 3782759.511698881164193 ], [ 402455.6459816886927, 3782760.122075279708952 ], [ 402455.340793489303906, 3782760.122075279708952 ], [ 402455.035605289915111, 3782760.427263479214162 ], [ 402454.425228891137522, 3782760.427263479214162 ] ] ] } },
{ "type": "Feature", "properties": { "confidence": 0.86690211296081543, "class": 1 }, "geometry": { "type": "Polygon", "coordinates": [ [ [ 402011.597151576832402, 3782504.679552390705794 ], [ 402010.681586978607811, 3782503.763987792655826 ], [ 402010.681586978607811, 3782503.153611393645406 ], [ 402010.376398779219016, 3782502.848423194140196 ], [ 402010.376398779219016, 3782500.10172939999029 ], [ 402010.681586978607811, 3782499.79654120048508 ], [ 402010.681586978607811, 3782499.186164801474661 ], [ 402010.986775178054813, 3782498.880976602435112 ], [ 402010.986775178054813, 3782498.575788402929902 ], [ 402012.512716174998786, 3782497.049847405869514 ], [ 402013.733468972553965, 3782497.049847405869514 ], [ 402014.038657171942759, 3782497.355035605374724 ], [ 402014.343845371331554, 3782497.355035605374724 ], [ 402014.649033570720349, 3782497.660223804879934 ], [ 402014.954221770109143, 3782497.660223804879934 ], [ 402015.564598168886732, 3782498.270600203424692 ], [ 402015.869786368275527, 3782498.270600203424692 ], [ 402016.174974567664322, 3782498.575788402929902 ], [ 402016.174974567664322, 3782499.186164801474661 ], [ 402016.480162767053116, 3782499.491353000979871 ], [ 402016.480162767053116, 3782499.79654120048508 ], [ 402016.174974567664322, 3782500.10172939999029 ], [ 402016.174974567664322, 3782501.932858596090227 ], [ 402015.869786368275527, 3782502.238046795595437 ], [ 402015.869786368275527, 3782502.543234995100647 ], [ 402014.954221770109143, 3782503.458799593150616 ], [ 402014.649033570720349, 3782503.458799593150616 ], [ 402014.038657171942759, 3782504.069175991695374 ], [ 402013.733468972553965, 3782504.069175991695374 ], [ 402013.123092573776376, 3782504.679552390705794 ], [ 402011.597151576832402, 3782504.679552390705794 ] ] ] } },
{ "type": "Feature", "properties": { "confidence": 0.86418718099594116, "class": 1 }, "geometry": { "type": "Polygon", "coordinates": [ [ [ 402226.754832146514673, 3782523.906408952083439 ], [ 402226.449643947125878, 3782523.601220752578229 ], [ 402226.144455747737084, 3782523.601220752578229 ], [ 402225.534079348959494, 3782522.99084435403347 ], [ 402225.534079348959494, 3782520.549338758923113 ], [ 402226.449643947125878, 3782519.633774160873145 ], [ 402226.754832146514673, 3782519.633774160873145 ], [ 402227.060020345903467, 3782519.328585961367935 ], [ 402227.365208545292262, 3782519.328585961367935 ], [ 402227.670396744681057, 3782519.023397761862725 ], [ 402228.891149542236235, 3782519.023397761862725 ], [ 402229.19633774162503, 3782518.718209562357515 ], [ 402229.501525941013824, 3782518.718209562357515 ], [ 402229.806714140402619, 3782518.413021363317966 ], [ 402230.417090539180208, 3782518.413021363317966 ], [ 402230.417090539180208, 3782520.854526958428323 ], [ 402230.111902339791413, 3782521.159715157467872 ], [ 402230.111902339791413, 3782521.770091556478292 ], [ 402229.806714140402619, 3782522.075279755983502 ], [ 402229.806714140402619, 3782522.38046795502305 ], [ 402228.58596134284744, 3782523.601220752578229 ], [ 402228.280773143458646, 3782523.601220752578229 ], [ 402227.975584944069851, 3782523.906408952083439 ], [ 402226.754832146514673, 3782523.906408952083439 ] ] ] } },
{ "type": "Feature", "properties": { "confidence": 0.65398436784744263, "class": 1 }, "geometry": { "type": "Polygon", "coordinates": [ [ [ 402393.082400813815184, 3782757.070193286053836 ], [ 402393.082400813815184, 3782756.765005086548626 ], [ 402392.777212614426389, 3782756.459816887043417 ], [ 402392.472024415037595, 3782756.459816887043417 ], [ 402392.1668362156488, 3782756.154628687538207 ], [ 402392.1668362156488, 3782754.62868769094348 ], [ 402392.472024415037595, 3782754.32349949143827 ], [ 402392.472024415037595, 3782753.71312309242785 ], [ 402393.082400813815184, 3782753.102746693883091 ], [ 402393.387589013203979, 3782753.102746693883091 ], [ 402393.997965411981568, 3782752.492370294872671 ], [ 402394.608341810759157, 3782752.492370294872671 ], [ 402394.913530010147952, 3782752.187182095833123 ], [ 402395.218718209536746, 3782752.187182095833123 ], [ 402395.523906408925541, 3782751.881993896327913 ], [ 402396.439471007150132, 3782751.881993896327913 ], [ 402396.744659206538927, 3782751.576805696822703 ], [ 402397.965412004094105, 3782751.576805696822703 ], [ 402398.2706002034829, 3782751.271617497317493 ], [ 402398.880976602260489, 3782751.271617497317493 ], [ 402399.491353001038078, 3782751.881993896327913 ], [ 402399.491353001038078, 3782752.797558494377881 ], [ 402398.880976602260489, 3782753.407934893388301 ], [ 402398.575788402871694, 3782753.407934893388301 ], [ 402398.2706002034829, 3782753.71312309242785 ], [ 402397.965412004094105, 3782753.71312309242785 ], [ 402397.355035605316516, 3782754.32349949143827 ], [ 402397.049847405927721, 3782754.32349949143827 ], [ 402396.744659206538927, 3782754.62868769094348 ], [ 402396.439471007150132, 3782754.62868769094348 ], [ 402395.829094608314335, 3782755.239064089488238 ], [ 402395.523906408925541, 3782755.239064089488238 ], [ 402393.692777212592773, 3782757.070193286053836 ], [ 402393.082400813815184, 3782757.070193286053836 ] ] ] } },
{ "type": "Feature", "properties": { "confidence": 0.64473944902420044, "class": 1 }, "geometry": { "type": "Polygon", "coordinates": [ [ [ 402387.894201424205676, 3782530.010172939859331 ], [ 402387.589013224816881, 3782529.704984740819782 ], [ 402386.673448626650497, 3782529.704984740819782 ], [ 402386.063072227872908, 3782529.094608341809362 ], [ 402386.063072227872908, 3782528.789420142304152 ], [ 402385.757884028484114, 3782528.484231942798942 ], [ 402385.757884028484114, 3782528.179043743759394 ], [ 402385.452695829095319, 3782527.873855544254184 ], [ 402385.452695829095319, 3782526.958290946204215 ], [ 402385.147507629706524, 3782526.653102746699005 ], [ 402385.147507629706524, 3782526.042726347688586 ], [ 402384.84231943031773, 3782525.737538148649037 ], [ 402384.84231943031773, 3782525.127161749638617 ], [ 402384.537131230928935, 3782524.821973550133407 ], [ 402384.537131230928935, 3782523.601220752578229 ], [ 402384.231943031540141, 3782523.29603255353868 ], [ 402384.231943031540141, 3782522.38046795502305 ], [ 402384.537131230928935, 3782522.38046795502305 ], [ 402384.84231943031773, 3782522.075279755983502 ], [ 402384.84231943031773, 3782521.770091556478292 ], [ 402385.757884028484114, 3782521.770091556478292 ], [ 402386.063072227872908, 3782521.464903356973082 ], [ 402386.673448626650497, 3782521.464903356973082 ], [ 402386.978636826039292, 3782521.159715157467872 ], [ 402386.978636826039292, 3782521.464903356973082 ], [ 402387.283825025428087, 3782521.770091556478292 ], [ 402387.894201424205676, 3782521.770091556478292 ], [ 402387.894201424205676, 3782522.075279755983502 ], [ 402388.19938962359447, 3782522.38046795502305 ], [ 402388.19938962359447, 3782522.99084435403347 ], [ 402388.80976602237206, 3782523.601220752578229 ], [ 402388.80976602237206, 3782523.906408952083439 ], [ 402389.114954221760854, 3782524.211597151588649 ], [ 402389.114954221760854, 3782524.516785351093858 ], [ 402389.420142421149649, 3782524.821973550133407 ], [ 402389.725330620538443, 3782524.821973550133407 ], [ 402389.725330620538443, 3782525.127161749638617 ], [ 402390.030518819927238, 3782525.432349949143827 ], [ 402390.335707019316033, 3782525.432349949143827 ], [ 402390.335707019316033, 3782529.399796541314572 ], [ 402389.725330620538443, 3782529.399796541314572 ], [ 402389.420142421149649, 3782529.704984740819782 ], [ 402388.504577822983265, 3782529.704984740819782 ], [ 402388.19938962359447, 3782530.010172939859331 ], [ 402387.894201424205676, 3782530.010172939859331 ] ] ] } },
{ "type": "Feature", "properties": { "confidence": 0.60153466463088989, "class": 1 }, "geometry": { "type": "Polygon", "coordinates": [ [ [ 402273.448626653116662, 3782681.078331637661904 ], [ 402273.143438453727867, 3782680.773143438622355 ], [ 402273.143438453727867, 3782680.162767039611936 ], [ 402273.448626653116662, 3782679.857578840106726 ], [ 402273.448626653116662, 3782678.942014242056757 ], [ 402273.753814852505457, 3782678.636826042551547 ], [ 402273.753814852505457, 3782678.331637843511999 ], [ 402274.059003051894251, 3782678.331637843511999 ], [ 402274.364191251283046, 3782678.026449644006789 ], [ 402274.66937945067184, 3782678.026449644006789 ], [ 402275.27975584944943, 3782677.416073244996369 ], [ 402277.721261444559786, 3782677.416073244996369 ], [ 402278.331637843337376, 3782678.026449644006789 ], [ 402278.331637843337376, 3782678.331637843511999 ], [ 402277.721261444559786, 3782678.942014242056757 ], [ 402277.416073245170992, 3782678.942014242056757 ], [ 402276.805696846393403, 3782679.552390641067177 ], [ 402276.500508647004608, 3782679.552390641067177 ], [ 402275.584944048838224, 3782680.467955239117146 ], [ 402275.27975584944943, 3782680.467955239117146 ], [ 402274.974567650060635, 3782680.773143438622355 ], [ 402274.364191251283046, 3782680.773143438622355 ], [ 402274.059003051894251, 3782681.078331637661904 ], [ 402273.448626653116662, 3782681.078331637661904 ] ] ] } },
{ "type": "Feature", "properties": { "confidence": 0.59070450067520142, "class": 1 }, "geometry": { "type": "Polygon", "coordinates": [ [ [ 402119.02339776197914, 3782451.576805696822703 ], [ 402118.718209562590346, 3782451.271617497317493 ], [ 402118.413021363201551, 3782451.271617497317493 ], [ 402117.49745676497696, 3782450.356052899267524 ], [ 402117.192268565588165, 3782450.356052899267524 ], [ 402117.192268565588165, 3782446.388606307096779 ], [ 402117.49745676497696, 3782446.388606307096779 ], [ 402118.107833163812757, 3782445.778229908552021 ], [ 402118.107833163812757, 3782445.167853509541601 ], [ 402118.413021363201551, 3782444.862665310502052 ], [ 402118.413021363201551, 3782444.557477110996842 ], [ 402118.718209562590346, 3782444.252288911491632 ], [ 402119.63377416075673, 3782444.252288911491632 ], [ 402120.549338758923113, 3782445.167853509541601 ], [ 402120.854526958311908, 3782445.167853509541601 ], [ 402121.464903357089497, 3782445.778229908552021 ], [ 402121.464903357089497, 3782446.388606307096779 ], [ 402121.770091556478292, 3782446.693794506601989 ], [ 402121.770091556478292, 3782450.356052899267524 ], [ 402121.464903357089497, 3782450.661241098772734 ], [ 402121.464903357089497, 3782450.966429298277944 ], [ 402121.159715157700703, 3782450.966429298277944 ], [ 402120.854526958311908, 3782451.271617497317493 ], [ 402119.63377416075673, 3782451.271617497317493 ], [ 402119.328585961367935, 3782451.576805696822703 ], [ 402119.02339776197914, 3782451.576805696822703 ] ] ] } },
{ "type": "Feature", "properties": { "confidence": 0.57623088359832764, "class": 1 }, "geometry": { "type": "Polygon", "coordinates": [ [ [ 402245.066124109842349, 3782611.800610376521945 ], [ 402244.760935910453554, 3782611.495422177016735 ], [ 402244.45574771106476, 3782611.495422177016735 ], [ 402243.540183112898376, 3782610.579857578966767 ], [ 402243.84537131228717, 3782610.274669379461557 ], [ 402244.150559511675965, 3782610.274669379461557 ], [ 402244.45574771106476, 3782609.969481179956347 ], [ 402244.45574771106476, 3782609.664292980451137 ], [ 402251.169888097676449, 3782609.664292980451137 ], [ 402251.169888097676449, 3782610.274669379461557 ], [ 402250.864699898287654, 3782610.579857578966767 ], [ 402250.559511698898859, 3782610.579857578966767 ], [ 402250.254323499510065, 3782610.885045778006315 ], [ 402249.338758901343681, 3782610.885045778006315 ], [ 402249.033570701954886, 3782611.190233977511525 ], [ 402247.507629705010913, 3782611.190233977511525 ], [ 402247.202441505622119, 3782611.495422177016735 ], [ 402246.286876907397527, 3782611.495422177016735 ], [ 402245.981688708008733, 3782611.800610376521945 ], [ 402245.066124109842349, 3782611.800610376521945 ] ] ] } },
{ "type": "Feature", "properties": { "confidence": 0.54030799865722656, "class": 1 }, "geometry": { "type": "Polygon", "coordinates": [ [ [ 402146.795523906417657, 3782411.597151577007025 ], [ 402146.185147507640067, 3782410.986775177996606 ], [ 402145.879959308251273, 3782410.986775177996606 ], [ 402145.879959308251273, 3782410.681586978491396 ], [ 402145.574771108862478, 3782410.376398779451847 ], [ 402145.574771108862478, 3782410.071210579946637 ], [ 402144.964394710084889, 3782409.460834180936217 ], [ 402144.964394710084889, 3782409.155645981896669 ], [ 402144.659206510696094, 3782408.850457782391459 ], [ 402144.659206510696094, 3782408.545269582886249 ], [ 402144.3540183113073, 3782408.240081383381039 ], [ 402144.3540183113073, 3782407.62970498483628 ], [ 402144.048830111918505, 3782407.32451678533107 ], [ 402144.048830111918505, 3782406.103763987775892 ], [ 402144.3540183113073, 3782405.798575788270682 ], [ 402144.3540183113073, 3782405.493387589231133 ], [ 402145.574771108862478, 3782404.272634791675955 ], [ 402146.795523906417657, 3782404.272634791675955 ], [ 402147.100712105806451, 3782404.577822990715504 ], [ 402147.405900305195246, 3782404.577822990715504 ], [ 402148.016276703972835, 3782405.188199389725924 ], [ 402148.32146490336163, 3782405.188199389725924 ], [ 402148.626653102750424, 3782405.493387589231133 ], [ 402149.847405900305603, 3782405.493387589231133 ], [ 402150.152594099694397, 3782405.798575788270682 ], [ 402150.457782299083192, 3782405.798575788270682 ], [ 402150.762970498471987, 3782406.103763987775892 ], [ 402151.068158697860781, 3782406.103763987775892 ], [ 402151.373346897249576, 3782406.408952187281102 ], [ 402151.373346897249576, 3782408.240081383381039 ], [ 402151.67853509663837, 3782408.545269582886249 ], [ 402151.67853509663837, 3782409.766022380441427 ], [ 402151.373346897249576, 3782409.766022380441427 ], [ 402150.762970498471987, 3782410.376398779451847 ], [ 402150.762970498471987, 3782410.681586978491396 ], [ 402150.457782299083192, 3782410.986775177996606 ], [ 402150.152594099694397, 3782410.986775177996606 ], [ 402149.847405900305603, 3782411.291963377501816 ], [ 402149.542217700916808, 3782411.291963377501816 ], [ 402149.237029501528013, 3782411.597151577007025 ], [ 402146.795523906417657, 3782411.597151577007025 ] ] ] } },
{ "type": "Feature", "properties": { "confidence": 0.49410724639892578, "class": 1 }, "geometry": { "type": "Polygon", "coordinates": [ [ [ 402270.091556459839921, 3782549.542217700742185 ], [ 402269.786368260451127, 3782549.237029501702636 ], [ 402269.481180061062332, 3782549.237029501702636 ], [ 402268.870803662284743, 3782548.626653102692217 ], [ 402268.870803662284743, 3782547.711088504642248 ], [ 402268.565615462895948, 3782547.405900305137038 ], [ 402268.565615462895948, 3782544.659206510521472 ], [ 402268.870803662284743, 3782544.659206510521472 ], [ 402269.175991861673538, 3782544.354018311481923 ], [ 402269.481180061062332, 3782544.354018311481923 ], [ 402269.786368260451127, 3782544.048830111976713 ], [ 402271.3123092573951, 3782544.048830111976713 ], [ 402271.617497456783894, 3782544.354018311481923 ], [ 402271.922685656172689, 3782544.354018311481923 ], [ 402272.533062054950278, 3782544.964394710026681 ], [ 402273.143438453727867, 3782544.964394710026681 ], [ 402273.143438453727867, 3782549.237029501702636 ], [ 402272.838250254339073, 3782549.237029501702636 ], [ 402272.533062054950278, 3782549.542217700742185 ], [ 402270.091556459839921, 3782549.542217700742185 ] ] ] } },
{ "type": "Feature", "properties": { "confidence": 0.48413634300231934, "class": 1 }, "geometry": { "type": "Polygon", "coordinates": [ [ [ 402474.872838250244968, 3782846.79552390659228 ], [ 402474.567650050856173, 3782846.49033570708707 ], [ 402473.346897253300995, 3782846.49033570708707 ], [ 402473.0417090539122, 3782846.18514750758186 ], [ 402473.0417090539122, 3782844.659206510521472 ], [ 402472.736520854523405, 3782844.354018311481923 ], [ 402472.736520854523405, 3782844.048830111976713 ], [ 402477.619532044744119, 3782844.048830111976713 ], [ 402477.619532044744119, 3782844.354018311481923 ], [ 402477.314343845355324, 3782844.659206510521472 ], [ 402477.314343845355324, 3782845.87995930807665 ], [ 402476.703967446577735, 3782846.49033570708707 ], [ 402475.178026449633762, 3782846.49033570708707 ], [ 402474.872838250244968, 3782846.79552390659228 ] ] ] } },
{ "type": "Feature", "properties": { "confidence": 0.44426250457763672, "class": 1 }, "geometry": { "type": "Polygon", "coordinates": [ [ [ 402522.177009155624546, 3782846.49033570708707 ], [ 402521.871820956235752, 3782846.18514750758186 ], [ 402520.956256358069368, 3782846.18514750758186 ], [ 402520.651068158680573, 3782845.87995930807665 ], [ 402520.345879959291779, 3782845.87995930807665 ], [ 402520.040691759902984, 3782845.574771109037101 ], [ 402519.735503560514189, 3782845.574771109037101 ], [ 402519.1251271617366, 3782844.964394710026681 ], [ 402519.1251271617366, 3782844.048830111976713 ], [ 402527.670396744681057, 3782844.048830111976713 ], [ 402527.670396744681057, 3782844.354018311481923 ], [ 402527.365208545292262, 3782844.659206510521472 ], [ 402527.365208545292262, 3782845.269582909531891 ], [ 402527.060020345903467, 3782845.574771109037101 ], [ 402527.060020345903467, 3782845.87995930807665 ], [ 402526.754832146514673, 3782846.18514750758186 ], [ 402526.449643947125878, 3782846.18514750758186 ], [ 402526.144455747737084, 3782846.49033570708707 ], [ 402522.177009155624546, 3782846.49033570708707 ] ] ] } },
{ "type": "Feature", "properties": { "confidence": 0.41798260807991028, "class": 1 }, "geometry": { "type": "Polygon", "coordinates": [ [ [ 402115.361139369255397, 3782452.187182095833123 ], [ 402115.055951169866603, 3782451.881993896327913 ], [ 402113.53001017292263, 3782451.881993896327913 ], [ 402113.224821973533835, 3782451.576805696822703 ], [ 402112.309257375367451, 3782451.576805696822703 ], [ 402112.004069175978657, 3782451.271617497317493 ], [ 402111.698880976589862, 3782451.271617497317493 ], [ 402111.393692777201068, 3782450.966429298277944 ], [ 402111.393692777201068, 3782449.745676500722766 ], [ 402110.783316378423478, 3782449.135300101712346 ], [ 402110.783316378423478, 3782448.830111902207136 ], [ 402110.478128179034684, 3782448.524923703167588 ], [ 402110.478128179034684, 3782447.304170905612409 ], [ 402110.783316378423478, 3782446.998982706107199 ], [ 402110.783316378423478, 3782446.388606307096779 ], [ 402111.393692777201068, 3782445.778229908552021 ], [ 402111.393692777201068, 3782444.557477110996842 ], [ 402111.698880976589862, 3782444.557477110996842 ], [ 402112.309257375367451, 3782443.947100711986423 ], [ 402112.309257375367451, 3782443.031536113936454 ], [ 402112.614445574756246, 3782443.031536113936454 ], [ 402112.919633774145041, 3782442.726347914431244 ], [ 402112.919633774145041, 3782442.421159714926034 ], [ 402113.224821973533835, 3782442.115971515886486 ], [ 402114.750762970477808, 3782442.115971515886486 ], [ 402115.055951169866603, 3782442.421159714926034 ], [ 402115.361139369255397, 3782442.421159714926034 ], [ 402115.971515768032987, 3782443.031536113936454 ], [ 402115.971515768032987, 3782443.336724313441664 ], [ 402115.666327568644192, 3782443.641912512946874 ], [ 402115.666327568644192, 3782445.473041709046811 ], [ 402115.971515768032987, 3782445.778229908552021 ], [ 402116.88708036619937, 3782445.778229908552021 ], [ 402117.802644964365754, 3782444.862665310502052 ], [ 402118.107833163812757, 3782444.862665310502052 ], [ 402118.413021363201551, 3782444.557477110996842 ], [ 402119.938962360145524, 3782444.557477110996842 ], [ 402120.854526958311908, 3782445.473041709046811 ], [ 402120.854526958311908, 3782446.388606307096779 ], [ 402121.159715157700703, 3782446.693794506601989 ], [ 402121.159715157700703, 3782449.135300101712346 ], [ 402120.854526958311908, 3782449.440488301217556 ], [ 402120.854526958311908, 3782451.271617497317493 ], [ 402120.549338758923113, 3782451.576805696822703 ], [ 402118.718209562590346, 3782451.576805696822703 ], [ 402118.413021363201551, 3782451.881993896327913 ], [ 402117.192268565588165, 3782451.881993896327913 ], [ 402116.88708036619937, 3782452.187182095833123 ], [ 402115.361139369255397, 3782452.187182095833123 ] ] ] } },
{ "type": "Feature", "properties": { "confidence": 0.4090537428855896, "class": 1 }, "geometry": { "type": "Polygon", "coordinates": [ [ [ 402587.182095625612419, 3782847.711088504642248 ], [ 402586.876907426223624, 3782847.405900305137038 ], [ 402586.57171922683483, 3782847.405900305137038 ], [ 402586.266531027446035, 3782847.100712105631828 ], [ 402585.350966429279651, 3782847.100712105631828 ], [ 402585.045778229890857, 3782846.79552390659228 ], [ 402583.825025432335678, 3782846.79552390659228 ], [ 402583.519837232946884, 3782846.49033570708707 ], [ 402583.214649033558089, 3782846.49033570708707 ], [ 402582.6042726347805, 3782845.87995930807665 ], [ 402582.6042726347805, 3782845.269582909531891 ], [ 402582.299084435391705, 3782844.964394710026681 ], [ 402582.299084435391705, 3782844.659206510521472 ], [ 402582.6042726347805, 3782844.354018311481923 ], [ 402582.6042726347805, 3782844.048830111976713 ], [ 402589.623601220780984, 3782844.048830111976713 ], [ 402589.623601220780984, 3782844.354018311481923 ], [ 402589.928789420169778, 3782844.659206510521472 ], [ 402589.928789420169778, 3782845.574771109037101 ], [ 402590.233977619558573, 3782845.87995930807665 ], [ 402590.233977619558573, 3782846.49033570708707 ], [ 402589.928789420169778, 3782846.79552390659228 ], [ 402589.013224821945187, 3782846.79552390659228 ], [ 402588.402848423167598, 3782847.405900305137038 ], [ 402587.487283825001214, 3782847.405900305137038 ], [ 402587.182095625612419, 3782847.711088504642248 ] ] ] } },
{ "type": "Feature", "properties": { "confidence": 0.36891376972198486, "class": 1 }, "geometry": { "type": "Polygon", "coordinates": [ [ [ 402269.481180061062332, 3782666.734486266504973 ], [ 402269.175991861673538, 3782666.429298066999763 ], [ 402268.870803662284743, 3782666.429298066999763 ], [ 402268.870803662284743, 3782665.513733468949795 ], [ 402269.175991861673538, 3782665.208545269444585 ], [ 402269.175991861673538, 3782664.292980671394616 ], [ 402269.481180061062332, 3782663.987792471889406 ], [ 402269.481180061062332, 3782663.682604272849858 ], [ 402269.786368260451127, 3782663.377416073344648 ], [ 402269.786368260451127, 3782663.072227873839438 ], [ 402271.3123092573951, 3782661.54628687677905 ], [ 402271.3123092573951, 3782661.241098677739501 ], [ 402271.617497456783894, 3782660.935910478234291 ], [ 402271.922685656172689, 3782660.935910478234291 ], [ 402272.227873855561484, 3782660.630722278729081 ], [ 402272.533062054950278, 3782660.630722278729081 ], [ 402273.143438453727867, 3782660.020345880184323 ], [ 402273.143438453727867, 3782663.987792471889406 ], [ 402272.838250254339073, 3782663.987792471889406 ], [ 402272.227873855561484, 3782664.598168870899826 ], [ 402272.227873855561484, 3782665.208545269444585 ], [ 402271.922685656172689, 3782665.513733468949795 ], [ 402271.922685656172689, 3782665.818921668455005 ], [ 402271.3123092573951, 3782665.818921668455005 ], [ 402270.701932858617511, 3782666.429298066999763 ], [ 402269.786368260451127, 3782666.429298066999763 ], [ 402269.481180061062332, 3782666.734486266504973 ] ] ] } },
{ "type": "Feature", "properties": { "confidence": 0.35460153222084045, "class": 1 }, "geometry": { "type": "Polygon", "coordinates": [ [ [ 402368.362156663264614, 3782732.655137334484607 ], [ 402368.362156663264614, 3782732.349949135445058 ], [ 402367.141403865709435, 3782731.12919633788988 ], [ 402367.141403865709435, 3782730.51881993887946 ], [ 402367.44659206509823, 3782730.21363173937425 ], [ 402367.44659206509823, 3782729.908443540334702 ], [ 402367.751780264487024, 3782729.908443540334702 ], [ 402368.056968463875819, 3782729.603255340829492 ], [ 402368.362156663264614, 3782729.603255340829492 ], [ 402368.667344862653408, 3782729.298067141324282 ], [ 402368.972533062042203, 3782729.298067141324282 ], [ 402369.277721261430997, 3782728.992878941819072 ], [ 402370.193285859597381, 3782728.992878941819072 ], [ 402370.498474058986176, 3782728.687690742779523 ], [ 402371.108850457763765, 3782728.687690742779523 ], [ 402371.41403865715256, 3782728.382502543274313 ], [ 402371.719226856541354, 3782728.382502543274313 ], [ 402372.024415055930149, 3782728.077314343769103 ], [ 402372.329603255318943, 3782728.382502543274313 ], [ 402372.329603255318943, 3782729.908443540334702 ], [ 402372.634791454707738, 3782730.21363173937425 ], [ 402372.634791454707738, 3782730.51881993887946 ], [ 402372.329603255318943, 3782730.82400813838467 ], [ 402372.329603255318943, 3782731.434384536929429 ], [ 402371.719226856541354, 3782732.044760935939848 ], [ 402371.108850457763765, 3782732.044760935939848 ], [ 402370.498474058986176, 3782732.655137334484607 ], [ 402368.362156663264614, 3782732.655137334484607 ] ] ] } },
{ "type": "Feature", "properties": { "confidence": 0.33359238505363464, "class": 1 }, "geometry": { "type": "Polygon", "coordinates": [ [ [ 402584.740590030502062, 3782846.79552390659228 ], [ 402584.435401831113268, 3782846.49033570708707 ], [ 402583.825025432335678, 3782846.49033570708707 ], [ 402583.214649033558089, 3782845.87995930807665 ], [ 402583.214649033558089, 3782845.269582909531891 ], [ 402582.909460834169295, 3782844.964394710026681 ], [ 402582.909460834169295, 3782843.743641912471503 ], [ 402583.214649033558089, 3782843.438453712966293 ], [ 402583.214649033558089, 3782843.133265513926744 ], [ 402583.825025432335678, 3782842.522889114916325 ], [ 402583.825025432335678, 3782842.217700915411115 ], [ 402584.130213631724473, 3782841.912512716371566 ], [ 402584.130213631724473, 3782841.607324516866356 ], [ 402584.435401831113268, 3782841.302136317361146 ], [ 402584.435401831113268, 3782840.996948117855936 ], [ 402584.740590030502062, 3782840.691759918816388 ], [ 402584.740590030502062, 3782839.471007121261209 ], [ 402584.435401831113268, 3782839.165818921755999 ], [ 402584.435401831113268, 3782838.860630722250789 ], [ 402584.740590030502062, 3782838.860630722250789 ], [ 402585.045778229890857, 3782838.555442522745579 ], [ 402585.656154628668446, 3782838.555442522745579 ], [ 402585.961342828057241, 3782838.860630722250789 ], [ 402586.876907426223624, 3782838.860630722250789 ], [ 402587.182095625612419, 3782839.165818921755999 ], [ 402588.402848423167598, 3782839.165818921755999 ], [ 402588.708036622556392, 3782839.471007121261209 ], [ 402589.318413021392189, 3782839.471007121261209 ], [ 402589.318413021392189, 3782839.776195320300758 ], [ 402589.623601220780984, 3782840.081383519805968 ], [ 402589.623601220780984, 3782840.386571719311178 ], [ 402589.928789420169778, 3782840.691759918816388 ], [ 402589.928789420169778, 3782843.743641912471503 ], [ 402589.623601220780984, 3782844.048830111976713 ], [ 402589.623601220780984, 3782846.18514750758186 ], [ 402589.318413021392189, 3782846.49033570708707 ], [ 402585.656154628668446, 3782846.49033570708707 ], [ 402585.350966429279651, 3782846.79552390659228 ], [ 402584.740590030502062, 3782846.79552390659228 ] ] ] } },
{ "type": "Feature", "properties": { "confidence": 0.33088827133178711, "class": 1 }, "geometry": { "type": "Polygon", "coordinates": [ [ [ 402277.721261444559786, 3782495.829094608314335 ], [ 402277.416073245170992, 3782495.523906408809125 ], [ 402276.500508647004608, 3782495.523906408809125 ], [ 402276.195320447615813, 3782495.218718209769577 ], [ 402275.890132248227019, 3782495.218718209769577 ], [ 402275.584944048838224, 3782494.913530010264367 ], [ 402275.27975584944943, 3782494.913530010264367 ], [ 402274.974567650060635, 3782494.608341810759157 ], [ 402274.66937945067184, 3782494.608341810759157 ], [ 402274.364191251283046, 3782494.303153611253947 ], [ 402274.059003051894251, 3782494.303153611253947 ], [ 402273.753814852505457, 3782493.997965412214398 ], [ 402273.448626653116662, 3782493.997965412214398 ], [ 402273.143438453727867, 3782493.692777212709188 ], [ 402272.838250254339073, 3782493.692777212709188 ], [ 402272.838250254339073, 3782492.47202441515401 ], [ 402281.688708036614116, 3782492.47202441515401 ], [ 402281.688708036614116, 3782493.997965412214398 ], [ 402281.078331637836527, 3782494.608341810759157 ], [ 402281.078331637836527, 3782494.913530010264367 ], [ 402280.773143438447732, 3782495.218718209769577 ], [ 402280.467955239058938, 3782495.218718209769577 ], [ 402279.857578840281349, 3782495.829094608314335 ], [ 402277.721261444559786, 3782495.829094608314335 ] ] ] } },
{ "type": "Feature", "properties": { "confidence": 0.32152798771858215, "class": 1 }, "geometry": { "type": "Polygon", "coordinates": [ [ [ 402250.559511698898859, 3782537.945066124200821 ], [ 402250.254323499510065, 3782537.639877924695611 ], [ 402249.94913530012127, 3782537.639877924695611 ], [ 402249.94913530012127, 3782537.334689725190401 ], [ 402249.643947100732476, 3782537.029501526150852 ], [ 402249.643947100732476, 3782536.113936927635223 ], [ 402249.94913530012127, 3782535.808748728595674 ], [ 402249.94913530012127, 3782532.146490335930139 ], [ 402250.559511698898859, 3782531.536113936919719 ], [ 402250.559511698898859, 3782531.230925737414509 ], [ 402250.864699898287654, 3782531.230925737414509 ], [ 402251.169888097676449, 3782530.92573753837496 ], [ 402251.475076297065243, 3782530.92573753837496 ], [ 402251.780264496454038, 3782530.62054933886975 ], [ 402253.306205493398011, 3782530.62054933886975 ], [ 402253.611393692786805, 3782530.315361139364541 ], [ 402254.221770091564395, 3782530.315361139364541 ], [ 402254.526958290953189, 3782530.62054933886975 ], [ 402254.526958290953189, 3782535.503560529090464 ], [ 402254.221770091564395, 3782535.808748728595674 ], [ 402254.221770091564395, 3782536.113936927635223 ], [ 402253.306205493398011, 3782537.029501526150852 ], [ 402253.001017294009216, 3782537.029501526150852 ], [ 402252.695829094620422, 3782537.334689725190401 ], [ 402252.390640895231627, 3782537.334689725190401 ], [ 402252.085452695842832, 3782537.639877924695611 ], [ 402251.475076297065243, 3782537.639877924695611 ], [ 402251.169888097676449, 3782537.945066124200821 ], [ 402250.559511698898859, 3782537.945066124200821 ] ] ] } },
{ "type": "Feature", "properties": { "confidence": 0.30624106526374817, "class": 1 }, "geometry": { "type": "Polygon", "coordinates": [ [ [ 402237.131230925733689, 3782654.526958290953189 ], [ 402236.826042726344895, 3782654.221770091447979 ], [ 402237.131230925733689, 3782653.916581891942769 ], [ 402237.131230925733689, 3782651.780264496337622 ], [ 402237.436419125122484, 3782651.475076296832412 ], [ 402238.046795523900073, 3782651.475076296832412 ], [ 402238.351983723288868, 3782651.169888097792864 ], [ 402240.183112919621635, 3782651.169888097792864 ], [ 402240.48830111901043, 3782650.864699898287654 ], [ 402241.403865717176814, 3782650.864699898287654 ], [ 402241.709053916565608, 3782650.559511698782444 ], [ 402242.624618514731992, 3782650.559511698782444 ], [ 402242.624618514731992, 3782652.085452695842832 ], [ 402241.098677517788019, 3782653.611393692903221 ], [ 402240.793489318399224, 3782653.611393692903221 ], [ 402240.48830111901043, 3782653.916581891942769 ], [ 402240.183112919621635, 3782653.916581891942769 ], [ 402239.877924720232841, 3782654.221770091447979 ], [ 402239.267548321455251, 3782654.221770091447979 ], [ 402238.962360122066457, 3782654.526958290953189 ], [ 402237.131230925733689, 3782654.526958290953189 ] ] ] } },
{ "type": "Feature", "properties": { "confidence": 0.30407339334487915, "class": 1 }, "geometry": { "type": "Polygon", "coordinates": [ [ [ 402226.449643947125878, 3782511.393692777026445 ], [ 402226.144455747737084, 3782511.088504577986896 ], [ 402226.144455747737084, 3782510.172939979471266 ], [ 402226.449643947125878, 3782509.867751780431718 ], [ 402226.449643947125878, 3782509.257375381421298 ], [ 402226.754832146514673, 3782508.952187181916088 ], [ 402227.060020345903467, 3782508.952187181916088 ], [ 402227.365208545292262, 3782508.646998982876539 ], [ 402227.975584944069851, 3782508.646998982876539 ], [ 402228.280773143458646, 3782508.341810783371329 ], [ 402228.891149542236235, 3782508.341810783371329 ], [ 402229.19633774162503, 3782508.646998982876539 ], [ 402229.501525941013824, 3782508.646998982876539 ], [ 402229.806714140402619, 3782508.952187181916088 ], [ 402230.417090539180208, 3782508.952187181916088 ], [ 402231.027466937957797, 3782509.562563580926508 ], [ 402231.027466937957797, 3782510.783316378481686 ], [ 402230.722278738569003, 3782511.088504577986896 ], [ 402230.417090539180208, 3782511.088504577986896 ], [ 402230.111902339791413, 3782511.393692777026445 ], [ 402226.449643947125878, 3782511.393692777026445 ] ] ] } },
{ "type": "Feature", "properties": { "confidence": 0.2926003634929657, "class": 1 }, "geometry": { "type": "Polygon", "coordinates": [ [ [ 402349.135300101712346, 3782612.410986775066704 ], [ 402348.830111902323551, 3782612.105798575561494 ], [ 402347.914547304157168, 3782612.105798575561494 ], [ 402347.609359104768373, 3782611.800610376521945 ], [ 402347.304170905379578, 3782611.800610376521945 ], [ 402347.304170905379578, 3782611.190233977511525 ], [ 402346.998982705990784, 3782610.885045778006315 ], [ 402346.998982705990784, 3782609.664292980451137 ], [ 402354.933875890157651, 3782609.664292980451137 ], [ 402354.933875890157651, 3782609.969481179956347 ], [ 402354.628687690768857, 3782610.274669379461557 ], [ 402354.628687690768857, 3782610.579857578966767 ], [ 402353.713123092602473, 3782611.495422177016735 ], [ 402353.40793489315547, 3782611.495422177016735 ], [ 402352.797558494377881, 3782612.105798575561494 ], [ 402352.492370294989087, 3782612.105798575561494 ], [ 402352.187182095600292, 3782612.410986775066704 ], [ 402349.135300101712346, 3782612.410986775066704 ] ] ] } },
{ "type": "Feature", "properties": { "confidence": 0.27745729684829712, "class": 1 }, "geometry": { "type": "Polygon", "coordinates": [ [ [ 402153.814852492359933, 3782612.716174974571913 ], [ 402153.509664292971138, 3782612.410986775066704 ], [ 402152.899287894193549, 3782612.410986775066704 ], [ 402152.594099694804754, 3782612.105798575561494 ], [ 402152.28891149541596, 3782612.105798575561494 ], [ 402151.983723296027165, 3782611.800610376521945 ], [ 402151.983723296027165, 3782611.495422177016735 ], [ 402151.67853509663837, 3782611.190233977511525 ], [ 402151.67853509663837, 3782609.664292980451137 ], [ 402155.340793489303906, 3782609.664292980451137 ], [ 402155.340793489303906, 3782612.716174974571913 ], [ 402153.814852492359933, 3782612.716174974571913 ] ] ] } }
]
}
