{
"type": "FeatureCollection",
"name": "cell_00172_pre",
"crs": { "type": "name", "properties": { "name": "urn:ogc:def:crs:EPSG::32611" } },
"features": [
{ "type": "Feature", "properties": { "confidence": 0.77484917640686035, "class": 1 }, "geometry": { "type": "Polygon", "coordinates": [ [ [ 356164.394710071210284, 3773054.526958290953189 ], [ 356164.089521871821489, 3773054.221770091447979 ], [ 356162.868769074266311, 3773054.221770091447979 ], [ 356162.563580874877516, 3773053.916581891942769 ], [ 356161.037639877933543, 3773053.916581891942769 ], [ 356160.732451678544749, 3773053.611393692903221 ], [ 356159.51169888098957, 3773053.611393692903221 ], [ 356159.206510681600776, 3773053.306205493398011 ], [ 356159.206510681600776, 3773050.254323499277234 ], [ 356158.901322482211981, 3773049.949135300237685 ], [ 356158.901322482211981, 3773047.507629705127329 ], [ 356158.596134282823186, 3773047.202441505622119 ], [ 356158.901322482211981, 3773046.897253306116909 ], [ 356158.901322482211981, 3773046.28687690757215 ], [ 356159.206510681600776, 3773046.28687690757215 ], [ 356159.51169888098957, 3773045.98168870806694 ], [ 356159.816887080378365, 3773045.98168870806694 ], [ 356160.122075279767159, 3773045.67650050856173 ], [ 356160.427263479155954, 3773045.67650050856173 ], [ 356160.732451678544749, 3773045.37131230905652 ], [ 356161.648016276711132, 3773045.37131230905652 ], [ 356161.953204476099927, 3773045.066124110016972 ], [ 356162.258392675488722, 3773045.066124110016972 ], [ 356162.563580874877516, 3773044.760935910511762 ], [ 356162.563580874877516, 3773044.455747711006552 ], [ 356162.868769074266311, 3773044.455747711006552 ], [ 356163.173957273655105, 3773044.150559511501342 ], [ 356163.4791454730439, 3773044.150559511501342 ], [ 356163.784333672432695, 3773043.845371312461793 ], [ 356164.089521871821489, 3773043.845371312461793 ], [ 356164.394710071210284, 3773043.540183112956583 ], [ 356165.310274669376668, 3773043.540183112956583 ], [ 356165.310274669376668, 3773044.150559511501342 ], [ 356165.615462868765462, 3773044.455747711006552 ], [ 356165.920651068154257, 3773044.455747711006552 ], [ 356165.920651068154257, 3773045.67650050856173 ], [ 356167.44659206509823, 3773047.202441505622119 ], [ 356167.44659206509823, 3773049.033570701722056 ], [ 356167.141403865709435, 3773049.338758901227266 ], [ 356167.141403865709435, 3773053.001017293892801 ], [ 356166.836215666320641, 3773053.306205493398011 ], [ 356166.836215666320641, 3773053.611393692903221 ], [ 356166.531027466931846, 3773053.916581891942769 ], [ 356166.531027466931846, 3773054.221770091447979 ], [ 356166.225839267543051, 3773054.221770091447979 ], [ 356165.920651068154257, 3773054.526958290953189 ], [ 356164.394710071210284, 3773054.526958290953189 ] ] ] } },
{ "type": "Feature", "properties": { "confidence": 0.77318847179412842, "class": 1 }, "geometry": { "type": "Polygon", "coordinates": [ [ [ 356379.552390640892554, 3772901.627670396585017 ], [ 356379.247202441503759, 3772901.322482197545469 ], [ 356378.331637843337376, 3772901.322482197545469 ], [ 356378.026449643948581, 3772901.017293998040259 ], [ 356377.416073245170992, 3772901.017293998040259 ], [ 356376.805696846393403, 3772900.406917599029839 ], [ 356376.500508647004608, 3772900.406917599029839 ], [ 356375.584944048838224, 3772899.491353000979871 ], [ 356375.584944048838224, 3772899.186164801474661 ], [ 356375.27975584944943, 3772898.880976602435112 ], [ 356375.27975584944943, 3772897.965412003919482 ], [ 356375.584944048838224, 3772897.660223804879934 ], [ 356375.584944048838224, 3772897.355035605374724 ], [ 356376.195320447615813, 3772896.744659206364304 ], [ 356378.026449643948581, 3772896.744659206364304 ], [ 356378.331637843337376, 3772897.049847405869514 ], [ 356381.993896236002911, 3772897.049847405869514 ], [ 356381.993896236002911, 3772897.965412003919482 ], [ 356382.299084435391705, 3772898.270600203424692 ], [ 356382.299084435391705, 3772900.406917599029839 ], [ 356382.6042726347805, 3772900.712105798535049 ], [ 356382.6042726347805, 3772901.322482197545469 ], [ 356382.299084435391705, 3772901.627670396585017 ], [ 356379.552390640892554, 3772901.627670396585017 ] ] ] } },
{ "type": "Feature", "properties": { "confidence": 0.58697992563247681, "class": 1 }, "geometry": { "type": "Polygon", "coordinates": [ [ [ 356304.781281790463254, 3773016.073245167732239 ], [ 356304.476093591074459, 3773015.76805696869269 ], [ 356304.170905391685665, 3773015.76805696869269 ], [ 356303.86571719229687, 3773015.46286876918748 ], [ 356303.86571719229687, 3773014.242115971632302 ], [ 356303.560528992908075, 3773013.936927772127092 ], [ 356303.560528992908075, 3773013.326551373116672 ], [ 356303.255340793461073, 3773013.021363174077123 ], [ 356303.255340793461073, 3773009.664292980451137 ], [ 356307.527975584962405, 3773009.664292980451137 ], [ 356307.527975584962405, 3773015.76805696869269 ], [ 356307.222787385573611, 3773015.46286876918748 ], [ 356306.307222787407227, 3773015.46286876918748 ], [ 356306.002034588018432, 3773015.15768056968227 ], [ 356305.391658189240843, 3773015.15768056968227 ], [ 356304.781281790463254, 3773015.76805696869269 ], [ 356304.781281790463254, 3773016.073245167732239 ] ] ] } },
{ "type": "Feature", "properties": { "confidence": 0.48143619298934937, "class": 1 }, "geometry": { "type": "Polygon", "coordinates": [ [ [ 356071.3123092573951, 3772925.737538148649037 ], [ 356070.701932858617511, 3772925.127161749638617 ], [ 356070.701932858617511, 3772922.99084435403347 ], [ 356071.007121058006305, 3772922.68565615452826 ], [ 356071.007121058006305, 3772921.770091556478292 ], [ 356071.3123092573951, 3772921.464903356973082 ], [ 356071.3123092573951, 3772921.159715157467872 ], [ 356072.533062054950278, 3772919.938962359912694 ], [ 356073.143438453727867, 3772919.938962359912694 ], [ 356073.143438453727867, 3772925.737538148649037 ], [ 356072.838250254339073, 3772925.432349949143827 ], [ 356072.227873855561484, 3772925.432349949143827 ], [ 356071.922685656172689, 3772925.737538148649037 ], [ 356071.3123092573951, 3772925.737538148649037 ] ] ] } },
{ "type": "Feature", "properties": { "confidence": 0.37684646248817444, "class": 1 }, "geometry": { "type": "Polygon", "coordinates": [ [ [ 356059.715157680562697, 3772855.849440488498658 ], [ 356059.409969481173903, 3772855.544252288993448 ], [ 356058.494404883007519, 3772855.544252288993448 ], [ 356058.189216683618724, 3772855.239064089488238 ], [ 356057.88402848422993, 3772855.239064089488238 ], [ 356057.578840284841135, 3772854.933875889983028 ], [ 356057.273652085452341, 3772854.933875889983028 ], [ 356056.968463886063546, 3772854.62868769094348 ], [ 356056.663275686674751, 3772854.62868769094348 ], [ 356056.358087487285957, 3772854.32349949143827 ], [ 356053.611393692786805, 3772854.32349949143827 ], [ 356052.695829094620422, 3772853.407934893388301 ], [ 356052.695829094620422, 3772852.797558494377881 ], [ 356052.390640895231627, 3772852.492370294872671 ], [ 356052.085452695842832, 3772852.492370294872671 ], [ 356052.085452695842832, 3772850.356052899267524 ], [ 356052.390640895231627, 3772850.050864699762315 ], [ 356052.695829094620422, 3772850.050864699762315 ], [ 356053.001017294009216, 3772849.745676500722766 ], [ 356053.306205493398011, 3772849.745676500722766 ], [ 356053.611393692786805, 3772849.440488301217556 ], [ 356053.9165818921756, 3772849.440488301217556 ], [ 356054.221770091564395, 3772849.135300101712346 ], [ 356054.832146490341984, 3772849.135300101712346 ], [ 356055.137334689730778, 3772848.830111902207136 ], [ 356060.630722278729081, 3772848.830111902207136 ], [ 356060.935910478117876, 3772849.135300101712346 ], [ 356060.935910478117876, 3772849.745676500722766 ], [ 356060.630722278729081, 3772850.050864699762315 ], [ 356060.630722278729081, 3772853.102746693883091 ], [ 356061.24109867750667, 3772853.71312309242785 ], [ 356061.24109867750667, 3772855.544252288993448 ], [ 356060.935910478117876, 3772855.849440488498658 ], [ 356059.715157680562697, 3772855.849440488498658 ] ] ] } },
{ "type": "Feature", "properties": { "confidence": 0.34937900304794312, "class": 1 }, "geometry": { "type": "Polygon", "coordinates": [ [ [ 356066.124109867727384, 3773080.162767039611936 ], [ 356065.513733468949795, 3773079.552390641067177 ], [ 356065.513733468949795, 3773079.247202441561967 ], [ 356064.598168870783411, 3773078.331637843511999 ], [ 356064.598168870783411, 3773078.026449644006789 ], [ 356063.682604272617027, 3773077.11088504595682 ], [ 356063.682604272617027, 3773076.80569684645161 ], [ 356063.377416073228233, 3773076.5005086469464 ], [ 356063.377416073228233, 3773076.19532044744119 ], [ 356063.072227873839438, 3773075.890132248401642 ], [ 356063.072227873839438, 3773074.669379450846463 ], [ 356065.208545269561, 3773074.669379450846463 ], [ 356065.513733468949795, 3773074.974567649886012 ], [ 356065.818921668338589, 3773074.974567649886012 ], [ 356067.039674465893768, 3773076.19532044744119 ], [ 356067.344862665282562, 3773076.19532044744119 ], [ 356067.955239064118359, 3773076.80569684645161 ], [ 356068.260427263507154, 3773076.80569684645161 ], [ 356068.260427263507154, 3773077.11088504595682 ], [ 356068.565615462895948, 3773077.416073244996369 ], [ 356068.565615462895948, 3773077.721261444501579 ], [ 356068.870803662284743, 3773078.026449644006789 ], [ 356068.870803662284743, 3773079.247202441561967 ], [ 356068.565615462895948, 3773079.552390641067177 ], [ 356067.955239064118359, 3773079.552390641067177 ], [ 356067.650050864671357, 3773079.857578840106726 ], [ 356067.039674465893768, 3773079.857578840106726 ], [ 356066.734486266504973, 3773080.162767039611936 ], [ 356066.124109867727384, 3773080.162767039611936 ] ] ] } }
]
}
