{
"type": "FeatureCollection",
"name": "cell_00191_pre",
"crs": { "type": "name", "properties": { "name": "urn:ogc:def:crs:EPSG::32611" } },
"features": [
{ "type": "Feature", "properties": { "confidence": 0.78245371580123901, "class": 1 }, "geometry": { "type": "Polygon", "coordinates": [ [ [ 356911.495422177016735, 3774931.739572736434639 ], [ 356910.579857578850351, 3774930.82400813838467 ], [ 356910.579857578850351, 3774929.603255340829492 ], [ 356909.664292980683967, 3774928.687690742779523 ], [ 356909.664292980683967, 3774928.382502543274313 ], [ 356909.359104781295173, 3774928.077314343769103 ], [ 356909.359104781295173, 3774927.466937945224345 ], [ 356917.599186164792627, 3774927.466937945224345 ], [ 356917.293997965403832, 3774927.772126144263893 ], [ 356917.293997965403832, 3774929.298067141324282 ], [ 356916.988809766015038, 3774929.603255340829492 ], [ 356916.988809766015038, 3774930.21363173937425 ], [ 356916.683621566626243, 3774930.51881993887946 ], [ 356916.683621566626243, 3774930.82400813838467 ], [ 356916.378433367237449, 3774930.82400813838467 ], [ 356915.768056968459859, 3774931.434384536929429 ], [ 356915.15768056968227, 3774931.434384536929429 ], [ 356914.852492370293476, 3774931.739572736434639 ], [ 356911.495422177016735, 3774931.739572736434639 ] ] ] } },
{ "type": "Feature", "properties": { "confidence": 0.66744130849838257, "class": 1 }, "geometry": { "type": "Polygon", "coordinates": [ [ [ 356562.360122075304389, 3774833.774160732515156 ], [ 356562.054933875915594, 3774833.468972533009946 ], [ 356561.444557477138005, 3774833.468972533009946 ], [ 356561.444557477138005, 3774833.163784333504736 ], [ 356560.528992878913414, 3774832.248219735454768 ], [ 356560.528992878913414, 3774830.72227873839438 ], [ 356561.139369277749211, 3774830.111902339849621 ], [ 356563.275686673470773, 3774830.111902339849621 ], [ 356563.580874872859567, 3774830.417090539354831 ], [ 356564.191251271637157, 3774830.417090539354831 ], [ 356564.496439471025951, 3774830.72227873839438 ], [ 356564.496439471025951, 3774831.02746693789959 ], [ 356564.801627670414746, 3774831.332655137404799 ], [ 356564.801627670414746, 3774831.943031535949558 ], [ 356564.496439471025951, 3774832.248219735454768 ], [ 356564.496439471025951, 3774833.163784333504736 ], [ 356563.886063072248362, 3774833.774160732515156 ], [ 356562.360122075304389, 3774833.774160732515156 ] ] ] } },
{ "type": "Feature", "properties": { "confidence": 0.59334522485733032, "class": 1 }, "geometry": { "type": "Polygon", "coordinates": [ [ [ 356678.63682604272617, 3774753.50966429291293 ], [ 356678.331637843337376, 3774753.20447609340772 ], [ 356678.026449643948581, 3774753.20447609340772 ], [ 356677.721261444559786, 3774752.899287894368172 ], [ 356677.416073245170992, 3774752.899287894368172 ], [ 356677.110885045782197, 3774752.594099694862962 ], [ 356676.500508647004608, 3774752.594099694862962 ], [ 356676.195320447615813, 3774752.288911495357752 ], [ 356675.890132248227019, 3774752.288911495357752 ], [ 356675.584944048838224, 3774751.983723295852542 ], [ 356675.584944048838224, 3774751.678535096812993 ], [ 356675.27975584944943, 3774751.373346897307783 ], [ 356675.27975584944943, 3774751.068158697802573 ], [ 356674.974567650060635, 3774750.762970498297364 ], [ 356674.974567650060635, 3774750.152594099752605 ], [ 356674.66937945067184, 3774749.847405900247395 ], [ 356674.66937945067184, 3774748.626653102692217 ], [ 356674.364191251283046, 3774748.321464903187007 ], [ 356674.364191251283046, 3774747.100712105631828 ], [ 356674.059003051894251, 3774746.79552390659228 ], [ 356674.364191251283046, 3774746.49033570708707 ], [ 356674.66937945067184, 3774746.49033570708707 ], [ 356674.974567650060635, 3774746.18514750758186 ], [ 356675.27975584944943, 3774746.18514750758186 ], [ 356675.584944048838224, 3774745.87995930807665 ], [ 356678.026449643948581, 3774745.87995930807665 ], [ 356678.331637843337376, 3774746.18514750758186 ], [ 356678.942014242114965, 3774746.18514750758186 ], [ 356679.247202441503759, 3774746.49033570708707 ], [ 356679.552390640892554, 3774746.49033570708707 ], [ 356679.857578840281349, 3774746.79552390659228 ], [ 356679.857578840281349, 3774747.100712105631828 ], [ 356680.467955239058938, 3774747.711088504642248 ], [ 356680.467955239058938, 3774748.016276704147458 ], [ 356681.078331637836527, 3774748.626653102692217 ], [ 356681.078331637836527, 3774749.237029501702636 ], [ 356681.383519837225322, 3774749.542217700742185 ], [ 356681.383519837225322, 3774749.847405900247395 ], [ 356681.688708036614116, 3774750.152594099752605 ], [ 356681.688708036614116, 3774750.762970498297364 ], [ 356681.993896236002911, 3774751.068158697802573 ], [ 356681.993896236002911, 3774752.288911495357752 ], [ 356681.688708036614116, 3774752.594099694862962 ], [ 356681.688708036614116, 3774752.899287894368172 ], [ 356681.383519837225322, 3774752.899287894368172 ], [ 356681.078331637836527, 3774753.20447609340772 ], [ 356680.773143438447732, 3774753.20447609340772 ], [ 356680.467955239058938, 3774753.50966429291293 ], [ 356678.63682604272617, 3774753.50966429291293 ] ] ] } },
{ "type": "Feature", "properties": { "confidence": 0.56847888231277466, "class": 1 }, "geometry": { "type": "Polygon", "coordinates": [ [ [ 356983.214649033558089, 3774694.608341810759157 ], [ 356982.909460834169295, 3774694.303153611253947 ], [ 356981.383519837225322, 3774694.303153611253947 ], [ 356980.773143438447732, 3774693.692777212709188 ], [ 356980.773143438447732, 3774692.47202441515401 ], [ 356986.266531027446035, 3774692.47202441515401 ], [ 356986.266531027446035, 3774693.997965412214398 ], [ 356985.961342828057241, 3774694.303153611253947 ], [ 356985.350966429279651, 3774694.303153611253947 ], [ 356985.045778229890857, 3774694.608341810759157 ], [ 356983.214649033558089, 3774694.608341810759157 ] ] ] } },
{ "type": "Feature", "properties": { "confidence": 0.5309867262840271, "class": 1 }, "geometry": { "type": "Polygon", "coordinates": [ [ [ 356551.67853509663837, 3774695.829094608314335 ], [ 356551.373346897249576, 3774695.523906408809125 ], [ 356551.068158697860781, 3774695.523906408809125 ], [ 356550.762970498471987, 3774695.218718209769577 ], [ 356550.457782299083192, 3774695.218718209769577 ], [ 356549.237029501528013, 3774693.997965412214398 ], [ 356549.237029501528013, 3774693.692777212709188 ], [ 356548.931841302139219, 3774693.387589013203979 ], [ 356548.931841302139219, 3774693.082400813698769 ], [ 356548.626653102750424, 3774692.77721261465922 ], [ 356548.626653102750424, 3774692.47202441515401 ], [ 356554.425228891137522, 3774692.47202441515401 ], [ 356554.425228891137522, 3774692.77721261465922 ], [ 356554.730417090526316, 3774693.082400813698769 ], [ 356554.730417090526316, 3774694.913530010264367 ], [ 356554.425228891137522, 3774695.218718209769577 ], [ 356554.425228891137522, 3774695.523906408809125 ], [ 356554.120040691748727, 3774695.523906408809125 ], [ 356553.814852492359933, 3774695.829094608314335 ], [ 356551.67853509663837, 3774695.829094608314335 ] ] ] } },
{ "type": "Feature", "properties": { "confidence": 0.39632439613342285, "class": 1 }, "geometry": { "type": "Polygon", "coordinates": [ [ [ 356511.088504577812273, 3774675.076297049876302 ], [ 356511.088504577812273, 3774674.771108850371093 ], [ 356510.783316378423478, 3774674.465920650865883 ], [ 356510.478128179034684, 3774674.465920650865883 ], [ 356510.172939979645889, 3774674.160732451826334 ], [ 356510.172939979645889, 3774673.855544252321124 ], [ 356509.867751780257095, 3774673.550356052815914 ], [ 356509.867751780257095, 3774673.245167853310704 ], [ 356509.5625635808683, 3774672.939979654271156 ], [ 356509.5625635808683, 3774672.329603255260736 ], [ 356508.952187182090711, 3774671.719226856715977 ], [ 356508.952187182090711, 3774671.414038657210767 ], [ 356508.646998982701916, 3774671.108850457705557 ], [ 356508.646998982701916, 3774670.803662258200347 ], [ 356508.341810783313122, 3774670.498474059160799 ], [ 356508.341810783313122, 3774669.582909460645169 ], [ 356508.646998982701916, 3774669.27772126160562 ], [ 356508.646998982701916, 3774668.97253306210041 ], [ 356508.952187182090711, 3774668.667344862595201 ], [ 356509.257375381479505, 3774668.667344862595201 ], [ 356509.5625635808683, 3774668.362156663089991 ], [ 356510.172939979645889, 3774668.362156663089991 ], [ 356510.478128179034684, 3774668.056968464050442 ], [ 356513.224821973533835, 3774668.056968464050442 ], [ 356513.53001017292263, 3774668.362156663089991 ], [ 356518.413021363201551, 3774668.362156663089991 ], [ 356519.02339776197914, 3774668.97253306210041 ], [ 356519.02339776197914, 3774669.888097660150379 ], [ 356518.718209562590346, 3774670.193285859655589 ], [ 356518.718209562590346, 3774670.498474059160799 ], [ 356518.107833163812757, 3774671.108850457705557 ], [ 356517.802644964365754, 3774671.108850457705557 ], [ 356517.49745676497696, 3774671.414038657210767 ], [ 356517.49745676497696, 3774671.719226856715977 ], [ 356517.192268565588165, 3774671.719226856715977 ], [ 356516.581892166810576, 3774672.329603255260736 ], [ 356516.581892166810576, 3774672.634791454765946 ], [ 356516.276703967421781, 3774672.634791454765946 ], [ 356515.055951169866603, 3774673.855544252321124 ], [ 356514.750762970477808, 3774673.855544252321124 ], [ 356514.445574771089014, 3774674.160732451826334 ], [ 356514.140386571700219, 3774674.160732451826334 ], [ 356513.835198372311424, 3774674.465920650865883 ], [ 356513.224821973533835, 3774674.465920650865883 ], [ 356512.919633774145041, 3774674.771108850371093 ], [ 356512.309257375367451, 3774674.771108850371093 ], [ 356512.004069175978657, 3774675.076297049876302 ], [ 356511.088504577812273, 3774675.076297049876302 ] ] ] } },
{ "type": "Feature", "properties": { "confidence": 0.39314615726470947, "class": 1 }, "geometry": { "type": "Polygon", "coordinates": [ [ [ 356471.41403865715256, 3775080.671414038632065 ], [ 356471.108850457763765, 3775080.366225839126855 ], [ 356470.80366225837497, 3775080.366225839126855 ], [ 356470.498474058986176, 3775080.061037640087306 ], [ 356470.193285859597381, 3775080.061037640087306 ], [ 356469.888097660208587, 3775079.755849440582097 ], [ 356469.277721261430997, 3775079.755849440582097 ], [ 356468.972533062042203, 3775079.450661241076887 ], [ 356468.972533062042203, 3775079.145473041571677 ], [ 356468.667344862653408, 3775078.840284842532128 ], [ 356468.667344862653408, 3775078.535096643026918 ], [ 356468.362156663264614, 3775078.229908443521708 ], [ 356468.362156663264614, 3775077.61953204497695 ], [ 356468.056968463875819, 3775077.31434384547174 ], [ 356468.056968463875819, 3775076.70396744646132 ], [ 356467.751780264487024, 3775076.398779247421771 ], [ 356467.751780264487024, 3775075.178026449866593 ], [ 356467.44659206509823, 3775074.872838250361383 ], [ 356467.44659206509823, 3775074.567650050856173 ], [ 356467.141403865709435, 3775074.262461851350963 ], [ 356466.836215666320641, 3775074.262461851350963 ], [ 356466.836215666320641, 3775073.346897253300995 ], [ 356467.44659206509823, 3775072.736520854756236 ], [ 356470.498474058986176, 3775072.736520854756236 ], [ 356470.80366225837497, 3775073.041709053795785 ], [ 356471.41403865715256, 3775073.041709053795785 ], [ 356471.719226856541354, 3775073.346897253300995 ], [ 356472.024415055930149, 3775073.346897253300995 ], [ 356472.634791454707738, 3775073.957273652311414 ], [ 356472.939979654096533, 3775073.957273652311414 ], [ 356473.245167853485327, 3775074.262461851350963 ], [ 356473.245167853485327, 3775074.567650050856173 ], [ 356473.550356052874122, 3775074.872838250361383 ], [ 356473.550356052874122, 3775075.483214648906142 ], [ 356473.855544252262916, 3775075.788402848411351 ], [ 356473.855544252262916, 3775076.093591047916561 ], [ 356475.076297049876302, 3775077.31434384547174 ], [ 356475.076297049876302, 3775077.61953204497695 ], [ 356475.381485249265097, 3775077.924720244016498 ], [ 356475.381485249265097, 3775078.535096643026918 ], [ 356475.076297049876302, 3775078.840284842532128 ], [ 356475.076297049876302, 3775079.755849440582097 ], [ 356474.7711088504293, 3775079.755849440582097 ], [ 356474.160732451651711, 3775080.366225839126855 ], [ 356473.550356052874122, 3775080.366225839126855 ], [ 356473.245167853485327, 3775080.671414038632065 ], [ 356471.41403865715256, 3775080.671414038632065 ] ] ] } },
{ "type": "Feature", "properties": { "confidence": 0.28208437561988831, "class": 1 }, "geometry": { "type": "Polygon", "coordinates": [ [ [ 356771.41403865715256, 3774877.11088504595682 ], [ 356771.108850457763765, 3774876.80569684645161 ], [ 356770.80366225837497, 3774876.80569684645161 ], [ 356770.80366225837497, 3774875.584944048896432 ], [ 356771.41403865715256, 3774874.974567649886012 ], [ 356771.719226856541354, 3774874.974567649886012 ], [ 356772.329603255318943, 3774874.364191251341254 ], [ 356773.245167853485327, 3774874.364191251341254 ], [ 356773.550356052874122, 3774874.059003051836044 ], [ 356775.076297049876302, 3774874.059003051836044 ], [ 356775.381485249265097, 3774874.364191251341254 ], [ 356775.381485249265097, 3774875.890132248401642 ], [ 356775.076297049876302, 3774876.19532044744119 ], [ 356775.076297049876302, 3774876.5005086469464 ], [ 356774.7711088504293, 3774876.5005086469464 ], [ 356774.160732451651711, 3774877.11088504595682 ], [ 356771.41403865715256, 3774877.11088504595682 ] ] ] } }
]
}
