{
"type": "FeatureCollection",
"name": "cell_00473_pre",
"crs": { "type": "name", "properties": { "name": "urn:ogc:def:crs:EPSG::32611" } },
"features": [
{ "type": "Feature", "properties": { "confidence": 0.95984494686126709, "class": 1 }, "geometry": { "type": "Polygon", "coordinates": [ [ [ 400805.493387588998303, 3783119.938962359912694 ], [ 400805.188199389609508, 3783119.633774160873145 ], [ 400805.188199389609508, 3783119.328585961367935 ], [ 400804.883011190220714, 3783119.023397761862725 ], [ 400804.883011190220714, 3783116.581892166752368 ], [ 400805.188199389609508, 3783116.276703967247158 ], [ 400805.188199389609508, 3783115.97151576820761 ], [ 400805.493387588998303, 3783115.97151576820761 ], [ 400806.714140386553481, 3783114.750762970652431 ], [ 400807.32451678533107, 3783114.750762970652431 ], [ 400807.93489318410866, 3783114.140386571642011 ], [ 400808.545269582886249, 3783114.140386571642011 ], [ 400808.850457782275043, 3783113.835198372136801 ], [ 400810.071210579830222, 3783113.835198372136801 ], [ 400810.376398779219016, 3783114.140386571642011 ], [ 400810.376398779219016, 3783114.750762970652431 ], [ 400810.071210579830222, 3783115.05595116969198 ], [ 400810.071210579830222, 3783115.36113936919719 ], [ 400809.766022380441427, 3783115.6663275687024 ], [ 400809.766022380441427, 3783115.97151576820761 ], [ 400808.850457782275043, 3783116.887080366257578 ], [ 400808.850457782275043, 3783117.192268565762788 ], [ 400808.545269582886249, 3783117.497456764802337 ], [ 400808.545269582886249, 3783117.802644964307547 ], [ 400807.93489318410866, 3783118.413021363317966 ], [ 400807.93489318410866, 3783118.718209562357515 ], [ 400807.32451678533107, 3783119.328585961367935 ], [ 400807.32451678533107, 3783119.633774160873145 ], [ 400807.019328585942276, 3783119.938962359912694 ], [ 400805.493387588998303, 3783119.938962359912694 ] ] ] } },
{ "type": "Feature", "properties": { "confidence": 0.92837774753570557, "class": 1 }, "geometry": { "type": "Polygon", "coordinates": [ [ [ 401042.319430315343197, 3783187.690742624457926 ], [ 401042.319430315343197, 3783185.554425228852779 ], [ 401042.929806714120787, 3783184.94404883030802 ], [ 401043.234994913509581, 3783184.94404883030802 ], [ 401043.84537131228717, 3783184.3336724312976 ], [ 401044.150559511675965, 3783184.3336724312976 ], [ 401044.45574771106476, 3783184.02848423179239 ], [ 401044.760935910453554, 3783184.02848423179239 ], [ 401045.066124109842349, 3783183.723296032752842 ], [ 401045.676500508619938, 3783183.723296032752842 ], [ 401045.981688708008733, 3783183.418107833247632 ], [ 401046.59206510684453, 3783183.418107833247632 ], [ 401046.897253306233324, 3783183.112919633742422 ], [ 401048.423194303177297, 3783183.112919633742422 ], [ 401048.423194303177297, 3783184.02848423179239 ], [ 401048.118006103788503, 3783184.02848423179239 ], [ 401046.59206510684453, 3783185.554425228852779 ], [ 401046.286876907397527, 3783185.554425228852779 ], [ 401045.981688708008733, 3783185.859613428357989 ], [ 401045.676500508619938, 3783185.859613428357989 ], [ 401045.066124109842349, 3783186.469989826902747 ], [ 401044.760935910453554, 3783186.469989826902747 ], [ 401043.84537131228717, 3783187.385554425418377 ], [ 401043.234994913509581, 3783187.385554425418377 ], [ 401042.929806714120787, 3783187.690742624457926 ], [ 401042.319430315343197, 3783187.690742624457926 ] ] ] } },
{ "type": "Feature", "properties": { "confidence": 0.9221881628036499, "class": 1 }, "geometry": { "type": "Polygon", "coordinates": [ [ [ 400962.360122075304389, 3783448.321464903187007 ], [ 400962.054933875915594, 3783448.016276704147458 ], [ 400962.054933875915594, 3783446.49033570708707 ], [ 400961.7497456765268, 3783446.18514750758186 ], [ 400961.7497456765268, 3783445.574771109037101 ], [ 400961.444557477138005, 3783445.269582909531891 ], [ 400961.444557477138005, 3783444.659206510521472 ], [ 400961.139369277749211, 3783444.354018311481923 ], [ 400961.139369277749211, 3783444.048830111976713 ], [ 400968.158697863691486, 3783444.048830111976713 ], [ 400968.158697863691486, 3783444.659206510521472 ], [ 400967.853509664302692, 3783444.964394710026681 ], [ 400967.853509664302692, 3783445.269582909531891 ], [ 400965.412004069192335, 3783447.711088504642248 ], [ 400964.801627670414746, 3783447.711088504642248 ], [ 400964.496439471025951, 3783448.016276704147458 ], [ 400963.580874872859567, 3783448.016276704147458 ], [ 400963.275686673470773, 3783448.321464903187007 ], [ 400962.360122075304389, 3783448.321464903187007 ] ] ] } },
{ "type": "Feature", "properties": { "confidence": 0.88840019702911377, "class": 1 }, "geometry": { "type": "Polygon", "coordinates": [ [ [ 400988.301119023410138, 3783174.872838250361383 ], [ 400987.995930824021343, 3783174.567650050856173 ], [ 400987.995930824021343, 3783173.346897253300995 ], [ 400988.301119023410138, 3783173.041709053795785 ], [ 400988.301119023410138, 3783172.126144455745816 ], [ 400989.216683621576522, 3783171.210579857695848 ], [ 400989.521871820965316, 3783171.210579857695848 ], [ 400990.132248219742905, 3783170.600203458685428 ], [ 400991.353001017298084, 3783170.600203458685428 ], [ 400991.658189216686878, 3783170.295015259180218 ], [ 400991.963377416075673, 3783170.295015259180218 ], [ 400992.268565615464468, 3783169.989827060140669 ], [ 400992.878942014242057, 3783169.989827060140669 ], [ 400993.489318413019646, 3783169.37945066113025 ], [ 400995.015259409963619, 3783169.37945066113025 ], [ 400995.320447609352414, 3783169.684638860635459 ], [ 400995.930824008130003, 3783169.684638860635459 ], [ 400995.930824008130003, 3783172.126144455745816 ], [ 400995.625635808741208, 3783172.431332655251026 ], [ 400995.625635808741208, 3783172.736520854756236 ], [ 400995.320447609352414, 3783173.041709053795785 ], [ 400992.878942014242057, 3783173.041709053795785 ], [ 400992.573753814853262, 3783173.346897253300995 ], [ 400991.658189216686878, 3783173.346897253300995 ], [ 400991.353001017298084, 3783173.652085452806205 ], [ 400991.047812817909289, 3783173.652085452806205 ], [ 400990.742624618520495, 3783173.957273652311414 ], [ 400990.4374364191317, 3783173.957273652311414 ], [ 400989.827060020354111, 3783174.567650050856173 ], [ 400989.521871820965316, 3783174.567650050856173 ], [ 400989.216683621576522, 3783174.872838250361383 ], [ 400988.301119023410138, 3783174.872838250361383 ] ] ] } },
{ "type": "Feature", "properties": { "confidence": 0.81014877557754517, "class": 1 }, "geometry": { "type": "Polygon", "coordinates": [ [ [ 400917.192268565588165, 3783057.680569684598595 ], [ 400916.88708036619937, 3783057.375381485093385 ], [ 400916.581892166810576, 3783057.375381485093385 ], [ 400914.750762970477808, 3783055.544252288993448 ], [ 400914.750762970477808, 3783054.933875889983028 ], [ 400914.445574771089014, 3783054.62868769094348 ], [ 400914.445574771089014, 3783054.32349949143827 ], [ 400913.835198372311424, 3783053.71312309242785 ], [ 400913.835198372311424, 3783053.407934893388301 ], [ 400913.53001017292263, 3783053.102746693883091 ], [ 400913.53001017292263, 3783052.492370294872671 ], [ 400912.919633774145041, 3783051.881993896327913 ], [ 400912.919633774145041, 3783050.050864699762315 ], [ 400913.224821973533835, 3783049.745676500722766 ], [ 400913.224821973533835, 3783049.135300101712346 ], [ 400914.140386571700219, 3783048.219735503662378 ], [ 400915.666327568644192, 3783048.219735503662378 ], [ 400915.971515768032987, 3783048.524923703167588 ], [ 400916.581892166810576, 3783048.524923703167588 ], [ 400916.88708036619937, 3783048.830111902207136 ], [ 400917.192268565588165, 3783048.830111902207136 ], [ 400917.49745676497696, 3783049.135300101712346 ], [ 400917.802644964365754, 3783049.135300101712346 ], [ 400918.413021363201551, 3783049.745676500722766 ], [ 400918.718209562590346, 3783049.745676500722766 ], [ 400919.02339776197914, 3783050.050864699762315 ], [ 400919.328585961367935, 3783050.050864699762315 ], [ 400919.328585961367935, 3783050.661241098772734 ], [ 400919.63377416075673, 3783050.966429298277944 ], [ 400919.63377416075673, 3783051.271617497317493 ], [ 400919.938962360145524, 3783051.576805696822703 ], [ 400919.63377416075673, 3783051.881993896327913 ], [ 400919.63377416075673, 3783056.459816887043417 ], [ 400919.328585961367935, 3783056.765005086548626 ], [ 400919.328585961367935, 3783057.070193286053836 ], [ 400919.02339776197914, 3783057.375381485093385 ], [ 400919.02339776197914, 3783057.680569684598595 ], [ 400917.192268565588165, 3783057.680569684598595 ] ] ] } },
{ "type": "Feature", "properties": { "confidence": 0.80421388149261475, "class": 1 }, "geometry": { "type": "Polygon", "coordinates": [ [ [ 400922.075279755867086, 3783088.199389623478055 ], [ 400921.770091556478292, 3783087.894201424438506 ], [ 400921.770091556478292, 3783086.673448626883328 ], [ 400921.464903357089497, 3783086.368260427378118 ], [ 400921.464903357089497, 3783085.14750762982294 ], [ 400921.159715157700703, 3783084.84231943031773 ], [ 400921.159715157700703, 3783082.706002034712583 ], [ 400921.464903357089497, 3783082.400813835207373 ], [ 400921.464903357089497, 3783082.095625635702163 ], [ 400921.770091556478292, 3783081.790437436196953 ], [ 400921.770091556478292, 3783081.485249237157404 ], [ 400922.075279755867086, 3783081.180061037652194 ], [ 400922.99084435403347, 3783081.180061037652194 ], [ 400923.296032553422265, 3783081.485249237157404 ], [ 400923.601220752811059, 3783081.485249237157404 ], [ 400923.601220752811059, 3783081.790437436196953 ], [ 400923.906408952199854, 3783082.095625635702163 ], [ 400924.211597151588649, 3783082.095625635702163 ], [ 400924.821973550366238, 3783082.706002034712583 ], [ 400924.821973550366238, 3783083.316378433257341 ], [ 400925.127161749755032, 3783083.621566632762551 ], [ 400925.127161749755032, 3783086.063072227872908 ], [ 400924.821973550366238, 3783086.368260427378118 ], [ 400924.821973550366238, 3783086.978636825922877 ], [ 400924.516785350977443, 3783087.283825025428087 ], [ 400924.516785350977443, 3783087.589013224933296 ], [ 400923.906408952199854, 3783088.199389623478055 ], [ 400922.075279755867086, 3783088.199389623478055 ] ] ] } },
{ "type": "Feature", "properties": { "confidence": 0.74933010339736938, "class": 1 }, "geometry": { "type": "Polygon", "coordinates": [ [ [ 401072.533062054950278, 3783269.48118006112054 ], [ 401072.227873855561484, 3783269.17599186161533 ], [ 401071.3123092573951, 3783269.17599186161533 ], [ 401070.396744659228716, 3783268.260427263565361 ], [ 401070.396744659228716, 3783267.955239064060152 ], [ 401070.091556459839921, 3783267.650050864554942 ], [ 401070.091556459839921, 3783267.344862665515393 ], [ 401069.175991861673538, 3783266.429298066999763 ], [ 401069.175991861673538, 3783265.818921668455005 ], [ 401068.870803662284743, 3783265.513733468949795 ], [ 401069.175991861673538, 3783265.208545269444585 ], [ 401069.175991861673538, 3783264.598168870899826 ], [ 401071.007121058006305, 3783262.767039674334228 ], [ 401072.533062054950278, 3783262.767039674334228 ], [ 401072.838250254339073, 3783263.072227873839438 ], [ 401073.143438453727867, 3783263.072227873839438 ], [ 401073.143438453727867, 3783269.48118006112054 ], [ 401072.533062054950278, 3783269.48118006112054 ] ] ] } },
{ "type": "Feature", "properties": { "confidence": 0.71229147911071777, "class": 1 }, "geometry": { "type": "Polygon", "coordinates": [ [ [ 401034.384537131234538, 3783125.737538148649037 ], [ 401034.384537131234538, 3783122.68565615452826 ], [ 401035.605289928789716, 3783122.68565615452826 ], [ 401035.910478128178511, 3783122.38046795502305 ], [ 401037.741607324511278, 3783122.38046795502305 ], [ 401038.046795523900073, 3783122.68565615452826 ], [ 401038.046795523900073, 3783123.601220752578229 ], [ 401037.436419125122484, 3783124.211597151588649 ], [ 401037.436419125122484, 3783124.516785351093858 ], [ 401037.131230925733689, 3783124.821973550133407 ], [ 401036.826042726344895, 3783124.821973550133407 ], [ 401036.5208545269561, 3783125.127161749638617 ], [ 401036.215666327567305, 3783125.127161749638617 ], [ 401035.910478128178511, 3783125.432349949143827 ], [ 401035.605289928789716, 3783125.432349949143827 ], [ 401035.300101729400922, 3783125.737538148649037 ], [ 401034.384537131234538, 3783125.737538148649037 ] ] ] } },
{ "type": "Feature", "properties": { "confidence": 0.71097630262374878, "class": 1 }, "geometry": { "type": "Polygon", "coordinates": [ [ [ 400949.847405900305603, 3783449.237029501702636 ], [ 400949.847405900305603, 3783448.016276704147458 ], [ 400950.152594099694397, 3783447.711088504642248 ], [ 400950.152594099694397, 3783447.405900305137038 ], [ 400950.457782299083192, 3783447.100712105631828 ], [ 400950.457782299083192, 3783446.79552390659228 ], [ 400950.762970498471987, 3783446.49033570708707 ], [ 400950.762970498471987, 3783444.048830111976713 ], [ 400957.171922685636673, 3783444.048830111976713 ], [ 400957.171922685636673, 3783445.574771109037101 ], [ 400956.866734486247879, 3783445.87995930807665 ], [ 400956.866734486247879, 3783446.79552390659228 ], [ 400955.951169888081495, 3783447.711088504642248 ], [ 400955.6459816886927, 3783447.711088504642248 ], [ 400955.340793489303906, 3783448.016276704147458 ], [ 400954.425228891137522, 3783448.016276704147458 ], [ 400954.120040691748727, 3783448.321464903187007 ], [ 400953.204476093582343, 3783448.321464903187007 ], [ 400952.899287894193549, 3783448.626653102692217 ], [ 400952.594099694804754, 3783448.626653102692217 ], [ 400952.28891149541596, 3783448.931841302197427 ], [ 400951.983723296027165, 3783448.931841302197427 ], [ 400951.67853509663837, 3783449.237029501702636 ], [ 400949.847405900305603, 3783449.237029501702636 ] ] ] } },
{ "type": "Feature", "properties": { "confidence": 0.63858699798583984, "class": 1 }, "geometry": { "type": "Polygon", "coordinates": [ [ [ 401041.709053916565608, 3783099.186164801474661 ], [ 401041.403865717176814, 3783098.880976602435112 ], [ 401041.403865717176814, 3783096.744659206364304 ], [ 401041.709053916565608, 3783096.439471007324755 ], [ 401041.709053916565608, 3783096.134282807819545 ], [ 401042.014242115954403, 3783096.134282807819545 ], [ 401042.624618514731992, 3783095.523906408809125 ], [ 401043.234994913509581, 3783095.523906408809125 ], [ 401043.540183112898376, 3783095.829094608314335 ], [ 401044.150559511675965, 3783095.829094608314335 ], [ 401044.45574771106476, 3783096.134282807819545 ], [ 401045.066124109842349, 3783096.134282807819545 ], [ 401045.371312309231143, 3783096.439471007324755 ], [ 401045.371312309231143, 3783096.744659206364304 ], [ 401045.676500508619938, 3783097.049847405869514 ], [ 401045.676500508619938, 3783097.660223804879934 ], [ 401045.371312309231143, 3783097.965412003919482 ], [ 401045.371312309231143, 3783098.270600203424692 ], [ 401044.45574771106476, 3783099.186164801474661 ], [ 401041.709053916565608, 3783099.186164801474661 ] ] ] } },
{ "type": "Feature", "properties": { "confidence": 0.50287353992462158, "class": 1 }, "geometry": { "type": "Polygon", "coordinates": [ [ [ 401304.170905391685665, 3783132.146490335930139 ], [ 401303.86571719229687, 3783131.841302136424929 ], [ 401303.255340793461073, 3783131.841302136424929 ], [ 401302.950152594072279, 3783131.536113936919719 ], [ 401302.644964394683484, 3783131.536113936919719 ], [ 401301.7293997965171, 3783130.62054933886975 ], [ 401301.424211597128306, 3783130.62054933886975 ], [ 401301.119023397739511, 3783130.315361139364541 ], [ 401301.119023397739511, 3783130.010172939859331 ], [ 401300.813835198350716, 3783129.704984740819782 ], [ 401300.813835198350716, 3783127.873855544254184 ], [ 401300.508646998961922, 3783127.568667344748974 ], [ 401300.508646998961922, 3783127.263479145243764 ], [ 401300.203458799573127, 3783126.958290946204215 ], [ 401299.898270600184333, 3783126.958290946204215 ], [ 401299.898270600184333, 3783126.347914547193795 ], [ 401299.593082400795538, 3783126.042726347688586 ], [ 401299.593082400795538, 3783125.432349949143827 ], [ 401299.287894201406743, 3783125.127161749638617 ], [ 401299.287894201406743, 3783122.99084435403347 ], [ 401299.898270600184333, 3783122.38046795502305 ], [ 401301.119023397739511, 3783122.38046795502305 ], [ 401301.424211597128306, 3783122.68565615452826 ], [ 401301.7293997965171, 3783122.68565615452826 ], [ 401302.339776195294689, 3783123.29603255353868 ], [ 401302.644964394683484, 3783123.29603255353868 ], [ 401303.255340793461073, 3783123.906408952083439 ], [ 401304.170905391685665, 3783123.906408952083439 ], [ 401304.476093591074459, 3783124.211597151588649 ], [ 401305.086469989852048, 3783124.211597151588649 ], [ 401305.391658189240843, 3783124.516785351093858 ], [ 401305.391658189240843, 3783128.484231942798942 ], [ 401305.086469989852048, 3783128.789420142304152 ], [ 401305.086469989852048, 3783130.315361139364541 ], [ 401304.781281790463254, 3783130.62054933886975 ], [ 401304.781281790463254, 3783131.536113936919719 ], [ 401304.170905391685665, 3783132.146490335930139 ] ] ] } },
{ "type": "Feature", "properties": { "confidence": 0.49291563034057617, "class": 1 }, "geometry": { "type": "Polygon", "coordinates": [ [ [ 401003.255340793461073, 3783086.673448626883328 ], [ 401002.644964394683484, 3783086.063072227872908 ], [ 401002.644964394683484, 3783085.757884028367698 ], [ 401002.034587995905895, 3783085.14750762982294 ], [ 401002.034587995905895, 3783084.84231943031773 ], [ 401001.7293997965171, 3783084.53713123081252 ], [ 401001.7293997965171, 3783083.621566632762551 ], [ 401002.644964394683484, 3783082.706002034712583 ], [ 401004.476093591074459, 3783082.706002034712583 ], [ 401004.781281790463254, 3783083.011190233752131 ], [ 401005.086469989852048, 3783083.011190233752131 ], [ 401005.391658189240843, 3783083.316378433257341 ], [ 401005.391658189240843, 3783083.621566632762551 ], [ 401005.696846388629638, 3783083.926754832267761 ], [ 401005.696846388629638, 3783085.757884028367698 ], [ 401005.391658189240843, 3783086.063072227872908 ], [ 401005.391658189240843, 3783086.368260427378118 ], [ 401005.086469989852048, 3783086.673448626883328 ], [ 401003.255340793461073, 3783086.673448626883328 ] ] ] } },
{ "type": "Feature", "properties": { "confidence": 0.47618988156318665, "class": 1 }, "geometry": { "type": "Polygon", "coordinates": [ [ [ 401050.559511698898859, 3783450.457782299257815 ], [ 401049.94913530012127, 3783449.847405900247395 ], [ 401049.94913530012127, 3783448.931841302197427 ], [ 401050.254323499510065, 3783448.626653102692217 ], [ 401050.254323499510065, 3783448.321464903187007 ], [ 401051.475076297065243, 3783447.100712105631828 ], [ 401051.780264496454038, 3783447.100712105631828 ], [ 401052.085452695842832, 3783446.79552390659228 ], [ 401052.695829094620422, 3783446.79552390659228 ], [ 401053.001017294009216, 3783447.100712105631828 ], [ 401053.306205493398011, 3783447.100712105631828 ], [ 401054.221770091564395, 3783448.016276704147458 ], [ 401054.221770091564395, 3783448.931841302197427 ], [ 401053.9165818921756, 3783449.237029501702636 ], [ 401053.9165818921756, 3783449.542217700742185 ], [ 401053.306205493398011, 3783450.152594099752605 ], [ 401053.306205493398011, 3783450.457782299257815 ], [ 401050.559511698898859, 3783450.457782299257815 ] ] ] } },
{ "type": "Feature", "properties": { "confidence": 0.45188772678375244, "class": 1 }, "geometry": { "type": "Polygon", "coordinates": [ [ [ 401228.179043743642978, 3783492.878942014183849 ], [ 401227.568667344865389, 3783492.268565615639091 ], [ 401227.568667344865389, 3783490.742624618578702 ], [ 401227.873855544254184, 3783490.437436419073492 ], [ 401227.873855544254184, 3783488.911495422013104 ], [ 401230.010172939975746, 3783488.911495422013104 ], [ 401230.315361139364541, 3783489.216683621518314 ], [ 401230.620549338753335, 3783489.216683621518314 ], [ 401231.841302136308514, 3783490.437436419073492 ], [ 401231.536113936919719, 3783490.742624618578702 ], [ 401231.536113936919719, 3783491.353001017123461 ], [ 401230.315361139364541, 3783492.573753814678639 ], [ 401230.010172939975746, 3783492.573753814678639 ], [ 401229.704984740586951, 3783492.878942014183849 ], [ 401228.179043743642978, 3783492.878942014183849 ] ] ] } },
{ "type": "Feature", "properties": { "confidence": 0.42087322473526001, "class": 1 }, "geometry": { "type": "Polygon", "coordinates": [ [ [ 400919.938962360145524, 3783440.386571719311178 ], [ 400919.63377416075673, 3783440.081383519805968 ], [ 400919.328585961367935, 3783440.081383519805968 ], [ 400919.328585961367935, 3783439.165818921755999 ], [ 400919.63377416075673, 3783438.860630722250789 ], [ 400919.63377416075673, 3783436.113936927635223 ], [ 400919.938962360145524, 3783435.808748728595674 ], [ 400922.685656154644676, 3783435.808748728595674 ], [ 400922.685656154644676, 3783438.250254323706031 ], [ 400922.380467955255881, 3783438.555442522745579 ], [ 400922.380467955255881, 3783439.165818921755999 ], [ 400921.464903357089497, 3783440.081383519805968 ], [ 400921.159715157700703, 3783440.081383519805968 ], [ 400920.854526958311908, 3783440.386571719311178 ], [ 400919.938962360145524, 3783440.386571719311178 ] ] ] } },
{ "type": "Feature", "properties": { "confidence": 0.41455158591270447, "class": 1 }, "geometry": { "type": "Polygon", "coordinates": [ [ [ 401014.547304170904681, 3783448.626653102692217 ], [ 401014.242115971515886, 3783448.321464903187007 ], [ 401013.326551373349503, 3783448.321464903187007 ], [ 401013.021363173960708, 3783448.016276704147458 ], [ 401012.716174974571913, 3783448.016276704147458 ], [ 401011.80061037640553, 3783447.100712105631828 ], [ 401011.495422177016735, 3783447.100712105631828 ], [ 401011.19023397762794, 3783446.79552390659228 ], [ 401011.19023397762794, 3783446.18514750758186 ], [ 401010.885045778239146, 3783445.87995930807665 ], [ 401010.885045778239146, 3783444.659206510521472 ], [ 401017.904374364181422, 3783444.659206510521472 ], [ 401017.904374364181422, 3783447.711088504642248 ], [ 401017.293997965403832, 3783448.321464903187007 ], [ 401016.988809766015038, 3783448.321464903187007 ], [ 401016.683621566626243, 3783448.626653102692217 ], [ 401014.547304170904681, 3783448.626653102692217 ] ] ] } },
{ "type": "Feature", "properties": { "confidence": 0.41224509477615356, "class": 1 }, "geometry": { "type": "Polygon", "coordinates": [ [ [ 400973.0417090539122, 3783589.623601220548153 ], [ 400972.736520854523405, 3783589.318413021508604 ], [ 400972.126144455745816, 3783589.318413021508604 ], [ 400971.820956256357022, 3783589.013224822003394 ], [ 400970.905391658190638, 3783589.013224822003394 ], [ 400970.600203458801843, 3783588.708036622498184 ], [ 400970.600203458801843, 3783587.182095625437796 ], [ 400970.905391658190638, 3783586.876907426398247 ], [ 400970.905391658190638, 3783586.571719226893038 ], [ 400971.515768056968227, 3783585.961342827882618 ], [ 400973.346897253300995, 3783585.961342827882618 ], [ 400973.652085452689789, 3783586.266531027387828 ], [ 400973.957273652078584, 3783586.266531027387828 ], [ 400973.957273652078584, 3783586.571719226893038 ], [ 400974.262461851467378, 3783586.876907426398247 ], [ 400974.262461851467378, 3783588.402848422992975 ], [ 400973.957273652078584, 3783588.708036622498184 ], [ 400973.957273652078584, 3783589.013224822003394 ], [ 400973.652085452689789, 3783589.318413021508604 ], [ 400973.346897253300995, 3783589.318413021508604 ], [ 400973.0417090539122, 3783589.623601220548153 ] ] ] } },
{ "type": "Feature", "properties": { "confidence": 0.41184106469154358, "class": 1 }, "geometry": { "type": "Polygon", "coordinates": [ [ [ 401066.124109867727384, 3783480.366225839126855 ], [ 401065.818921668338589, 3783480.061037640087306 ], [ 401065.818921668338589, 3783479.755849440582097 ], [ 401065.513733468949795, 3783479.450661241076887 ], [ 401065.513733468949795, 3783479.145473041571677 ], [ 401064.903357070172206, 3783478.535096643026918 ], [ 401064.903357070172206, 3783478.229908443521708 ], [ 401064.292980671394616, 3783477.61953204497695 ], [ 401064.292980671394616, 3783477.31434384547174 ], [ 401063.987792472005822, 3783477.00915564596653 ], [ 401063.987792472005822, 3783476.093591047916561 ], [ 401063.682604272617027, 3783475.788402848411351 ], [ 401063.682604272617027, 3783474.872838250361383 ], [ 401063.987792472005822, 3783474.872838250361383 ], [ 401064.292980671394616, 3783474.567650050856173 ], [ 401064.903357070172206, 3783474.567650050856173 ], [ 401065.208545269561, 3783474.262461851350963 ], [ 401066.429298067116179, 3783474.262461851350963 ], [ 401066.429298067116179, 3783475.483214648906142 ], [ 401068.260427263507154, 3783477.31434384547174 ], [ 401068.565615462895948, 3783477.31434384547174 ], [ 401069.175991861673538, 3783477.924720244016498 ], [ 401069.175991861673538, 3783479.450661241076887 ], [ 401068.870803662284743, 3783479.755849440582097 ], [ 401068.870803662284743, 3783480.061037640087306 ], [ 401068.260427263507154, 3783480.061037640087306 ], [ 401067.955239064118359, 3783480.366225839126855 ], [ 401066.124109867727384, 3783480.366225839126855 ] ] ] } },
{ "type": "Feature", "properties": { "confidence": 0.40464165806770325, "class": 1 }, "geometry": { "type": "Polygon", "coordinates": [ [ [ 401385.656154628668446, 3783081.485249237157404 ], [ 401385.350966429279651, 3783081.180061037652194 ], [ 401384.130213631724473, 3783081.180061037652194 ], [ 401383.519837232946884, 3783080.569684638641775 ], [ 401383.214649033558089, 3783080.569684638641775 ], [ 401381.993896236002911, 3783079.348931841086596 ], [ 401381.993896236002911, 3783076.602238046936691 ], [ 401382.299084435391705, 3783076.297049847431481 ], [ 401388.402848423167598, 3783076.297049847431481 ], [ 401388.708036622556392, 3783076.602238046936691 ], [ 401389.318413021392189, 3783076.602238046936691 ], [ 401389.623601220780984, 3783076.907426245976239 ], [ 401389.928789420169778, 3783076.907426245976239 ], [ 401390.233977619558573, 3783077.212614445481449 ], [ 401390.233977619558573, 3783077.517802644986659 ], [ 401390.539165818947367, 3783077.822990844491869 ], [ 401390.539165818947367, 3783078.128179043531418 ], [ 401390.233977619558573, 3783078.433367243036628 ], [ 401390.233977619558573, 3783079.348931841086596 ], [ 401389.013224821945187, 3783080.569684638641775 ], [ 401388.708036622556392, 3783080.569684638641775 ], [ 401388.097660223778803, 3783081.180061037652194 ], [ 401386.876907426223624, 3783081.180061037652194 ], [ 401386.57171922683483, 3783081.485249237157404 ], [ 401385.656154628668446, 3783081.485249237157404 ] ] ] } },
{ "type": "Feature", "properties": { "confidence": 0.39692062139511108, "class": 1 }, "geometry": { "type": "Polygon", "coordinates": [ [ [ 400881.180061037652194, 3783057.985757884103805 ], [ 400880.264496439485811, 3783057.070193286053836 ], [ 400879.959308240097016, 3783057.070193286053836 ], [ 400879.043743641930632, 3783056.154628687538207 ], [ 400879.043743641930632, 3783054.62868769094348 ], [ 400879.348931841319427, 3783054.32349949143827 ], [ 400879.348931841319427, 3783054.01831129193306 ], [ 400879.654120040708221, 3783054.01831129193306 ], [ 400879.959308240097016, 3783053.71312309242785 ], [ 400880.569684638874605, 3783053.71312309242785 ], [ 400880.8748728382634, 3783053.407934893388301 ], [ 400883.316378433373757, 3783053.407934893388301 ], [ 400883.926754832151346, 3783054.01831129193306 ], [ 400884.231943031540141, 3783054.01831129193306 ], [ 400884.537131230928935, 3783054.32349949143827 ], [ 400884.84231943031773, 3783054.32349949143827 ], [ 400885.757884028484114, 3783055.239064089488238 ], [ 400885.757884028484114, 3783057.375381485093385 ], [ 400885.452695829095319, 3783057.375381485093385 ], [ 400885.147507629706524, 3783057.680569684598595 ], [ 400883.621566632762551, 3783057.680569684598595 ], [ 400883.316378433373757, 3783057.985757884103805 ], [ 400881.180061037652194, 3783057.985757884103805 ] ] ] } },
{ "type": "Feature", "properties": { "confidence": 0.38864102959632874, "class": 1 }, "geometry": { "type": "Polygon", "coordinates": [ [ [ 400905.900305188202765, 3783094.913530010264367 ], [ 400905.59511698881397, 3783094.608341810759157 ], [ 400904.679552390647586, 3783094.608341810759157 ], [ 400903.763987792481203, 3783093.692777212709188 ], [ 400903.763987792481203, 3783092.47202441515401 ], [ 400910.783316378423478, 3783092.47202441515401 ], [ 400910.783316378423478, 3783093.387589013203979 ], [ 400910.478128179034684, 3783093.692777212709188 ], [ 400910.478128179034684, 3783093.997965412214398 ], [ 400909.867751780257095, 3783094.608341810759157 ], [ 400906.205493387591559, 3783094.608341810759157 ], [ 400905.900305188202765, 3783094.913530010264367 ] ] ] } },
{ "type": "Feature", "properties": { "confidence": 0.35812416672706604, "class": 1 }, "geometry": { "type": "Polygon", "coordinates": [ [ [ 401307.527975584962405, 3783364.699898270424455 ], [ 401307.222787385573611, 3783364.394710071384907 ], [ 401306.612410986796021, 3783364.394710071384907 ], [ 401306.307222787407227, 3783364.089521871879697 ], [ 401305.086469989852048, 3783364.089521871879697 ], [ 401304.781281790463254, 3783363.784333672374487 ], [ 401304.476093591074459, 3783363.784333672374487 ], [ 401303.255340793461073, 3783362.563580874819309 ], [ 401303.255340793461073, 3783361.34282807726413 ], [ 401304.170905391685665, 3783360.427263479214162 ], [ 401304.476093591074459, 3783360.427263479214162 ], [ 401304.781281790463254, 3783360.122075279708952 ], [ 401307.527975584962405, 3783360.122075279708952 ], [ 401307.527975584962405, 3783364.699898270424455 ] ] ] } },
{ "type": "Feature", "properties": { "confidence": 0.35466179251670837, "class": 1 }, "geometry": { "type": "Polygon", "coordinates": [ [ [ 400821.973550356051419, 3783126.042726347688586 ], [ 400821.36317395727383, 3783125.432349949143827 ], [ 400821.36317395727383, 3783122.68565615452826 ], [ 400821.668362156662624, 3783122.38046795502305 ], [ 400821.668362156662624, 3783122.075279755983502 ], [ 400822.278738555440214, 3783121.464903356973082 ], [ 400823.194303153606597, 3783121.464903356973082 ], [ 400823.499491352995392, 3783121.770091556478292 ], [ 400824.415055951161776, 3783121.770091556478292 ], [ 400824.72024415055057, 3783122.075279755983502 ], [ 400824.72024415055057, 3783124.821973550133407 ], [ 400824.109867751772981, 3783125.432349949143827 ], [ 400823.804679552384187, 3783125.432349949143827 ], [ 400823.499491352995392, 3783125.737538148649037 ], [ 400822.583926754829008, 3783125.737538148649037 ], [ 400822.278738555440214, 3783126.042726347688586 ], [ 400821.973550356051419, 3783126.042726347688586 ] ] ] } },
{ "type": "Feature", "properties": { "confidence": 0.3376222550868988, "class": 1 }, "geometry": { "type": "Polygon", "coordinates": [ [ [ 400969.684638860635459, 3783453.20447609340772 ], [ 400969.379450661246665, 3783452.899287894368172 ], [ 400968.158697863691486, 3783452.899287894368172 ], [ 400968.158697863691486, 3783449.237029501702636 ], [ 400969.684638860635459, 3783447.711088504642248 ], [ 400969.684638860635459, 3783447.405900305137038 ], [ 400969.989827060024254, 3783447.100712105631828 ], [ 400969.989827060024254, 3783444.964394710026681 ], [ 400970.295015259413049, 3783444.659206510521472 ], [ 400973.957273652078584, 3783444.659206510521472 ], [ 400974.262461851467378, 3783444.964394710026681 ], [ 400973.957273652078584, 3783445.269582909531891 ], [ 400973.957273652078584, 3783446.49033570708707 ], [ 400973.652085452689789, 3783446.79552390659228 ], [ 400973.652085452689789, 3783448.626653102692217 ], [ 400973.346897253300995, 3783448.931841302197427 ], [ 400973.346897253300995, 3783449.847405900247395 ], [ 400973.0417090539122, 3783450.152594099752605 ], [ 400973.0417090539122, 3783450.762970498297364 ], [ 400972.736520854523405, 3783451.068158697802573 ], [ 400972.736520854523405, 3783451.983723295852542 ], [ 400972.431332655134611, 3783452.288911495357752 ], [ 400972.431332655134611, 3783452.899287894368172 ], [ 400972.126144455745816, 3783453.20447609340772 ], [ 400969.684638860635459, 3783453.20447609340772 ] ] ] } },
{ "type": "Feature", "properties": { "confidence": 0.3339100182056427, "class": 1 }, "geometry": { "type": "Polygon", "coordinates": [ [ [ 400873.855544252262916, 3783448.626653102692217 ], [ 400873.550356052874122, 3783448.321464903187007 ], [ 400873.245167853485327, 3783448.321464903187007 ], [ 400872.634791454707738, 3783447.711088504642248 ], [ 400872.634791454707738, 3783447.405900305137038 ], [ 400872.329603255318943, 3783447.100712105631828 ], [ 400872.329603255318943, 3783446.79552390659228 ], [ 400871.108850457763765, 3783445.574771109037101 ], [ 400871.108850457763765, 3783444.659206510521472 ], [ 400870.80366225837497, 3783444.354018311481923 ], [ 400870.80366225837497, 3783444.048830111976713 ], [ 400879.043743641930632, 3783444.048830111976713 ], [ 400879.043743641930632, 3783444.659206510521472 ], [ 400878.738555442541838, 3783444.964394710026681 ], [ 400878.738555442541838, 3783445.269582909531891 ], [ 400878.433367243153043, 3783445.574771109037101 ], [ 400878.433367243153043, 3783446.18514750758186 ], [ 400877.822990844375454, 3783446.79552390659228 ], [ 400877.822990844375454, 3783447.405900305137038 ], [ 400876.90742624620907, 3783448.321464903187007 ], [ 400876.602238046820275, 3783448.321464903187007 ], [ 400876.297049847431481, 3783448.626653102692217 ], [ 400873.855544252262916, 3783448.626653102692217 ] ] ] } },
{ "type": "Feature", "properties": { "confidence": 0.32958424091339111, "class": 1 }, "geometry": { "type": "Polygon", "coordinates": [ [ [ 400848.830111902323551, 3783043.947100711986423 ], [ 400848.524923702934757, 3783043.641912512946874 ], [ 400848.219735503545962, 3783043.641912512946874 ], [ 400847.914547304157168, 3783043.336724313441664 ], [ 400847.609359104768373, 3783043.336724313441664 ], [ 400846.998982705990784, 3783042.726347914431244 ], [ 400846.998982705990784, 3783042.421159714926034 ], [ 400845.473041709046811, 3783040.895218718331307 ], [ 400845.473041709046811, 3783040.590030518826097 ], [ 400844.862665310269222, 3783039.979654119815677 ], [ 400844.862665310269222, 3783039.369277721270919 ], [ 400844.557477110880427, 3783039.064089521765709 ], [ 400844.557477110880427, 3783038.758901322260499 ], [ 400844.252288911491632, 3783038.45371312322095 ], [ 400844.252288911491632, 3783038.14852492371574 ], [ 400843.947100712102838, 3783037.843336724210531 ], [ 400843.947100712102838, 3783036.012207528110594 ], [ 400844.252288911491632, 3783035.707019328605384 ], [ 400844.252288911491632, 3783035.401831129100174 ], [ 400845.167853509658016, 3783035.401831129100174 ], [ 400845.473041709046811, 3783035.707019328605384 ], [ 400845.778229908435605, 3783035.707019328605384 ], [ 400846.0834181078244, 3783036.012207528110594 ], [ 400846.388606307213195, 3783036.012207528110594 ], [ 400846.693794506601989, 3783036.317395727150142 ], [ 400846.998982705990784, 3783036.317395727150142 ], [ 400847.304170905379578, 3783036.622583926655352 ], [ 400847.609359104768373, 3783036.622583926655352 ], [ 400847.609359104768373, 3783036.927772126160562 ], [ 400847.914547304157168, 3783037.232960325665772 ], [ 400848.219735503545962, 3783037.232960325665772 ], [ 400848.219735503545962, 3783037.538148524705321 ], [ 400848.524923702934757, 3783037.843336724210531 ], [ 400848.524923702934757, 3783038.14852492371574 ], [ 400849.135300101712346, 3783038.758901322260499 ], [ 400849.135300101712346, 3783039.369277721270919 ], [ 400849.440488301101141, 3783039.674465920776129 ], [ 400849.440488301101141, 3783039.979654119815677 ], [ 400850.661241098656319, 3783041.200406917370856 ], [ 400850.661241098656319, 3783043.336724313441664 ], [ 400850.05086469987873, 3783043.947100711986423 ], [ 400848.830111902323551, 3783043.947100711986423 ] ] ] } },
{ "type": "Feature", "properties": { "confidence": 0.30455136299133301, "class": 1 }, "geometry": { "type": "Polygon", "coordinates": [ [ [ 401042.929806714120787, 3783112.919633774086833 ], [ 401042.929806714120787, 3783112.614445574581623 ], [ 401042.624618514731992, 3783112.309257375542074 ], [ 401042.929806714120787, 3783112.004069176036865 ], [ 401042.929806714120787, 3783109.867751780431718 ], [ 401043.234994913509581, 3783109.562563580926508 ], [ 401045.676500508619938, 3783109.562563580926508 ], [ 401045.981688708008733, 3783109.867751780431718 ], [ 401045.981688708008733, 3783112.004069176036865 ], [ 401045.676500508619938, 3783112.309257375542074 ], [ 401045.676500508619938, 3783112.614445574581623 ], [ 401045.371312309231143, 3783112.614445574581623 ], [ 401045.066124109842349, 3783112.919633774086833 ], [ 401042.929806714120787, 3783112.919633774086833 ] ] ] } },
{ "type": "Feature", "properties": { "confidence": 0.29163363575935364, "class": 1 }, "geometry": { "type": "Polygon", "coordinates": [ [ [ 401034.384537131234538, 3783447.100712105631828 ], [ 401034.079348931845743, 3783446.79552390659228 ], [ 401031.637843336735386, 3783446.79552390659228 ], [ 401031.027466937957797, 3783446.18514750758186 ], [ 401031.027466937957797, 3783445.574771109037101 ], [ 401030.722278738569003, 3783445.269582909531891 ], [ 401030.722278738569003, 3783444.964394710026681 ], [ 401030.417090539180208, 3783444.659206510521472 ], [ 401030.417090539180208, 3783444.048830111976713 ], [ 401037.131230925733689, 3783444.048830111976713 ], [ 401037.131230925733689, 3783444.354018311481923 ], [ 401037.436419125122484, 3783444.659206510521472 ], [ 401037.436419125122484, 3783446.18514750758186 ], [ 401037.131230925733689, 3783446.49033570708707 ], [ 401037.131230925733689, 3783446.79552390659228 ], [ 401036.5208545269561, 3783446.79552390659228 ], [ 401036.215666327567305, 3783447.100712105631828 ], [ 401034.384537131234538, 3783447.100712105631828 ] ] ] } },
{ "type": "Feature", "properties": { "confidence": 0.2908463180065155, "class": 1 }, "geometry": { "type": "Polygon", "coordinates": [ [ [ 401150.05086469987873, 3783182.807731434237212 ], [ 401149.745676500489935, 3783182.502543235197663 ], [ 401149.440488301101141, 3783182.502543235197663 ], [ 401149.135300101712346, 3783182.197355035692453 ], [ 401149.135300101712346, 3783181.892166836187243 ], [ 401148.830111902323551, 3783181.586978636682034 ], [ 401148.830111902323551, 3783181.281790437642485 ], [ 401149.135300101712346, 3783180.976602238137275 ], [ 401149.135300101712346, 3783180.366225839126855 ], [ 401149.440488301101141, 3783180.061037640087306 ], [ 401149.440488301101141, 3783179.755849440582097 ], [ 401149.745676500489935, 3783179.450661241076887 ], [ 401150.661241098656319, 3783179.450661241076887 ], [ 401150.966429298045114, 3783179.145473041571677 ], [ 401151.271617497433908, 3783179.450661241076887 ], [ 401151.881993896211497, 3783179.450661241076887 ], [ 401152.187182095600292, 3783179.755849440582097 ], [ 401152.187182095600292, 3783180.061037640087306 ], [ 401152.492370294989087, 3783180.366225839126855 ], [ 401152.492370294989087, 3783182.197355035692453 ], [ 401152.187182095600292, 3783182.197355035692453 ], [ 401151.881993896211497, 3783182.502543235197663 ], [ 401151.576805696822703, 3783182.502543235197663 ], [ 401151.271617497433908, 3783182.807731434237212 ], [ 401150.05086469987873, 3783182.807731434237212 ] ] ] } },
{ "type": "Feature", "properties": { "confidence": 0.26427406072616577, "class": 1 }, "geometry": { "type": "Polygon", "coordinates": [ [ [ 400987.995930824021343, 3783163.275686673354357 ], [ 400987.690742624632549, 3783162.970498473849148 ], [ 400987.080366225854959, 3783162.970498473849148 ], [ 400986.775178026466165, 3783162.665310274809599 ], [ 400986.775178026466165, 3783160.223804679699242 ], [ 400987.080366225854959, 3783159.918616480194032 ], [ 400987.080366225854959, 3783159.613428280688822 ], [ 400987.385554425243754, 3783159.613428280688822 ], [ 400987.690742624632549, 3783159.308240081183612 ], [ 400987.995930824021343, 3783159.308240081183612 ], [ 400988.301119023410138, 3783159.003051882144064 ], [ 400988.606307222798932, 3783159.003051882144064 ], [ 400988.911495422187727, 3783158.697863682638854 ], [ 400991.047812817909289, 3783158.697863682638854 ], [ 400991.353001017298084, 3783159.003051882144064 ], [ 400991.658189216686878, 3783159.003051882144064 ], [ 400991.963377416075673, 3783159.308240081183612 ], [ 400991.963377416075673, 3783159.613428280688822 ], [ 400992.268565615464468, 3783159.918616480194032 ], [ 400992.268565615464468, 3783160.528992878738791 ], [ 400992.573753814853262, 3783160.834181078244001 ], [ 400992.573753814853262, 3783162.360122075304389 ], [ 400992.268565615464468, 3783162.665310274809599 ], [ 400991.963377416075673, 3783162.665310274809599 ], [ 400991.658189216686878, 3783162.970498473849148 ], [ 400991.047812817909289, 3783162.970498473849148 ], [ 400990.742624618520495, 3783163.275686673354357 ], [ 400987.995930824021343, 3783163.275686673354357 ] ] ] } },
{ "type": "Feature", "properties": { "confidence": 0.26275888085365295, "class": 1 }, "geometry": { "type": "Polygon", "coordinates": [ [ [ 400822.278738555440214, 3783301.831129196565598 ], [ 400821.973550356051419, 3783301.525940997060388 ], [ 400821.36317395727383, 3783301.525940997060388 ], [ 400821.057985757885035, 3783301.220752797555178 ], [ 400821.057985757885035, 3783299.69481180049479 ], [ 400820.752797558496241, 3783299.38962360098958 ], [ 400820.752797558496241, 3783298.779247202444822 ], [ 400820.447609359107446, 3783298.474059002939612 ], [ 400820.447609359107446, 3783298.168870803434402 ], [ 400820.142421159718651, 3783297.863682604394853 ], [ 400820.142421159718651, 3783297.558494404889643 ], [ 400819.837232960329857, 3783297.253306205384433 ], [ 400819.837232960329857, 3783296.948118005879223 ], [ 400819.532044760941062, 3783296.642929806839675 ], [ 400819.532044760941062, 3783295.727365208324045 ], [ 400819.837232960329857, 3783295.727365208324045 ], [ 400820.142421159718651, 3783295.422177009284496 ], [ 400820.752797558496241, 3783295.422177009284496 ], [ 400821.057985757885035, 3783295.727365208324045 ], [ 400821.973550356051419, 3783295.727365208324045 ], [ 400822.278738555440214, 3783296.032553407829255 ], [ 400823.804679552384187, 3783296.032553407829255 ], [ 400824.109867751772981, 3783296.337741607334465 ], [ 400824.415055951161776, 3783296.337741607334465 ], [ 400824.72024415055057, 3783296.642929806839675 ], [ 400825.025432349939365, 3783296.642929806839675 ], [ 400825.940996948105749, 3783297.558494404889643 ], [ 400825.940996948105749, 3783300.61037639901042 ], [ 400825.635808748716954, 3783300.915564598049968 ], [ 400825.635808748716954, 3783301.220752797555178 ], [ 400825.025432349939365, 3783301.831129196565598 ], [ 400822.278738555440214, 3783301.831129196565598 ] ] ] } },
{ "type": "Feature", "properties": { "confidence": 0.25873675942420959, "class": 1 }, "geometry": { "type": "Polygon", "coordinates": [ [ [ 401051.475076297065243, 3783126.653102746699005 ], [ 401051.169888097676449, 3783126.347914547193795 ], [ 401051.169888097676449, 3783126.042726347688586 ], [ 401050.864699898287654, 3783125.737538148649037 ], [ 401050.864699898287654, 3783125.127161749638617 ], [ 401051.169888097676449, 3783124.821973550133407 ], [ 401051.169888097676449, 3783123.601220752578229 ], [ 401051.475076297065243, 3783123.29603255353868 ], [ 401051.475076297065243, 3783122.68565615452826 ], [ 401051.780264496454038, 3783122.38046795502305 ], [ 401051.780264496454038, 3783121.770091556478292 ], [ 401052.085452695842832, 3783121.464903356973082 ], [ 401052.085452695842832, 3783121.159715157467872 ], [ 401052.390640895231627, 3783120.854526958428323 ], [ 401052.390640895231627, 3783120.244150559417903 ], [ 401052.695829094620422, 3783119.938962359912694 ], [ 401053.611393692786805, 3783119.938962359912694 ], [ 401053.9165818921756, 3783119.633774160873145 ], [ 401055.442522889119573, 3783119.633774160873145 ], [ 401055.137334689730778, 3783119.938962359912694 ], [ 401055.137334689730778, 3783120.244150559417903 ], [ 401054.832146490341984, 3783120.549338758923113 ], [ 401054.832146490341984, 3783121.464903356973082 ], [ 401055.137334689730778, 3783121.770091556478292 ], [ 401055.747711088508368, 3783121.770091556478292 ], [ 401055.747711088508368, 3783122.38046795502305 ], [ 401055.442522889119573, 3783122.68565615452826 ], [ 401055.442522889119573, 3783122.99084435403347 ], [ 401055.137334689730778, 3783123.29603255353868 ], [ 401055.137334689730778, 3783123.601220752578229 ], [ 401054.526958290953189, 3783124.211597151588649 ], [ 401054.526958290953189, 3783124.516785351093858 ], [ 401053.306205493398011, 3783125.737538148649037 ], [ 401053.306205493398011, 3783126.042726347688586 ], [ 401053.001017294009216, 3783126.042726347688586 ], [ 401052.390640895231627, 3783126.653102746699005 ], [ 401051.475076297065243, 3783126.653102746699005 ] ] ] } }
]
}
