{
"type": "FeatureCollection",
"name": "cell_00081_pre",
"crs": { "type": "name", "properties": { "name": "urn:ogc:def:crs:EPSG::32611" } },
"features": [
{ "type": "Feature", "properties": { "confidence": 0.94040805101394653, "class": 1, "regularized": null }, "geometry": { "type": "Polygon", "coordinates": [ [ [ 350689.928789420169778, 3770445.778229908552021 ], [ 350689.623601220780984, 3770445.473041709046811 ], [ 350689.318413021392189, 3770445.473041709046811 ], [ 350687.182095625612419, 3770443.336724313441664 ], [ 350687.182095625612419, 3770442.421159714926034 ], [ 350688.402848423167598, 3770441.200406917370856 ], [ 350688.708036622556392, 3770441.200406917370856 ], [ 350689.013224821945187, 3770440.895218718331307 ], [ 350689.318413021392189, 3770440.895218718331307 ], [ 350689.623601220780984, 3770440.590030518826097 ], [ 350689.928789420169778, 3770440.590030518826097 ], [ 350690.539165818947367, 3770439.979654119815677 ], [ 350690.844354018336162, 3770439.979654119815677 ], [ 350691.759918616502546, 3770439.064089521765709 ], [ 350692.370295015280135, 3770439.064089521765709 ], [ 350692.67548321466893, 3770438.758901322260499 ], [ 350694.201424211612903, 3770438.758901322260499 ], [ 350694.506612411001697, 3770439.064089521765709 ], [ 350694.811800610390492, 3770439.064089521765709 ], [ 350695.116988809779286, 3770439.369277721270919 ], [ 350695.116988809779286, 3770439.674465920776129 ], [ 350695.422177009168081, 3770439.979654119815677 ], [ 350695.727365208556876, 3770439.979654119815677 ], [ 350695.727365208556876, 3770440.284842319320887 ], [ 350696.03255340794567, 3770440.590030518826097 ], [ 350696.337741607334465, 3770440.590030518826097 ], [ 350696.03255340794567, 3770440.895218718331307 ], [ 350696.03255340794567, 3770441.200406917370856 ], [ 350695.727365208556876, 3770441.200406917370856 ], [ 350694.201424211612903, 3770442.726347914431244 ], [ 350693.896236012224108, 3770442.726347914431244 ], [ 350693.285859613446519, 3770443.336724313441664 ], [ 350692.980671414057724, 3770443.336724313441664 ], [ 350692.370295015280135, 3770443.947100711986423 ], [ 350692.06510681589134, 3770443.947100711986423 ], [ 350691.759918616502546, 3770444.252288911491632 ], [ 350691.759918616502546, 3770444.557477110996842 ], [ 350691.149542217724957, 3770445.167853509541601 ], [ 350691.149542217724957, 3770445.473041709046811 ], [ 350690.844354018336162, 3770445.778229908552021 ], [ 350689.928789420169778, 3770445.778229908552021 ] ] ] } },
{ "type": "Feature", "properties": { "confidence": 0.86141753196716309, "class": 1, "regularized": null }, "geometry": { "type": "Polygon", "coordinates": [ [ [ 350844.3540183113073, 3770745.778229908552021 ], [ 350844.3540183113073, 3770745.473041709046811 ], [ 350844.048830111918505, 3770745.167853509541601 ], [ 350843.743641912529711, 3770745.167853509541601 ], [ 350843.743641912529711, 3770741.200406917370856 ], [ 350844.048830111918505, 3770741.200406917370856 ], [ 350844.3540183113073, 3770740.895218718331307 ], [ 350844.3540183113073, 3770739.979654119815677 ], [ 350844.964394710084889, 3770739.369277721270919 ], [ 350844.964394710084889, 3770737.538148524705321 ], [ 350845.574771108862478, 3770736.927772126160562 ], [ 350845.574771108862478, 3770734.486266531050205 ], [ 350846.185147507640067, 3770733.875890132039785 ], [ 350846.490335707028862, 3770733.875890132039785 ], [ 350846.795523906417657, 3770733.570701933000237 ], [ 350847.405900305195246, 3770733.570701933000237 ], [ 350848.626653102750424, 3770732.349949135445058 ], [ 350848.626653102750424, 3770732.044760935939848 ], [ 350848.931841302139219, 3770732.044760935939848 ], [ 350849.542217700916808, 3770731.434384536929429 ], [ 350849.847405900305603, 3770731.434384536929429 ], [ 350850.152594099694397, 3770731.739572736434639 ], [ 350850.457782299083192, 3770731.739572736434639 ], [ 350851.373346897249576, 3770732.655137334484607 ], [ 350851.67853509663837, 3770732.655137334484607 ], [ 350852.899287894193549, 3770733.875890132039785 ], [ 350853.204476093582343, 3770733.875890132039785 ], [ 350853.204476093582343, 3770734.181078331544995 ], [ 350853.509664292971138, 3770734.486266531050205 ], [ 350853.814852492359933, 3770734.486266531050205 ], [ 350853.814852492359933, 3770734.791454730555415 ], [ 350853.509664292971138, 3770735.096642929594964 ], [ 350853.509664292971138, 3770735.707019328605384 ], [ 350851.67853509663837, 3770737.538148524705321 ], [ 350851.67853509663837, 3770737.843336724210531 ], [ 350850.152594099694397, 3770739.369277721270919 ], [ 350850.152594099694397, 3770739.674465920776129 ], [ 350849.847405900305603, 3770739.979654119815677 ], [ 350849.847405900305603, 3770740.284842319320887 ], [ 350849.542217700916808, 3770740.590030518826097 ], [ 350849.542217700916808, 3770740.895218718331307 ], [ 350847.71108850458404, 3770742.726347914431244 ], [ 350847.71108850458404, 3770743.031536113936454 ], [ 350847.100712105806451, 3770743.641912512946874 ], [ 350847.100712105806451, 3770743.947100711986423 ], [ 350845.879959308251273, 3770745.167853509541601 ], [ 350845.574771108862478, 3770745.167853509541601 ], [ 350845.269582909473684, 3770745.473041709046811 ], [ 350844.964394710084889, 3770745.473041709046811 ], [ 350844.659206510696094, 3770745.778229908552021 ], [ 350844.3540183113073, 3770745.778229908552021 ] ] ] } },
{ "type": "Feature", "properties": { "confidence": 0.74490475654602051, "class": 1, "regularized": null }, "geometry": { "type": "Polygon", "coordinates": [ [ [ 350932.55340793490177, 3770783.926754832267761 ], [ 350932.248219735512976, 3770783.621566632762551 ], [ 350931.943031536124181, 3770783.621566632762551 ], [ 350931.943031536124181, 3770780.569684638641775 ], [ 350932.248219735512976, 3770780.264496439602226 ], [ 350932.248219735512976, 3770779.959308240097016 ], [ 350933.468972533068154, 3770778.738555442541838 ], [ 350933.774160732456949, 3770778.738555442541838 ], [ 350934.079348931845743, 3770778.433367243036628 ], [ 350934.384537131234538, 3770778.433367243036628 ], [ 350934.689725330623332, 3770778.128179043531418 ], [ 350935.300101729400922, 3770778.128179043531418 ], [ 350935.605289928789716, 3770777.822990844491869 ], [ 350936.215666327567305, 3770777.822990844491869 ], [ 350936.826042726344895, 3770777.212614445481449 ], [ 350936.826042726344895, 3770776.602238046936691 ], [ 350936.5208545269561, 3770776.297049847431481 ], [ 350936.826042726344895, 3770775.991861647926271 ], [ 350937.131230925733689, 3770775.991861647926271 ], [ 350937.436419125122484, 3770775.686673448421061 ], [ 350937.741607324511278, 3770775.686673448421061 ], [ 350938.046795523900073, 3770775.381485249381512 ], [ 350938.962360122066457, 3770775.381485249381512 ], [ 350939.267548321455251, 3770775.686673448421061 ], [ 350939.572736520844046, 3770775.686673448421061 ], [ 350940.48830111901043, 3770776.602238046936691 ], [ 350940.48830111901043, 3770779.654120040591806 ], [ 350940.183112919621635, 3770779.959308240097016 ], [ 350940.183112919621635, 3770780.569684638641775 ], [ 350939.877924720232841, 3770780.569684638641775 ], [ 350938.962360122066457, 3770781.485249237157404 ], [ 350938.657171922677662, 3770781.485249237157404 ], [ 350938.046795523900073, 3770782.095625635702163 ], [ 350937.741607324511278, 3770782.095625635702163 ], [ 350937.436419125122484, 3770782.400813835207373 ], [ 350937.131230925733689, 3770782.400813835207373 ], [ 350936.826042726344895, 3770782.706002034712583 ], [ 350936.215666327567305, 3770782.706002034712583 ], [ 350935.605289928789716, 3770783.316378433257341 ], [ 350934.994913530012127, 3770783.316378433257341 ], [ 350934.384537131234538, 3770783.926754832267761 ], [ 350932.55340793490177, 3770783.926754832267761 ] ] ] } },
{ "type": "Feature", "properties": { "confidence": 0.70842695236206055, "class": 1, "regularized": null }, "geometry": { "type": "Polygon", "coordinates": [ [ [ 350839.776195320475381, 3770462.563580874819309 ], [ 350839.776195320475381, 3770462.258392675314099 ], [ 350839.471007121086586, 3770461.95320447627455 ], [ 350839.471007121086586, 3770459.816887080203742 ], [ 350840.38657171925297, 3770458.901322482153773 ], [ 350840.691759918641765, 3770458.901322482153773 ], [ 350840.996948118030559, 3770458.596134282648563 ], [ 350842.217700915585738, 3770458.596134282648563 ], [ 350842.522889114974532, 3770458.901322482153773 ], [ 350842.828077314363327, 3770458.901322482153773 ], [ 350842.828077314363327, 3770459.206510681658983 ], [ 350843.133265513752121, 3770459.511698881164193 ], [ 350843.133265513752121, 3770461.34282807726413 ], [ 350842.828077314363327, 3770461.64801627676934 ], [ 350842.828077314363327, 3770461.95320447627455 ], [ 350842.522889114974532, 3770462.258392675314099 ], [ 350842.217700915585738, 3770462.258392675314099 ], [ 350841.912512716196943, 3770462.563580874819309 ], [ 350839.776195320475381, 3770462.563580874819309 ] ] ] } },
{ "type": "Feature", "properties": { "confidence": 0.63242882490158081, "class": 1, "regularized": null }, "geometry": { "type": "Polygon", "coordinates": [ [ [ 350671.617497456783894, 3770468.667344862595201 ], [ 350670.091556459839921, 3770467.141403865534812 ], [ 350670.091556459839921, 3770466.531027466990054 ], [ 350669.481180061062332, 3770465.920651067979634 ], [ 350669.481180061062332, 3770465.615462868940085 ], [ 350669.175991861673538, 3770465.310274669434875 ], [ 350669.175991861673538, 3770460.427263479214162 ], [ 350670.701932858617511, 3770460.427263479214162 ], [ 350671.007121058006305, 3770460.732451678719372 ], [ 350672.533062054950278, 3770460.732451678719372 ], [ 350672.533062054950278, 3770461.95320447627455 ], [ 350672.838250254339073, 3770462.258392675314099 ], [ 350673.143438453727867, 3770462.258392675314099 ], [ 350673.143438453727867, 3770467.751780264545232 ], [ 350672.838250254339073, 3770467.751780264545232 ], [ 350672.533062054950278, 3770468.056968464050442 ], [ 350672.533062054950278, 3770468.667344862595201 ], [ 350671.617497456783894, 3770468.667344862595201 ] ] ] } },
{ "type": "Feature", "properties": { "confidence": 0.62620919942855835, "class": 1, "regularized": null }, "geometry": { "type": "Polygon", "coordinates": [ [ [ 350667.344862665282562, 3770894.710071210749447 ], [ 350667.039674465893768, 3770894.404883011244237 ], [ 350667.039674465893768, 3770894.099694811739028 ], [ 350666.734486266504973, 3770893.794506612233818 ], [ 350666.734486266504973, 3770893.489318413194269 ], [ 350667.039674465893768, 3770893.184130213689059 ], [ 350667.039674465893768, 3770892.573753814678639 ], [ 350667.650050864671357, 3770891.963377416133881 ], [ 350667.955239064118359, 3770891.963377416133881 ], [ 350668.565615462895948, 3770891.353001017123461 ], [ 350668.870803662284743, 3770891.353001017123461 ], [ 350669.481180061062332, 3770890.742624618578702 ], [ 350669.786368260451127, 3770890.742624618578702 ], [ 350670.091556459839921, 3770890.437436419073492 ], [ 350670.396744659228716, 3770890.437436419073492 ], [ 350671.007121058006305, 3770889.827060020528734 ], [ 350671.3123092573951, 3770889.827060020528734 ], [ 350671.922685656172689, 3770889.216683621518314 ], [ 350672.533062054950278, 3770889.216683621518314 ], [ 350672.838250254339073, 3770888.911495422013104 ], [ 350673.143438453727867, 3770888.911495422013104 ], [ 350673.448626653116662, 3770888.606307222973555 ], [ 350674.66937945067184, 3770888.606307222973555 ], [ 350674.66937945067184, 3770889.216683621518314 ], [ 350674.974567650060635, 3770889.521871821023524 ], [ 350674.66937945067184, 3770889.827060020528734 ], [ 350674.364191251283046, 3770889.827060020528734 ], [ 350673.143438453727867, 3770891.047812818083912 ], [ 350673.143438453727867, 3770891.353001017123461 ], [ 350672.838250254339073, 3770891.658189216628671 ], [ 350672.533062054950278, 3770891.658189216628671 ], [ 350671.922685656172689, 3770892.268565615639091 ], [ 350671.3123092573951, 3770892.268565615639091 ], [ 350670.091556459839921, 3770893.489318413194269 ], [ 350669.786368260451127, 3770893.489318413194269 ], [ 350669.481180061062332, 3770893.794506612233818 ], [ 350669.175991861673538, 3770893.794506612233818 ], [ 350668.565615462895948, 3770894.404883011244237 ], [ 350668.260427263507154, 3770894.404883011244237 ], [ 350667.955239064118359, 3770894.710071210749447 ], [ 350667.344862665282562, 3770894.710071210749447 ] ] ] } },
{ "type": "Feature", "properties": { "confidence": 0.619346022605896, "class": 1, "regularized": null }, "geometry": { "type": "Polygon", "coordinates": [ [ [ 350881.281790437409654, 3770738.758901322260499 ], [ 350880.97660223802086, 3770738.45371312322095 ], [ 350880.671414038632065, 3770738.45371312322095 ], [ 350880.671414038632065, 3770738.14852492371574 ], [ 350880.36622583924327, 3770737.843336724210531 ], [ 350880.061037639854476, 3770737.843336724210531 ], [ 350880.061037639854476, 3770737.538148524705321 ], [ 350879.450661241076887, 3770736.927772126160562 ], [ 350879.145473041688092, 3770736.927772126160562 ], [ 350878.840284842299297, 3770736.622583926655352 ], [ 350878.535096642910503, 3770736.622583926655352 ], [ 350878.229908443521708, 3770736.317395727150142 ], [ 350877.619532044744119, 3770736.317395727150142 ], [ 350877.314343845355324, 3770736.012207528110594 ], [ 350877.314343845355324, 3770735.096642929594964 ], [ 350877.619532044744119, 3770734.791454730555415 ], [ 350877.619532044744119, 3770733.570701933000237 ], [ 350877.924720244132914, 3770733.265513733495027 ], [ 350877.924720244132914, 3770732.960325533989817 ], [ 350878.535096642910503, 3770732.349949135445058 ], [ 350878.535096642910503, 3770732.044760935939848 ], [ 350878.840284842299297, 3770731.739572736434639 ], [ 350878.840284842299297, 3770728.992878941819072 ], [ 350878.535096642910503, 3770728.687690742779523 ], [ 350878.535096642910503, 3770727.466937945224345 ], [ 350882.807731434411835, 3770727.466937945224345 ], [ 350882.807731434411835, 3770728.687690742779523 ], [ 350883.11291963380063, 3770728.992878941819072 ], [ 350883.11291963380063, 3770730.51881993887946 ], [ 350883.418107833189424, 3770730.82400813838467 ], [ 350883.418107833189424, 3770731.434384536929429 ], [ 350883.11291963380063, 3770731.739572736434639 ], [ 350883.11291963380063, 3770732.655137334484607 ], [ 350882.807731434411835, 3770732.960325533989817 ], [ 350882.807731434411835, 3770735.096642929594964 ], [ 350882.50254323502304, 3770735.401831129100174 ], [ 350882.50254323502304, 3770736.622583926655352 ], [ 350882.197355035634246, 3770736.927772126160562 ], [ 350882.197355035634246, 3770737.538148524705321 ], [ 350881.892166836187243, 3770737.843336724210531 ], [ 350881.892166836187243, 3770738.14852492371574 ], [ 350881.281790437409654, 3770738.758901322260499 ] ] ] } },
{ "type": "Feature", "properties": { "confidence": 0.57651573419570923, "class": 1, "regularized": null }, "geometry": { "type": "Polygon", "coordinates": [ [ [ 350882.50254323502304, 3770764.699898270424455 ], [ 350882.197355035634246, 3770764.394710071384907 ], [ 350881.892166836187243, 3770764.394710071384907 ], [ 350881.892166836187243, 3770764.089521871879697 ], [ 350881.281790437409654, 3770763.479145472869277 ], [ 350881.281790437409654, 3770763.173957273829728 ], [ 350880.97660223802086, 3770762.868769074324518 ], [ 350880.97660223802086, 3770762.563580874819309 ], [ 350880.671414038632065, 3770762.258392675314099 ], [ 350880.671414038632065, 3770761.95320447627455 ], [ 350880.36622583924327, 3770761.64801627676934 ], [ 350880.36622583924327, 3770760.732451678719372 ], [ 350880.671414038632065, 3770760.427263479214162 ], [ 350880.671414038632065, 3770760.122075279708952 ], [ 350881.281790437409654, 3770759.511698881164193 ], [ 350881.586978636798449, 3770759.511698881164193 ], [ 350881.892166836187243, 3770759.206510681658983 ], [ 350881.892166836187243, 3770758.901322482153773 ], [ 350882.197355035634246, 3770758.901322482153773 ], [ 350882.50254323502304, 3770758.596134282648563 ], [ 350882.50254323502304, 3770758.290946083609015 ], [ 350882.807731434411835, 3770758.290946083609015 ], [ 350883.11291963380063, 3770757.985757884103805 ], [ 350885.249237029522192, 3770757.985757884103805 ], [ 350885.554425228910986, 3770758.290946083609015 ], [ 350885.554425228910986, 3770758.596134282648563 ], [ 350886.164801627688576, 3770759.206510681658983 ], [ 350886.164801627688576, 3770762.258392675314099 ], [ 350885.249237029522192, 3770763.173957273829728 ], [ 350885.249237029522192, 3770763.479145472869277 ], [ 350884.028484231967013, 3770764.699898270424455 ], [ 350882.50254323502304, 3770764.699898270424455 ] ] ] } },
{ "type": "Feature", "properties": { "confidence": 0.52370864152908325, "class": 1, "regularized": null }, "geometry": { "type": "Polygon", "coordinates": [ [ [ 350663.377416073228233, 3770850.457782299257815 ], [ 350663.072227873839438, 3770850.152594099752605 ], [ 350662.767039674450643, 3770850.152594099752605 ], [ 350662.156663275673054, 3770849.542217700742185 ], [ 350662.156663275673054, 3770848.321464903187007 ], [ 350662.461851475061849, 3770848.016276704147458 ], [ 350662.461851475061849, 3770845.269582909531891 ], [ 350662.767039674450643, 3770844.964394710026681 ], [ 350662.767039674450643, 3770844.048830111976713 ], [ 350669.481180061062332, 3770844.048830111976713 ], [ 350669.481180061062332, 3770844.354018311481923 ], [ 350669.786368260451127, 3770844.659206510521472 ], [ 350669.786368260451127, 3770846.18514750758186 ], [ 350669.481180061062332, 3770846.49033570708707 ], [ 350669.481180061062332, 3770846.79552390659228 ], [ 350667.344862665282562, 3770848.931841302197427 ], [ 350666.734486266504973, 3770848.931841302197427 ], [ 350666.429298067116179, 3770849.237029501702636 ], [ 350666.124109867727384, 3770849.237029501702636 ], [ 350665.818921668338589, 3770849.542217700742185 ], [ 350665.513733468949795, 3770849.542217700742185 ], [ 350664.903357070172206, 3770850.152594099752605 ], [ 350663.987792472005822, 3770850.152594099752605 ], [ 350663.682604272617027, 3770850.457782299257815 ], [ 350663.377416073228233, 3770850.457782299257815 ] ] ] } },
{ "type": "Feature", "properties": { "confidence": 0.52223628759384155, "class": 1, "regularized": null }, "geometry": { "type": "Polygon", "coordinates": [ [ [ 350946.59206510684453, 3770848.016276704147458 ], [ 350946.286876907397527, 3770847.711088504642248 ], [ 350945.981688708008733, 3770847.711088504642248 ], [ 350945.676500508619938, 3770847.405900305137038 ], [ 350945.676500508619938, 3770845.574771109037101 ], [ 350945.371312309231143, 3770845.269582909531891 ], [ 350945.371312309231143, 3770844.964394710026681 ], [ 350945.066124109842349, 3770844.659206510521472 ], [ 350954.221770091564395, 3770844.659206510521472 ], [ 350953.9165818921756, 3770844.964394710026681 ], [ 350953.611393692786805, 3770844.964394710026681 ], [ 350952.695829094620422, 3770845.87995930807665 ], [ 350952.390640895231627, 3770845.87995930807665 ], [ 350951.475076297065243, 3770846.79552390659228 ], [ 350951.169888097676449, 3770846.79552390659228 ], [ 350950.559511698898859, 3770847.405900305137038 ], [ 350950.254323499510065, 3770847.405900305137038 ], [ 350949.94913530012127, 3770847.711088504642248 ], [ 350947.202441505622119, 3770847.711088504642248 ], [ 350946.897253306233324, 3770848.016276704147458 ], [ 350946.59206510684453, 3770848.016276704147458 ] ] ] } },
{ "type": "Feature", "properties": { "confidence": 0.47721126675605774, "class": 1, "regularized": null }, "geometry": { "type": "Polygon", "coordinates": [ [ [ 350953.306205493398011, 3770768.97253306210041 ], [ 350953.001017294009216, 3770768.667344862595201 ], [ 350952.695829094620422, 3770768.667344862595201 ], [ 350952.390640895231627, 3770768.362156663089991 ], [ 350952.085452695842832, 3770768.362156663089991 ], [ 350952.085452695842832, 3770768.056968464050442 ], [ 350950.254323499510065, 3770766.225839267484844 ], [ 350950.254323499510065, 3770765.920651067979634 ], [ 350949.643947100732476, 3770765.310274669434875 ], [ 350949.643947100732476, 3770764.699898270424455 ], [ 350949.338758901343681, 3770764.394710071384907 ], [ 350949.643947100732476, 3770764.089521871879697 ], [ 350949.643947100732476, 3770763.173957273829728 ], [ 350949.338758901343681, 3770762.868769074324518 ], [ 350949.338758901343681, 3770759.816887080203742 ], [ 350949.643947100732476, 3770759.511698881164193 ], [ 350949.643947100732476, 3770758.901322482153773 ], [ 350950.254323499510065, 3770758.901322482153773 ], [ 350950.864699898287654, 3770758.290946083609015 ], [ 350951.169888097676449, 3770758.290946083609015 ], [ 350951.475076297065243, 3770757.985757884103805 ], [ 350951.475076297065243, 3770757.680569684598595 ], [ 350951.780264496454038, 3770757.375381485093385 ], [ 350953.9165818921756, 3770757.375381485093385 ], [ 350954.221770091564395, 3770757.680569684598595 ], [ 350954.832146490341984, 3770757.680569684598595 ], [ 350955.137334689730778, 3770757.985757884103805 ], [ 350955.747711088508368, 3770757.985757884103805 ], [ 350956.052899287897162, 3770758.290946083609015 ], [ 350956.968463886063546, 3770758.290946083609015 ], [ 350956.968463886063546, 3770758.596134282648563 ], [ 350957.273652085452341, 3770758.901322482153773 ], [ 350957.273652085452341, 3770761.34282807726413 ], [ 350956.968463886063546, 3770761.64801627676934 ], [ 350956.968463886063546, 3770767.751780264545232 ], [ 350956.663275686674751, 3770768.056968464050442 ], [ 350956.663275686674751, 3770768.362156663089991 ], [ 350956.358087487285957, 3770768.362156663089991 ], [ 350956.052899287897162, 3770768.667344862595201 ], [ 350954.832146490341984, 3770768.667344862595201 ], [ 350954.526958290953189, 3770768.97253306210041 ], [ 350953.306205493398011, 3770768.97253306210041 ] ] ] } },
{ "type": "Feature", "properties": { "confidence": 0.45456203818321228, "class": 1, "regularized": "rectangle" }, "geometry": { "type": "Polygon", "coordinates": [ [ [ 350846.3125, 3770416.0 ], [ 350864.1875, 3770415.5 ], [ 350864.5, 3770424.0 ], [ 350846.625, 3770424.5 ], [ 350846.3125, 3770416.0 ] ] ] } },
{ "type": "Feature", "properties": { "confidence": 0.40925374627113342, "class": 1, "regularized": null }, "geometry": { "type": "Polygon", "coordinates": [ [ [ 350660.325534079340287, 3770517.497456764802337 ], [ 350660.020345879951492, 3770517.192268565762788 ], [ 350658.494404883007519, 3770517.192268565762788 ], [ 350658.189216683618724, 3770516.887080366257578 ], [ 350657.88402848422993, 3770516.887080366257578 ], [ 350657.578840284841135, 3770516.581892166752368 ], [ 350657.273652085452341, 3770516.581892166752368 ], [ 350656.663275686674751, 3770515.97151576820761 ], [ 350656.663275686674751, 3770515.6663275687024 ], [ 350655.747711088508368, 3770514.750762970652431 ], [ 350655.747711088508368, 3770514.445574771147221 ], [ 350655.442522889119573, 3770514.140386571642011 ], [ 350655.442522889119573, 3770513.835198372136801 ], [ 350655.137334689730778, 3770513.530010173097253 ], [ 350655.137334689730778, 3770512.919633774086833 ], [ 350655.442522889119573, 3770512.614445574581623 ], [ 350655.747711088508368, 3770512.614445574581623 ], [ 350656.052899287897162, 3770512.309257375542074 ], [ 350657.88402848422993, 3770512.309257375542074 ], [ 350658.189216683618724, 3770512.614445574581623 ], [ 350658.494404883007519, 3770512.614445574581623 ], [ 350658.799593082396314, 3770512.919633774086833 ], [ 350659.104781281785108, 3770512.919633774086833 ], [ 350659.409969481173903, 3770513.224821973592043 ], [ 350659.715157680562697, 3770513.224821973592043 ], [ 350660.020345879951492, 3770513.530010173097253 ], [ 350660.325534079340287, 3770513.530010173097253 ], [ 350660.630722278729081, 3770513.835198372136801 ], [ 350660.935910478117876, 3770513.835198372136801 ], [ 350661.546286876895465, 3770514.445574771147221 ], [ 350661.546286876895465, 3770515.05595116969198 ], [ 350661.85147507628426, 3770515.36113936919719 ], [ 350661.85147507628426, 3770516.887080366257578 ], [ 350661.546286876895465, 3770517.192268565762788 ], [ 350660.630722278729081, 3770517.192268565762788 ], [ 350660.325534079340287, 3770517.497456764802337 ] ] ] } },
{ "type": "Feature", "properties": { "confidence": 0.26783561706542969, "class": 1, "regularized": null }, "geometry": { "type": "Polygon", "coordinates": [ [ [ 350751.576805696822703, 3770474.771108850371093 ], [ 350751.576805696822703, 3770469.27772126160562 ], [ 350751.881993896211497, 3770469.27772126160562 ], [ 350752.187182095600292, 3770468.97253306210041 ], [ 350752.187182095600292, 3770467.141403865534812 ], [ 350752.492370294989087, 3770466.836215666495264 ], [ 350752.492370294989087, 3770466.531027466990054 ], [ 350752.797558494377881, 3770466.225839267484844 ], [ 350753.102746693766676, 3770466.225839267484844 ], [ 350753.40793489315547, 3770465.920651067979634 ], [ 350756.15462868771283, 3770465.920651067979634 ], [ 350756.15462868771283, 3770467.141403865534812 ], [ 350755.849440488324035, 3770467.446592065040022 ], [ 350755.849440488324035, 3770468.362156663089991 ], [ 350755.54425228893524, 3770468.667344862595201 ], [ 350755.54425228893524, 3770469.888097660150379 ], [ 350755.239064089546446, 3770470.193285859655589 ], [ 350755.239064089546446, 3770471.108850457705557 ], [ 350754.933875890157651, 3770471.414038657210767 ], [ 350754.933875890157651, 3770472.024415055755526 ], [ 350754.628687690768857, 3770472.329603255260736 ], [ 350754.628687690768857, 3770472.634791454765946 ], [ 350754.323499491380062, 3770472.939979654271156 ], [ 350754.323499491380062, 3770473.245167853310704 ], [ 350753.40793489315547, 3770474.160732451826334 ], [ 350753.102746693766676, 3770474.160732451826334 ], [ 350752.797558494377881, 3770474.465920650865883 ], [ 350752.492370294989087, 3770474.465920650865883 ], [ 350752.187182095600292, 3770474.771108850371093 ], [ 350751.576805696822703, 3770474.771108850371093 ] ] ] } }
]
}
