{
"type": "FeatureCollection",
"name": "cell_00436_pre",
"crs": { "type": "name", "properties": { "name": "urn:ogc:def:crs:EPSG::32611" } },
"features": [
{ "type": "Feature", "properties": { "confidence": 0.99441802501678467, "class": 1 }, "geometry": { "type": "Polygon", "coordinates": [ [ [ 399368.056968463875819, 3786473.346897253300995 ], [ 399367.751780264487024, 3786473.041709053795785 ], [ 399367.141403865709435, 3786473.041709053795785 ], [ 399367.141403865709435, 3786472.736520854756236 ], [ 399366.836215666320641, 3786472.431332655251026 ], [ 399366.531027466931846, 3786472.431332655251026 ], [ 399365.310274669376668, 3786471.210579857695848 ], [ 399365.005086469987873, 3786471.210579857695848 ], [ 399364.699898270599078, 3786470.905391658190638 ], [ 399364.394710071210284, 3786470.905391658190638 ], [ 399364.089521871821489, 3786470.600203458685428 ], [ 399363.784333672432695, 3786470.600203458685428 ], [ 399363.4791454730439, 3786470.295015259180218 ], [ 399363.173957273655105, 3786470.295015259180218 ], [ 399363.173957273655105, 3786469.684638860635459 ], [ 399362.868769074266311, 3786469.37945066113025 ], [ 399363.173957273655105, 3786469.07426246162504 ], [ 399363.173957273655105, 3786468.158697863575071 ], [ 399363.4791454730439, 3786467.853509664069861 ], [ 399363.4791454730439, 3786467.243133265525103 ], [ 399364.089521871821489, 3786466.632756866514683 ], [ 399364.089521871821489, 3786466.327568667475134 ], [ 399364.699898270599078, 3786465.717192268464714 ], [ 399364.699898270599078, 3786465.412004068959504 ], [ 399365.005086469987873, 3786465.106815869919956 ], [ 399365.005086469987873, 3786464.801627670414746 ], [ 399365.310274669376668, 3786464.801627670414746 ], [ 399365.615462868765462, 3786464.496439470909536 ], [ 399365.615462868765462, 3786464.191251271404326 ], [ 399367.44659206509823, 3786464.191251271404326 ], [ 399367.751780264487024, 3786464.496439470909536 ], [ 399370.498474058986176, 3786464.496439470909536 ], [ 399370.80366225837497, 3786464.801627670414746 ], [ 399372.024415055930149, 3786464.801627670414746 ], [ 399372.329603255318943, 3786465.106815869919956 ], [ 399372.634791454707738, 3786465.106815869919956 ], [ 399372.634791454707738, 3786469.684638860635459 ], [ 399372.329603255318943, 3786469.989827060140669 ], [ 399372.329603255318943, 3786470.905391658190638 ], [ 399372.024415055930149, 3786471.210579857695848 ], [ 399371.719226856541354, 3786471.210579857695848 ], [ 399371.108850457763765, 3786471.820956256240606 ], [ 399370.498474058986176, 3786471.820956256240606 ], [ 399370.193285859597381, 3786472.126144455745816 ], [ 399370.193285859597381, 3786472.431332655251026 ], [ 399369.888097660208587, 3786472.431332655251026 ], [ 399369.582909460819792, 3786472.736520854756236 ], [ 399369.277721261430997, 3786472.736520854756236 ], [ 399368.667344862653408, 3786473.346897253300995 ], [ 399368.056968463875819, 3786473.346897253300995 ] ] ] } },
{ "type": "Feature", "properties": { "confidence": 0.98261964321136475, "class": 1 }, "geometry": { "type": "Polygon", "coordinates": [ [ [ 399290.844354018336162, 3786451.373346897307783 ], [ 399290.539165818947367, 3786451.068158697802573 ], [ 399290.233977619558573, 3786451.068158697802573 ], [ 399288.708036622556392, 3786449.542217700742185 ], [ 399288.097660223778803, 3786449.542217700742185 ], [ 399287.792472024390008, 3786449.237029501702636 ], [ 399286.876907426223624, 3786449.237029501702636 ], [ 399286.57171922683483, 3786448.931841302197427 ], [ 399285.961342828057241, 3786448.931841302197427 ], [ 399285.350966429279651, 3786448.321464903187007 ], [ 399285.045778229890857, 3786448.321464903187007 ], [ 399284.740590030502062, 3786448.016276704147458 ], [ 399284.435401831113268, 3786448.016276704147458 ], [ 399283.214649033558089, 3786446.79552390659228 ], [ 399283.214649033558089, 3786446.49033570708707 ], [ 399282.6042726347805, 3786445.87995930807665 ], [ 399282.6042726347805, 3786444.048830111976713 ], [ 399292.06510681589134, 3786444.048830111976713 ], [ 399292.06510681589134, 3786444.354018311481923 ], [ 399292.370295015280135, 3786444.659206510521472 ], [ 399292.370295015280135, 3786444.964394710026681 ], [ 399293.896236012224108, 3786446.49033570708707 ], [ 399293.896236012224108, 3786448.626653102692217 ], [ 399293.591047812835313, 3786448.931841302197427 ], [ 399293.591047812835313, 3786449.542217700742185 ], [ 399292.370295015280135, 3786450.762970498297364 ], [ 399292.370295015280135, 3786451.068158697802573 ], [ 399292.06510681589134, 3786451.373346897307783 ], [ 399290.844354018336162, 3786451.373346897307783 ] ] ] } },
{ "type": "Feature", "properties": { "confidence": 0.9472196102142334, "class": 1 }, "geometry": { "type": "Polygon", "coordinates": [ [ [ 399331.434384537104052, 3786218.819938962347806 ], [ 399331.129196337715257, 3786218.514750762842596 ], [ 399330.824008138326462, 3786218.514750762842596 ], [ 399330.518819938937668, 3786218.209562563803047 ], [ 399330.213631739548873, 3786218.209562563803047 ], [ 399329.298067141382489, 3786217.293997965287417 ], [ 399329.298067141382489, 3786216.988809766247869 ], [ 399328.992878941993695, 3786216.683621566742659 ], [ 399328.992878941993695, 3786216.378433367237449 ], [ 399328.6876907426049, 3786216.073245167732239 ], [ 399328.6876907426049, 3786212.410986775066704 ], [ 399328.992878941993695, 3786212.105798575561494 ], [ 399328.992878941993695, 3786211.800610376521945 ], [ 399329.298067141382489, 3786211.495422177016735 ], [ 399329.298067141382489, 3786211.190233977511525 ], [ 399329.603255340771284, 3786210.885045778006315 ], [ 399329.603255340771284, 3786210.579857578966767 ], [ 399329.908443540160079, 3786210.274669379461557 ], [ 399330.213631739548873, 3786210.274669379461557 ], [ 399330.518819938937668, 3786209.969481179956347 ], [ 399330.518819938937668, 3786209.664292980451137 ], [ 399335.401831129216589, 3786209.664292980451137 ], [ 399335.401831129216589, 3786209.969481179956347 ], [ 399335.707019328605384, 3786210.274669379461557 ], [ 399337.843336724326946, 3786210.274669379461557 ], [ 399337.843336724326946, 3786213.326551373116672 ], [ 399337.538148524938151, 3786213.631739572621882 ], [ 399337.538148524938151, 3786214.242115971632302 ], [ 399336.927772126160562, 3786214.85249237017706 ], [ 399336.927772126160562, 3786215.15768056968227 ], [ 399336.622583926771767, 3786215.46286876918748 ], [ 399336.622583926771767, 3786215.76805696869269 ], [ 399336.012207527994178, 3786216.378433367237449 ], [ 399336.012207527994178, 3786216.683621566742659 ], [ 399335.096642929827794, 3786217.599186164792627 ], [ 399335.096642929827794, 3786217.904374364297837 ], [ 399334.791454730439, 3786218.209562563803047 ], [ 399334.486266531050205, 3786218.209562563803047 ], [ 399334.181078331661411, 3786218.514750762842596 ], [ 399333.570701932883821, 3786218.514750762842596 ], [ 399333.265513733495027, 3786218.819938962347806 ], [ 399331.434384537104052, 3786218.819938962347806 ] ] ] } },
{ "type": "Feature", "properties": { "confidence": 0.94666510820388794, "class": 1 }, "geometry": { "type": "Polygon", "coordinates": [ [ [ 399461.139369277749211, 3786195.625635808799416 ], [ 399460.834181078360416, 3786195.320447609294206 ], [ 399460.223804679524619, 3786195.320447609294206 ], [ 399459.61342828074703, 3786194.710071210749447 ], [ 399459.61342828074703, 3786194.404883011244237 ], [ 399459.003051881969441, 3786193.794506612233818 ], [ 399459.003051881969441, 3786193.489318413194269 ], [ 399457.477110885025468, 3786191.963377416133881 ], [ 399457.477110885025468, 3786191.658189216628671 ], [ 399457.171922685636673, 3786191.353001017123461 ], [ 399457.171922685636673, 3786190.437436419073492 ], [ 399457.477110885025468, 3786190.132248219568282 ], [ 399457.477110885025468, 3786189.827060020528734 ], [ 399457.782299084414262, 3786189.827060020528734 ], [ 399458.087487283803057, 3786189.521871821023524 ], [ 399459.61342828074703, 3786189.521871821023524 ], [ 399459.918616480135825, 3786189.216683621518314 ], [ 399461.139369277749211, 3786189.216683621518314 ], [ 399461.444557477138005, 3786188.911495422013104 ], [ 399463.580874872859567, 3786188.911495422013104 ], [ 399463.886063072248362, 3786188.606307222973555 ], [ 399464.191251271637157, 3786188.911495422013104 ], [ 399464.496439471025951, 3786188.911495422013104 ], [ 399464.496439471025951, 3786189.216683621518314 ], [ 399465.412004069192335, 3786190.132248219568282 ], [ 399465.412004069192335, 3786190.742624618578702 ], [ 399465.71719226858113, 3786191.047812818083912 ], [ 399465.71719226858113, 3786191.353001017123461 ], [ 399465.412004069192335, 3786191.658189216628671 ], [ 399465.412004069192335, 3786193.184130213689059 ], [ 399465.10681586980354, 3786193.489318413194269 ], [ 399465.10681586980354, 3786193.794506612233818 ], [ 399464.191251271637157, 3786194.710071210749447 ], [ 399463.886063072248362, 3786194.710071210749447 ], [ 399463.580874872859567, 3786195.015259409788996 ], [ 399462.665310274693184, 3786195.015259409788996 ], [ 399462.360122075304389, 3786195.320447609294206 ], [ 399461.444557477138005, 3786195.320447609294206 ], [ 399461.139369277749211, 3786195.625635808799416 ] ] ] } },
{ "type": "Feature", "properties": { "confidence": 0.90141201019287109, "class": 1 }, "geometry": { "type": "Polygon", "coordinates": [ [ [ 399390.030518819927238, 3786486.775178026407957 ], [ 399390.030518819927238, 3786485.859613428357989 ], [ 399389.725330620538443, 3786485.554425228852779 ], [ 399389.725330620538443, 3786484.3336724312976 ], [ 399390.030518819927238, 3786484.02848423179239 ], [ 399390.030518819927238, 3786480.671414038632065 ], [ 399389.725330620538443, 3786480.366225839126855 ], [ 399389.725330620538443, 3786479.450661241076887 ], [ 399390.030518819927238, 3786479.145473041571677 ], [ 399390.030518819927238, 3786478.840284842532128 ], [ 399393.692777212592773, 3786478.840284842532128 ], [ 399393.997965411981568, 3786479.145473041571677 ], [ 399394.303153611370362, 3786479.145473041571677 ], [ 399394.303153611370362, 3786480.061037640087306 ], [ 399394.608341810759157, 3786480.366225839126855 ], [ 399394.608341810759157, 3786480.976602238137275 ], [ 399394.913530010147952, 3786481.281790437642485 ], [ 399394.913530010147952, 3786481.586978636682034 ], [ 399395.218718209536746, 3786481.892166836187243 ], [ 399395.218718209536746, 3786483.112919633742422 ], [ 399395.523906408925541, 3786483.418107833247632 ], [ 399395.523906408925541, 3786484.63886063080281 ], [ 399395.218718209536746, 3786484.94404883030802 ], [ 399395.218718209536746, 3786485.249237029347569 ], [ 399394.303153611370362, 3786486.164801627863199 ], [ 399393.692777212592773, 3786486.164801627863199 ], [ 399393.387589013203979, 3786486.469989826902747 ], [ 399392.1668362156488, 3786486.469989826902747 ], [ 399391.861648016260006, 3786486.775178026407957 ], [ 399390.030518819927238, 3786486.775178026407957 ] ] ] } },
{ "type": "Feature", "properties": { "confidence": 0.89141905307769775, "class": 1 }, "geometry": { "type": "Polygon", "coordinates": [ [ [ 399361.953204476099927, 3786197.456765004899353 ], [ 399361.648016276711132, 3786197.151576805859804 ], [ 399359.816887080378365, 3786197.151576805859804 ], [ 399359.51169888098957, 3786196.846388606354594 ], [ 399359.206510681600776, 3786196.846388606354594 ], [ 399358.901322482211981, 3786196.541200406849384 ], [ 399358.901322482211981, 3786195.930824008304626 ], [ 399360.122075279767159, 3786194.710071210749447 ], [ 399360.427263479155954, 3786194.710071210749447 ], [ 399360.732451678544749, 3786194.404883011244237 ], [ 399361.342828077322338, 3786194.404883011244237 ], [ 399361.648016276711132, 3786194.099694811739028 ], [ 399362.868769074266311, 3786194.099694811739028 ], [ 399363.173957273655105, 3786193.794506612233818 ], [ 399364.089521871821489, 3786193.794506612233818 ], [ 399364.699898270599078, 3786193.184130213689059 ], [ 399365.310274669376668, 3786193.184130213689059 ], [ 399365.615462868765462, 3786192.878942014183849 ], [ 399365.920651068154257, 3786192.878942014183849 ], [ 399366.225839267543051, 3786192.573753814678639 ], [ 399367.751780264487024, 3786192.573753814678639 ], [ 399367.751780264487024, 3786193.489318413194269 ], [ 399367.44659206509823, 3786193.794506612233818 ], [ 399367.44659206509823, 3786194.099694811739028 ], [ 399367.141403865709435, 3786194.404883011244237 ], [ 399367.141403865709435, 3786194.710071210749447 ], [ 399366.531027466931846, 3786195.320447609294206 ], [ 399366.531027466931846, 3786195.625635808799416 ], [ 399366.225839267543051, 3786195.625635808799416 ], [ 399365.005086469987873, 3786196.846388606354594 ], [ 399364.699898270599078, 3786196.846388606354594 ], [ 399364.394710071210284, 3786197.151576805859804 ], [ 399363.784333672432695, 3786197.151576805859804 ], [ 399363.4791454730439, 3786197.456765004899353 ], [ 399361.953204476099927, 3786197.456765004899353 ] ] ] } },
{ "type": "Feature", "properties": { "confidence": 0.86920922994613647, "class": 1 }, "geometry": { "type": "Polygon", "coordinates": [ [ [ 399487.995930824021343, 3786167.853509664069861 ], [ 399487.690742624632549, 3786167.548321465030313 ], [ 399487.080366225854959, 3786167.548321465030313 ], [ 399486.775178026466165, 3786167.243133265525103 ], [ 399486.46998982707737, 3786167.243133265525103 ], [ 399485.554425228910986, 3786166.327568667475134 ], [ 399485.554425228910986, 3786166.022380467969924 ], [ 399485.249237029522192, 3786165.717192268464714 ], [ 399485.249237029522192, 3786165.412004068959504 ], [ 399484.944048830133397, 3786165.106815869919956 ], [ 399484.944048830133397, 3786164.191251271404326 ], [ 399484.638860630744603, 3786163.886063072364777 ], [ 399484.638860630744603, 3786161.444557477254421 ], [ 399484.333672431355808, 3786161.139369277749211 ], [ 399484.333672431355808, 3786159.918616480194032 ], [ 399484.638860630744603, 3786159.613428280688822 ], [ 399484.944048830133397, 3786159.613428280688822 ], [ 399485.249237029522192, 3786159.918616480194032 ], [ 399486.164801627688576, 3786159.918616480194032 ], [ 399486.46998982707737, 3786160.223804679699242 ], [ 399488.606307222798932, 3786160.223804679699242 ], [ 399488.911495422187727, 3786160.528992878738791 ], [ 399489.827060020354111, 3786160.528992878738791 ], [ 399490.4374364191317, 3786161.139369277749211 ], [ 399490.742624618520495, 3786161.139369277749211 ], [ 399490.742624618520495, 3786161.444557477254421 ], [ 399491.353001017298084, 3786162.054933875799179 ], [ 399491.353001017298084, 3786162.360122075304389 ], [ 399491.658189216686878, 3786162.665310274809599 ], [ 399491.963377416075673, 3786162.665310274809599 ], [ 399491.963377416075673, 3786162.970498473849148 ], [ 399492.268565615464468, 3786163.275686673354357 ], [ 399492.268565615464468, 3786163.886063072364777 ], [ 399492.573753814853262, 3786164.191251271404326 ], [ 399492.268565615464468, 3786164.496439470909536 ], [ 399492.268565615464468, 3786165.106815869919956 ], [ 399491.353001017298084, 3786166.022380467969924 ], [ 399491.353001017298084, 3786166.327568667475134 ], [ 399490.4374364191317, 3786167.243133265525103 ], [ 399489.827060020354111, 3786167.243133265525103 ], [ 399489.521871820965316, 3786167.548321465030313 ], [ 399488.911495422187727, 3786167.548321465030313 ], [ 399488.606307222798932, 3786167.853509664069861 ], [ 399487.995930824021343, 3786167.853509664069861 ] ] ] } },
{ "type": "Feature", "properties": { "confidence": 0.85935258865356445, "class": 1 }, "geometry": { "type": "Polygon", "coordinates": [ [ [ 399150.152594099694397, 3786484.94404883030802 ], [ 399149.847405900305603, 3786484.63886063080281 ], [ 399149.542217700916808, 3786484.63886063080281 ], [ 399148.626653102750424, 3786483.723296032752842 ], [ 399148.626653102750424, 3786483.418107833247632 ], [ 399148.32146490336163, 3786483.112919633742422 ], [ 399148.32146490336163, 3786479.450661241076887 ], [ 399148.626653102750424, 3786479.145473041571677 ], [ 399148.626653102750424, 3786478.840284842532128 ], [ 399149.237029501528013, 3786478.229908443521708 ], [ 399149.542217700916808, 3786478.229908443521708 ], [ 399149.847405900305603, 3786477.924720244016498 ], [ 399149.847405900305603, 3786477.31434384547174 ], [ 399150.152594099694397, 3786477.00915564596653 ], [ 399150.152594099694397, 3786476.70396744646132 ], [ 399150.457782299083192, 3786476.398779247421771 ], [ 399153.509664292971138, 3786476.398779247421771 ], [ 399153.814852492359933, 3786476.70396744646132 ], [ 399153.814852492359933, 3786477.31434384547174 ], [ 399154.120040691748727, 3786477.61953204497695 ], [ 399154.120040691748727, 3786478.535096643026918 ], [ 399154.425228891137522, 3786478.840284842532128 ], [ 399154.425228891137522, 3786479.145473041571677 ], [ 399154.730417090526316, 3786479.450661241076887 ], [ 399154.730417090526316, 3786483.418107833247632 ], [ 399154.425228891137522, 3786483.723296032752842 ], [ 399154.425228891137522, 3786484.02848423179239 ], [ 399153.814852492359933, 3786484.63886063080281 ], [ 399153.204476093582343, 3786484.63886063080281 ], [ 399152.899287894193549, 3786484.94404883030802 ], [ 399150.152594099694397, 3786484.94404883030802 ] ] ] } },
{ "type": "Feature", "properties": { "confidence": 0.85177439451217651, "class": 1 }, "geometry": { "type": "Polygon", "coordinates": [ [ [ 399517.293997965403832, 3786442.522889114916325 ], [ 399516.988809766015038, 3786442.217700915411115 ], [ 399516.683621566626243, 3786442.217700915411115 ], [ 399516.073245167848654, 3786441.607324516866356 ], [ 399515.768056968459859, 3786441.607324516866356 ], [ 399514.852492370293476, 3786440.691759918816388 ], [ 399514.547304170904681, 3786440.691759918816388 ], [ 399514.242115971515886, 3786440.386571719311178 ], [ 399513.936927772127092, 3786440.386571719311178 ], [ 399513.631739572738297, 3786440.081383519805968 ], [ 399513.631739572738297, 3786439.776195320300758 ], [ 399513.326551373349503, 3786439.471007121261209 ], [ 399513.326551373349503, 3786437.945066124200821 ], [ 399513.021363173960708, 3786437.639877924695611 ], [ 399513.021363173960708, 3786435.503560529090464 ], [ 399513.631739572738297, 3786434.893184130080044 ], [ 399513.631739572738297, 3786434.587995931040496 ], [ 399513.936927772127092, 3786434.282807731535286 ], [ 399514.547304170904681, 3786434.282807731535286 ], [ 399514.852492370293476, 3786433.977619532030076 ], [ 399516.988809766015038, 3786433.977619532030076 ], [ 399517.293997965403832, 3786433.672431332524866 ], [ 399519.1251271617366, 3786433.672431332524866 ], [ 399519.430315361125395, 3786433.977619532030076 ], [ 399519.735503560514189, 3786433.977619532030076 ], [ 399519.735503560514189, 3786434.587995931040496 ], [ 399520.040691759902984, 3786434.893184130080044 ], [ 399520.040691759902984, 3786436.724313326645643 ], [ 399520.345879959291779, 3786437.029501526150852 ], [ 399520.345879959291779, 3786437.334689725190401 ], [ 399520.040691759902984, 3786437.639877924695611 ], [ 399520.040691759902984, 3786441.607324516866356 ], [ 399519.735503560514189, 3786441.607324516866356 ], [ 399519.1251271617366, 3786442.217700915411115 ], [ 399518.819938962347806, 3786442.217700915411115 ], [ 399518.514750762959011, 3786442.522889114916325 ], [ 399517.293997965403832, 3786442.522889114916325 ] ] ] } },
{ "type": "Feature", "properties": { "confidence": 0.85101145505905151, "class": 1 }, "geometry": { "type": "Polygon", "coordinates": [ [ [ 399362.563580874877516, 3786423.906408952083439 ], [ 399362.258392675488722, 3786423.601220752578229 ], [ 399361.648016276711132, 3786423.601220752578229 ], [ 399361.648016276711132, 3786423.29603255353868 ], [ 399361.037639877933543, 3786422.68565615452826 ], [ 399361.037639877933543, 3786422.38046795502305 ], [ 399360.732451678544749, 3786422.075279755983502 ], [ 399360.732451678544749, 3786419.938962359912694 ], [ 399361.037639877933543, 3786419.633774160873145 ], [ 399361.037639877933543, 3786418.413021363317966 ], [ 399361.342828077322338, 3786418.107833163812757 ], [ 399361.342828077322338, 3786417.497456764802337 ], [ 399361.648016276711132, 3786417.192268565762788 ], [ 399361.648016276711132, 3786415.97151576820761 ], [ 399361.953204476099927, 3786415.6663275687024 ], [ 399361.953204476099927, 3786415.36113936919719 ], [ 399362.258392675488722, 3786415.05595116969198 ], [ 399362.563580874877516, 3786415.05595116969198 ], [ 399362.868769074266311, 3786414.750762970652431 ], [ 399363.4791454730439, 3786414.750762970652431 ], [ 399363.784333672432695, 3786414.445574771147221 ], [ 399365.920651068154257, 3786414.445574771147221 ], [ 399366.531027466931846, 3786415.05595116969198 ], [ 399366.836215666320641, 3786415.05595116969198 ], [ 399367.141403865709435, 3786415.36113936919719 ], [ 399367.141403865709435, 3786415.6663275687024 ], [ 399367.751780264487024, 3786416.276703967247158 ], [ 399367.751780264487024, 3786416.581892166752368 ], [ 399368.056968463875819, 3786416.887080366257578 ], [ 399368.362156663264614, 3786416.887080366257578 ], [ 399368.362156663264614, 3786417.192268565762788 ], [ 399368.667344862653408, 3786417.497456764802337 ], [ 399368.667344862653408, 3786421.770091556478292 ], [ 399367.751780264487024, 3786422.68565615452826 ], [ 399367.44659206509823, 3786422.68565615452826 ], [ 399367.141403865709435, 3786422.99084435403347 ], [ 399366.836215666320641, 3786422.99084435403347 ], [ 399366.531027466931846, 3786423.29603255353868 ], [ 399365.310274669376668, 3786423.29603255353868 ], [ 399365.005086469987873, 3786423.601220752578229 ], [ 399363.4791454730439, 3786423.601220752578229 ], [ 399363.173957273655105, 3786423.906408952083439 ], [ 399362.563580874877516, 3786423.906408952083439 ] ] ] } },
{ "type": "Feature", "properties": { "confidence": 0.81775325536727905, "class": 1 }, "geometry": { "type": "Polygon", "coordinates": [ [ [ 399372.329603255318943, 3786206.612410986796021 ], [ 399370.80366225837497, 3786205.086469989735633 ], [ 399370.80366225837497, 3786204.170905391685665 ], [ 399370.498474058986176, 3786203.865717192180455 ], [ 399370.498474058986176, 3786203.560528992675245 ], [ 399370.80366225837497, 3786203.255340793635696 ], [ 399370.80366225837497, 3786202.339776195120066 ], [ 399372.329603255318943, 3786200.813835198525339 ], [ 399372.329603255318943, 3786200.508646999020129 ], [ 399373.245167853485327, 3786199.593082400970161 ], [ 399373.855544252262916, 3786199.593082400970161 ], [ 399374.160732451651711, 3786199.287894201464951 ], [ 399374.465920651040506, 3786199.287894201464951 ], [ 399374.7711088504293, 3786199.593082400970161 ], [ 399375.076297049876302, 3786199.593082400970161 ], [ 399375.381485249265097, 3786199.89827060000971 ], [ 399375.381485249265097, 3786205.086469989735633 ], [ 399374.160732451651711, 3786206.307222787290812 ], [ 399373.855544252262916, 3786206.307222787290812 ], [ 399373.550356052874122, 3786206.612410986796021 ], [ 399372.329603255318943, 3786206.612410986796021 ] ] ] } },
{ "type": "Feature", "properties": { "confidence": 0.81626385450363159, "class": 1 }, "geometry": { "type": "Polygon", "coordinates": [ [ [ 399275.890132248227019, 3786301.831129196565598 ], [ 399275.584944048838224, 3786301.525940997060388 ], [ 399275.584944048838224, 3786298.779247202444822 ], [ 399275.890132248227019, 3786298.474059002939612 ], [ 399275.890132248227019, 3786297.863682604394853 ], [ 399276.195320447615813, 3786297.558494404889643 ], [ 399276.805696846393403, 3786297.558494404889643 ], [ 399277.110885045782197, 3786297.253306205384433 ], [ 399278.026449643948581, 3786297.253306205384433 ], [ 399278.331637843337376, 3786297.558494404889643 ], [ 399280.467955239058938, 3786297.558494404889643 ], [ 399281.078331637836527, 3786298.168870803434402 ], [ 399281.078331637836527, 3786298.474059002939612 ], [ 399280.773143438447732, 3786298.779247202444822 ], [ 399280.773143438447732, 3786299.38962360098958 ], [ 399280.162767039670143, 3786300.0 ], [ 399280.162767039670143, 3786300.30518819950521 ], [ 399278.942014242114965, 3786301.525940997060388 ], [ 399278.63682604272617, 3786301.525940997060388 ], [ 399278.331637843337376, 3786301.831129196565598 ], [ 399275.890132248227019, 3786301.831129196565598 ] ] ] } },
{ "type": "Feature", "properties": { "confidence": 0.78521478176116943, "class": 1 }, "geometry": { "type": "Polygon", "coordinates": [ [ [ 399384.537131230928935, 3786144.354018311481923 ], [ 399383.926754832151346, 3786143.743641912471503 ], [ 399383.926754832151346, 3786143.438453712966293 ], [ 399383.621566632762551, 3786143.133265513926744 ], [ 399383.621566632762551, 3786141.912512716371566 ], [ 399383.316378433373757, 3786141.607324516866356 ], [ 399383.316378433373757, 3786141.302136317361146 ], [ 399383.621566632762551, 3786140.996948117855936 ], [ 399383.621566632762551, 3786140.691759918816388 ], [ 399384.231943031540141, 3786140.081383519805968 ], [ 399384.537131230928935, 3786140.081383519805968 ], [ 399386.673448626650497, 3786137.945066124200821 ], [ 399386.673448626650497, 3786137.639877924695611 ], [ 399386.978636826039292, 3786137.639877924695611 ], [ 399387.283825025428087, 3786137.334689725190401 ], [ 399388.80976602237206, 3786137.334689725190401 ], [ 399389.114954221760854, 3786137.639877924695611 ], [ 399389.725330620538443, 3786137.639877924695611 ], [ 399390.335707019316033, 3786138.250254323706031 ], [ 399390.335707019316033, 3786140.691759918816388 ], [ 399390.030518819927238, 3786140.996948117855936 ], [ 399390.030518819927238, 3786142.522889114916325 ], [ 399390.335707019316033, 3786142.828077314421535 ], [ 399390.335707019316033, 3786143.133265513926744 ], [ 399390.030518819927238, 3786143.438453712966293 ], [ 399389.725330620538443, 3786143.438453712966293 ], [ 399389.420142421149649, 3786143.743641912471503 ], [ 399388.19938962359447, 3786143.743641912471503 ], [ 399387.894201424205676, 3786144.048830111976713 ], [ 399386.978636826039292, 3786144.048830111976713 ], [ 399386.673448626650497, 3786144.354018311481923 ], [ 399384.537131230928935, 3786144.354018311481923 ] ] ] } },
{ "type": "Feature", "properties": { "confidence": 0.74302738904953003, "class": 1 }, "geometry": { "type": "Polygon", "coordinates": [ [ [ 399445.269582909473684, 3786489.521871821023524 ], [ 399444.964394710084889, 3786489.216683621518314 ], [ 399444.964394710084889, 3786488.911495422013104 ], [ 399444.659206510696094, 3786488.606307222973555 ], [ 399444.659206510696094, 3786488.301119023468345 ], [ 399444.3540183113073, 3786487.995930823963135 ], [ 399444.3540183113073, 3786487.385554425418377 ], [ 399444.048830111918505, 3786487.080366225913167 ], [ 399444.048830111918505, 3786484.63886063080281 ], [ 399444.3540183113073, 3786484.3336724312976 ], [ 399444.3540183113073, 3786484.02848423179239 ], [ 399444.659206510696094, 3786483.723296032752842 ], [ 399444.659206510696094, 3786483.418107833247632 ], [ 399444.964394710084889, 3786483.112919633742422 ], [ 399445.269582909473684, 3786483.112919633742422 ], [ 399447.100712105806451, 3786481.281790437642485 ], [ 399447.405900305195246, 3786481.281790437642485 ], [ 399447.71108850458404, 3786480.976602238137275 ], [ 399448.626653102750424, 3786480.976602238137275 ], [ 399448.931841302139219, 3786480.671414038632065 ], [ 399450.762970498471987, 3786480.671414038632065 ], [ 399451.373346897249576, 3786481.281790437642485 ], [ 399451.983723296027165, 3786481.281790437642485 ], [ 399452.28891149541596, 3786481.586978636682034 ], [ 399452.594099694804754, 3786481.586978636682034 ], [ 399452.899287894193549, 3786481.892166836187243 ], [ 399452.899287894193549, 3786482.197355035692453 ], [ 399453.204476093582343, 3786482.502543235197663 ], [ 399453.204476093582343, 3786484.02848423179239 ], [ 399453.509664292971138, 3786484.3336724312976 ], [ 399453.509664292971138, 3786485.554425228852779 ], [ 399453.204476093582343, 3786485.859613428357989 ], [ 399453.204476093582343, 3786487.995930823963135 ], [ 399452.594099694804754, 3786488.606307222973555 ], [ 399452.28891149541596, 3786488.606307222973555 ], [ 399451.983723296027165, 3786488.911495422013104 ], [ 399449.847405900305603, 3786488.911495422013104 ], [ 399449.542217700916808, 3786489.216683621518314 ], [ 399447.405900305195246, 3786489.216683621518314 ], [ 399447.100712105806451, 3786489.521871821023524 ], [ 399445.269582909473684, 3786489.521871821023524 ] ] ] } },
{ "type": "Feature", "properties": { "confidence": 0.71333169937133789, "class": 1 }, "geometry": { "type": "Polygon", "coordinates": [ [ [ 399365.920651068154257, 3786326.856561546213925 ], [ 399365.310274669376668, 3786326.246185147669166 ], [ 399365.310274669376668, 3786325.940996948163956 ], [ 399365.005086469987873, 3786325.635808748658746 ], [ 399365.005086469987873, 3786325.025432350113988 ], [ 399364.699898270599078, 3786324.720244150608778 ], [ 399364.699898270599078, 3786322.278738555498421 ], [ 399364.394710071210284, 3786321.973550355993211 ], [ 399364.394710071210284, 3786317.090539165772498 ], [ 399364.699898270599078, 3786316.785350966267288 ], [ 399364.699898270599078, 3786314.954221770167351 ], [ 399365.005086469987873, 3786314.649033570662141 ], [ 399365.005086469987873, 3786314.038657172117382 ], [ 399365.920651068154257, 3786313.123092573601753 ], [ 399366.225839267543051, 3786313.123092573601753 ], [ 399366.531027466931846, 3786312.817904374562204 ], [ 399369.277721261430997, 3786312.817904374562204 ], [ 399369.277721261430997, 3786313.428280773106962 ], [ 399369.582909460819792, 3786313.733468972612172 ], [ 399369.582909460819792, 3786314.038657172117382 ], [ 399369.277721261430997, 3786314.343845371156931 ], [ 399369.277721261430997, 3786317.700915564782917 ], [ 399368.972533062042203, 3786318.006103763822466 ], [ 399368.972533062042203, 3786319.226856561377645 ], [ 399368.667344862653408, 3786319.532044760882854 ], [ 399368.667344862653408, 3786323.4994913530536 ], [ 399368.362156663264614, 3786323.80467955255881 ], [ 399368.362156663264614, 3786324.109867751598358 ], [ 399367.44659206509823, 3786325.025432350113988 ], [ 399367.44659206509823, 3786325.330620549153537 ], [ 399366.531027466931846, 3786326.246185147669166 ], [ 399366.531027466931846, 3786326.551373346708715 ], [ 399366.225839267543051, 3786326.551373346708715 ], [ 399365.920651068154257, 3786326.856561546213925 ] ] ] } },
{ "type": "Feature", "properties": { "confidence": 0.70949244499206543, "class": 1 }, "geometry": { "type": "Polygon", "coordinates": [ [ [ 399361.342828077322338, 3786253.001017293892801 ], [ 399361.037639877933543, 3786252.695829094387591 ], [ 399360.732451678544749, 3786252.695829094387591 ], [ 399360.732451678544749, 3786252.390640895348042 ], [ 399360.122075279767159, 3786251.780264496337622 ], [ 399360.122075279767159, 3786251.475076296832412 ], [ 399358.901322482211981, 3786250.254323499277234 ], [ 399358.901322482211981, 3786249.338758901227266 ], [ 399358.596134282823186, 3786249.033570701722056 ], [ 399358.596134282823186, 3786245.98168870806694 ], [ 399358.901322482211981, 3786245.67650050856173 ], [ 399358.901322482211981, 3786245.37131230905652 ], [ 399359.51169888098957, 3786244.760935910511762 ], [ 399359.816887080378365, 3786244.760935910511762 ], [ 399360.122075279767159, 3786244.455747711006552 ], [ 399360.732451678544749, 3786244.455747711006552 ], [ 399361.037639877933543, 3786244.150559511501342 ], [ 399361.342828077322338, 3786244.150559511501342 ], [ 399362.258392675488722, 3786243.234994913451374 ], [ 399362.868769074266311, 3786243.234994913451374 ], [ 399364.394710071210284, 3786244.760935910511762 ], [ 399364.394710071210284, 3786245.066124110016972 ], [ 399365.615462868765462, 3786246.28687690757215 ], [ 399365.615462868765462, 3786246.897253306116909 ], [ 399365.920651068154257, 3786247.202441505622119 ], [ 399365.920651068154257, 3786247.507629705127329 ], [ 399366.225839267543051, 3786247.812817904166877 ], [ 399366.225839267543051, 3786249.949135300237685 ], [ 399365.920651068154257, 3786250.254323499277234 ], [ 399365.920651068154257, 3786250.864699898287654 ], [ 399365.310274669376668, 3786251.475076296832412 ], [ 399365.005086469987873, 3786251.475076296832412 ], [ 399364.089521871821489, 3786252.390640895348042 ], [ 399363.784333672432695, 3786252.390640895348042 ], [ 399363.4791454730439, 3786252.695829094387591 ], [ 399363.173957273655105, 3786252.695829094387591 ], [ 399362.868769074266311, 3786253.001017293892801 ], [ 399361.342828077322338, 3786253.001017293892801 ] ] ] } },
{ "type": "Feature", "properties": { "confidence": 0.70430409908294678, "class": 1 }, "geometry": { "type": "Polygon", "coordinates": [ [ [ 399215.462868769071065, 3786095.829094608314335 ], [ 399215.15768056968227, 3786095.523906408809125 ], [ 399214.852492370293476, 3786095.523906408809125 ], [ 399214.547304170904681, 3786095.218718209769577 ], [ 399214.242115971515886, 3786095.218718209769577 ], [ 399213.936927772127092, 3786094.913530010264367 ], [ 399213.631739572738297, 3786094.913530010264367 ], [ 399213.326551373349503, 3786094.608341810759157 ], [ 399213.021363173960708, 3786094.608341810759157 ], [ 399212.410986775183119, 3786093.997965412214398 ], [ 399212.410986775183119, 3786093.082400813698769 ], [ 399218.209562563570216, 3786093.082400813698769 ], [ 399218.209562563570216, 3786094.608341810759157 ], [ 399217.904374364181422, 3786094.913530010264367 ], [ 399217.904374364181422, 3786095.218718209769577 ], [ 399217.599186164792627, 3786095.218718209769577 ], [ 399216.988809766015038, 3786095.829094608314335 ], [ 399215.462868769071065, 3786095.829094608314335 ] ] ] } },
{ "type": "Feature", "properties": { "confidence": 0.69296777248382568, "class": 1 }, "geometry": { "type": "Polygon", "coordinates": [ [ [ 399408.952187182090711, 3786330.21363173937425 ], [ 399408.646998982701916, 3786329.908443540334702 ], [ 399408.341810783313122, 3786329.908443540334702 ], [ 399408.341810783313122, 3786329.603255340829492 ], [ 399408.036622583924327, 3786329.298067141324282 ], [ 399408.036622583924327, 3786328.992878941819072 ], [ 399407.731434384535532, 3786328.687690742779523 ], [ 399407.731434384535532, 3786328.077314343769103 ], [ 399407.426246185146738, 3786327.772126144263893 ], [ 399407.426246185146738, 3786327.466937945224345 ], [ 399407.731434384535532, 3786327.161749745719135 ], [ 399407.731434384535532, 3786326.856561546213925 ], [ 399413.53001017292263, 3786326.856561546213925 ], [ 399413.53001017292263, 3786327.161749745719135 ], [ 399413.835198372311424, 3786327.466937945224345 ], [ 399413.835198372311424, 3786329.298067141324282 ], [ 399413.53001017292263, 3786329.603255340829492 ], [ 399412.919633774145041, 3786329.603255340829492 ], [ 399412.614445574756246, 3786329.908443540334702 ], [ 399412.004069175978657, 3786329.908443540334702 ], [ 399411.698880976589862, 3786330.21363173937425 ], [ 399408.952187182090711, 3786330.21363173937425 ] ] ] } },
{ "type": "Feature", "properties": { "confidence": 0.66834008693695068, "class": 1 }, "geometry": { "type": "Polygon", "coordinates": [ [ [ 399336.317395727382973, 3786331.12919633788988 ], [ 399336.012207527994178, 3786330.82400813838467 ], [ 399336.012207527994178, 3786328.687690742779523 ], [ 399336.317395727382973, 3786328.382502543274313 ], [ 399336.317395727382973, 3786326.856561546213925 ], [ 399340.590030518826097, 3786326.856561546213925 ], [ 399340.590030518826097, 3786327.772126144263893 ], [ 399340.284842319437303, 3786328.077314343769103 ], [ 399340.284842319437303, 3786328.382502543274313 ], [ 399339.979654120048508, 3786328.687690742779523 ], [ 399339.979654120048508, 3786328.992878941819072 ], [ 399339.369277721270919, 3786329.603255340829492 ], [ 399339.369277721270919, 3786329.908443540334702 ], [ 399339.064089521882124, 3786330.21363173937425 ], [ 399339.064089521882124, 3786330.51881993887946 ], [ 399338.75890132249333, 3786330.82400813838467 ], [ 399338.453713123104535, 3786330.82400813838467 ], [ 399338.14852492371574, 3786331.12919633788988 ], [ 399336.317395727382973, 3786331.12919633788988 ] ] ] } },
{ "type": "Feature", "properties": { "confidence": 0.642569899559021, "class": 1 }, "geometry": { "type": "Polygon", "coordinates": [ [ [ 399376.297049847431481, 3786481.892166836187243 ], [ 399375.991861648042686, 3786481.586978636682034 ], [ 399375.686673448653892, 3786481.586978636682034 ], [ 399375.381485249265097, 3786481.281790437642485 ], [ 399375.076297049876302, 3786481.281790437642485 ], [ 399375.076297049876302, 3786480.976602238137275 ], [ 399374.160732451651711, 3786480.061037640087306 ], [ 399373.855544252262916, 3786480.061037640087306 ], [ 399373.550356052874122, 3786479.755849440582097 ], [ 399372.939979654096533, 3786479.755849440582097 ], [ 399372.634791454707738, 3786479.450661241076887 ], [ 399372.634791454707738, 3786479.145473041571677 ], [ 399372.024415055930149, 3786478.535096643026918 ], [ 399372.329603255318943, 3786478.229908443521708 ], [ 399372.329603255318943, 3786477.00915564596653 ], [ 399372.024415055930149, 3786476.70396744646132 ], [ 399372.024415055930149, 3786474.567650050856173 ], [ 399371.719226856541354, 3786474.262461851350963 ], [ 399371.719226856541354, 3786473.652085452806205 ], [ 399372.329603255318943, 3786473.041709053795785 ], [ 399372.939979654096533, 3786473.041709053795785 ], [ 399373.245167853485327, 3786472.736520854756236 ], [ 399374.7711088504293, 3786472.736520854756236 ], [ 399375.076297049876302, 3786473.041709053795785 ], [ 399375.381485249265097, 3786473.041709053795785 ], [ 399375.991861648042686, 3786473.652085452806205 ], [ 399376.297049847431481, 3786473.652085452806205 ], [ 399378.738555442541838, 3786476.093591047916561 ], [ 399378.738555442541838, 3786476.398779247421771 ], [ 399379.043743641930632, 3786476.70396744646132 ], [ 399379.043743641930632, 3786479.755849440582097 ], [ 399378.738555442541838, 3786480.061037640087306 ], [ 399378.738555442541838, 3786480.366225839126855 ], [ 399378.128179043764248, 3786480.366225839126855 ], [ 399377.822990844375454, 3786480.671414038632065 ], [ 399377.822990844375454, 3786480.976602238137275 ], [ 399377.517802644986659, 3786480.976602238137275 ], [ 399377.212614445597865, 3786481.281790437642485 ], [ 399377.212614445597865, 3786481.892166836187243 ], [ 399376.297049847431481, 3786481.892166836187243 ] ] ] } },
{ "type": "Feature", "properties": { "confidence": 0.61022955179214478, "class": 1 }, "geometry": { "type": "Polygon", "coordinates": [ [ [ 399507.222787385573611, 3786214.242115971632302 ], [ 399506.612410986796021, 3786213.631739572621882 ], [ 399506.002034588018432, 3786213.631739572621882 ], [ 399505.391658189240843, 3786213.021363174077123 ], [ 399505.391658189240843, 3786212.716174974571913 ], [ 399505.086469989852048, 3786212.410986775066704 ], [ 399505.086469989852048, 3786211.800610376521945 ], [ 399504.476093591074459, 3786211.190233977511525 ], [ 399504.476093591074459, 3786210.885045778006315 ], [ 399503.86571719229687, 3786210.274669379461557 ], [ 399503.86571719229687, 3786209.664292980451137 ], [ 399507.527975584962405, 3786209.664292980451137 ], [ 399507.527975584962405, 3786214.242115971632302 ], [ 399507.222787385573611, 3786214.242115971632302 ] ] ] } },
{ "type": "Feature", "properties": { "confidence": 0.58395791053771973, "class": 1 }, "geometry": { "type": "Polygon", "coordinates": [ [ [ 399240.183112919621635, 3786333.570701933000237 ], [ 399239.877924720232841, 3786333.265513733495027 ], [ 399239.267548321455251, 3786333.265513733495027 ], [ 399238.657171922677662, 3786332.655137334484607 ], [ 399238.351983723288868, 3786332.655137334484607 ], [ 399238.351983723288868, 3786332.349949135445058 ], [ 399237.741607324511278, 3786331.739572736434639 ], [ 399237.741607324511278, 3786331.434384536929429 ], [ 399237.131230925733689, 3786330.82400813838467 ], [ 399237.131230925733689, 3786330.21363173937425 ], [ 399236.826042726344895, 3786329.908443540334702 ], [ 399236.826042726344895, 3786329.603255340829492 ], [ 399236.5208545269561, 3786329.298067141324282 ], [ 399236.5208545269561, 3786328.687690742779523 ], [ 399236.215666327567305, 3786328.382502543274313 ], [ 399236.5208545269561, 3786328.077314343769103 ], [ 399237.131230925733689, 3786328.077314343769103 ], [ 399237.436419125122484, 3786327.772126144263893 ], [ 399237.436419125122484, 3786327.466937945224345 ], [ 399237.741607324511278, 3786327.161749745719135 ], [ 399237.741607324511278, 3786326.856561546213925 ], [ 399241.403865717176814, 3786326.856561546213925 ], [ 399241.403865717176814, 3786327.161749745719135 ], [ 399241.709053916565608, 3786327.466937945224345 ], [ 399241.709053916565608, 3786328.077314343769103 ], [ 399242.014242115954403, 3786328.382502543274313 ], [ 399242.014242115954403, 3786332.960325533989817 ], [ 399241.709053916565608, 3786333.265513733495027 ], [ 399241.403865717176814, 3786333.265513733495027 ], [ 399241.098677517788019, 3786333.570701933000237 ], [ 399240.183112919621635, 3786333.570701933000237 ] ] ] } },
{ "type": "Feature", "properties": { "confidence": 0.58128762245178223, "class": 1 }, "geometry": { "type": "Polygon", "coordinates": [ [ [ 399014.343845371331554, 3786097.355035605374724 ], [ 399014.038657171942759, 3786097.049847405869514 ], [ 399013.123092573776376, 3786097.049847405869514 ], [ 399012.817904374387581, 3786096.744659206364304 ], [ 399012.207527975609992, 3786096.744659206364304 ], [ 399011.902339776221197, 3786096.439471007324755 ], [ 399009.766022380441427, 3786096.439471007324755 ], [ 399008.850457782275043, 3786095.523906408809125 ], [ 399008.850457782275043, 3786095.218718209769577 ], [ 399008.545269582886249, 3786094.913530010264367 ], [ 399008.545269582886249, 3786094.608341810759157 ], [ 399008.240081383497454, 3786094.303153611253947 ], [ 399008.240081383497454, 3786093.082400813698769 ], [ 399015.564598168886732, 3786093.082400813698769 ], [ 399015.564598168886732, 3786093.387589013203979 ], [ 399015.869786368275527, 3786093.692777212709188 ], [ 399015.869786368275527, 3786094.303153611253947 ], [ 399016.480162767053116, 3786094.913530010264367 ], [ 399016.480162767053116, 3786095.829094608314335 ], [ 399016.174974567664322, 3786096.134282807819545 ], [ 399016.174974567664322, 3786096.439471007324755 ], [ 399015.564598168886732, 3786097.049847405869514 ], [ 399014.954221770109143, 3786097.049847405869514 ], [ 399014.649033570720349, 3786097.355035605374724 ], [ 399014.343845371331554, 3786097.355035605374724 ] ] ] } },
{ "type": "Feature", "properties": { "confidence": 0.55894005298614502, "class": 1 }, "geometry": { "type": "Polygon", "coordinates": [ [ [ 399459.308240081358235, 3786483.723296032752842 ], [ 399459.003051881969441, 3786483.418107833247632 ], [ 399458.392675483191852, 3786483.418107833247632 ], [ 399458.087487283803057, 3786483.112919633742422 ], [ 399457.782299084414262, 3786483.112919633742422 ], [ 399457.477110885025468, 3786482.807731434237212 ], [ 399457.171922685636673, 3786482.807731434237212 ], [ 399456.866734486247879, 3786482.502543235197663 ], [ 399456.561546286859084, 3786482.502543235197663 ], [ 399455.6459816886927, 3786481.586978636682034 ], [ 399455.6459816886927, 3786480.366225839126855 ], [ 399455.340793489303906, 3786480.061037640087306 ], [ 399455.340793489303906, 3786477.924720244016498 ], [ 399455.035605289915111, 3786477.61953204497695 ], [ 399455.035605289915111, 3786476.70396744646132 ], [ 399455.340793489303906, 3786476.398779247421771 ], [ 399455.340793489303906, 3786475.788402848411351 ], [ 399455.6459816886927, 3786475.483214648906142 ], [ 399455.6459816886927, 3786475.178026449866593 ], [ 399455.951169888081495, 3786474.872838250361383 ], [ 399455.951169888081495, 3786474.567650050856173 ], [ 399456.256358087470289, 3786474.872838250361383 ], [ 399457.477110885025468, 3786474.872838250361383 ], [ 399458.392675483191852, 3786473.957273652311414 ], [ 399458.392675483191852, 3786473.652085452806205 ], [ 399458.697863682580646, 3786473.346897253300995 ], [ 399458.697863682580646, 3786473.041709053795785 ], [ 399459.308240081358235, 3786472.431332655251026 ], [ 399459.918616480135825, 3786472.431332655251026 ], [ 399460.223804679524619, 3786472.126144455745816 ], [ 399462.360122075304389, 3786472.126144455745816 ], [ 399462.665310274693184, 3786472.431332655251026 ], [ 399462.665310274693184, 3786473.041709053795785 ], [ 399462.970498474081978, 3786473.346897253300995 ], [ 399462.970498474081978, 3786474.872838250361383 ], [ 399463.275686673470773, 3786475.178026449866593 ], [ 399463.275686673470773, 3786475.483214648906142 ], [ 399463.886063072248362, 3786476.093591047916561 ], [ 399463.886063072248362, 3786477.31434384547174 ], [ 399464.191251271637157, 3786477.61953204497695 ], [ 399464.191251271637157, 3786478.535096643026918 ], [ 399464.496439471025951, 3786478.840284842532128 ], [ 399464.496439471025951, 3786480.366225839126855 ], [ 399464.191251271637157, 3786480.671414038632065 ], [ 399464.191251271637157, 3786481.281790437642485 ], [ 399462.665310274693184, 3786482.807731434237212 ], [ 399462.665310274693184, 3786483.112919633742422 ], [ 399462.360122075304389, 3786483.418107833247632 ], [ 399462.054933875915594, 3786483.418107833247632 ], [ 399461.7497456765268, 3786483.723296032752842 ], [ 399459.308240081358235, 3786483.723296032752842 ] ] ] } },
{ "type": "Feature", "properties": { "confidence": 0.5152166485786438, "class": 1 }, "geometry": { "type": "Polygon", "coordinates": [ [ [ 399382.095625635818578, 3786242.929806713946164 ], [ 399381.790437436429784, 3786242.624618514906615 ], [ 399381.180061037652194, 3786242.624618514906615 ], [ 399380.8748728382634, 3786242.319430315401405 ], [ 399380.264496439485811, 3786242.319430315401405 ], [ 399379.959308240097016, 3786242.014242115896195 ], [ 399379.654120040708221, 3786242.014242115896195 ], [ 399379.348931841319427, 3786241.709053916390985 ], [ 399379.348931841319427, 3786241.403865717351437 ], [ 399379.043743641930632, 3786241.098677517846227 ], [ 399379.043743641930632, 3786238.35198372323066 ], [ 399378.738555442541838, 3786238.04679552372545 ], [ 399378.738555442541838, 3786236.520854527130723 ], [ 399378.433367243153043, 3786236.215666327625513 ], [ 399378.433367243153043, 3786234.384537131059915 ], [ 399378.738555442541838, 3786234.079348932020366 ], [ 399378.738555442541838, 3786233.774160732515156 ], [ 399379.348931841319427, 3786233.163784333504736 ], [ 399379.959308240097016, 3786233.163784333504736 ], [ 399380.264496439485811, 3786232.858596134465188 ], [ 399383.926754832151346, 3786232.858596134465188 ], [ 399384.231943031540141, 3786233.163784333504736 ], [ 399384.537131230928935, 3786233.163784333504736 ], [ 399384.84231943031773, 3786233.468972533009946 ], [ 399384.84231943031773, 3786233.774160732515156 ], [ 399386.063072227872908, 3786234.994913530070335 ], [ 399386.063072227872908, 3786235.300101729575545 ], [ 399386.368260427261703, 3786235.605289928615093 ], [ 399386.368260427261703, 3786235.910478128120303 ], [ 399386.673448626650497, 3786236.215666327625513 ], [ 399386.673448626650497, 3786237.741607324685901 ], [ 399386.368260427261703, 3786238.04679552372545 ], [ 399386.368260427261703, 3786240.183112919796258 ], [ 399384.84231943031773, 3786241.709053916390985 ], [ 399384.84231943031773, 3786242.014242115896195 ], [ 399384.537131230928935, 3786242.319430315401405 ], [ 399384.537131230928935, 3786242.624618514906615 ], [ 399384.231943031540141, 3786242.624618514906615 ], [ 399383.926754832151346, 3786242.929806713946164 ], [ 399382.095625635818578, 3786242.929806713946164 ] ] ] } },
{ "type": "Feature", "properties": { "confidence": 0.4990866482257843, "class": 1 }, "geometry": { "type": "Polygon", "coordinates": [ [ [ 399361.037639877933543, 3786301.831129196565598 ], [ 399360.732451678544749, 3786301.525940997060388 ], [ 399360.122075279767159, 3786301.525940997060388 ], [ 399359.816887080378365, 3786301.220752797555178 ], [ 399359.51169888098957, 3786301.220752797555178 ], [ 399359.206510681600776, 3786300.915564598049968 ], [ 399359.206510681600776, 3786300.61037639901042 ], [ 399358.901322482211981, 3786300.30518819950521 ], [ 399358.901322482211981, 3786298.474059002939612 ], [ 399359.206510681600776, 3786298.168870803434402 ], [ 399359.206510681600776, 3786297.863682604394853 ], [ 399359.51169888098957, 3786297.558494404889643 ], [ 399359.51169888098957, 3786296.948118005879223 ], [ 399360.122075279767159, 3786296.337741607334465 ], [ 399361.342828077322338, 3786296.337741607334465 ], [ 399361.648016276711132, 3786296.032553407829255 ], [ 399364.394710071210284, 3786296.032553407829255 ], [ 399364.394710071210284, 3786297.253306205384433 ], [ 399364.089521871821489, 3786297.558494404889643 ], [ 399364.089521871821489, 3786298.168870803434402 ], [ 399364.394710071210284, 3786298.474059002939612 ], [ 399364.394710071210284, 3786300.915564598049968 ], [ 399363.4791454730439, 3786301.831129196565598 ], [ 399361.037639877933543, 3786301.831129196565598 ] ] ] } },
{ "type": "Feature", "properties": { "confidence": 0.44658899307250977, "class": 1 }, "geometry": { "type": "Polygon", "coordinates": [ [ [ 399268.260427263507154, 3786245.066124110016972 ], [ 399267.955239064118359, 3786244.760935910511762 ], [ 399267.650050864671357, 3786244.760935910511762 ], [ 399267.344862665282562, 3786244.455747711006552 ], [ 399267.039674465893768, 3786244.455747711006552 ], [ 399266.734486266504973, 3786244.150559511501342 ], [ 399266.429298067116179, 3786244.150559511501342 ], [ 399266.124109867727384, 3786243.845371312461793 ], [ 399265.818921668338589, 3786243.845371312461793 ], [ 399264.903357070172206, 3786242.929806713946164 ], [ 399264.903357070172206, 3786242.624618514906615 ], [ 399264.598168870783411, 3786242.319430315401405 ], [ 399264.598168870783411, 3786242.014242115896195 ], [ 399264.292980671394616, 3786241.709053916390985 ], [ 399264.292980671394616, 3786241.403865717351437 ], [ 399263.377416073228233, 3786240.488301118835807 ], [ 399263.377416073228233, 3786240.183112919796258 ], [ 399263.072227873839438, 3786239.877924720291048 ], [ 399263.072227873839438, 3786239.572736520785838 ], [ 399262.767039674450643, 3786239.267548321280628 ], [ 399262.767039674450643, 3786238.65717192273587 ], [ 399262.461851475061849, 3786238.35198372323066 ], [ 399262.461851475061849, 3786238.04679552372545 ], [ 399262.156663275673054, 3786237.741607324685901 ], [ 399262.156663275673054, 3786236.826042726170272 ], [ 399262.461851475061849, 3786236.520854527130723 ], [ 399264.903357070172206, 3786236.520854527130723 ], [ 399265.208545269561, 3786236.826042726170272 ], [ 399265.208545269561, 3786237.436419125180691 ], [ 399265.513733468949795, 3786237.741607324685901 ], [ 399265.513733468949795, 3786238.04679552372545 ], [ 399266.124109867727384, 3786238.65717192273587 ], [ 399266.429298067116179, 3786238.65717192273587 ], [ 399267.039674465893768, 3786239.267548321280628 ], [ 399268.260427263507154, 3786239.267548321280628 ], [ 399268.565615462895948, 3786239.572736520785838 ], [ 399268.870803662284743, 3786239.572736520785838 ], [ 399269.175991861673538, 3786239.877924720291048 ], [ 399268.870803662284743, 3786240.183112919796258 ], [ 399268.870803662284743, 3786242.929806713946164 ], [ 399268.565615462895948, 3786243.234994913451374 ], [ 399268.565615462895948, 3786245.066124110016972 ], [ 399268.260427263507154, 3786245.066124110016972 ] ] ] } },
{ "type": "Feature", "properties": { "confidence": 0.43800854682922363, "class": 1 }, "geometry": { "type": "Polygon", "coordinates": [ [ [ 399320.752797558496241, 3786288.708036622498184 ], [ 399320.752797558496241, 3786288.402848422992975 ], [ 399320.447609359107446, 3786288.097660223953426 ], [ 399320.447609359107446, 3786286.266531027387828 ], [ 399320.752797558496241, 3786285.961342827882618 ], [ 399320.752797558496241, 3786285.656154628843069 ], [ 399321.36317395727383, 3786285.045778229832649 ], [ 399321.36317395727383, 3786284.740590030327439 ], [ 399321.973550356051419, 3786284.130213631782681 ], [ 399322.278738555440214, 3786284.130213631782681 ], [ 399322.583926754829008, 3786283.825025432277471 ], [ 399322.889114954217803, 3786283.825025432277471 ], [ 399323.194303153606597, 3786283.519837232772261 ], [ 399323.804679552384187, 3786283.519837232772261 ], [ 399324.415055951161776, 3786284.130213631782681 ], [ 399324.415055951161776, 3786285.961342827882618 ], [ 399324.109867751772981, 3786286.266531027387828 ], [ 399324.109867751772981, 3786286.571719226893038 ], [ 399322.889114954217803, 3786287.792472024448216 ], [ 399322.583926754829008, 3786287.792472024448216 ], [ 399322.278738555440214, 3786288.097660223953426 ], [ 399321.668362156662624, 3786288.097660223953426 ], [ 399321.057985757885035, 3786288.708036622498184 ], [ 399320.752797558496241, 3786288.708036622498184 ] ] ] } },
{ "type": "Feature", "properties": { "confidence": 0.43518021702766418, "class": 1 }, "geometry": { "type": "Polygon", "coordinates": [ [ [ 399372.329603255318943, 3786253.001017293892801 ], [ 399372.024415055930149, 3786252.695829094387591 ], [ 399371.41403865715256, 3786252.695829094387591 ], [ 399371.108850457763765, 3786252.390640895348042 ], [ 399370.498474058986176, 3786252.390640895348042 ], [ 399369.888097660208587, 3786251.780264496337622 ], [ 399369.888097660208587, 3786251.475076296832412 ], [ 399369.582909460819792, 3786251.169888097792864 ], [ 399369.582909460819792, 3786249.949135300237685 ], [ 399369.888097660208587, 3786249.643947100732476 ], [ 399369.888097660208587, 3786249.338758901227266 ], [ 399370.498474058986176, 3786249.338758901227266 ], [ 399370.80366225837497, 3786249.033570701722056 ], [ 399373.855544252262916, 3786249.033570701722056 ], [ 399375.686673448653892, 3786250.864699898287654 ], [ 399375.686673448653892, 3786251.169888097792864 ], [ 399375.991861648042686, 3786251.475076296832412 ], [ 399375.991861648042686, 3786252.390640895348042 ], [ 399375.686673448653892, 3786252.695829094387591 ], [ 399375.686673448653892, 3786253.001017293892801 ], [ 399372.329603255318943, 3786253.001017293892801 ] ] ] } },
{ "type": "Feature", "properties": { "confidence": 0.43240401148796082, "class": 1 }, "geometry": { "type": "Polygon", "coordinates": [ [ [ 399359.816887080378365, 3786217.293997965287417 ], [ 399359.51169888098957, 3786216.988809766247869 ], [ 399359.51169888098957, 3786215.76805696869269 ], [ 399359.206510681600776, 3786215.46286876918748 ], [ 399359.206510681600776, 3786214.85249237017706 ], [ 399358.901322482211981, 3786214.547304171137512 ], [ 399358.901322482211981, 3786214.242115971632302 ], [ 399358.596134282823186, 3786213.936927772127092 ], [ 399358.596134282823186, 3786213.631739572621882 ], [ 399358.290946083434392, 3786213.326551373116672 ], [ 399358.290946083434392, 3786212.716174974571913 ], [ 399357.985757884045597, 3786212.410986775066704 ], [ 399357.985757884045597, 3786210.274669379461557 ], [ 399361.953204476099927, 3786210.274669379461557 ], [ 399362.258392675488722, 3786210.579857578966767 ], [ 399362.258392675488722, 3786211.190233977511525 ], [ 399362.563580874877516, 3786211.495422177016735 ], [ 399362.563580874877516, 3786211.800610376521945 ], [ 399362.868769074266311, 3786212.105798575561494 ], [ 399362.868769074266311, 3786212.410986775066704 ], [ 399363.173957273655105, 3786212.716174974571913 ], [ 399363.173957273655105, 3786215.15768056968227 ], [ 399362.868769074266311, 3786215.46286876918748 ], [ 399362.868769074266311, 3786215.76805696869269 ], [ 399362.258392675488722, 3786216.378433367237449 ], [ 399362.258392675488722, 3786216.683621566742659 ], [ 399361.648016276711132, 3786217.293997965287417 ], [ 399359.816887080378365, 3786217.293997965287417 ] ] ] } },
{ "type": "Feature", "properties": { "confidence": 0.38414794206619263, "class": 1 }, "geometry": { "type": "Polygon", "coordinates": [ [ [ 399134.587995930807665, 3786335.707019328605384 ], [ 399134.28280773141887, 3786335.401831129100174 ], [ 399133.672431332641281, 3786335.401831129100174 ], [ 399133.367243133252487, 3786335.096642929594964 ], [ 399133.062054933863692, 3786335.096642929594964 ], [ 399132.756866734474897, 3786334.791454730555415 ], [ 399132.451678535086103, 3786334.791454730555415 ], [ 399132.451678535086103, 3786334.486266531050205 ], [ 399131.536113936919719, 3786333.570701933000237 ], [ 399131.536113936919719, 3786333.265513733495027 ], [ 399131.230925737530924, 3786332.960325533989817 ], [ 399131.230925737530924, 3786329.298067141324282 ], [ 399131.536113936919719, 3786328.992878941819072 ], [ 399131.536113936919719, 3786328.687690742779523 ], [ 399132.146490335697308, 3786328.077314343769103 ], [ 399132.451678535086103, 3786328.077314343769103 ], [ 399132.756866734474897, 3786327.772126144263893 ], [ 399138.860630722250789, 3786327.772126144263893 ], [ 399139.165818921639584, 3786328.077314343769103 ], [ 399139.471007121086586, 3786328.077314343769103 ], [ 399139.471007121086586, 3786328.382502543274313 ], [ 399140.081383519864175, 3786328.992878941819072 ], [ 399140.081383519864175, 3786329.298067141324282 ], [ 399140.691759918641765, 3786329.908443540334702 ], [ 399140.691759918641765, 3786330.51881993887946 ], [ 399140.996948118030559, 3786330.82400813838467 ], [ 399140.996948118030559, 3786331.739572736434639 ], [ 399140.691759918641765, 3786332.044760935939848 ], [ 399140.691759918641765, 3786332.349949135445058 ], [ 399139.471007121086586, 3786333.570701933000237 ], [ 399139.471007121086586, 3786334.181078331544995 ], [ 399139.165818921639584, 3786334.486266531050205 ], [ 399139.165818921639584, 3786334.791454730555415 ], [ 399138.555442522861995, 3786335.401831129100174 ], [ 399138.2502543234732, 3786335.401831129100174 ], [ 399137.945066124084406, 3786335.707019328605384 ], [ 399134.587995930807665, 3786335.707019328605384 ] ] ] } },
{ "type": "Feature", "properties": { "confidence": 0.37876018881797791, "class": 1 }, "geometry": { "type": "Polygon", "coordinates": [ [ [ 399390.335707019316033, 3786237.131230925675482 ], [ 399390.030518819927238, 3786236.826042726170272 ], [ 399388.80976602237206, 3786236.826042726170272 ], [ 399388.504577822983265, 3786236.520854527130723 ], [ 399388.504577822983265, 3786235.910478128120303 ], [ 399388.19938962359447, 3786235.605289928615093 ], [ 399388.19938962359447, 3786232.858596134465188 ], [ 399388.504577822983265, 3786232.553407934959978 ], [ 399388.504577822983265, 3786232.248219735454768 ], [ 399389.114954221760854, 3786231.637843336910009 ], [ 399390.335707019316033, 3786231.637843336910009 ], [ 399390.335707019316033, 3786237.131230925675482 ] ] ] } },
{ "type": "Feature", "properties": { "confidence": 0.36641478538513184, "class": 1 }, "geometry": { "type": "Polygon", "coordinates": [ [ [ 399365.920651068154257, 3786211.190233977511525 ], [ 399365.310274669376668, 3786210.579857578966767 ], [ 399365.310274669376668, 3786210.274669379461557 ], [ 399365.005086469987873, 3786209.969481179956347 ], [ 399365.005086469987873, 3786209.664292980451137 ], [ 399364.699898270599078, 3786209.359104781411588 ], [ 399364.699898270599078, 3786209.053916581906378 ], [ 399364.394710071210284, 3786208.748728382401168 ], [ 399364.394710071210284, 3786206.612410986796021 ], [ 399365.005086469987873, 3786206.002034587785602 ], [ 399365.310274669376668, 3786206.002034587785602 ], [ 399365.920651068154257, 3786205.391658189240843 ], [ 399367.751780264487024, 3786205.391658189240843 ], [ 399368.056968463875819, 3786205.696846388746053 ], [ 399368.362156663264614, 3786205.696846388746053 ], [ 399369.277721261430997, 3786206.612410986796021 ], [ 399369.277721261430997, 3786206.917599186301231 ], [ 399369.582909460819792, 3786207.22278738534078 ], [ 399369.582909460819792, 3786207.52797558484599 ], [ 399369.888097660208587, 3786207.8331637843512 ], [ 399369.888097660208587, 3786209.969481179956347 ], [ 399369.582909460819792, 3786209.969481179956347 ], [ 399368.972533062042203, 3786210.579857578966767 ], [ 399368.056968463875819, 3786210.579857578966767 ], [ 399367.751780264487024, 3786210.885045778006315 ], [ 399367.141403865709435, 3786210.885045778006315 ], [ 399366.836215666320641, 3786211.190233977511525 ], [ 399365.920651068154257, 3786211.190233977511525 ] ] ] } },
{ "type": "Feature", "properties": { "confidence": 0.33617249131202698, "class": 1 }, "geometry": { "type": "Polygon", "coordinates": [ [ [ 399411.698880976589862, 3786513.326551373116672 ], [ 399411.393692777201068, 3786513.021363174077123 ], [ 399411.393692777201068, 3786512.716174974571913 ], [ 399411.088504577812273, 3786512.410986775066704 ], [ 399411.088504577812273, 3786510.885045778006315 ], [ 399410.783316378423478, 3786510.579857578966767 ], [ 399410.783316378423478, 3786508.443540182895958 ], [ 399410.478128179034684, 3786508.13835198385641 ], [ 399410.478128179034684, 3786507.8331637843512 ], [ 399410.172939979645889, 3786507.52797558484599 ], [ 399410.172939979645889, 3786506.612410986796021 ], [ 399409.867751780257095, 3786506.307222787290812 ], [ 399409.867751780257095, 3786505.391658189240843 ], [ 399410.172939979645889, 3786505.086469989735633 ], [ 399410.172939979645889, 3786504.781281790230423 ], [ 399410.783316378423478, 3786504.170905391685665 ], [ 399413.835198372311424, 3786504.170905391685665 ], [ 399414.140386571700219, 3786504.476093591190875 ], [ 399414.445574771089014, 3786504.476093591190875 ], [ 399415.055951169866603, 3786505.086469989735633 ], [ 399415.055951169866603, 3786510.274669379461557 ], [ 399414.750762970477808, 3786510.579857578966767 ], [ 399414.750762970477808, 3786511.190233977511525 ], [ 399414.445574771089014, 3786511.495422177016735 ], [ 399414.445574771089014, 3786512.105798575561494 ], [ 399414.140386571700219, 3786512.410986775066704 ], [ 399414.140386571700219, 3786512.716174974571913 ], [ 399413.53001017292263, 3786513.326551373116672 ], [ 399411.698880976589862, 3786513.326551373116672 ] ] ] } },
{ "type": "Feature", "properties": { "confidence": 0.33179953694343567, "class": 1 }, "geometry": { "type": "Polygon", "coordinates": [ [ [ 399512.716174974571913, 3786221.261444557458162 ], [ 399512.410986775183119, 3786220.956256357952952 ], [ 399511.80061037640553, 3786220.956256357952952 ], [ 399510.579857578850351, 3786219.735503560397774 ], [ 399510.579857578850351, 3786219.430315361358225 ], [ 399510.274669379461557, 3786219.125127161853015 ], [ 399510.274669379461557, 3786218.819938962347806 ], [ 399509.969481180072762, 3786218.514750762842596 ], [ 399509.969481180072762, 3786217.599186164792627 ], [ 399509.664292980683967, 3786217.293997965287417 ], [ 399509.664292980683967, 3786215.76805696869269 ], [ 399509.969481180072762, 3786215.46286876918748 ], [ 399509.969481180072762, 3786215.15768056968227 ], [ 399510.579857578850351, 3786215.15768056968227 ], [ 399511.19023397762794, 3786214.547304171137512 ], [ 399511.19023397762794, 3786213.631739572621882 ], [ 399511.495422177016735, 3786213.631739572621882 ], [ 399511.80061037640553, 3786213.326551373116672 ], [ 399511.80061037640553, 3786212.410986775066704 ], [ 399512.410986775183119, 3786212.410986775066704 ], [ 399512.105798575794324, 3786212.716174974571913 ], [ 399512.105798575794324, 3786213.326551373116672 ], [ 399512.716174974571913, 3786213.936927772127092 ], [ 399512.716174974571913, 3786214.547304171137512 ], [ 399513.021363173960708, 3786214.85249237017706 ], [ 399514.242115971515886, 3786214.85249237017706 ], [ 399514.547304170904681, 3786214.547304171137512 ], [ 399514.852492370293476, 3786214.547304171137512 ], [ 399515.15768056968227, 3786214.242115971632302 ], [ 399515.15768056968227, 3786213.936927772127092 ], [ 399515.768056968459859, 3786213.326551373116672 ], [ 399516.073245167848654, 3786213.326551373116672 ], [ 399516.378433367237449, 3786213.631739572621882 ], [ 399516.988809766015038, 3786213.631739572621882 ], [ 399516.988809766015038, 3786213.936927772127092 ], [ 399517.599186164792627, 3786214.547304171137512 ], [ 399517.599186164792627, 3786219.125127161853015 ], [ 399517.293997965403832, 3786219.430315361358225 ], [ 399517.293997965403832, 3786219.735503560397774 ], [ 399516.988809766015038, 3786220.040691759902984 ], [ 399516.988809766015038, 3786220.345879959408194 ], [ 399516.378433367237449, 3786220.956256357952952 ], [ 399516.073245167848654, 3786220.956256357952952 ], [ 399515.768056968459859, 3786221.261444557458162 ], [ 399512.716174974571913, 3786221.261444557458162 ] ] ] } },
{ "type": "Feature", "properties": { "confidence": 0.3235630989074707, "class": 1 }, "geometry": { "type": "Polygon", "coordinates": [ [ [ 399151.983723296027165, 3786447.711088504642248 ], [ 399151.983723296027165, 3786447.405900305137038 ], [ 399150.762970498471987, 3786446.18514750758186 ], [ 399150.762970498471987, 3786445.269582909531891 ], [ 399150.457782299083192, 3786444.964394710026681 ], [ 399150.457782299083192, 3786444.048830111976713 ], [ 399155.951169888081495, 3786444.048830111976713 ], [ 399155.951169888081495, 3786447.711088504642248 ], [ 399151.983723296027165, 3786447.711088504642248 ] ] ] } },
{ "type": "Feature", "properties": { "confidence": 0.30845561623573303, "class": 1 }, "geometry": { "type": "Polygon", "coordinates": [ [ [ 399270.701932858617511, 3786260.020345880184323 ], [ 399270.091556459839921, 3786259.409969481173903 ], [ 399270.091556459839921, 3786259.104781281668693 ], [ 399269.786368260451127, 3786258.799593082629144 ], [ 399269.786368260451127, 3786258.494404883123934 ], [ 399269.481180061062332, 3786258.189216683618724 ], [ 399269.481180061062332, 3786257.884028484113514 ], [ 399269.175991861673538, 3786257.578840285073966 ], [ 399269.175991861673538, 3786256.968463886063546 ], [ 399268.870803662284743, 3786256.663275686558336 ], [ 399268.870803662284743, 3786255.442522889003158 ], [ 399269.175991861673538, 3786255.137334689497948 ], [ 399269.481180061062332, 3786255.137334689497948 ], [ 399269.786368260451127, 3786254.832146490458399 ], [ 399270.091556459839921, 3786254.832146490458399 ], [ 399270.396744659228716, 3786254.526958290953189 ], [ 399270.701932858617511, 3786254.526958290953189 ], [ 399271.007121058006305, 3786254.221770091447979 ], [ 399271.3123092573951, 3786254.221770091447979 ], [ 399271.617497456783894, 3786254.526958290953189 ], [ 399273.143438453727867, 3786254.526958290953189 ], [ 399273.143438453727867, 3786260.020345880184323 ], [ 399270.701932858617511, 3786260.020345880184323 ] ] ] } },
{ "type": "Feature", "properties": { "confidence": 0.30768013000488281, "class": 1 }, "geometry": { "type": "Polygon", "coordinates": [ [ [ 399315.869786368275527, 3786322.278738555498421 ], [ 399315.869786368275527, 3786318.921668362338096 ], [ 399316.174974567664322, 3786318.616480162832886 ], [ 399316.174974567664322, 3786318.311291963327676 ], [ 399316.785350966441911, 3786317.700915564782917 ], [ 399319.226856561552268, 3786317.700915564782917 ], [ 399319.226856561552268, 3786321.668362156488001 ], [ 399318.921668362163473, 3786321.973550355993211 ], [ 399317.090539165830705, 3786321.973550355993211 ], [ 399316.785350966441911, 3786322.278738555498421 ], [ 399315.869786368275527, 3786322.278738555498421 ] ] ] } },
{ "type": "Feature", "properties": { "confidence": 0.26052942872047424, "class": 1 }, "geometry": { "type": "Polygon", "coordinates": [ [ [ 399521.871820956235752, 3786287.182095625437796 ], [ 399521.871820956235752, 3786286.266531027387828 ], [ 399522.177009155624546, 3786285.961342827882618 ], [ 399522.177009155624546, 3786284.740590030327439 ], [ 399522.482197355013341, 3786284.435401831287891 ], [ 399522.482197355013341, 3786284.130213631782681 ], [ 399522.787385554402135, 3786283.825025432277471 ], [ 399522.787385554402135, 3786283.519837232772261 ], [ 399523.702950152568519, 3786282.604272634722292 ], [ 399524.008138351957314, 3786282.604272634722292 ], [ 399524.313326551346108, 3786282.299084435217083 ], [ 399524.618514750734903, 3786282.299084435217083 ], [ 399524.923702950123698, 3786281.993896236177534 ], [ 399524.923702950123698, 3786281.688708036672324 ], [ 399525.2288911495707, 3786281.383519837167114 ], [ 399525.2288911495707, 3786279.552390641067177 ], [ 399525.534079348959494, 3786279.552390641067177 ], [ 399525.839267548348289, 3786279.247202441561967 ], [ 399526.754832146514673, 3786279.247202441561967 ], [ 399527.060020345903467, 3786279.552390641067177 ], [ 399527.670396744681057, 3786279.552390641067177 ], [ 399527.975584944069851, 3786279.857578840106726 ], [ 399528.280773143458646, 3786279.857578840106726 ], [ 399528.891149542236235, 3786280.467955239117146 ], [ 399528.58596134284744, 3786280.773143438622355 ], [ 399528.58596134284744, 3786281.383519837167114 ], [ 399528.280773143458646, 3786281.688708036672324 ], [ 399528.280773143458646, 3786281.993896236177534 ], [ 399527.975584944069851, 3786282.299084435217083 ], [ 399527.975584944069851, 3786282.604272634722292 ], [ 399527.670396744681057, 3786282.909460834227502 ], [ 399527.670396744681057, 3786283.214649033732712 ], [ 399525.534079348959494, 3786285.350966429337859 ], [ 399525.534079348959494, 3786285.656154628843069 ], [ 399525.2288911495707, 3786285.961342827882618 ], [ 399524.923702950123698, 3786285.961342827882618 ], [ 399524.313326551346108, 3786286.571719226893038 ], [ 399523.702950152568519, 3786286.571719226893038 ], [ 399523.09257375379093, 3786287.182095625437796 ], [ 399521.871820956235752, 3786287.182095625437796 ] ] ] } },
{ "type": "Feature", "properties": { "confidence": 0.25781446695327759, "class": 1 }, "geometry": { "type": "Polygon", "coordinates": [ [ [ 399197.76195320446277, 3786478.535096643026918 ], [ 399197.456765005073976, 3786478.229908443521708 ], [ 399194.710071210574824, 3786478.229908443521708 ], [ 399193.794506612408441, 3786477.31434384547174 ], [ 399193.794506612408441, 3786475.788402848411351 ], [ 399193.489318413019646, 3786475.483214648906142 ], [ 399193.489318413019646, 3786473.652085452806205 ], [ 399193.794506612408441, 3786473.346897253300995 ], [ 399193.794506612408441, 3786473.041709053795785 ], [ 399194.099694811797235, 3786472.736520854756236 ], [ 399194.40488301118603, 3786472.736520854756236 ], [ 399194.710071210574824, 3786472.431332655251026 ], [ 399195.320447609352414, 3786472.431332655251026 ], [ 399195.930824008130003, 3786471.820956256240606 ], [ 399196.236012207518797, 3786471.820956256240606 ], [ 399196.541200406907592, 3786471.515768057201058 ], [ 399199.898270600184333, 3786471.515768057201058 ], [ 399199.898270600184333, 3786471.820956256240606 ], [ 399200.203458799573127, 3786472.126144455745816 ], [ 399200.203458799573127, 3786474.567650050856173 ], [ 399200.508646998961922, 3786474.872838250361383 ], [ 399200.508646998961922, 3786477.61953204497695 ], [ 399199.898270600184333, 3786478.229908443521708 ], [ 399199.287894201406743, 3786478.229908443521708 ], [ 399198.982706002017949, 3786478.535096643026918 ], [ 399197.76195320446277, 3786478.535096643026918 ] ] ] } }
]
}
