{
"type": "FeatureCollection",
"name": "cell_00514_pre",
"crs": { "type": "name", "properties": { "name": "urn:ogc:def:crs:EPSG::32611" } },
"features": [
{ "type": "Feature", "properties": { "confidence": 0.95547980070114136, "class": 1 }, "geometry": { "type": "Polygon", "coordinates": [ [ [ 402961.037639877933543, 3785730.82400813838467 ], [ 402960.732451678544749, 3785730.51881993887946 ], [ 402960.732451678544749, 3785729.298067141324282 ], [ 402960.122075279767159, 3785728.687690742779523 ], [ 402960.122075279767159, 3785727.466937945224345 ], [ 402959.816887080378365, 3785727.161749745719135 ], [ 402959.816887080378365, 3785726.856561546213925 ], [ 402967.141403865709435, 3785726.856561546213925 ], [ 402967.141403865709435, 3785727.466937945224345 ], [ 402966.836215666320641, 3785727.772126144263893 ], [ 402966.836215666320641, 3785728.077314343769103 ], [ 402966.531027466931846, 3785728.382502543274313 ], [ 402966.531027466931846, 3785728.992878941819072 ], [ 402965.005086469987873, 3785730.51881993887946 ], [ 402963.784333672432695, 3785730.51881993887946 ], [ 402963.4791454730439, 3785730.82400813838467 ], [ 402961.037639877933543, 3785730.82400813838467 ] ] ] } },
{ "type": "Feature", "properties": { "confidence": 0.9387514591217041, "class": 1 }, "geometry": { "type": "Polygon", "coordinates": [ [ [ 403080.97660223802086, 3785818.718209562357515 ], [ 403080.671414038632065, 3785818.413021363317966 ], [ 403080.36622583924327, 3785818.413021363317966 ], [ 403080.061037639854476, 3785818.107833163812757 ], [ 403080.061037639854476, 3785817.497456764802337 ], [ 403080.36622583924327, 3785817.192268565762788 ], [ 403080.36622583924327, 3785816.581892166752368 ], [ 403080.671414038632065, 3785816.276703967247158 ], [ 403080.671414038632065, 3785815.05595116969198 ], [ 403081.281790437409654, 3785814.445574771147221 ], [ 403081.281790437409654, 3785814.140386571642011 ], [ 403083.723296032578219, 3785811.698880976531655 ], [ 403083.723296032578219, 3785811.393692777026445 ], [ 403084.028484231967013, 3785811.088504577986896 ], [ 403088.301119023410138, 3785811.088504577986896 ], [ 403088.606307222798932, 3785811.393692777026445 ], [ 403089.216683621576522, 3785811.393692777026445 ], [ 403089.216683621576522, 3785811.698880976531655 ], [ 403089.521871820965316, 3785812.004069176036865 ], [ 403089.521871820965316, 3785812.309257375542074 ], [ 403089.827060020354111, 3785812.614445574581623 ], [ 403089.827060020354111, 3785813.530010173097253 ], [ 403089.521871820965316, 3785813.835198372136801 ], [ 403089.521871820965316, 3785814.445574771147221 ], [ 403087.995930824021343, 3785815.97151576820761 ], [ 403087.995930824021343, 3785816.276703967247158 ], [ 403087.385554425243754, 3785816.887080366257578 ], [ 403086.775178026466165, 3785816.887080366257578 ], [ 403086.46998982707737, 3785817.192268565762788 ], [ 403085.859613428299781, 3785817.192268565762788 ], [ 403085.554425228910986, 3785817.497456764802337 ], [ 403085.249237029522192, 3785817.497456764802337 ], [ 403084.944048830133397, 3785817.802644964307547 ], [ 403084.333672431355808, 3785817.802644964307547 ], [ 403084.028484231967013, 3785818.107833163812757 ], [ 403083.418107833189424, 3785818.107833163812757 ], [ 403083.11291963380063, 3785818.413021363317966 ], [ 403081.586978636798449, 3785818.413021363317966 ], [ 403081.281790437409654, 3785818.718209562357515 ], [ 403080.97660223802086, 3785818.718209562357515 ] ] ] } },
{ "type": "Feature", "properties": { "confidence": 0.93176031112670898, "class": 1 }, "geometry": { "type": "Polygon", "coordinates": [ [ [ 403050.457782299083192, 3785829.094608341809362 ], [ 403050.152594099694397, 3785828.789420142304152 ], [ 403049.542217700916808, 3785828.789420142304152 ], [ 403049.237029501528013, 3785828.484231942798942 ], [ 403049.237029501528013, 3785826.653102746699005 ], [ 403049.542217700916808, 3785826.347914547193795 ], [ 403049.542217700916808, 3785825.737538148649037 ], [ 403050.152594099694397, 3785825.127161749638617 ], [ 403050.457782299083192, 3785825.127161749638617 ], [ 403051.068158697860781, 3785824.516785351093858 ], [ 403051.373346897249576, 3785824.516785351093858 ], [ 403051.67853509663837, 3785824.211597151588649 ], [ 403051.67853509663837, 3785823.906408952083439 ], [ 403051.983723296027165, 3785823.906408952083439 ], [ 403052.28891149541596, 3785823.601220752578229 ], [ 403052.28891149541596, 3785822.99084435403347 ], [ 403052.899287894193549, 3785822.99084435403347 ], [ 403053.509664292971138, 3785822.38046795502305 ], [ 403055.340793489303906, 3785822.38046795502305 ], [ 403055.6459816886927, 3785822.075279755983502 ], [ 403056.256358087470289, 3785822.075279755983502 ], [ 403056.561546286859084, 3785822.38046795502305 ], [ 403057.171922685636673, 3785822.38046795502305 ], [ 403057.171922685636673, 3785822.68565615452826 ], [ 403057.477110885025468, 3785822.99084435403347 ], [ 403057.782299084414262, 3785822.99084435403347 ], [ 403058.087487283803057, 3785823.29603255353868 ], [ 403058.392675483191852, 3785823.29603255353868 ], [ 403059.003051881969441, 3785823.906408952083439 ], [ 403059.003051881969441, 3785826.653102746699005 ], [ 403058.697863682580646, 3785826.653102746699005 ], [ 403057.782299084414262, 3785827.568667344748974 ], [ 403057.477110885025468, 3785827.568667344748974 ], [ 403057.171922685636673, 3785827.873855544254184 ], [ 403056.256358087470289, 3785827.873855544254184 ], [ 403055.951169888081495, 3785828.179043743759394 ], [ 403054.425228891137522, 3785828.179043743759394 ], [ 403054.120040691748727, 3785828.484231942798942 ], [ 403053.204476093582343, 3785828.484231942798942 ], [ 403052.899287894193549, 3785828.789420142304152 ], [ 403051.983723296027165, 3785828.789420142304152 ], [ 403051.67853509663837, 3785829.094608341809362 ], [ 403050.457782299083192, 3785829.094608341809362 ] ] ] } },
{ "type": "Feature", "properties": { "confidence": 0.92540055513381958, "class": 1 }, "geometry": { "type": "Polygon", "coordinates": [ [ [ 403047.71108850458404, 3785777.822990844491869 ], [ 403047.100712105806451, 3785777.212614445481449 ], [ 403047.100712105806451, 3785774.465920650865883 ], [ 403046.795523906417657, 3785774.160732451826334 ], [ 403047.100712105806451, 3785773.855544252321124 ], [ 403047.100712105806451, 3785771.719226856715977 ], [ 403047.405900305195246, 3785771.414038657210767 ], [ 403047.405900305195246, 3785771.108850457705557 ], [ 403047.71108850458404, 3785770.803662258200347 ], [ 403048.32146490336163, 3785770.803662258200347 ], [ 403048.626653102750424, 3785770.498474059160799 ], [ 403049.847405900305603, 3785770.498474059160799 ], [ 403050.152594099694397, 3785770.193285859655589 ], [ 403050.762970498471987, 3785770.193285859655589 ], [ 403051.373346897249576, 3785769.582909460645169 ], [ 403051.67853509663837, 3785769.582909460645169 ], [ 403051.983723296027165, 3785769.27772126160562 ], [ 403052.28891149541596, 3785769.27772126160562 ], [ 403052.594099694804754, 3785768.97253306210041 ], [ 403052.899287894193549, 3785768.97253306210041 ], [ 403053.204476093582343, 3785768.667344862595201 ], [ 403054.730417090526316, 3785768.667344862595201 ], [ 403055.035605289915111, 3785768.97253306210041 ], [ 403055.340793489303906, 3785768.97253306210041 ], [ 403055.951169888081495, 3785769.582909460645169 ], [ 403055.951169888081495, 3785770.498474059160799 ], [ 403055.6459816886927, 3785770.803662258200347 ], [ 403055.6459816886927, 3785771.414038657210767 ], [ 403055.340793489303906, 3785771.719226856715977 ], [ 403055.340793489303906, 3785772.024415055755526 ], [ 403055.035605289915111, 3785772.329603255260736 ], [ 403055.035605289915111, 3785772.634791454765946 ], [ 403054.730417090526316, 3785772.939979654271156 ], [ 403054.730417090526316, 3785773.245167853310704 ], [ 403054.425228891137522, 3785773.550356052815914 ], [ 403054.425228891137522, 3785774.160732451826334 ], [ 403054.120040691748727, 3785774.465920650865883 ], [ 403054.120040691748727, 3785774.771108850371093 ], [ 403053.814852492359933, 3785775.076297049876302 ], [ 403053.814852492359933, 3785775.381485249381512 ], [ 403053.509664292971138, 3785775.686673448421061 ], [ 403053.509664292971138, 3785775.991861647926271 ], [ 403052.594099694804754, 3785776.907426245976239 ], [ 403052.28891149541596, 3785776.907426245976239 ], [ 403051.983723296027165, 3785777.212614445481449 ], [ 403051.67853509663837, 3785777.212614445481449 ], [ 403051.373346897249576, 3785777.517802644986659 ], [ 403051.068158697860781, 3785777.517802644986659 ], [ 403050.762970498471987, 3785777.822990844491869 ], [ 403047.71108850458404, 3785777.822990844491869 ] ] ] } },
{ "type": "Feature", "properties": { "confidence": 0.89349353313446045, "class": 1 }, "geometry": { "type": "Polygon", "coordinates": [ [ [ 402952.797558494377881, 3785615.15768056968227 ], [ 402951.881993896211497, 3785614.242115971632302 ], [ 402951.576805696822703, 3785614.242115971632302 ], [ 402951.576805696822703, 3785605.086469989735633 ], [ 402951.881993896211497, 3785605.086469989735633 ], [ 402952.187182095600292, 3785604.781281790230423 ], [ 402952.797558494377881, 3785604.781281790230423 ], [ 402953.102746693766676, 3785604.476093591190875 ], [ 402953.40793489315547, 3785604.476093591190875 ], [ 402953.713123092602473, 3785604.781281790230423 ], [ 402954.323499491380062, 3785604.781281790230423 ], [ 402954.323499491380062, 3785605.086469989735633 ], [ 402954.628687690768857, 3785605.391658189240843 ], [ 402954.933875890157651, 3785605.391658189240843 ], [ 402954.933875890157651, 3785605.696846388746053 ], [ 402955.239064089546446, 3785606.002034587785602 ], [ 402955.54425228893524, 3785606.002034587785602 ], [ 402955.849440488324035, 3785606.307222787290812 ], [ 402956.15462868771283, 3785606.307222787290812 ], [ 402956.765005086490419, 3785606.917599186301231 ], [ 402957.070193285879213, 3785606.917599186301231 ], [ 402957.375381485268008, 3785607.22278738534078 ], [ 402957.680569684656803, 3785607.22278738534078 ], [ 402958.290946083434392, 3785607.8331637843512 ], [ 402958.290946083434392, 3785609.969481179956347 ], [ 402957.985757884045597, 3785610.274669379461557 ], [ 402957.985757884045597, 3785610.579857578966767 ], [ 402957.680569684656803, 3785610.885045778006315 ], [ 402957.680569684656803, 3785611.190233977511525 ], [ 402957.375381485268008, 3785611.190233977511525 ], [ 402957.070193285879213, 3785611.495422177016735 ], [ 402957.070193285879213, 3785611.800610376521945 ], [ 402956.765005086490419, 3785612.105798575561494 ], [ 402956.765005086490419, 3785612.410986775066704 ], [ 402956.459816887101624, 3785612.716174974571913 ], [ 402956.459816887101624, 3785613.021363174077123 ], [ 402956.15462868771283, 3785613.326551373116672 ], [ 402955.849440488324035, 3785613.326551373116672 ], [ 402955.54425228893524, 3785613.631739572621882 ], [ 402955.54425228893524, 3785613.936927772127092 ], [ 402955.239064089546446, 3785613.936927772127092 ], [ 402954.933875890157651, 3785614.242115971632302 ], [ 402954.933875890157651, 3785614.547304171137512 ], [ 402954.323499491380062, 3785615.15768056968227 ], [ 402952.797558494377881, 3785615.15768056968227 ] ] ] } },
{ "type": "Feature", "properties": { "confidence": 0.83101260662078857, "class": 1 }, "geometry": { "type": "Polygon", "coordinates": [ [ [ 402989.114954221760854, 3785648.423194303177297 ], [ 402989.114954221760854, 3785648.118006103672087 ], [ 402988.80976602237206, 3785647.812817904166877 ], [ 402988.504577822983265, 3785647.812817904166877 ], [ 402988.19938962359447, 3785647.507629705127329 ], [ 402987.894201424205676, 3785647.507629705127329 ], [ 402986.978636826039292, 3785646.592065106611699 ], [ 402986.673448626650497, 3785646.592065106611699 ], [ 402986.063072227872908, 3785645.98168870806694 ], [ 402986.368260427261703, 3785645.67650050856173 ], [ 402986.368260427261703, 3785644.150559511501342 ], [ 402986.673448626650497, 3785644.150559511501342 ], [ 402987.589013224816881, 3785643.234994913451374 ], [ 402987.894201424205676, 3785643.234994913451374 ], [ 402988.19938962359447, 3785642.929806713946164 ], [ 402989.420142421149649, 3785642.929806713946164 ], [ 402989.725330620538443, 3785642.624618514906615 ], [ 402990.335707019316033, 3785642.624618514906615 ], [ 402990.335707019316033, 3785648.423194303177297 ], [ 402989.114954221760854, 3785648.423194303177297 ] ] ] } },
{ "type": "Feature", "properties": { "confidence": 0.80635231733322144, "class": 1 }, "geometry": { "type": "Polygon", "coordinates": [ [ [ 403186.57171922683483, 3785731.12919633788988 ], [ 403185.045778229890857, 3785729.603255340829492 ], [ 403185.045778229890857, 3785728.992878941819072 ], [ 403184.740590030502062, 3785728.687690742779523 ], [ 403184.740590030502062, 3785727.466937945224345 ], [ 403184.435401831113268, 3785727.161749745719135 ], [ 403184.435401831113268, 3785726.856561546213925 ], [ 403188.708036622556392, 3785726.856561546213925 ], [ 403188.708036622556392, 3785727.161749745719135 ], [ 403188.402848423167598, 3785727.466937945224345 ], [ 403188.402848423167598, 3785730.51881993887946 ], [ 403187.792472024390008, 3785731.12919633788988 ], [ 403186.57171922683483, 3785731.12919633788988 ] ] ] } },
{ "type": "Feature", "properties": { "confidence": 0.61349540948867798, "class": 1 }, "geometry": { "type": "Polygon", "coordinates": [ [ [ 403146.897253306233324, 3785493.082400813698769 ], [ 403146.59206510684453, 3785492.77721261465922 ], [ 403145.676500508619938, 3785492.77721261465922 ], [ 403145.371312309231143, 3785492.47202441515401 ], [ 403144.760935910453554, 3785492.47202441515401 ], [ 403144.45574771106476, 3785492.1668362156488 ], [ 403144.150559511675965, 3785492.1668362156488 ], [ 403143.84537131228717, 3785491.86164801614359 ], [ 403143.84537131228717, 3785491.251271617598832 ], [ 403145.066124109842349, 3785490.030518820043653 ], [ 403145.371312309231143, 3785490.030518820043653 ], [ 403145.676500508619938, 3785489.725330620538443 ], [ 403147.812817904399708, 3785489.725330620538443 ], [ 403148.118006103788503, 3785490.030518820043653 ], [ 403148.423194303177297, 3785490.030518820043653 ], [ 403148.728382502566092, 3785490.335707019548863 ], [ 403149.033570701954886, 3785490.335707019548863 ], [ 403149.338758901343681, 3785490.640895218588412 ], [ 403149.643947100732476, 3785490.640895218588412 ], [ 403149.643947100732476, 3785490.946083418093622 ], [ 403149.94913530012127, 3785491.251271617598832 ], [ 403149.94913530012127, 3785491.556459817104042 ], [ 403149.643947100732476, 3785491.86164801614359 ], [ 403149.643947100732476, 3785492.1668362156488 ], [ 403149.338758901343681, 3785492.47202441515401 ], [ 403149.033570701954886, 3785492.47202441515401 ], [ 403148.728382502566092, 3785492.77721261465922 ], [ 403147.812817904399708, 3785492.77721261465922 ], [ 403147.507629705010913, 3785493.082400813698769 ], [ 403146.897253306233324, 3785493.082400813698769 ] ] ] } },
{ "type": "Feature", "properties": { "confidence": 0.56441086530685425, "class": 1 }, "geometry": { "type": "Polygon", "coordinates": [ [ [ 403186.57171922683483, 3785731.434384536929429 ], [ 403186.266531027446035, 3785731.12919633788988 ], [ 403185.961342828057241, 3785731.12919633788988 ], [ 403185.656154628668446, 3785730.82400813838467 ], [ 403185.656154628668446, 3785730.51881993887946 ], [ 403185.350966429279651, 3785730.21363173937425 ], [ 403185.350966429279651, 3785728.382502543274313 ], [ 403185.656154628668446, 3785728.077314343769103 ], [ 403185.656154628668446, 3785727.772126144263893 ], [ 403185.961342828057241, 3785727.466937945224345 ], [ 403185.961342828057241, 3785727.161749745719135 ], [ 403186.57171922683483, 3785726.551373346708715 ], [ 403186.57171922683483, 3785726.246185147669166 ], [ 403186.876907426223624, 3785725.940996948163956 ], [ 403186.876907426223624, 3785725.635808748658746 ], [ 403187.487283825001214, 3785725.025432350113988 ], [ 403187.487283825001214, 3785724.720244150608778 ], [ 403187.792472024390008, 3785724.415055951103568 ], [ 403187.792472024390008, 3785724.109867751598358 ], [ 403188.097660223778803, 3785723.80467955255881 ], [ 403188.402848423167598, 3785723.80467955255881 ], [ 403188.708036622556392, 3785723.4994913530536 ], [ 403189.013224821945187, 3785723.4994913530536 ], [ 403189.318413021392189, 3785723.80467955255881 ], [ 403190.233977619558573, 3785723.80467955255881 ], [ 403190.539165818947367, 3785724.109867751598358 ], [ 403190.539165818947367, 3785724.720244150608778 ], [ 403190.844354018336162, 3785725.025432350113988 ], [ 403190.844354018336162, 3785728.077314343769103 ], [ 403190.233977619558573, 3785728.687690742779523 ], [ 403189.928789420169778, 3785728.687690742779523 ], [ 403189.318413021392189, 3785729.298067141324282 ], [ 403189.318413021392189, 3785729.603255340829492 ], [ 403189.013224821945187, 3785729.908443540334702 ], [ 403189.013224821945187, 3785730.21363173937425 ], [ 403188.708036622556392, 3785730.51881993887946 ], [ 403188.708036622556392, 3785730.82400813838467 ], [ 403188.402848423167598, 3785730.82400813838467 ], [ 403187.792472024390008, 3785731.434384536929429 ], [ 403186.57171922683483, 3785731.434384536929429 ] ] ] } },
{ "type": "Feature", "properties": { "confidence": 0.52655494213104248, "class": 1 }, "geometry": { "type": "Polygon", "coordinates": [ [ [ 403073.0417090539122, 3785537.334689725190401 ], [ 403072.736520854523405, 3785537.029501526150852 ], [ 403072.431332655134611, 3785537.029501526150852 ], [ 403070.905391658190638, 3785535.503560529090464 ], [ 403070.600203458801843, 3785535.503560529090464 ], [ 403070.295015259413049, 3785535.198372329585254 ], [ 403070.295015259413049, 3785534.893184130080044 ], [ 403069.989827060024254, 3785534.587995931040496 ], [ 403069.989827060024254, 3785533.672431332524866 ], [ 403069.684638860635459, 3785533.367243133485317 ], [ 403069.684638860635459, 3785533.062054933980107 ], [ 403069.379450661246665, 3785532.756866734474897 ], [ 403069.379450661246665, 3785531.841302136424929 ], [ 403069.07426246185787, 3785531.536113936919719 ], [ 403068.769074262469076, 3785531.536113936919719 ], [ 403068.769074262469076, 3785530.92573753837496 ], [ 403069.07426246185787, 3785530.92573753837496 ], [ 403069.379450661246665, 3785530.62054933886975 ], [ 403069.379450661246665, 3785530.315361139364541 ], [ 403069.989827060024254, 3785530.315361139364541 ], [ 403070.295015259413049, 3785530.010172939859331 ], [ 403071.210579857579432, 3785530.010172939859331 ], [ 403073.346897253300995, 3785532.146490335930139 ], [ 403073.346897253300995, 3785532.451678534969687 ], [ 403073.652085452689789, 3785532.756866734474897 ], [ 403073.652085452689789, 3785533.062054933980107 ], [ 403073.957273652078584, 3785533.367243133485317 ], [ 403073.957273652078584, 3785533.672431332524866 ], [ 403074.262461851467378, 3785533.977619532030076 ], [ 403074.262461851467378, 3785536.724313326645643 ], [ 403073.957273652078584, 3785536.724313326645643 ], [ 403073.346897253300995, 3785537.334689725190401 ], [ 403073.0417090539122, 3785537.334689725190401 ] ] ] } },
{ "type": "Feature", "properties": { "confidence": 0.49412479996681213, "class": 1 }, "geometry": { "type": "Polygon", "coordinates": [ [ [ 403139.267548321455251, 3785495.523906408809125 ], [ 403138.046795523900073, 3785494.303153611253947 ], [ 403137.436419125122484, 3785494.303153611253947 ], [ 403137.131230925733689, 3785493.997965412214398 ], [ 403136.826042726344895, 3785493.997965412214398 ], [ 403136.5208545269561, 3785493.692777212709188 ], [ 403136.215666327567305, 3785493.692777212709188 ], [ 403135.910478128178511, 3785493.387589013203979 ], [ 403135.605289928789716, 3785493.387589013203979 ], [ 403135.300101729400922, 3785493.082400813698769 ], [ 403135.300101729400922, 3785492.47202441515401 ], [ 403139.877924720232841, 3785492.47202441515401 ], [ 403139.877924720232841, 3785492.77721261465922 ], [ 403140.183112919621635, 3785493.082400813698769 ], [ 403140.48830111901043, 3785493.082400813698769 ], [ 403140.48830111901043, 3785493.997965412214398 ], [ 403140.183112919621635, 3785494.303153611253947 ], [ 403140.183112919621635, 3785494.608341810759157 ], [ 403139.877924720232841, 3785494.913530010264367 ], [ 403139.877924720232841, 3785495.218718209769577 ], [ 403139.572736520844046, 3785495.523906408809125 ], [ 403139.267548321455251, 3785495.523906408809125 ] ] ] } },
{ "type": "Feature", "properties": { "confidence": 0.49081879854202271, "class": 1 }, "geometry": { "type": "Polygon", "coordinates": [ [ [ 403115.768056968459859, 3785844.048830111976713 ], [ 403115.15768056968227, 3785843.438453712966293 ], [ 403114.852492370293476, 3785843.438453712966293 ], [ 403114.852492370293476, 3785843.133265513926744 ], [ 403114.547304170904681, 3785842.828077314421535 ], [ 403114.547304170904681, 3785839.776195320300758 ], [ 403114.852492370293476, 3785839.471007121261209 ], [ 403114.852492370293476, 3785838.860630722250789 ], [ 403115.462868769071065, 3785838.250254323706031 ], [ 403115.462868769071065, 3785837.945066124200821 ], [ 403115.768056968459859, 3785837.945066124200821 ], [ 403116.073245167848654, 3785837.639877924695611 ], [ 403116.073245167848654, 3785837.029501526150852 ], [ 403116.378433367237449, 3785836.724313326645643 ], [ 403116.683621566626243, 3785836.724313326645643 ], [ 403116.988809766015038, 3785836.419125127140433 ], [ 403118.209562563570216, 3785836.419125127140433 ], [ 403118.514750762959011, 3785836.113936927635223 ], [ 403119.1251271617366, 3785836.113936927635223 ], [ 403119.430315361125395, 3785836.419125127140433 ], [ 403119.735503560514189, 3785836.419125127140433 ], [ 403120.040691759902984, 3785836.724313326645643 ], [ 403120.345879959291779, 3785836.724313326645643 ], [ 403120.345879959291779, 3785837.029501526150852 ], [ 403120.651068158680573, 3785837.334689725190401 ], [ 403120.651068158680573, 3785838.250254323706031 ], [ 403120.345879959291779, 3785838.555442522745579 ], [ 403120.345879959291779, 3785840.081383519805968 ], [ 403120.040691759902984, 3785840.386571719311178 ], [ 403120.040691759902984, 3785840.996948117855936 ], [ 403119.735503560514189, 3785841.302136317361146 ], [ 403119.735503560514189, 3785841.912512716371566 ], [ 403119.430315361125395, 3785842.217700915411115 ], [ 403119.430315361125395, 3785842.522889114916325 ], [ 403118.819938962347806, 3785843.133265513926744 ], [ 403118.514750762959011, 3785843.133265513926744 ], [ 403118.209562563570216, 3785843.438453712966293 ], [ 403117.904374364181422, 3785843.438453712966293 ], [ 403117.599186164792627, 3785843.743641912471503 ], [ 403116.683621566626243, 3785843.743641912471503 ], [ 403116.378433367237449, 3785844.048830111976713 ], [ 403115.768056968459859, 3785844.048830111976713 ] ] ] } },
{ "type": "Feature", "properties": { "confidence": 0.44383198022842407, "class": 1 }, "geometry": { "type": "Polygon", "coordinates": [ [ [ 403113.631739572738297, 3785730.82400813838467 ], [ 403113.631739572738297, 3785730.21363173937425 ], [ 403113.936927772127092, 3785729.908443540334702 ], [ 403113.936927772127092, 3785728.687690742779523 ], [ 403113.631739572738297, 3785728.382502543274313 ], [ 403113.631739572738297, 3785726.856561546213925 ], [ 403118.514750762959011, 3785726.856561546213925 ], [ 403118.514750762959011, 3785727.466937945224345 ], [ 403117.599186164792627, 3785728.382502543274313 ], [ 403117.599186164792627, 3785728.992878941819072 ], [ 403116.073245167848654, 3785730.51881993887946 ], [ 403115.768056968459859, 3785730.51881993887946 ], [ 403115.462868769071065, 3785730.82400813838467 ], [ 403113.631739572738297, 3785730.82400813838467 ] ] ] } },
{ "type": "Feature", "properties": { "confidence": 0.42456761002540588, "class": 1 }, "geometry": { "type": "Polygon", "coordinates": [ [ [ 403052.28891149541596, 3785851.068158697802573 ], [ 403052.28891149541596, 3785846.18514750758186 ], [ 403051.983723296027165, 3785845.87995930807665 ], [ 403051.983723296027165, 3785844.964394710026681 ], [ 403051.67853509663837, 3785844.659206510521472 ], [ 403051.67853509663837, 3785844.048830111976713 ], [ 403055.035605289915111, 3785844.048830111976713 ], [ 403055.035605289915111, 3785846.49033570708707 ], [ 403055.340793489303906, 3785846.79552390659228 ], [ 403055.340793489303906, 3785849.237029501702636 ], [ 403055.6459816886927, 3785849.542217700742185 ], [ 403055.6459816886927, 3785849.847405900247395 ], [ 403055.340793489303906, 3785850.152594099752605 ], [ 403055.340793489303906, 3785850.457782299257815 ], [ 403055.035605289915111, 3785850.762970498297364 ], [ 403053.509664292971138, 3785850.762970498297364 ], [ 403053.204476093582343, 3785851.068158697802573 ], [ 403052.28891149541596, 3785851.068158697802573 ] ] ] } },
{ "type": "Feature", "properties": { "confidence": 0.39061424136161804, "class": 1 }, "geometry": { "type": "Polygon", "coordinates": [ [ [ 403053.814852492359933, 3785618.514750762842596 ], [ 403053.509664292971138, 3785618.209562563803047 ], [ 403051.983723296027165, 3785618.209562563803047 ], [ 403051.373346897249576, 3785617.599186164792627 ], [ 403051.068158697860781, 3785617.599186164792627 ], [ 403051.068158697860781, 3785616.988809766247869 ], [ 403050.762970498471987, 3785616.683621566742659 ], [ 403050.762970498471987, 3785614.85249237017706 ], [ 403050.457782299083192, 3785614.547304171137512 ], [ 403050.457782299083192, 3785613.936927772127092 ], [ 403050.152594099694397, 3785613.631739572621882 ], [ 403050.152594099694397, 3785612.105798575561494 ], [ 403049.847405900305603, 3785611.800610376521945 ], [ 403049.847405900305603, 3785611.495422177016735 ], [ 403050.457782299083192, 3785610.885045778006315 ], [ 403050.457782299083192, 3785610.579857578966767 ], [ 403051.068158697860781, 3785610.579857578966767 ], [ 403051.373346897249576, 3785610.274669379461557 ], [ 403059.61342828074703, 3785610.274669379461557 ], [ 403059.918616480135825, 3785610.579857578966767 ], [ 403060.223804679524619, 3785610.579857578966767 ], [ 403059.918616480135825, 3785610.885045778006315 ], [ 403059.918616480135825, 3785613.936927772127092 ], [ 403059.61342828074703, 3785614.242115971632302 ], [ 403059.61342828074703, 3785614.547304171137512 ], [ 403059.308240081358235, 3785614.547304171137512 ], [ 403059.003051881969441, 3785614.85249237017706 ], [ 403059.003051881969441, 3785615.15768056968227 ], [ 403058.697863682580646, 3785615.46286876918748 ], [ 403058.697863682580646, 3785615.76805696869269 ], [ 403058.392675483191852, 3785616.073245167732239 ], [ 403058.392675483191852, 3785616.378433367237449 ], [ 403058.087487283803057, 3785616.683621566742659 ], [ 403058.087487283803057, 3785617.599186164792627 ], [ 403057.782299084414262, 3785617.599186164792627 ], [ 403057.477110885025468, 3785617.904374364297837 ], [ 403057.171922685636673, 3785617.904374364297837 ], [ 403056.866734486247879, 3785618.209562563803047 ], [ 403055.340793489303906, 3785618.209562563803047 ], [ 403055.035605289915111, 3785618.514750762842596 ], [ 403053.814852492359933, 3785618.514750762842596 ] ] ] } },
{ "type": "Feature", "properties": { "confidence": 0.3818717896938324, "class": 1 }, "geometry": { "type": "Polygon", "coordinates": [ [ [ 403055.6459816886927, 3785905.696846388746053 ], [ 403055.340793489303906, 3785905.391658189240843 ], [ 403054.425228891137522, 3785905.391658189240843 ], [ 403054.120040691748727, 3785905.086469989735633 ], [ 403053.509664292971138, 3785905.086469989735633 ], [ 403053.204476093582343, 3785904.781281790230423 ], [ 403052.899287894193549, 3785904.781281790230423 ], [ 403052.594099694804754, 3785904.476093591190875 ], [ 403052.594099694804754, 3785903.560528992675245 ], [ 403053.509664292971138, 3785902.644964394625276 ], [ 403053.814852492359933, 3785902.644964394625276 ], [ 403054.120040691748727, 3785902.339776195120066 ], [ 403054.425228891137522, 3785902.339776195120066 ], [ 403054.730417090526316, 3785902.034587996080518 ], [ 403055.6459816886927, 3785902.034587996080518 ], [ 403055.951169888081495, 3785901.729399796575308 ], [ 403057.171922685636673, 3785901.729399796575308 ], [ 403057.171922685636673, 3785904.476093591190875 ], [ 403056.256358087470289, 3785905.391658189240843 ], [ 403055.951169888081495, 3785905.391658189240843 ], [ 403055.6459816886927, 3785905.696846388746053 ] ] ] } },
{ "type": "Feature", "properties": { "confidence": 0.36564445495605469, "class": 1 }, "geometry": { "type": "Polygon", "coordinates": [ [ [ 402969.582909460819792, 3785653.306205493398011 ], [ 402969.277721261430997, 3785653.001017293892801 ], [ 402969.277721261430997, 3785650.864699898287654 ], [ 402969.582909460819792, 3785650.559511698782444 ], [ 402969.582909460819792, 3785648.423194303177297 ], [ 402969.888097660208587, 3785648.118006103672087 ], [ 402969.888097660208587, 3785646.897253306116909 ], [ 402970.193285859597381, 3785646.592065106611699 ], [ 402970.193285859597381, 3785645.67650050856173 ], [ 402970.498474058986176, 3785645.37131230905652 ], [ 402970.498474058986176, 3785644.760935910511762 ], [ 402970.80366225837497, 3785644.455747711006552 ], [ 402971.719226856541354, 3785644.455747711006552 ], [ 402972.024415055930149, 3785644.150559511501342 ], [ 402972.634791454707738, 3785644.150559511501342 ], [ 402972.939979654096533, 3785643.845371312461793 ], [ 402973.245167853485327, 3785644.150559511501342 ], [ 402973.245167853485327, 3785644.455747711006552 ], [ 402973.855544252262916, 3785645.066124110016972 ], [ 402973.855544252262916, 3785645.37131230905652 ], [ 402974.160732451651711, 3785645.67650050856173 ], [ 402974.160732451651711, 3785645.98168870806694 ], [ 402974.465920651040506, 3785646.28687690757215 ], [ 402974.465920651040506, 3785647.202441505622119 ], [ 402973.855544252262916, 3785647.812817904166877 ], [ 402973.855544252262916, 3785648.118006103672087 ], [ 402973.245167853485327, 3785648.728382502682507 ], [ 402973.245167853485327, 3785649.033570701722056 ], [ 402972.939979654096533, 3785649.338758901227266 ], [ 402972.939979654096533, 3785650.254323499277234 ], [ 402972.329603255318943, 3785650.864699898287654 ], [ 402972.329603255318943, 3785651.169888097792864 ], [ 402971.108850457763765, 3785652.390640895348042 ], [ 402971.108850457763765, 3785652.695829094387591 ], [ 402970.498474058986176, 3785653.306205493398011 ], [ 402969.582909460819792, 3785653.306205493398011 ] ] ] } },
{ "type": "Feature", "properties": { "confidence": 0.35621675848960876, "class": 1 }, "geometry": { "type": "Polygon", "coordinates": [ [ [ 402947.914547304157168, 3785615.76805696869269 ], [ 402947.609359104768373, 3785615.46286876918748 ], [ 402945.473041709046811, 3785615.46286876918748 ], [ 402945.167853509658016, 3785615.15768056968227 ], [ 402945.167853509658016, 3785614.85249237017706 ], [ 402944.862665310269222, 3785614.547304171137512 ], [ 402944.862665310269222, 3785614.242115971632302 ], [ 402944.557477110880427, 3785613.936927772127092 ], [ 402944.557477110880427, 3785613.631739572621882 ], [ 402944.252288911491632, 3785613.326551373116672 ], [ 402943.947100712102838, 3785613.326551373116672 ], [ 402943.641912512714043, 3785613.021363174077123 ], [ 402943.641912512714043, 3785612.716174974571913 ], [ 402943.336724313325249, 3785612.410986775066704 ], [ 402943.336724313325249, 3785611.800610376521945 ], [ 402943.031536113936454, 3785611.495422177016735 ], [ 402943.031536113936454, 3785610.579857578966767 ], [ 402943.336724313325249, 3785610.274669379461557 ], [ 402956.459816887101624, 3785610.274669379461557 ], [ 402956.765005086490419, 3785610.579857578966767 ], [ 402956.15462868771283, 3785611.190233977511525 ], [ 402956.15462868771283, 3785611.495422177016735 ], [ 402955.849440488324035, 3785611.495422177016735 ], [ 402955.54425228893524, 3785611.800610376521945 ], [ 402955.54425228893524, 3785612.716174974571913 ], [ 402955.239064089546446, 3785613.021363174077123 ], [ 402955.239064089546446, 3785613.326551373116672 ], [ 402954.933875890157651, 3785613.326551373116672 ], [ 402954.628687690768857, 3785613.631739572621882 ], [ 402954.628687690768857, 3785614.242115971632302 ], [ 402953.713123092602473, 3785615.15768056968227 ], [ 402953.102746693766676, 3785615.15768056968227 ], [ 402952.797558494377881, 3785615.46286876918748 ], [ 402949.135300101712346, 3785615.46286876918748 ], [ 402948.830111902323551, 3785615.76805696869269 ], [ 402947.914547304157168, 3785615.76805696869269 ] ] ] } },
{ "type": "Feature", "properties": { "confidence": 0.34639742970466614, "class": 1 }, "geometry": { "type": "Polygon", "coordinates": [ [ [ 403054.425228891137522, 3785890.437436419073492 ], [ 403054.120040691748727, 3785890.132248219568282 ], [ 403053.814852492359933, 3785890.132248219568282 ], [ 403053.509664292971138, 3785889.827060020528734 ], [ 403053.509664292971138, 3785889.521871821023524 ], [ 403052.899287894193549, 3785888.911495422013104 ], [ 403052.899287894193549, 3785887.080366225913167 ], [ 403053.204476093582343, 3785886.775178026407957 ], [ 403053.204476093582343, 3785886.469989826902747 ], [ 403053.509664292971138, 3785886.164801627863199 ], [ 403053.509664292971138, 3785885.859613428357989 ], [ 403054.120040691748727, 3785885.249237029347569 ], [ 403054.120040691748727, 3785884.94404883030802 ], [ 403054.425228891137522, 3785884.63886063080281 ], [ 403054.425228891137522, 3785883.418107833247632 ], [ 403055.035605289915111, 3785882.807731434237212 ], [ 403056.866734486247879, 3785882.807731434237212 ], [ 403056.866734486247879, 3785885.554425228852779 ], [ 403056.561546286859084, 3785885.859613428357989 ], [ 403056.561546286859084, 3785887.690742624457926 ], [ 403056.256358087470289, 3785887.995930823963135 ], [ 403056.256358087470289, 3785888.301119023468345 ], [ 403055.951169888081495, 3785888.606307222973555 ], [ 403055.951169888081495, 3785888.911495422013104 ], [ 403055.340793489303906, 3785889.521871821023524 ], [ 403055.340793489303906, 3785889.827060020528734 ], [ 403055.035605289915111, 3785890.132248219568282 ], [ 403054.730417090526316, 3785890.132248219568282 ], [ 403054.425228891137522, 3785890.437436419073492 ] ] ] } },
{ "type": "Feature", "properties": { "confidence": 0.33617597818374634, "class": 1 }, "geometry": { "type": "Polygon", "coordinates": [ [ [ 402952.187182095600292, 3785597.151576805859804 ], [ 402951.881993896211497, 3785596.846388606354594 ], [ 402951.576805696822703, 3785596.846388606354594 ], [ 402951.271617497433908, 3785596.541200406849384 ], [ 402951.271617497433908, 3785596.236012207344174 ], [ 402951.576805696822703, 3785595.930824008304626 ], [ 402951.576805696822703, 3785595.625635808799416 ], [ 402952.492370294989087, 3785594.710071210749447 ], [ 402952.797558494377881, 3785594.710071210749447 ], [ 402953.40793489315547, 3785594.099694811739028 ], [ 402953.713123092602473, 3785594.099694811739028 ], [ 402954.018311291991267, 3785593.794506612233818 ], [ 402954.018311291991267, 3785593.489318413194269 ], [ 402954.323499491380062, 3785593.489318413194269 ], [ 402954.933875890157651, 3785592.878942014183849 ], [ 402955.239064089546446, 3785593.184130213689059 ], [ 402955.849440488324035, 3785593.184130213689059 ], [ 402956.459816887101624, 3785593.794506612233818 ], [ 402956.765005086490419, 3785593.794506612233818 ], [ 402956.765005086490419, 3785594.404883011244237 ], [ 402957.070193285879213, 3785594.710071210749447 ], [ 402957.070193285879213, 3785595.930824008304626 ], [ 402956.459816887101624, 3785596.541200406849384 ], [ 402956.15462868771283, 3785596.541200406849384 ], [ 402955.849440488324035, 3785596.846388606354594 ], [ 402954.933875890157651, 3785596.846388606354594 ], [ 402954.628687690768857, 3785597.151576805859804 ], [ 402952.187182095600292, 3785597.151576805859804 ] ] ] } },
{ "type": "Feature", "properties": { "confidence": 0.26980319619178772, "class": 1 }, "geometry": { "type": "Polygon", "coordinates": [ [ [ 403057.477110885025468, 3785794.608341810759157 ], [ 403056.866734486247879, 3785793.997965412214398 ], [ 403056.561546286859084, 3785793.997965412214398 ], [ 403055.951169888081495, 3785793.387589013203979 ], [ 403055.951169888081495, 3785792.77721261465922 ], [ 403056.256358087470289, 3785792.47202441515401 ], [ 403056.256358087470289, 3785792.1668362156488 ], [ 403056.561546286859084, 3785791.86164801614359 ], [ 403056.866734486247879, 3785791.86164801614359 ], [ 403057.171922685636673, 3785791.556459817104042 ], [ 403058.087487283803057, 3785791.556459817104042 ], [ 403058.392675483191852, 3785791.86164801614359 ], [ 403058.697863682580646, 3785791.86164801614359 ], [ 403059.003051881969441, 3785792.1668362156488 ], [ 403059.61342828074703, 3785792.1668362156488 ], [ 403060.223804679524619, 3785792.77721261465922 ], [ 403060.223804679524619, 3785793.997965412214398 ], [ 403059.61342828074703, 3785794.608341810759157 ], [ 403057.477110885025468, 3785794.608341810759157 ] ] ] } }
]
}
