{
"type": "FeatureCollection",
"name": "cell_00472_pre",
"crs": { "type": "name", "properties": { "name": "urn:ogc:def:crs:EPSG::32611" } },
"features": [
{ "type": "Feature", "properties": { "confidence": 0.94352847337722778, "class": 1 }, "geometry": { "type": "Polygon", "coordinates": [ [ [ 401386.876907426223624, 3782455.849440488498658 ], [ 401386.57171922683483, 3782455.544252288993448 ], [ 401386.266531027446035, 3782455.544252288993448 ], [ 401385.350966429279651, 3782454.62868769094348 ], [ 401385.045778229890857, 3782454.62868769094348 ], [ 401384.740590030502062, 3782454.32349949143827 ], [ 401384.435401831113268, 3782454.32349949143827 ], [ 401384.130213631724473, 3782454.01831129193306 ], [ 401383.825025432335678, 3782454.01831129193306 ], [ 401382.909460834169295, 3782453.102746693883091 ], [ 401382.909460834169295, 3782452.492370294872671 ], [ 401382.6042726347805, 3782452.187182095833123 ], [ 401382.6042726347805, 3782450.966429298277944 ], [ 401382.299084435391705, 3782450.661241098772734 ], [ 401382.299084435391705, 3782447.304170905612409 ], [ 401381.993896236002911, 3782446.998982706107199 ], [ 401381.993896236002911, 3782444.862665310502052 ], [ 401382.909460834169295, 3782443.947100711986423 ], [ 401383.825025432335678, 3782443.947100711986423 ], [ 401384.130213631724473, 3782443.641912512946874 ], [ 401385.350966429279651, 3782443.641912512946874 ], [ 401385.656154628668446, 3782443.947100711986423 ], [ 401386.57171922683483, 3782443.947100711986423 ], [ 401387.792472024390008, 3782445.167853509541601 ], [ 401388.097660223778803, 3782445.167853509541601 ], [ 401388.097660223778803, 3782445.473041709046811 ], [ 401388.402848423167598, 3782445.778229908552021 ], [ 401388.402848423167598, 3782446.388606307096779 ], [ 401388.708036622556392, 3782446.693794506601989 ], [ 401388.708036622556392, 3782450.356052899267524 ], [ 401388.402848423167598, 3782450.661241098772734 ], [ 401388.402848423167598, 3782452.187182095833123 ], [ 401388.708036622556392, 3782452.492370294872671 ], [ 401388.708036622556392, 3782454.933875889983028 ], [ 401388.402848423167598, 3782455.239064089488238 ], [ 401388.402848423167598, 3782455.544252288993448 ], [ 401388.097660223778803, 3782455.544252288993448 ], [ 401387.792472024390008, 3782455.849440488498658 ], [ 401386.876907426223624, 3782455.849440488498658 ] ] ] } },
{ "type": "Feature", "properties": { "confidence": 0.9278569221496582, "class": 1 }, "geometry": { "type": "Polygon", "coordinates": [ [ [ 401392.67548321466893, 3782466.836215666495264 ], [ 401392.06510681589134, 3782466.225839267484844 ], [ 401391.759918616502546, 3782466.225839267484844 ], [ 401391.454730417113751, 3782465.920651067979634 ], [ 401391.149542217724957, 3782465.920651067979634 ], [ 401390.844354018336162, 3782465.615462868940085 ], [ 401390.539165818947367, 3782465.615462868940085 ], [ 401390.233977619558573, 3782465.310274669434875 ], [ 401389.623601220780984, 3782465.310274669434875 ], [ 401389.318413021392189, 3782465.005086469929665 ], [ 401389.013224821945187, 3782465.005086469929665 ], [ 401388.708036622556392, 3782464.699898270424455 ], [ 401388.402848423167598, 3782464.699898270424455 ], [ 401388.402848423167598, 3782464.394710071384907 ], [ 401388.097660223778803, 3782464.089521871879697 ], [ 401387.792472024390008, 3782464.089521871879697 ], [ 401386.876907426223624, 3782463.173957273829728 ], [ 401386.876907426223624, 3782461.64801627676934 ], [ 401386.57171922683483, 3782461.34282807726413 ], [ 401386.57171922683483, 3782460.732451678719372 ], [ 401386.876907426223624, 3782460.427263479214162 ], [ 401386.876907426223624, 3782460.122075279708952 ], [ 401387.182095625612419, 3782459.816887080203742 ], [ 401387.182095625612419, 3782459.511698881164193 ], [ 401387.487283825001214, 3782459.511698881164193 ], [ 401387.792472024390008, 3782459.206510681658983 ], [ 401388.097660223778803, 3782459.206510681658983 ], [ 401388.402848423167598, 3782458.901322482153773 ], [ 401390.233977619558573, 3782458.901322482153773 ], [ 401390.844354018336162, 3782459.511698881164193 ], [ 401390.844354018336162, 3782460.122075279708952 ], [ 401391.149542217724957, 3782460.427263479214162 ], [ 401391.149542217724957, 3782460.732451678719372 ], [ 401391.454730417113751, 3782461.03763987775892 ], [ 401391.454730417113751, 3782461.34282807726413 ], [ 401392.980671414057724, 3782462.868769074324518 ], [ 401393.285859613446519, 3782462.868769074324518 ], [ 401393.591047812835313, 3782463.173957273829728 ], [ 401393.896236012224108, 3782463.173957273829728 ], [ 401394.506612411001697, 3782463.784333672374487 ], [ 401394.506612411001697, 3782464.089521871879697 ], [ 401394.811800610390492, 3782464.394710071384907 ], [ 401394.811800610390492, 3782466.531027466990054 ], [ 401394.506612411001697, 3782466.836215666495264 ], [ 401392.67548321466893, 3782466.836215666495264 ] ] ] } },
{ "type": "Feature", "properties": { "confidence": 0.82987505197525024, "class": 1 }, "geometry": { "type": "Polygon", "coordinates": [ [ [ 401060.020345879951492, 3782848.626653102692217 ], [ 401059.715157680562697, 3782848.321464903187007 ], [ 401058.799593082396314, 3782848.321464903187007 ], [ 401058.494404883007519, 3782848.016276704147458 ], [ 401058.494404883007519, 3782847.711088504642248 ], [ 401058.189216683618724, 3782847.405900305137038 ], [ 401058.189216683618724, 3782846.79552390659228 ], [ 401057.88402848422993, 3782846.49033570708707 ], [ 401057.88402848422993, 3782846.18514750758186 ], [ 401057.578840284841135, 3782845.87995930807665 ], [ 401057.578840284841135, 3782844.659206510521472 ], [ 401063.377416073228233, 3782844.659206510521472 ], [ 401063.377416073228233, 3782845.269582909531891 ], [ 401063.072227873839438, 3782845.574771109037101 ], [ 401063.072227873839438, 3782847.100712105631828 ], [ 401062.767039674450643, 3782847.405900305137038 ], [ 401062.767039674450643, 3782848.321464903187007 ], [ 401062.156663275673054, 3782848.321464903187007 ], [ 401061.85147507628426, 3782848.626653102692217 ], [ 401060.020345879951492, 3782848.626653102692217 ] ] ] } },
{ "type": "Feature", "properties": { "confidence": 0.7413400411605835, "class": 1 }, "geometry": { "type": "Polygon", "coordinates": [ [ [ 401240.996948118030559, 3782551.983723295852542 ], [ 401240.691759918641765, 3782551.678535096812993 ], [ 401240.38657171925297, 3782551.678535096812993 ], [ 401240.081383519864175, 3782551.373346897307783 ], [ 401239.471007121086586, 3782551.373346897307783 ], [ 401237.334689725306816, 3782549.237029501702636 ], [ 401237.029501525918022, 3782549.237029501702636 ], [ 401235.808748728362843, 3782548.016276704147458 ], [ 401235.808748728362843, 3782547.405900305137038 ], [ 401235.503560528974049, 3782547.100712105631828 ], [ 401235.503560528974049, 3782544.048830111976713 ], [ 401235.808748728362843, 3782543.743641912471503 ], [ 401235.808748728362843, 3782542.828077314421535 ], [ 401236.724313326529227, 3782541.912512716371566 ], [ 401237.029501525918022, 3782541.912512716371566 ], [ 401237.639877924695611, 3782541.302136317361146 ], [ 401237.945066124084406, 3782541.302136317361146 ], [ 401238.2502543234732, 3782540.996948117855936 ], [ 401238.860630722250789, 3782540.996948117855936 ], [ 401239.165818921639584, 3782540.691759918816388 ], [ 401239.471007121086586, 3782540.691759918816388 ], [ 401239.776195320475381, 3782540.386571719311178 ], [ 401242.522889114974532, 3782540.386571719311178 ], [ 401242.828077314363327, 3782540.691759918816388 ], [ 401243.133265513752121, 3782540.691759918816388 ], [ 401243.438453713140916, 3782540.996948117855936 ], [ 401243.438453713140916, 3782542.828077314421535 ], [ 401244.048830111918505, 3782543.438453712966293 ], [ 401244.048830111918505, 3782545.269582909531891 ], [ 401244.659206510696094, 3782545.87995930807665 ], [ 401244.964394710084889, 3782545.87995930807665 ], [ 401244.964394710084889, 3782546.18514750758186 ], [ 401245.269582909473684, 3782546.49033570708707 ], [ 401245.574771108862478, 3782546.49033570708707 ], [ 401245.879959308251273, 3782546.79552390659228 ], [ 401246.185147507640067, 3782546.79552390659228 ], [ 401246.490335707028862, 3782547.100712105631828 ], [ 401246.490335707028862, 3782547.711088504642248 ], [ 401246.795523906417657, 3782548.016276704147458 ], [ 401246.795523906417657, 3782548.321464903187007 ], [ 401246.490335707028862, 3782548.626653102692217 ], [ 401246.490335707028862, 3782550.152594099752605 ], [ 401246.185147507640067, 3782550.152594099752605 ], [ 401245.879959308251273, 3782550.457782299257815 ], [ 401245.879959308251273, 3782550.762970498297364 ], [ 401245.269582909473684, 3782551.373346897307783 ], [ 401244.964394710084889, 3782551.373346897307783 ], [ 401244.659206510696094, 3782551.678535096812993 ], [ 401244.048830111918505, 3782551.678535096812993 ], [ 401243.743641912529711, 3782551.983723295852542 ], [ 401240.996948118030559, 3782551.983723295852542 ] ] ] } },
{ "type": "Feature", "properties": { "confidence": 0.62519365549087524, "class": 1 }, "geometry": { "type": "Polygon", "coordinates": [ [ [ 401050.254323499510065, 3782862.054933875799179 ], [ 401049.94913530012127, 3782861.749745676293969 ], [ 401049.94913530012127, 3782860.528992878738791 ], [ 401050.254323499510065, 3782860.223804679699242 ], [ 401050.254323499510065, 3782857.171922685578465 ], [ 401050.559511698898859, 3782856.866734486073256 ], [ 401050.864699898287654, 3782856.866734486073256 ], [ 401051.475076297065243, 3782856.256358087528497 ], [ 401053.611393692786805, 3782856.256358087528497 ], [ 401053.9165818921756, 3782855.951169888023287 ], [ 401056.052899287897162, 3782855.951169888023287 ], [ 401056.358087487285957, 3782856.256358087528497 ], [ 401056.968463886063546, 3782856.256358087528497 ], [ 401057.273652085452341, 3782856.561546287033707 ], [ 401057.578840284841135, 3782856.561546287033707 ], [ 401058.189216683618724, 3782857.171922685578465 ], [ 401058.189216683618724, 3782859.308240081183612 ], [ 401057.88402848422993, 3782859.613428280688822 ], [ 401057.273652085452341, 3782859.613428280688822 ], [ 401056.968463886063546, 3782859.918616480194032 ], [ 401055.747711088508368, 3782859.918616480194032 ], [ 401055.442522889119573, 3782860.223804679699242 ], [ 401054.832146490341984, 3782860.223804679699242 ], [ 401054.526958290953189, 3782860.528992878738791 ], [ 401054.221770091564395, 3782860.528992878738791 ], [ 401053.611393692786805, 3782861.139369277749211 ], [ 401053.306205493398011, 3782861.139369277749211 ], [ 401052.695829094620422, 3782861.749745676293969 ], [ 401052.390640895231627, 3782861.749745676293969 ], [ 401052.085452695842832, 3782862.054933875799179 ], [ 401050.254323499510065, 3782862.054933875799179 ] ] ] } },
{ "type": "Feature", "properties": { "confidence": 0.60637557506561279, "class": 1 }, "geometry": { "type": "Polygon", "coordinates": [ [ [ 401193.082400813815184, 3782645.98168870806694 ], [ 401192.777212614426389, 3782645.67650050856173 ], [ 401192.777212614426389, 3782645.37131230905652 ], [ 401192.472024415037595, 3782645.066124110016972 ], [ 401192.472024415037595, 3782644.455747711006552 ], [ 401192.1668362156488, 3782644.150559511501342 ], [ 401192.1668362156488, 3782643.845371312461793 ], [ 401191.861648016260006, 3782643.540183112956583 ], [ 401191.861648016260006, 3782642.929806713946164 ], [ 401191.556459816871211, 3782642.624618514906615 ], [ 401191.556459816871211, 3782641.709053916390985 ], [ 401191.251271617482416, 3782641.403865717351437 ], [ 401191.251271617482416, 3782641.098677517846227 ], [ 401190.640895218704827, 3782640.488301118835807 ], [ 401190.640895218704827, 3782640.183112919796258 ], [ 401190.335707019316033, 3782639.877924720291048 ], [ 401190.335707019316033, 3782639.572736520785838 ], [ 401190.030518819927238, 3782639.267548321280628 ], [ 401190.335707019316033, 3782638.96236012224108 ], [ 401190.335707019316033, 3782638.35198372323066 ], [ 401193.387589013203979, 3782638.35198372323066 ], [ 401193.692777212592773, 3782638.65717192273587 ], [ 401194.303153611370362, 3782638.65717192273587 ], [ 401195.523906408925541, 3782639.877924720291048 ], [ 401195.523906408925541, 3782640.183112919796258 ], [ 401196.439471007150132, 3782641.098677517846227 ], [ 401196.744659206538927, 3782641.098677517846227 ], [ 401197.049847405927721, 3782641.403865717351437 ], [ 401197.355035605316516, 3782641.403865717351437 ], [ 401197.355035605316516, 3782641.709053916390985 ], [ 401197.660223804705311, 3782642.014242115896195 ], [ 401197.660223804705311, 3782642.624618514906615 ], [ 401197.965412004094105, 3782642.929806713946164 ], [ 401197.660223804705311, 3782643.234994913451374 ], [ 401197.660223804705311, 3782643.540183112956583 ], [ 401197.355035605316516, 3782643.540183112956583 ], [ 401197.049847405927721, 3782643.845371312461793 ], [ 401197.049847405927721, 3782644.150559511501342 ], [ 401196.744659206538927, 3782644.455747711006552 ], [ 401196.744659206538927, 3782644.760935910511762 ], [ 401196.439471007150132, 3782645.066124110016972 ], [ 401196.13428280770313, 3782645.066124110016972 ], [ 401195.829094608314335, 3782645.37131230905652 ], [ 401195.523906408925541, 3782645.37131230905652 ], [ 401195.218718209536746, 3782645.67650050856173 ], [ 401194.913530010147952, 3782645.67650050856173 ], [ 401194.608341810759157, 3782645.98168870806694 ], [ 401193.082400813815184, 3782645.98168870806694 ] ] ] } },
{ "type": "Feature", "properties": { "confidence": 0.60593158006668091, "class": 1 }, "geometry": { "type": "Polygon", "coordinates": [ [ [ 400924.821973550366238, 3782674.974567649886012 ], [ 400924.516785350977443, 3782674.669379450846463 ], [ 400924.211597151588649, 3782674.669379450846463 ], [ 400924.211597151588649, 3782672.838250254280865 ], [ 400924.516785350977443, 3782672.533062054775655 ], [ 400924.516785350977443, 3782672.227873855736107 ], [ 400925.432349949143827, 3782671.312309257220477 ], [ 400925.737538148532622, 3782671.312309257220477 ], [ 400926.653102746699005, 3782670.396744659170508 ], [ 400926.9582909460878, 3782670.396744659170508 ], [ 400927.568667344865389, 3782669.78636826062575 ], [ 400928.179043743642978, 3782669.78636826062575 ], [ 400928.484231943031773, 3782669.48118006112054 ], [ 400928.789420142420568, 3782669.48118006112054 ], [ 400929.094608341809362, 3782669.17599186161533 ], [ 400929.704984740586951, 3782669.17599186161533 ], [ 400930.010172939975746, 3782668.87080366211012 ], [ 400931.230925737530924, 3782668.87080366211012 ], [ 400931.536113936919719, 3782669.17599186161533 ], [ 400931.536113936919719, 3782669.48118006112054 ], [ 400932.146490335697308, 3782670.091556459665298 ], [ 400932.146490335697308, 3782670.396744659170508 ], [ 400932.451678535086103, 3782670.701932858675718 ], [ 400932.451678535086103, 3782671.312309257220477 ], [ 400932.146490335697308, 3782671.617497456725687 ], [ 400932.146490335697308, 3782671.922685656230897 ], [ 400931.536113936919719, 3782672.533062054775655 ], [ 400931.536113936919719, 3782672.838250254280865 ], [ 400931.230925737530924, 3782673.143438453786075 ], [ 400930.92573753814213, 3782673.143438453786075 ], [ 400930.620549338753335, 3782673.448626653291285 ], [ 400930.315361139364541, 3782673.448626653291285 ], [ 400930.010172939975746, 3782673.753814852330834 ], [ 400929.704984740586951, 3782673.753814852330834 ], [ 400929.399796541198157, 3782674.059003051836044 ], [ 400929.094608341809362, 3782674.059003051836044 ], [ 400928.789420142420568, 3782674.364191251341254 ], [ 400928.179043743642978, 3782674.364191251341254 ], [ 400927.873855544254184, 3782674.669379450846463 ], [ 400927.263479145476595, 3782674.669379450846463 ], [ 400926.9582909460878, 3782674.974567649886012 ], [ 400924.821973550366238, 3782674.974567649886012 ] ] ] } },
{ "type": "Feature", "properties": { "confidence": 0.57253015041351318, "class": 1 }, "geometry": { "type": "Polygon", "coordinates": [ [ [ 400992.268565615464468, 3782718.006103763822466 ], [ 400991.963377416075673, 3782717.700915564782917 ], [ 400991.353001017298084, 3782717.700915564782917 ], [ 400990.742624618520495, 3782717.090539165772498 ], [ 400990.742624618520495, 3782714.038657172117382 ], [ 400991.047812817909289, 3782713.733468972612172 ], [ 400992.268565615464468, 3782713.733468972612172 ], [ 400992.573753814853262, 3782714.038657172117382 ], [ 400993.489318413019646, 3782714.038657172117382 ], [ 400993.794506612408441, 3782714.343845371156931 ], [ 400995.015259409963619, 3782714.343845371156931 ], [ 400995.625635808741208, 3782714.954221770167351 ], [ 400995.625635808741208, 3782716.174974567722529 ], [ 400995.320447609352414, 3782716.480162767227739 ], [ 400995.320447609352414, 3782716.785350966267288 ], [ 400994.099694811797235, 3782718.006103763822466 ], [ 400992.268565615464468, 3782718.006103763822466 ] ] ] } },
{ "type": "Feature", "properties": { "confidence": 0.54749363660812378, "class": 1 }, "geometry": { "type": "Polygon", "coordinates": [ [ [ 401043.540183112898376, 3782848.626653102692217 ], [ 401043.234994913509581, 3782848.321464903187007 ], [ 401042.929806714120787, 3782848.321464903187007 ], [ 401042.624618514731992, 3782848.016276704147458 ], [ 401042.319430315343197, 3782848.016276704147458 ], [ 401040.793489318399224, 3782846.49033570708707 ], [ 401040.793489318399224, 3782846.18514750758186 ], [ 401039.572736520844046, 3782844.964394710026681 ], [ 401039.572736520844046, 3782844.048830111976713 ], [ 401046.286876907397527, 3782844.048830111976713 ], [ 401046.286876907397527, 3782844.354018311481923 ], [ 401045.981688708008733, 3782844.659206510521472 ], [ 401045.981688708008733, 3782846.49033570708707 ], [ 401045.676500508619938, 3782846.79552390659228 ], [ 401045.676500508619938, 3782848.321464903187007 ], [ 401045.371312309231143, 3782848.626653102692217 ], [ 401043.540183112898376, 3782848.626653102692217 ] ] ] } },
{ "type": "Feature", "properties": { "confidence": 0.52799785137176514, "class": 1 }, "geometry": { "type": "Polygon", "coordinates": [ [ [ 400810.071210579830222, 3782485.757884028367698 ], [ 400809.766022380441427, 3782485.452695828862488 ], [ 400809.460834181052633, 3782485.452695828862488 ], [ 400809.155645981663838, 3782485.14750762982294 ], [ 400808.850457782275043, 3782485.14750762982294 ], [ 400807.93489318410866, 3782484.23194303130731 ], [ 400807.93489318410866, 3782483.926754832267761 ], [ 400807.629704984719865, 3782483.621566632762551 ], [ 400807.629704984719865, 3782482.706002034712583 ], [ 400807.93489318410866, 3782482.400813835207373 ], [ 400807.93489318410866, 3782482.095625635702163 ], [ 400808.545269582886249, 3782481.485249237157404 ], [ 400808.850457782275043, 3782481.485249237157404 ], [ 400809.155645981663838, 3782481.180061037652194 ], [ 400809.460834181052633, 3782481.180061037652194 ], [ 400810.071210579830222, 3782481.790437436196953 ], [ 400810.376398779219016, 3782481.790437436196953 ], [ 400810.376398779219016, 3782482.095625635702163 ], [ 400810.681586978607811, 3782482.400813835207373 ], [ 400810.681586978607811, 3782482.706002034712583 ], [ 400810.986775178054813, 3782483.011190233752131 ], [ 400810.986775178054813, 3782483.621566632762551 ], [ 400811.291963377443608, 3782483.926754832267761 ], [ 400811.291963377443608, 3782484.23194303130731 ], [ 400811.597151576832402, 3782484.53713123081252 ], [ 400811.597151576832402, 3782485.14750762982294 ], [ 400811.291963377443608, 3782485.452695828862488 ], [ 400811.291963377443608, 3782485.757884028367698 ], [ 400810.071210579830222, 3782485.757884028367698 ] ] ] } },
{ "type": "Feature", "properties": { "confidence": 0.51327031850814819, "class": 1 }, "geometry": { "type": "Polygon", "coordinates": [ [ [ 400948.32146490336163, 3782612.410986775066704 ], [ 400948.016276703972835, 3782612.105798575561494 ], [ 400947.71108850458404, 3782612.105798575561494 ], [ 400947.100712105806451, 3782611.495422177016735 ], [ 400947.100712105806451, 3782610.885045778006315 ], [ 400946.795523906417657, 3782610.579857578966767 ], [ 400946.795523906417657, 3782609.664292980451137 ], [ 400952.594099694804754, 3782609.664292980451137 ], [ 400952.594099694804754, 3782610.274669379461557 ], [ 400952.28891149541596, 3782610.579857578966767 ], [ 400952.28891149541596, 3782610.885045778006315 ], [ 400951.67853509663837, 3782611.495422177016735 ], [ 400951.67853509663837, 3782611.800610376521945 ], [ 400951.373346897249576, 3782611.800610376521945 ], [ 400951.068158697860781, 3782612.105798575561494 ], [ 400950.762970498471987, 3782612.105798575561494 ], [ 400950.457782299083192, 3782612.410986775066704 ], [ 400948.32146490336163, 3782612.410986775066704 ] ] ] } },
{ "type": "Feature", "properties": { "confidence": 0.46671497821807861, "class": 1 }, "geometry": { "type": "Polygon", "coordinates": [ [ [ 401076.500508647004608, 3782730.82400813838467 ], [ 401076.195320447615813, 3782730.51881993887946 ], [ 401075.584944048838224, 3782730.51881993887946 ], [ 401073.753814852505457, 3782728.687690742779523 ], [ 401073.448626653116662, 3782728.687690742779523 ], [ 401073.143438453727867, 3782728.382502543274313 ], [ 401073.143438453727867, 3782728.077314343769103 ], [ 401072.838250254339073, 3782727.772126144263893 ], [ 401072.838250254339073, 3782726.856561546213925 ], [ 401081.383519837225322, 3782726.856561546213925 ], [ 401081.383519837225322, 3782727.161749745719135 ], [ 401081.078331637836527, 3782727.161749745719135 ], [ 401080.773143438447732, 3782727.466937945224345 ], [ 401080.773143438447732, 3782727.772126144263893 ], [ 401080.467955239058938, 3782727.772126144263893 ], [ 401080.162767039670143, 3782728.077314343769103 ], [ 401079.857578840281349, 3782728.077314343769103 ], [ 401078.63682604272617, 3782729.298067141324282 ], [ 401078.63682604272617, 3782729.603255340829492 ], [ 401077.416073245170992, 3782730.82400813838467 ], [ 401076.500508647004608, 3782730.82400813838467 ] ] ] } },
{ "type": "Feature", "properties": { "confidence": 0.39647483825683594, "class": 1 }, "geometry": { "type": "Polygon", "coordinates": [ [ [ 401064.292980671394616, 3782729.603255340829492 ], [ 401063.987792472005822, 3782729.298067141324282 ], [ 401062.767039674450643, 3782729.298067141324282 ], [ 401062.461851475061849, 3782728.992878941819072 ], [ 401062.156663275673054, 3782728.992878941819072 ], [ 401061.24109867750667, 3782728.077314343769103 ], [ 401061.24109867750667, 3782726.856561546213925 ], [ 401069.175991861673538, 3782726.856561546213925 ], [ 401069.175991861673538, 3782727.466937945224345 ], [ 401068.870803662284743, 3782727.772126144263893 ], [ 401068.870803662284743, 3782728.077314343769103 ], [ 401068.260427263507154, 3782728.687690742779523 ], [ 401068.260427263507154, 3782728.992878941819072 ], [ 401067.955239064118359, 3782729.298067141324282 ], [ 401067.650050864671357, 3782729.298067141324282 ], [ 401067.344862665282562, 3782729.603255340829492 ], [ 401064.292980671394616, 3782729.603255340829492 ] ] ] } },
{ "type": "Feature", "properties": { "confidence": 0.37365856766700745, "class": 1 }, "geometry": { "type": "Polygon", "coordinates": [ [ [ 401179.654120040708221, 3782562.360122075304389 ], [ 401179.654120040708221, 3782559.918616480194032 ], [ 401180.264496439485811, 3782559.308240081183612 ], [ 401180.264496439485811, 3782559.003051882144064 ], [ 401181.180061037652194, 3782558.087487283628434 ], [ 401181.485249237040989, 3782558.087487283628434 ], [ 401181.790437436429784, 3782557.782299084588885 ], [ 401184.537131230928935, 3782557.782299084588885 ], [ 401185.147507629706524, 3782558.392675483133644 ], [ 401185.452695829095319, 3782558.392675483133644 ], [ 401185.452695829095319, 3782558.697863682638854 ], [ 401185.757884028484114, 3782559.003051882144064 ], [ 401185.757884028484114, 3782559.308240081183612 ], [ 401185.452695829095319, 3782559.613428280688822 ], [ 401185.452695829095319, 3782560.223804679699242 ], [ 401185.147507629706524, 3782560.528992878738791 ], [ 401185.147507629706524, 3782560.834181078244001 ], [ 401184.84231943031773, 3782561.139369277749211 ], [ 401184.537131230928935, 3782561.139369277749211 ], [ 401183.926754832151346, 3782561.749745676293969 ], [ 401183.316378433373757, 3782561.749745676293969 ], [ 401183.011190233984962, 3782562.054933875799179 ], [ 401182.400813835207373, 3782562.054933875799179 ], [ 401182.095625635818578, 3782562.360122075304389 ], [ 401179.654120040708221, 3782562.360122075304389 ] ] ] } },
{ "type": "Feature", "properties": { "confidence": 0.34225207567214966, "class": 1 }, "geometry": { "type": "Polygon", "coordinates": [ [ [ 400995.930824008130003, 3782740.284842319320887 ], [ 400995.625635808741208, 3782739.979654119815677 ], [ 400995.625635808741208, 3782739.674465920776129 ], [ 400995.320447609352414, 3782739.369277721270919 ], [ 400995.320447609352414, 3782737.843336724210531 ], [ 400995.625635808741208, 3782737.538148524705321 ], [ 400995.625635808741208, 3782737.232960325665772 ], [ 400995.930824008130003, 3782736.927772126160562 ], [ 400995.930824008130003, 3782736.622583926655352 ], [ 400996.846388606296387, 3782735.707019328605384 ], [ 400998.067141403851565, 3782735.707019328605384 ], [ 400998.677517802629154, 3782736.317395727150142 ], [ 400998.982706002017949, 3782736.317395727150142 ], [ 400998.982706002017949, 3782736.622583926655352 ], [ 400999.593082400795538, 3782737.232960325665772 ], [ 400999.593082400795538, 3782737.843336724210531 ], [ 400999.898270600184333, 3782738.14852492371574 ], [ 400999.898270600184333, 3782739.369277721270919 ], [ 400999.593082400795538, 3782739.674465920776129 ], [ 400998.982706002017949, 3782739.674465920776129 ], [ 400998.677517802629154, 3782739.979654119815677 ], [ 400996.846388606296387, 3782739.979654119815677 ], [ 400996.541200406907592, 3782740.284842319320887 ], [ 400995.930824008130003, 3782740.284842319320887 ] ] ] } },
{ "type": "Feature", "properties": { "confidence": 0.32744523882865906, "class": 1 }, "geometry": { "type": "Polygon", "coordinates": [ [ [ 400814.038657171942759, 3782496.134282807819545 ], [ 400813.733468972553965, 3782495.829094608314335 ], [ 400813.733468972553965, 3782495.523906408809125 ], [ 400813.123092573776376, 3782494.913530010264367 ], [ 400813.123092573776376, 3782492.47202441515401 ], [ 400816.785350966441911, 3782492.47202441515401 ], [ 400816.785350966441911, 3782493.082400813698769 ], [ 400817.090539165830705, 3782493.387589013203979 ], [ 400817.090539165830705, 3782493.692777212709188 ], [ 400817.3957273652195, 3782493.997965412214398 ], [ 400817.3957273652195, 3782495.218718209769577 ], [ 400816.785350966441911, 3782495.829094608314335 ], [ 400816.480162767053116, 3782495.829094608314335 ], [ 400816.174974567664322, 3782496.134282807819545 ], [ 400814.038657171942759, 3782496.134282807819545 ] ] ] } },
{ "type": "Feature", "properties": { "confidence": 0.30169934034347534, "class": 1 }, "geometry": { "type": "Polygon", "coordinates": [ [ [ 400962.360122075304389, 3782621.261444557458162 ], [ 400962.360122075304389, 3782620.956256357952952 ], [ 400962.054933875915594, 3782620.651068158913404 ], [ 400961.7497456765268, 3782620.651068158913404 ], [ 400961.139369277749211, 3782620.040691759902984 ], [ 400960.834181078360416, 3782620.040691759902984 ], [ 400960.834181078360416, 3782619.735503560397774 ], [ 400960.223804679524619, 3782619.125127161853015 ], [ 400960.223804679524619, 3782613.326551373116672 ], [ 400960.834181078360416, 3782612.716174974571913 ], [ 400960.834181078360416, 3782612.410986775066704 ], [ 400961.444557477138005, 3782612.410986775066704 ], [ 400961.7497456765268, 3782612.105798575561494 ], [ 400963.275686673470773, 3782612.105798575561494 ], [ 400963.580874872859567, 3782611.800610376521945 ], [ 400963.886063072248362, 3782611.800610376521945 ], [ 400964.801627670414746, 3782610.885045778006315 ], [ 400965.10681586980354, 3782610.885045778006315 ], [ 400965.412004069192335, 3782610.579857578966767 ], [ 400965.71719226858113, 3782610.885045778006315 ], [ 400966.327568667358719, 3782610.885045778006315 ], [ 400966.327568667358719, 3782611.495422177016735 ], [ 400966.937945066136308, 3782612.105798575561494 ], [ 400966.937945066136308, 3782614.85249237017706 ], [ 400966.632756866747513, 3782615.15768056968227 ], [ 400966.632756866747513, 3782615.76805696869269 ], [ 400966.022380467969924, 3782616.378433367237449 ], [ 400966.022380467969924, 3782616.683621566742659 ], [ 400965.71719226858113, 3782616.988809766247869 ], [ 400965.71719226858113, 3782617.293997965287417 ], [ 400965.10681586980354, 3782617.904374364297837 ], [ 400965.10681586980354, 3782619.430315361358225 ], [ 400964.801627670414746, 3782619.735503560397774 ], [ 400964.801627670414746, 3782620.345879959408194 ], [ 400964.496439471025951, 3782620.345879959408194 ], [ 400964.191251271637157, 3782620.651068158913404 ], [ 400963.886063072248362, 3782620.651068158913404 ], [ 400963.580874872859567, 3782620.956256357952952 ], [ 400962.970498474081978, 3782620.956256357952952 ], [ 400962.665310274693184, 3782621.261444557458162 ], [ 400962.360122075304389, 3782621.261444557458162 ] ] ] } },
{ "type": "Feature", "properties": { "confidence": 0.28112196922302246, "class": 1 }, "geometry": { "type": "Polygon", "coordinates": [ [ [ 401005.391658189240843, 3782737.538148524705321 ], [ 401005.086469989852048, 3782737.232960325665772 ], [ 401004.781281790463254, 3782737.232960325665772 ], [ 401004.170905391685665, 3782736.622583926655352 ], [ 401004.170905391685665, 3782736.012207528110594 ], [ 401003.86571719229687, 3782735.707019328605384 ], [ 401003.86571719229687, 3782734.791454730555415 ], [ 401003.560528992849868, 3782734.486266531050205 ], [ 401003.560528992849868, 3782732.960325533989817 ], [ 401003.86571719229687, 3782732.655137334484607 ], [ 401003.86571719229687, 3782732.044760935939848 ], [ 401004.476093591074459, 3782731.434384536929429 ], [ 401007.222787385573611, 3782731.434384536929429 ], [ 401008.138351983739994, 3782730.51881993887946 ], [ 401008.138351983739994, 3782730.21363173937425 ], [ 401008.443540183128789, 3782729.908443540334702 ], [ 401008.748728382517584, 3782729.908443540334702 ], [ 401009.053916581906378, 3782730.21363173937425 ], [ 401009.053916581906378, 3782731.12919633788988 ], [ 401008.748728382517584, 3782731.434384536929429 ], [ 401008.748728382517584, 3782732.349949135445058 ], [ 401008.443540183128789, 3782732.655137334484607 ], [ 401008.443540183128789, 3782732.960325533989817 ], [ 401008.138351983739994, 3782733.265513733495027 ], [ 401008.138351983739994, 3782733.875890132039785 ], [ 401007.8331637843512, 3782734.181078331544995 ], [ 401007.8331637843512, 3782736.012207528110594 ], [ 401006.612410986796021, 3782737.232960325665772 ], [ 401005.696846388629638, 3782737.232960325665772 ], [ 401005.391658189240843, 3782737.538148524705321 ] ] ] } },
{ "type": "Feature", "properties": { "confidence": 0.28064373135566711, "class": 1 }, "geometry": { "type": "Polygon", "coordinates": [ [ [ 401036.5208545269561, 3782882.197355035692453 ], [ 401036.215666327567305, 3782881.892166836187243 ], [ 401035.910478128178511, 3782881.892166836187243 ], [ 401035.605289928789716, 3782881.586978636682034 ], [ 401035.605289928789716, 3782880.061037640087306 ], [ 401035.910478128178511, 3782879.755849440582097 ], [ 401035.910478128178511, 3782879.450661241076887 ], [ 401036.215666327567305, 3782879.145473041571677 ], [ 401036.215666327567305, 3782877.61953204497695 ], [ 401036.5208545269561, 3782877.31434384547174 ], [ 401036.5208545269561, 3782877.00915564596653 ], [ 401036.826042726344895, 3782876.70396744646132 ], [ 401037.131230925733689, 3782876.70396744646132 ], [ 401037.436419125122484, 3782876.398779247421771 ], [ 401038.046795523900073, 3782876.398779247421771 ], [ 401038.351983723288868, 3782876.093591047916561 ], [ 401038.657171922677662, 3782876.093591047916561 ], [ 401038.962360122066457, 3782875.788402848411351 ], [ 401039.267548321455251, 3782875.788402848411351 ], [ 401039.572736520844046, 3782875.483214648906142 ], [ 401040.183112919621635, 3782875.483214648906142 ], [ 401040.48830111901043, 3782875.178026449866593 ], [ 401041.403865717176814, 3782875.178026449866593 ], [ 401041.709053916565608, 3782875.483214648906142 ], [ 401042.014242115954403, 3782875.483214648906142 ], [ 401042.319430315343197, 3782875.788402848411351 ], [ 401042.319430315343197, 3782876.70396744646132 ], [ 401042.014242115954403, 3782877.00915564596653 ], [ 401042.014242115954403, 3782877.924720244016498 ], [ 401041.709053916565608, 3782878.229908443521708 ], [ 401041.709053916565608, 3782878.535096643026918 ], [ 401041.403865717176814, 3782878.840284842532128 ], [ 401041.403865717176814, 3782879.145473041571677 ], [ 401041.098677517788019, 3782879.450661241076887 ], [ 401041.098677517788019, 3782879.755849440582097 ], [ 401040.48830111901043, 3782880.366225839126855 ], [ 401040.48830111901043, 3782880.671414038632065 ], [ 401040.183112919621635, 3782880.976602238137275 ], [ 401040.183112919621635, 3782881.281790437642485 ], [ 401039.572736520844046, 3782881.892166836187243 ], [ 401038.657171922677662, 3782881.892166836187243 ], [ 401038.351983723288868, 3782882.197355035692453 ], [ 401036.5208545269561, 3782882.197355035692453 ] ] ] } },
{ "type": "Feature", "properties": { "confidence": 0.26328802108764648, "class": 1 }, "geometry": { "type": "Polygon", "coordinates": [ [ [ 401152.492370294989087, 3782530.010172939859331 ], [ 401152.187182095600292, 3782529.704984740819782 ], [ 401152.187182095600292, 3782529.094608341809362 ], [ 401152.492370294989087, 3782528.789420142304152 ], [ 401152.492370294989087, 3782527.263479145243764 ], [ 401152.797558494377881, 3782526.958290946204215 ], [ 401152.797558494377881, 3782526.653102746699005 ], [ 401153.102746693766676, 3782526.347914547193795 ], [ 401153.40793489315547, 3782526.347914547193795 ], [ 401153.713123092602473, 3782526.042726347688586 ], [ 401154.018311291991267, 3782526.042726347688586 ], [ 401154.323499491380062, 3782525.737538148649037 ], [ 401154.933875890157651, 3782525.737538148649037 ], [ 401155.54425228893524, 3782525.127161749638617 ], [ 401155.54425228893524, 3782524.211597151588649 ], [ 401157.985757884045597, 3782524.211597151588649 ], [ 401158.290946083434392, 3782524.516785351093858 ], [ 401158.290946083434392, 3782524.821973550133407 ], [ 401158.596134282823186, 3782525.127161749638617 ], [ 401158.596134282823186, 3782526.347914547193795 ], [ 401158.290946083434392, 3782526.653102746699005 ], [ 401158.290946083434392, 3782526.958290946204215 ], [ 401157.985757884045597, 3782527.263479145243764 ], [ 401157.985757884045597, 3782527.568667344748974 ], [ 401157.070193285879213, 3782528.484231942798942 ], [ 401156.765005086490419, 3782528.484231942798942 ], [ 401156.459816887101624, 3782528.789420142304152 ], [ 401156.15462868771283, 3782528.789420142304152 ], [ 401155.239064089546446, 3782529.704984740819782 ], [ 401154.933875890157651, 3782529.704984740819782 ], [ 401154.628687690768857, 3782530.010172939859331 ], [ 401152.492370294989087, 3782530.010172939859331 ] ] ] } },
{ "type": "Feature", "properties": { "confidence": 0.25685408711433411, "class": 1 }, "geometry": { "type": "Polygon", "coordinates": [ [ [ 401047.507629705010913, 3782732.960325533989817 ], [ 401047.202441505622119, 3782732.655137334484607 ], [ 401046.897253306233324, 3782732.655137334484607 ], [ 401046.59206510684453, 3782732.349949135445058 ], [ 401046.286876907397527, 3782732.349949135445058 ], [ 401045.371312309231143, 3782731.434384536929429 ], [ 401045.371312309231143, 3782731.12919633788988 ], [ 401045.066124109842349, 3782730.82400813838467 ], [ 401045.066124109842349, 3782730.51881993887946 ], [ 401044.760935910453554, 3782730.21363173937425 ], [ 401044.760935910453554, 3782729.908443540334702 ], [ 401044.45574771106476, 3782729.603255340829492 ], [ 401044.45574771106476, 3782727.466937945224345 ], [ 401049.338758901343681, 3782727.466937945224345 ], [ 401049.643947100732476, 3782727.772126144263893 ], [ 401049.643947100732476, 3782728.992878941819072 ], [ 401049.94913530012127, 3782729.298067141324282 ], [ 401049.94913530012127, 3782729.908443540334702 ], [ 401050.254323499510065, 3782730.21363173937425 ], [ 401050.254323499510065, 3782730.51881993887946 ], [ 401049.94913530012127, 3782730.82400813838467 ], [ 401049.94913530012127, 3782732.044760935939848 ], [ 401049.033570701954886, 3782732.960325533989817 ], [ 401047.507629705010913, 3782732.960325533989817 ] ] ] } }
]
}
