{
"type": "FeatureCollection",
"name": "cell_00067_pre",
"crs": { "type": "name", "properties": { "name": "urn:ogc:def:crs:EPSG::32611" } },
"features": [
{ "type": "Feature", "properties": { "confidence": 0.99704968929290771, "class": 1, "regularized": null }, "geometry": { "type": "Polygon", "coordinates": [ [ [ 349698.677517802629154, 3772573.855544252321124 ], [ 349698.37232960324036, 3772573.550356052815914 ], [ 349697.456765005073976, 3772573.550356052815914 ], [ 349697.151576805685181, 3772573.245167853310704 ], [ 349696.236012207518797, 3772573.245167853310704 ], [ 349695.930824008130003, 3772572.939979654271156 ], [ 349695.320447609352414, 3772572.939979654271156 ], [ 349695.015259409963619, 3772572.634791454765946 ], [ 349689.521871820965316, 3772572.634791454765946 ], [ 349688.301119023410138, 3772571.414038657210767 ], [ 349688.301119023410138, 3772571.108850457705557 ], [ 349687.995930824021343, 3772570.803662258200347 ], [ 349687.995930824021343, 3772569.582909460645169 ], [ 349687.690742624632549, 3772569.27772126160562 ], [ 349687.690742624632549, 3772568.97253306210041 ], [ 349688.911495422187727, 3772567.751780264545232 ], [ 349689.216683621576522, 3772567.751780264545232 ], [ 349689.521871820965316, 3772567.446592065040022 ], [ 349690.742624618520495, 3772567.446592065040022 ], [ 349691.047812817909289, 3772567.141403865534812 ], [ 349694.099694811797235, 3772567.141403865534812 ], [ 349694.40488301118603, 3772567.446592065040022 ], [ 349696.541200406907592, 3772567.446592065040022 ], [ 349697.151576805685181, 3772568.056968464050442 ], [ 349697.76195320446277, 3772568.056968464050442 ], [ 349698.37232960324036, 3772568.667344862595201 ], [ 349698.982706002017949, 3772568.667344862595201 ], [ 349699.287894201406743, 3772568.97253306210041 ], [ 349699.898270600184333, 3772568.97253306210041 ], [ 349700.203458799573127, 3772569.27772126160562 ], [ 349701.119023397739511, 3772569.27772126160562 ], [ 349701.7293997965171, 3772569.888097660150379 ], [ 349702.339776195294689, 3772569.888097660150379 ], [ 349702.950152594072279, 3772570.498474059160799 ], [ 349702.950152594072279, 3772572.634791454765946 ], [ 349702.644964394683484, 3772572.939979654271156 ], [ 349702.644964394683484, 3772573.245167853310704 ], [ 349702.339776195294689, 3772573.550356052815914 ], [ 349700.508646998961922, 3772573.550356052815914 ], [ 349700.203458799573127, 3772573.855544252321124 ], [ 349698.677517802629154, 3772573.855544252321124 ] ] ] } },
{ "type": "Feature", "properties": { "confidence": 0.99657779932022095, "class": 1, "regularized": null }, "geometry": { "type": "Polygon", "coordinates": [ [ [ 349615.055951169866603, 3772623.601220752578229 ], [ 349614.750762970477808, 3772623.29603255353868 ], [ 349614.445574771089014, 3772623.29603255353868 ], [ 349614.140386571700219, 3772622.99084435403347 ], [ 349613.835198372311424, 3772622.99084435403347 ], [ 349613.224821973533835, 3772622.38046795502305 ], [ 349612.919633774145041, 3772622.38046795502305 ], [ 349612.309257375367451, 3772621.770091556478292 ], [ 349612.004069175978657, 3772621.770091556478292 ], [ 349611.698880976589862, 3772621.464903356973082 ], [ 349611.393692777201068, 3772621.464903356973082 ], [ 349611.088504577812273, 3772621.159715157467872 ], [ 349610.478128179034684, 3772621.159715157467872 ], [ 349609.5625635808683, 3772620.244150559417903 ], [ 349609.5625635808683, 3772618.718209562357515 ], [ 349609.867751780257095, 3772618.413021363317966 ], [ 349610.478128179034684, 3772618.413021363317966 ], [ 349610.783316378423478, 3772618.107833163812757 ], [ 349611.088504577812273, 3772618.107833163812757 ], [ 349612.004069175978657, 3772617.192268565762788 ], [ 349612.309257375367451, 3772617.192268565762788 ], [ 349612.919633774145041, 3772616.581892166752368 ], [ 349613.53001017292263, 3772616.581892166752368 ], [ 349613.835198372311424, 3772616.276703967247158 ], [ 349615.971515768032987, 3772616.276703967247158 ], [ 349616.276703967421781, 3772616.581892166752368 ], [ 349616.581892166810576, 3772616.581892166752368 ], [ 349617.192268565588165, 3772617.192268565762788 ], [ 349617.192268565588165, 3772618.413021363317966 ], [ 349617.49745676497696, 3772618.718209562357515 ], [ 349617.49745676497696, 3772621.770091556478292 ], [ 349617.802644964365754, 3772622.075279755983502 ], [ 349617.802644964365754, 3772622.38046795502305 ], [ 349617.49745676497696, 3772622.68565615452826 ], [ 349617.49745676497696, 3772622.99084435403347 ], [ 349616.88708036619937, 3772623.601220752578229 ], [ 349615.055951169866603, 3772623.601220752578229 ] ] ] } },
{ "type": "Feature", "properties": { "confidence": 0.96586287021636963, "class": 1, "regularized": null }, "geometry": { "type": "Polygon", "coordinates": [ [ [ 349697.456765005073976, 3772564.699898270424455 ], [ 349697.151576805685181, 3772564.394710071384907 ], [ 349696.236012207518797, 3772564.394710071384907 ], [ 349695.930824008130003, 3772564.089521871879697 ], [ 349695.320447609352414, 3772564.089521871879697 ], [ 349695.015259409963619, 3772563.784333672374487 ], [ 349694.40488301118603, 3772563.784333672374487 ], [ 349694.099694811797235, 3772563.479145472869277 ], [ 349693.489318413019646, 3772563.479145472869277 ], [ 349693.184130213630851, 3772563.173957273829728 ], [ 349691.658189216686878, 3772563.173957273829728 ], [ 349691.353001017298084, 3772562.868769074324518 ], [ 349690.4374364191317, 3772562.868769074324518 ], [ 349690.132248219742905, 3772562.563580874819309 ], [ 349689.827060020354111, 3772562.563580874819309 ], [ 349689.216683621576522, 3772561.95320447627455 ], [ 349689.216683621576522, 3772561.64801627676934 ], [ 349688.911495422187727, 3772561.34282807726413 ], [ 349688.911495422187727, 3772557.680569684598595 ], [ 349689.216683621576522, 3772557.375381485093385 ], [ 349689.216683621576522, 3772557.070193286053836 ], [ 349689.521871820965316, 3772556.765005086548626 ], [ 349693.489318413019646, 3772556.765005086548626 ], [ 349693.794506612408441, 3772557.070193286053836 ], [ 349694.40488301118603, 3772557.070193286053836 ], [ 349694.710071210574824, 3772557.375381485093385 ], [ 349695.015259409963619, 3772557.375381485093385 ], [ 349695.320447609352414, 3772557.680569684598595 ], [ 349695.625635808741208, 3772557.680569684598595 ], [ 349695.930824008130003, 3772557.985757884103805 ], [ 349696.541200406907592, 3772557.985757884103805 ], [ 349696.846388606296387, 3772558.290946083609015 ], [ 349697.151576805685181, 3772558.290946083609015 ], [ 349697.76195320446277, 3772558.901322482153773 ], [ 349698.067141403851565, 3772558.901322482153773 ], [ 349698.37232960324036, 3772559.206510681658983 ], [ 349698.677517802629154, 3772559.206510681658983 ], [ 349698.982706002017949, 3772559.511698881164193 ], [ 349698.982706002017949, 3772560.122075279708952 ], [ 349698.37232960324036, 3772560.732451678719372 ], [ 349698.37232960324036, 3772561.64801627676934 ], [ 349698.677517802629154, 3772561.95320447627455 ], [ 349698.982706002017949, 3772561.95320447627455 ], [ 349699.287894201406743, 3772562.258392675314099 ], [ 349699.287894201406743, 3772563.784333672374487 ], [ 349698.677517802629154, 3772564.394710071384907 ], [ 349697.76195320446277, 3772564.394710071384907 ], [ 349697.456765005073976, 3772564.699898270424455 ] ] ] } },
{ "type": "Feature", "properties": { "confidence": 0.95112204551696777, "class": 1, "regularized": null }, "geometry": { "type": "Polygon", "coordinates": [ [ [ 349228.382502543216106, 3772348.321464903187007 ], [ 349228.077314343827311, 3772348.016276704147458 ], [ 349227.772126144438516, 3772348.016276704147458 ], [ 349227.772126144438516, 3772347.711088504642248 ], [ 349227.161749745660927, 3772347.100712105631828 ], [ 349227.161749745660927, 3772345.574771109037101 ], [ 349227.466937945049722, 3772345.269582909531891 ], [ 349227.466937945049722, 3772344.048830111976713 ], [ 349227.772126144438516, 3772343.743641912471503 ], [ 349230.213631739548873, 3772343.743641912471503 ], [ 349230.824008138326462, 3772344.354018311481923 ], [ 349231.129196337715257, 3772344.354018311481923 ], [ 349231.434384537104052, 3772344.659206510521472 ], [ 349231.739572736492846, 3772344.659206510521472 ], [ 349232.044760935881641, 3772344.964394710026681 ], [ 349232.349949135328643, 3772344.964394710026681 ], [ 349232.655137334717438, 3772345.269582909531891 ], [ 349232.960325534106232, 3772345.269582909531891 ], [ 349233.265513733495027, 3772345.574771109037101 ], [ 349233.570701932883821, 3772345.574771109037101 ], [ 349233.570701932883821, 3772347.405900305137038 ], [ 349233.265513733495027, 3772347.405900305137038 ], [ 349232.960325534106232, 3772347.711088504642248 ], [ 349232.044760935881641, 3772347.711088504642248 ], [ 349231.739572736492846, 3772348.016276704147458 ], [ 349229.603255340771284, 3772348.016276704147458 ], [ 349229.298067141382489, 3772348.321464903187007 ], [ 349228.382502543216106, 3772348.321464903187007 ] ] ] } },
{ "type": "Feature", "properties": { "confidence": 0.90382844209671021, "class": 1, "regularized": null }, "geometry": { "type": "Polygon", "coordinates": [ [ [ 349283.926754832151346, 3772296.439471007324755 ], [ 349283.621566632762551, 3772296.134282807819545 ], [ 349280.569684638874605, 3772296.134282807819545 ], [ 349280.264496439485811, 3772295.829094608314335 ], [ 349280.264496439485811, 3772295.218718209769577 ], [ 349279.959308240097016, 3772294.913530010264367 ], [ 349279.959308240097016, 3772293.997965412214398 ], [ 349279.654120040708221, 3772293.692777212709188 ], [ 349279.654120040708221, 3772293.082400813698769 ], [ 349288.80976602237206, 3772293.082400813698769 ], [ 349288.80976602237206, 3772293.387589013203979 ], [ 349289.114954221760854, 3772293.692777212709188 ], [ 349289.114954221760854, 3772295.218718209769577 ], [ 349288.80976602237206, 3772295.523906408809125 ], [ 349288.80976602237206, 3772295.829094608314335 ], [ 349288.19938962359447, 3772295.829094608314335 ], [ 349287.894201424205676, 3772296.134282807819545 ], [ 349286.063072227872908, 3772296.134282807819545 ], [ 349285.757884028484114, 3772296.439471007324755 ], [ 349283.926754832151346, 3772296.439471007324755 ] ] ] } },
{ "type": "Feature", "properties": { "confidence": 0.85331171751022339, "class": 1, "regularized": "rectangle" }, "geometry": { "type": "Polygon", "coordinates": [ [ [ 349395.0, 3772293.0 ], [ 349409.375, 3772293.0 ], [ 349409.375, 3772303.0 ], [ 349395.0, 3772303.0 ], [ 349395.0, 3772293.0 ] ] ] } },
{ "type": "Feature", "properties": { "confidence": 0.78106802701950073, "class": 1, "regularized": null }, "geometry": { "type": "Polygon", "coordinates": [ [ [ 349781.383519837225322, 3772213.123092573601753 ], [ 349781.078331637836527, 3772212.817904374562204 ], [ 349780.467955239058938, 3772212.817904374562204 ], [ 349780.162767039670143, 3772212.512716175056994 ], [ 349779.857578840281349, 3772212.512716175056994 ], [ 349779.552390640892554, 3772212.207527975551784 ], [ 349779.247202441503759, 3772212.207527975551784 ], [ 349778.942014242114965, 3772211.902339776046574 ], [ 349778.63682604272617, 3772211.902339776046574 ], [ 349777.416073245170992, 3772210.681586978491396 ], [ 349777.416073245170992, 3772210.376398779451847 ], [ 349777.110885045782197, 3772210.071210579946637 ], [ 349777.110885045782197, 3772209.766022380441427 ], [ 349776.805696846393403, 3772209.460834180936217 ], [ 349776.805696846393403, 3772207.62970498483628 ], [ 349777.416073245170992, 3772207.019328585825861 ], [ 349779.247202441503759, 3772207.019328585825861 ], [ 349779.857578840281349, 3772207.62970498483628 ], [ 349780.162767039670143, 3772207.62970498483628 ], [ 349780.467955239058938, 3772207.93489318434149 ], [ 349781.383519837225322, 3772207.93489318434149 ], [ 349781.688708036614116, 3772208.240081383381039 ], [ 349781.993896236002911, 3772208.240081383381039 ], [ 349782.299084435391705, 3772208.545269582886249 ], [ 349782.6042726347805, 3772208.545269582886249 ], [ 349784.130213631724473, 3772210.071210579946637 ], [ 349784.130213631724473, 3772210.681586978491396 ], [ 349784.435401831113268, 3772210.986775177996606 ], [ 349784.435401831113268, 3772211.902339776046574 ], [ 349784.740590030502062, 3772212.207527975551784 ], [ 349784.740590030502062, 3772212.817904374562204 ], [ 349784.435401831113268, 3772213.123092573601753 ], [ 349781.383519837225322, 3772213.123092573601753 ] ] ] } },
{ "type": "Feature", "properties": { "confidence": 0.77268648147583008, "class": 1, "regularized": null }, "geometry": { "type": "Polygon", "coordinates": [ [ [ 349555.849440488324035, 3772265.310274669434875 ], [ 349555.54425228893524, 3772265.005086469929665 ], [ 349555.239064089546446, 3772265.005086469929665 ], [ 349554.628687690768857, 3772264.394710071384907 ], [ 349554.323499491380062, 3772264.394710071384907 ], [ 349553.713123092602473, 3772263.784333672374487 ], [ 349553.713123092602473, 3772262.563580874819309 ], [ 349554.018311291991267, 3772262.258392675314099 ], [ 349554.018311291991267, 3772261.64801627676934 ], [ 349554.628687690768857, 3772261.03763987775892 ], [ 349555.849440488324035, 3772261.03763987775892 ], [ 349556.459816887101624, 3772261.64801627676934 ], [ 349556.765005086490419, 3772261.64801627676934 ], [ 349557.680569684656803, 3772262.563580874819309 ], [ 349557.985757884045597, 3772262.563580874819309 ], [ 349558.290946083434392, 3772262.868769074324518 ], [ 349558.290946083434392, 3772263.173957273829728 ], [ 349558.596134282823186, 3772263.479145472869277 ], [ 349558.596134282823186, 3772264.089521871879697 ], [ 349558.290946083434392, 3772264.394710071384907 ], [ 349558.290946083434392, 3772264.699898270424455 ], [ 349557.985757884045597, 3772265.005086469929665 ], [ 349557.680569684656803, 3772265.005086469929665 ], [ 349557.375381485268008, 3772265.310274669434875 ], [ 349555.849440488324035, 3772265.310274669434875 ] ] ] } },
{ "type": "Feature", "properties": { "confidence": 0.75016516447067261, "class": 1, "regularized": null }, "geometry": { "type": "Polygon", "coordinates": [ [ [ 349243.947100712102838, 3772411.800610376521945 ], [ 349243.641912512714043, 3772411.495422177016735 ], [ 349243.031536113936454, 3772411.495422177016735 ], [ 349242.726347914547659, 3772411.190233977511525 ], [ 349242.726347914547659, 3772410.579857578966767 ], [ 349242.421159715158865, 3772410.274669379461557 ], [ 349242.421159715158865, 3772409.664292980451137 ], [ 349249.135300101712346, 3772409.664292980451137 ], [ 349249.135300101712346, 3772410.274669379461557 ], [ 349248.830111902323551, 3772410.579857578966767 ], [ 349248.830111902323551, 3772410.885045778006315 ], [ 349248.524923702934757, 3772411.190233977511525 ], [ 349248.219735503545962, 3772411.190233977511525 ], [ 349247.914547304157168, 3772411.495422177016735 ], [ 349246.998982705990784, 3772411.495422177016735 ], [ 349246.693794506601989, 3772411.800610376521945 ], [ 349243.947100712102838, 3772411.800610376521945 ] ] ] } },
{ "type": "Feature", "properties": { "confidence": 0.70469743013381958, "class": 1, "regularized": null }, "geometry": { "type": "Polygon", "coordinates": [ [ [ 349435.300101729400922, 3772243.336724313441664 ], [ 349434.994913530012127, 3772243.031536113936454 ], [ 349434.384537131234538, 3772243.031536113936454 ], [ 349434.384537131234538, 3772240.590030518826097 ], [ 349434.689725330623332, 3772240.590030518826097 ], [ 349435.300101729400922, 3772239.979654119815677 ], [ 349435.300101729400922, 3772238.14852492371574 ], [ 349435.605289928789716, 3772238.14852492371574 ], [ 349435.910478128178511, 3772237.843336724210531 ], [ 349435.910478128178511, 3772237.232960325665772 ], [ 349436.826042726344895, 3772237.232960325665772 ], [ 349437.436419125122484, 3772236.622583926655352 ], [ 349437.741607324511278, 3772236.622583926655352 ], [ 349438.046795523900073, 3772236.317395727150142 ], [ 349438.046795523900073, 3772236.012207528110594 ], [ 349438.351983723288868, 3772235.707019328605384 ], [ 349438.351983723288868, 3772235.401831129100174 ], [ 349438.657171922677662, 3772235.096642929594964 ], [ 349438.657171922677662, 3772233.875890132039785 ], [ 349438.962360122066457, 3772233.570701933000237 ], [ 349438.962360122066457, 3772232.960325533989817 ], [ 349439.267548321455251, 3772232.655137334484607 ], [ 349441.403865717176814, 3772232.655137334484607 ], [ 349441.709053916565608, 3772232.960325533989817 ], [ 349441.709053916565608, 3772234.181078331544995 ], [ 349441.403865717176814, 3772234.486266531050205 ], [ 349441.403865717176814, 3772235.096642929594964 ], [ 349441.098677517788019, 3772235.401831129100174 ], [ 349441.098677517788019, 3772236.622583926655352 ], [ 349440.793489318399224, 3772236.927772126160562 ], [ 349440.793489318399224, 3772237.538148524705321 ], [ 349440.183112919621635, 3772238.14852492371574 ], [ 349440.183112919621635, 3772238.45371312322095 ], [ 349439.877924720232841, 3772238.758901322260499 ], [ 349439.877924720232841, 3772239.064089521765709 ], [ 349439.572736520844046, 3772239.369277721270919 ], [ 349439.572736520844046, 3772239.674465920776129 ], [ 349439.267548321455251, 3772239.979654119815677 ], [ 349439.267548321455251, 3772240.590030518826097 ], [ 349438.962360122066457, 3772240.895218718331307 ], [ 349438.962360122066457, 3772242.115971515886486 ], [ 349438.657171922677662, 3772242.421159714926034 ], [ 349438.657171922677662, 3772242.726347914431244 ], [ 349438.351983723288868, 3772243.031536113936454 ], [ 349437.741607324511278, 3772243.031536113936454 ], [ 349437.436419125122484, 3772243.336724313441664 ], [ 349435.300101729400922, 3772243.336724313441664 ] ] ] } },
{ "type": "Feature", "properties": { "confidence": 0.68657654523849487, "class": 1, "regularized": null }, "geometry": { "type": "Polygon", "coordinates": [ [ [ 349355.340793489303906, 3772414.242115971632302 ], [ 349355.340793489303906, 3772413.936927772127092 ], [ 349355.035605289915111, 3772413.631739572621882 ], [ 349354.120040691748727, 3772413.631739572621882 ], [ 349353.814852492359933, 3772413.936927772127092 ], [ 349351.983723296027165, 3772413.936927772127092 ], [ 349351.67853509663837, 3772413.631739572621882 ], [ 349351.373346897249576, 3772413.631739572621882 ], [ 349351.068158697860781, 3772413.326551373116672 ], [ 349350.762970498471987, 3772413.326551373116672 ], [ 349350.152594099694397, 3772412.716174974571913 ], [ 349350.152594099694397, 3772412.410986775066704 ], [ 349349.847405900305603, 3772412.105798575561494 ], [ 349349.847405900305603, 3772410.885045778006315 ], [ 349350.152594099694397, 3772410.579857578966767 ], [ 349350.152594099694397, 3772410.274669379461557 ], [ 349350.457782299083192, 3772409.969481179956347 ], [ 349350.457782299083192, 3772409.664292980451137 ], [ 349355.951169888081495, 3772409.664292980451137 ], [ 349355.951169888081495, 3772414.242115971632302 ], [ 349355.340793489303906, 3772414.242115971632302 ] ] ] } },
{ "type": "Feature", "properties": { "confidence": 0.64762365818023682, "class": 1, "regularized": null }, "geometry": { "type": "Polygon", "coordinates": [ [ [ 349526.551373346883338, 3772533.265513733495027 ], [ 349526.246185147494543, 3772532.960325533989817 ], [ 349525.940996948105749, 3772532.960325533989817 ], [ 349525.940996948105749, 3772532.349949135445058 ], [ 349525.33062054932816, 3772531.739572736434639 ], [ 349525.33062054932816, 3772530.21363173937425 ], [ 349525.635808748716954, 3772529.908443540334702 ], [ 349525.635808748716954, 3772529.298067141324282 ], [ 349525.940996948105749, 3772528.992878941819072 ], [ 349525.940996948105749, 3772526.856561546213925 ], [ 349530.824008138326462, 3772526.856561546213925 ], [ 349530.824008138326462, 3772527.161749745719135 ], [ 349531.129196337715257, 3772527.466937945224345 ], [ 349531.129196337715257, 3772527.772126144263893 ], [ 349531.434384537104052, 3772528.077314343769103 ], [ 349531.434384537104052, 3772528.382502543274313 ], [ 349529.298067141382489, 3772530.51881993887946 ], [ 349529.298067141382489, 3772530.82400813838467 ], [ 349527.466937945049722, 3772532.655137334484607 ], [ 349527.466937945049722, 3772532.960325533989817 ], [ 349527.161749745660927, 3772532.960325533989817 ], [ 349526.856561546272133, 3772533.265513733495027 ], [ 349526.551373346883338, 3772533.265513733495027 ] ] ] } },
{ "type": "Feature", "properties": { "confidence": 0.61613494157791138, "class": 1, "regularized": null }, "geometry": { "type": "Polygon", "coordinates": [ [ [ 349530.213631739548873, 3772523.4994913530536 ], [ 349529.603255340771284, 3772522.88911495404318 ], [ 349529.603255340771284, 3772522.583926755003631 ], [ 349529.298067141382489, 3772522.278738555498421 ], [ 349529.298067141382489, 3772521.057985757943243 ], [ 349529.603255340771284, 3772520.752797558438033 ], [ 349529.603255340771284, 3772519.226856561377645 ], [ 349531.739572736492846, 3772517.090539165772498 ], [ 349532.044760935881641, 3772517.090539165772498 ], [ 349532.349949135328643, 3772516.785350966267288 ], [ 349533.570701932883821, 3772516.785350966267288 ], [ 349533.875890132272616, 3772517.090539165772498 ], [ 349533.875890132272616, 3772517.395727365277708 ], [ 349534.181078331661411, 3772517.700915564782917 ], [ 349534.486266531050205, 3772517.700915564782917 ], [ 349534.791454730439, 3772518.006103763822466 ], [ 349535.096642929827794, 3772518.006103763822466 ], [ 349535.401831129216589, 3772518.311291963327676 ], [ 349535.707019328605384, 3772518.311291963327676 ], [ 349536.012207527994178, 3772518.616480162832886 ], [ 349536.012207527994178, 3772521.057985757943243 ], [ 349535.401831129216589, 3772521.668362156488001 ], [ 349535.096642929827794, 3772521.668362156488001 ], [ 349534.486266531050205, 3772522.278738555498421 ], [ 349534.181078331661411, 3772522.278738555498421 ], [ 349533.875890132272616, 3772522.583926755003631 ], [ 349533.265513733495027, 3772522.583926755003631 ], [ 349532.960325534106232, 3772522.88911495404318 ], [ 349532.655137334717438, 3772522.88911495404318 ], [ 349532.349949135328643, 3772523.19430315354839 ], [ 349531.739572736492846, 3772523.19430315354839 ], [ 349531.434384537104052, 3772523.4994913530536 ], [ 349530.213631739548873, 3772523.4994913530536 ] ] ] } },
{ "type": "Feature", "properties": { "confidence": 0.52482044696807861, "class": 1, "regularized": null }, "geometry": { "type": "Polygon", "coordinates": [ [ [ 349784.130213631724473, 3772294.303153611253947 ], [ 349783.825025432335678, 3772293.997965412214398 ], [ 349781.993896236002911, 3772293.997965412214398 ], [ 349781.688708036614116, 3772293.692777212709188 ], [ 349780.773143438447732, 3772293.692777212709188 ], [ 349780.467955239058938, 3772293.387589013203979 ], [ 349780.162767039670143, 3772293.387589013203979 ], [ 349779.552390640892554, 3772292.77721261465922 ], [ 349779.552390640892554, 3772292.47202441515401 ], [ 349789.013224821945187, 3772292.47202441515401 ], [ 349789.013224821945187, 3772293.082400813698769 ], [ 349788.097660223778803, 3772293.997965412214398 ], [ 349787.487283825001214, 3772293.997965412214398 ], [ 349787.182095625612419, 3772294.303153611253947 ], [ 349784.130213631724473, 3772294.303153611253947 ] ] ] } },
{ "type": "Feature", "properties": { "confidence": 0.49474808573722839, "class": 1, "regularized": null }, "geometry": { "type": "Polygon", "coordinates": [ [ [ 349400.813835198350716, 3772265.920651067979634 ], [ 349400.508646998961922, 3772265.615462868940085 ], [ 349400.508646998961922, 3772260.122075279708952 ], [ 349400.813835198350716, 3772259.816887080203742 ], [ 349400.813835198350716, 3772259.511698881164193 ], [ 349401.119023397739511, 3772259.511698881164193 ], [ 349401.424211597128306, 3772259.206510681658983 ], [ 349402.339776195294689, 3772259.206510681658983 ], [ 349402.644964394683484, 3772258.901322482153773 ], [ 349406.002034588018432, 3772258.901322482153773 ], [ 349406.307222787407227, 3772258.596134282648563 ], [ 349408.138351983739994, 3772258.596134282648563 ], [ 349408.443540183128789, 3772258.901322482153773 ], [ 349409.053916581906378, 3772258.901322482153773 ], [ 349409.053916581906378, 3772259.206510681658983 ], [ 349408.748728382517584, 3772259.511698881164193 ], [ 349408.748728382517584, 3772259.816887080203742 ], [ 349408.443540183128789, 3772260.122075279708952 ], [ 349408.443540183128789, 3772260.732451678719372 ], [ 349408.748728382517584, 3772261.03763987775892 ], [ 349408.748728382517584, 3772261.34282807726413 ], [ 349409.053916581906378, 3772261.64801627676934 ], [ 349409.053916581906378, 3772261.95320447627455 ], [ 349409.359104781295173, 3772262.258392675314099 ], [ 349409.664292980683967, 3772262.258392675314099 ], [ 349410.274669379461557, 3772262.868769074324518 ], [ 349410.579857578850351, 3772262.868769074324518 ], [ 349411.19023397762794, 3772263.479145472869277 ], [ 349411.19023397762794, 3772264.394710071384907 ], [ 349410.885045778239146, 3772264.699898270424455 ], [ 349410.885045778239146, 3772265.310274669434875 ], [ 349410.579857578850351, 3772265.615462868940085 ], [ 349410.274669379461557, 3772265.615462868940085 ], [ 349409.969481180072762, 3772265.920651067979634 ], [ 349408.748728382517584, 3772265.920651067979634 ], [ 349408.443540183128789, 3772265.615462868940085 ], [ 349407.8331637843512, 3772265.615462868940085 ], [ 349407.527975584962405, 3772265.310274669434875 ], [ 349404.476093591074459, 3772265.310274669434875 ], [ 349404.170905391685665, 3772265.615462868940085 ], [ 349403.86571719229687, 3772265.615462868940085 ], [ 349403.560528992849868, 3772265.920651067979634 ], [ 349400.813835198350716, 3772265.920651067979634 ] ] ] } },
{ "type": "Feature", "properties": { "confidence": 0.41578274965286255, "class": 1, "regularized": null }, "geometry": { "type": "Polygon", "coordinates": [ [ [ 349349.542217700916808, 3772298.575788402929902 ], [ 349349.237029501528013, 3772298.270600203424692 ], [ 349349.237029501528013, 3772297.660223804879934 ], [ 349348.931841302139219, 3772297.355035605374724 ], [ 349348.931841302139219, 3772294.913530010264367 ], [ 349348.626653102750424, 3772294.608341810759157 ], [ 349348.931841302139219, 3772294.303153611253947 ], [ 349348.931841302139219, 3772292.47202441515401 ], [ 349355.951169888081495, 3772292.47202441515401 ], [ 349355.951169888081495, 3772292.77721261465922 ], [ 349355.6459816886927, 3772293.082400813698769 ], [ 349355.6459816886927, 3772293.387589013203979 ], [ 349355.035605289915111, 3772293.997965412214398 ], [ 349355.035605289915111, 3772294.303153611253947 ], [ 349352.899287894193549, 3772296.439471007324755 ], [ 349352.899287894193549, 3772296.744659206364304 ], [ 349352.594099694804754, 3772296.744659206364304 ], [ 349352.28891149541596, 3772297.049847405869514 ], [ 349352.28891149541596, 3772297.355035605374724 ], [ 349351.983723296027165, 3772297.355035605374724 ], [ 349351.068158697860781, 3772298.270600203424692 ], [ 349350.762970498471987, 3772298.270600203424692 ], [ 349350.457782299083192, 3772298.575788402929902 ], [ 349349.542217700916808, 3772298.575788402929902 ] ] ] } },
{ "type": "Feature", "properties": { "confidence": 0.40363913774490356, "class": 1, "regularized": null }, "geometry": { "type": "Polygon", "coordinates": [ [ [ 349550.356052899267524, 3772688.606307222973555 ], [ 349550.05086469987873, 3772688.301119023468345 ], [ 349549.440488301101141, 3772688.301119023468345 ], [ 349549.135300101712346, 3772687.995930823963135 ], [ 349548.830111902323551, 3772687.995930823963135 ], [ 349548.524923702934757, 3772687.690742624457926 ], [ 349547.609359104768373, 3772687.690742624457926 ], [ 349546.998982705990784, 3772687.080366225913167 ], [ 349546.693794506601989, 3772687.080366225913167 ], [ 349546.693794506601989, 3772686.775178026407957 ], [ 349546.388606307213195, 3772686.469989826902747 ], [ 349546.388606307213195, 3772686.164801627863199 ], [ 349546.0834181078244, 3772685.859613428357989 ], [ 349546.0834181078244, 3772685.249237029347569 ], [ 349545.473041709046811, 3772684.63886063080281 ], [ 349545.473041709046811, 3772682.807731434237212 ], [ 349545.167853509658016, 3772682.502543235197663 ], [ 349545.473041709046811, 3772682.197355035692453 ], [ 349545.473041709046811, 3772681.892166836187243 ], [ 349545.778229908435605, 3772681.892166836187243 ], [ 349546.0834181078244, 3772681.586978636682034 ], [ 349546.693794506601989, 3772681.586978636682034 ], [ 349546.998982705990784, 3772681.892166836187243 ], [ 349548.524923702934757, 3772681.892166836187243 ], [ 349548.524923702934757, 3772682.197355035692453 ], [ 349548.830111902323551, 3772682.502543235197663 ], [ 349548.830111902323551, 3772682.807731434237212 ], [ 349549.745676500489935, 3772683.723296032752842 ], [ 349550.05086469987873, 3772683.723296032752842 ], [ 349550.356052899267524, 3772684.02848423179239 ], [ 349550.661241098656319, 3772684.02848423179239 ], [ 349550.966429298045114, 3772684.3336724312976 ], [ 349551.271617497433908, 3772684.3336724312976 ], [ 349551.881993896211497, 3772684.94404883030802 ], [ 349551.881993896211497, 3772685.249237029347569 ], [ 349552.492370294989087, 3772685.859613428357989 ], [ 349552.492370294989087, 3772686.469989826902747 ], [ 349552.797558494377881, 3772686.775178026407957 ], [ 349552.797558494377881, 3772687.385554425418377 ], [ 349553.102746693766676, 3772687.690742624457926 ], [ 349552.797558494377881, 3772687.995930823963135 ], [ 349552.797558494377881, 3772688.301119023468345 ], [ 349551.271617497433908, 3772688.301119023468345 ], [ 349550.966429298045114, 3772688.606307222973555 ], [ 349550.356052899267524, 3772688.606307222973555 ] ] ] } },
{ "type": "Feature", "properties": { "confidence": 0.36792078614234924, "class": 1, "regularized": null }, "geometry": { "type": "Polygon", "coordinates": [ [ [ 349655.340793489303906, 3772412.105798575561494 ], [ 349655.035605289915111, 3772411.800610376521945 ], [ 349653.509664292971138, 3772411.800610376521945 ], [ 349653.204476093582343, 3772411.495422177016735 ], [ 349652.899287894193549, 3772411.495422177016735 ], [ 349652.594099694804754, 3772411.190233977511525 ], [ 349652.28891149541596, 3772411.190233977511525 ], [ 349651.983723296027165, 3772410.885045778006315 ], [ 349651.983723296027165, 3772409.664292980451137 ], [ 349658.697863682580646, 3772409.664292980451137 ], [ 349658.697863682580646, 3772411.190233977511525 ], [ 349658.392675483191852, 3772411.495422177016735 ], [ 349658.087487283803057, 3772411.495422177016735 ], [ 349657.782299084414262, 3772411.800610376521945 ], [ 349656.561546286859084, 3772411.800610376521945 ], [ 349656.256358087470289, 3772412.105798575561494 ], [ 349655.340793489303906, 3772412.105798575561494 ] ] ] } },
{ "type": "Feature", "properties": { "confidence": 0.32922393083572388, "class": 1, "regularized": null }, "geometry": { "type": "Polygon", "coordinates": [ [ [ 349268.362156663264614, 3772677.61953204497695 ], [ 349268.056968463875819, 3772677.31434384547174 ], [ 349267.44659206509823, 3772677.31434384547174 ], [ 349267.141403865709435, 3772677.00915564596653 ], [ 349266.836215666320641, 3772677.00915564596653 ], [ 349266.836215666320641, 3772676.70396744646132 ], [ 349266.225839267543051, 3772676.093591047916561 ], [ 349265.920651068154257, 3772676.093591047916561 ], [ 349265.615462868765462, 3772675.788402848411351 ], [ 349265.615462868765462, 3772675.178026449866593 ], [ 349265.005086469987873, 3772674.567650050856173 ], [ 349265.005086469987873, 3772673.957273652311414 ], [ 349264.699898270599078, 3772673.652085452806205 ], [ 349264.699898270599078, 3772672.736520854756236 ], [ 349264.394710071210284, 3772672.431332655251026 ], [ 349264.394710071210284, 3772671.820956256240606 ], [ 349264.089521871821489, 3772671.515768057201058 ], [ 349264.089521871821489, 3772671.210579857695848 ], [ 349263.4791454730439, 3772670.600203458685428 ], [ 349263.4791454730439, 3772669.07426246162504 ], [ 349263.784333672432695, 3772668.769074262585491 ], [ 349266.531027466931846, 3772668.769074262585491 ], [ 349266.836215666320641, 3772669.07426246162504 ], [ 349267.141403865709435, 3772669.07426246162504 ], [ 349267.751780264487024, 3772669.684638860635459 ], [ 349268.056968463875819, 3772669.684638860635459 ], [ 349268.667344862653408, 3772670.295015259180218 ], [ 349268.972533062042203, 3772670.295015259180218 ], [ 349270.80366225837497, 3772672.126144455745816 ], [ 349270.80366225837497, 3772672.431332655251026 ], [ 349271.108850457763765, 3772672.736520854756236 ], [ 349271.108850457763765, 3772673.346897253300995 ], [ 349271.41403865715256, 3772673.652085452806205 ], [ 349271.41403865715256, 3772676.093591047916561 ], [ 349270.80366225837497, 3772676.70396744646132 ], [ 349270.80366225837497, 3772677.00915564596653 ], [ 349270.498474058986176, 3772677.00915564596653 ], [ 349270.193285859597381, 3772677.31434384547174 ], [ 349268.667344862653408, 3772677.31434384547174 ], [ 349268.362156663264614, 3772677.61953204497695 ] ] ] } }
]
}
