{
"type": "FeatureCollection",
"name": "cell_00175_pre",
"crs": { "type": "name", "properties": { "name": "urn:ogc:def:crs:EPSG::32611" } },
"features": [
{ "type": "Feature", "properties": { "confidence": 0.41424393653869629, "class": 1 }, "geometry": { "type": "Polygon", "coordinates": [ [ [ 356020.345879959291779, 3775197.558494404889643 ], [ 356020.040691759902984, 3775197.253306205384433 ], [ 356019.735503560514189, 3775197.253306205384433 ], [ 356018.819938962347806, 3775196.337741607334465 ], [ 356018.819938962347806, 3775195.727365208324045 ], [ 356018.514750762959011, 3775195.422177009284496 ], [ 356018.514750762959011, 3775194.506612410768867 ], [ 356018.209562563570216, 3775194.201424211729318 ], [ 356018.209562563570216, 3775193.591047812718898 ], [ 356017.904374364181422, 3775193.285859613213688 ], [ 356017.904374364181422, 3775192.67548321466893 ], [ 356017.599186164792627, 3775192.37029501516372 ], [ 356017.599186164792627, 3775192.06510681565851 ], [ 356017.293997965403832, 3775191.759918616618961 ], [ 356017.293997965403832, 3775190.539165819063783 ], [ 356017.599186164792627, 3775190.539165819063783 ], [ 356017.904374364181422, 3775190.233977619558573 ], [ 356019.1251271617366, 3775190.233977619558573 ], [ 356019.430315361125395, 3775189.928789420053363 ], [ 356022.787385554402135, 3775189.928789420053363 ], [ 356023.09257375379093, 3775190.233977619558573 ], [ 356023.397761953179725, 3775190.233977619558573 ], [ 356023.702950152568519, 3775190.539165819063783 ], [ 356024.008138351957314, 3775190.539165819063783 ], [ 356024.313326551346108, 3775190.844354018103331 ], [ 356024.313326551346108, 3775191.149542217608541 ], [ 356025.2288911495707, 3775192.06510681565851 ], [ 356025.2288911495707, 3775192.37029501516372 ], [ 356025.839267548348289, 3775192.980671414174139 ], [ 356025.839267548348289, 3775195.116988809779286 ], [ 356026.144455747737084, 3775195.422177009284496 ], [ 356026.144455747737084, 3775195.727365208324045 ], [ 356025.839267548348289, 3775196.032553407829255 ], [ 356025.839267548348289, 3775196.337741607334465 ], [ 356025.534079348959494, 3775196.642929806839675 ], [ 356025.2288911495707, 3775196.642929806839675 ], [ 356024.923702950123698, 3775196.948118005879223 ], [ 356024.618514750734903, 3775196.948118005879223 ], [ 356024.313326551346108, 3775197.253306205384433 ], [ 356023.702950152568519, 3775197.253306205384433 ], [ 356023.397761953179725, 3775197.558494404889643 ], [ 356020.345879959291779, 3775197.558494404889643 ] ] ] } }
]
}
