{
"type": "FeatureCollection",
"name": "cell_00208_pre",
"crs": { "type": "name", "properties": { "name": "urn:ogc:def:crs:EPSG::32611" } },
"features": [
{ "type": "Feature", "properties": { "confidence": 0.71122336387634277, "class": 1 }, "geometry": { "type": "Polygon", "coordinates": [ [ [ 357479.755849440465681, 3774953.71312309242785 ], [ 357478.535096642910503, 3774952.492370294872671 ], [ 357478.535096642910503, 3774951.881993896327913 ], [ 357477.924720244132914, 3774951.271617497317493 ], [ 357477.924720244132914, 3774950.661241098772734 ], [ 357477.619532044744119, 3774950.356052899267524 ], [ 357477.619532044744119, 3774949.440488301217556 ], [ 357477.314343845355324, 3774949.135300101712346 ], [ 357477.314343845355324, 3774947.914547304157168 ], [ 357477.00915564596653, 3774947.609359104651958 ], [ 357477.00915564596653, 3774946.693794506601989 ], [ 357477.314343845355324, 3774946.388606307096779 ], [ 357477.314343845355324, 3774946.083418108057231 ], [ 357478.535096642910503, 3774944.862665310502052 ], [ 357478.840284842299297, 3774944.862665310502052 ], [ 357479.145473041688092, 3774944.557477110996842 ], [ 357479.450661241076887, 3774944.557477110996842 ], [ 357479.755849440465681, 3774944.252288911491632 ], [ 357480.97660223802086, 3774944.252288911491632 ], [ 357481.281790437409654, 3774944.557477110996842 ], [ 357481.586978636798449, 3774944.557477110996842 ], [ 357481.892166836187243, 3774944.862665310502052 ], [ 357482.197355035634246, 3774944.862665310502052 ], [ 357482.50254323502304, 3774945.167853509541601 ], [ 357482.807731434411835, 3774945.167853509541601 ], [ 357482.807731434411835, 3774945.473041709046811 ], [ 357483.723296032578219, 3774946.388606307096779 ], [ 357483.723296032578219, 3774946.693794506601989 ], [ 357484.333672431355808, 3774947.304170905612409 ], [ 357484.333672431355808, 3774949.135300101712346 ], [ 357484.028484231967013, 3774949.440488301217556 ], [ 357484.028484231967013, 3774951.576805696822703 ], [ 357483.418107833189424, 3774952.187182095833123 ], [ 357483.418107833189424, 3774952.797558494377881 ], [ 357483.11291963380063, 3774952.797558494377881 ], [ 357482.807731434411835, 3774953.102746693883091 ], [ 357482.50254323502304, 3774953.102746693883091 ], [ 357482.197355035634246, 3774953.407934893388301 ], [ 357481.586978636798449, 3774953.407934893388301 ], [ 357481.281790437409654, 3774953.71312309242785 ], [ 357479.755849440465681, 3774953.71312309242785 ] ] ] } },
{ "type": "Feature", "properties": { "confidence": 0.6771094799041748, "class": 1 }, "geometry": { "type": "Polygon", "coordinates": [ [ [ 357502.034587995905895, 3774696.134282807819545 ], [ 357501.7293997965171, 3774695.829094608314335 ], [ 357501.424211597128306, 3774695.829094608314335 ], [ 357499.898270600184333, 3774694.303153611253947 ], [ 357499.898270600184333, 3774693.692777212709188 ], [ 357499.593082400795538, 3774693.387589013203979 ], [ 357499.593082400795538, 3774693.082400813698769 ], [ 357499.898270600184333, 3774693.082400813698769 ], [ 357500.203458799573127, 3774692.77721261465922 ], [ 357500.203458799573127, 3774692.47202441515401 ], [ 357505.086469989852048, 3774692.47202441515401 ], [ 357505.086469989852048, 3774692.77721261465922 ], [ 357505.391658189240843, 3774693.082400813698769 ], [ 357505.391658189240843, 3774694.913530010264367 ], [ 357505.086469989852048, 3774695.218718209769577 ], [ 357505.086469989852048, 3774695.829094608314335 ], [ 357504.781281790463254, 3774695.829094608314335 ], [ 357504.476093591074459, 3774696.134282807819545 ], [ 357502.034587995905895, 3774696.134282807819545 ] ] ] } },
{ "type": "Feature", "properties": { "confidence": 0.52527451515197754, "class": 1 }, "geometry": { "type": "Polygon", "coordinates": [ [ [ 357494.40488301118603, 3774929.908443540334702 ], [ 357494.099694811797235, 3774929.603255340829492 ], [ 357491.047812817909289, 3774929.603255340829492 ], [ 357490.4374364191317, 3774928.992878941819072 ], [ 357490.132248219742905, 3774928.992878941819072 ], [ 357489.827060020354111, 3774928.687690742779523 ], [ 357489.216683621576522, 3774928.687690742779523 ], [ 357488.606307222798932, 3774928.077314343769103 ], [ 357488.606307222798932, 3774927.466937945224345 ], [ 357488.301119023410138, 3774927.161749745719135 ], [ 357488.301119023410138, 3774926.856561546213925 ], [ 357498.37232960324036, 3774926.856561546213925 ], [ 357498.37232960324036, 3774927.772126144263893 ], [ 357498.067141403851565, 3774928.077314343769103 ], [ 357498.067141403851565, 3774928.687690742779523 ], [ 357497.76195320446277, 3774928.992878941819072 ], [ 357497.456765005073976, 3774928.992878941819072 ], [ 357497.151576805685181, 3774929.298067141324282 ], [ 357496.541200406907592, 3774929.298067141324282 ], [ 357496.236012207518797, 3774929.603255340829492 ], [ 357495.320447609352414, 3774929.603255340829492 ], [ 357495.015259409963619, 3774929.908443540334702 ], [ 357494.40488301118603, 3774929.908443540334702 ] ] ] } },
{ "type": "Feature", "properties": { "confidence": 0.40447303652763367, "class": 1 }, "geometry": { "type": "Polygon", "coordinates": [ [ [ 357313.733468972553965, 3775046.18514750758186 ], [ 357313.42828077316517, 3775045.87995930807665 ], [ 357312.207527975609992, 3775045.87995930807665 ], [ 357311.902339776221197, 3775045.574771109037101 ], [ 357311.291963377443608, 3775045.574771109037101 ], [ 357311.291963377443608, 3775045.269582909531891 ], [ 357310.986775178054813, 3775044.964394710026681 ], [ 357310.986775178054813, 3775044.048830111976713 ], [ 357316.785350966441911, 3775044.048830111976713 ], [ 357316.785350966441911, 3775044.659206510521472 ], [ 357316.480162767053116, 3775044.964394710026681 ], [ 357316.480162767053116, 3775045.574771109037101 ], [ 357316.174974567664322, 3775045.87995930807665 ], [ 357314.954221770109143, 3775045.87995930807665 ], [ 357314.649033570720349, 3775046.18514750758186 ], [ 357313.733468972553965, 3775046.18514750758186 ] ] ] } }
]
}
