{
"type": "FeatureCollection",
"name": "cell_00418_pre",
"crs": { "type": "name", "properties": { "name": "urn:ogc:def:crs:EPSG::32611" } },
"features": [
{ "type": "Feature", "properties": { "confidence": 0.97245973348617554, "class": 1, "regularized": null }, "geometry": { "type": "Polygon", "coordinates": [ [ [ 398432.044760935881641, 3783089.725330620538443 ], [ 398431.739572736492846, 3783089.420142421033233 ], [ 398431.434384537104052, 3783089.420142421033233 ], [ 398431.129196337715257, 3783089.114954221993685 ], [ 398431.129196337715257, 3783088.809766022488475 ], [ 398430.824008138326462, 3783088.504577822983265 ], [ 398430.824008138326462, 3783086.978636825922877 ], [ 398431.129196337715257, 3783086.673448626883328 ], [ 398431.129196337715257, 3783084.84231943031773 ], [ 398432.349949135328643, 3783083.621566632762551 ], [ 398432.960325534106232, 3783083.621566632762551 ], [ 398433.265513733495027, 3783083.316378433257341 ], [ 398436.622583926771767, 3783083.316378433257341 ], [ 398436.927772126160562, 3783083.621566632762551 ], [ 398437.538148524938151, 3783083.621566632762551 ], [ 398438.14852492371574, 3783084.23194303130731 ], [ 398438.453713123104535, 3783084.23194303130731 ], [ 398439.064089521882124, 3783084.84231943031773 ], [ 398439.369277721270919, 3783084.84231943031773 ], [ 398439.674465920659713, 3783085.14750762982294 ], [ 398439.674465920659713, 3783085.757884028367698 ], [ 398439.979654120048508, 3783086.063072227872908 ], [ 398439.979654120048508, 3783087.894201424438506 ], [ 398440.284842319437303, 3783088.199389623478055 ], [ 398439.979654120048508, 3783088.504577822983265 ], [ 398439.979654120048508, 3783088.809766022488475 ], [ 398439.674465920659713, 3783088.809766022488475 ], [ 398439.369277721270919, 3783089.114954221993685 ], [ 398438.75890132249333, 3783089.114954221993685 ], [ 398438.453713123104535, 3783088.809766022488475 ], [ 398436.012207527994178, 3783088.809766022488475 ], [ 398435.707019328605384, 3783089.114954221993685 ], [ 398435.401831129216589, 3783089.114954221993685 ], [ 398435.096642929827794, 3783089.420142421033233 ], [ 398434.486266531050205, 3783089.420142421033233 ], [ 398434.181078331661411, 3783089.725330620538443 ], [ 398432.044760935881641, 3783089.725330620538443 ] ] ] } },
{ "type": "Feature", "properties": { "confidence": 0.96537691354751587, "class": 1, "regularized": null }, "geometry": { "type": "Polygon", "coordinates": [ [ [ 398854.120040691748727, 3783143.438453712966293 ], [ 398853.814852492359933, 3783143.133265513926744 ], [ 398853.204476093582343, 3783143.133265513926744 ], [ 398852.594099694804754, 3783142.522889114916325 ], [ 398852.28891149541596, 3783142.522889114916325 ], [ 398852.28891149541596, 3783142.217700915411115 ], [ 398851.983723296027165, 3783141.912512716371566 ], [ 398851.983723296027165, 3783138.860630722250789 ], [ 398852.28891149541596, 3783138.555442522745579 ], [ 398852.28891149541596, 3783137.945066124200821 ], [ 398852.594099694804754, 3783137.639877924695611 ], [ 398852.594099694804754, 3783137.029501526150852 ], [ 398852.899287894193549, 3783137.029501526150852 ], [ 398853.509664292971138, 3783136.419125127140433 ], [ 398853.509664292971138, 3783136.113936927635223 ], [ 398854.425228891137522, 3783135.198372329585254 ], [ 398854.425228891137522, 3783134.587995931040496 ], [ 398854.730417090526316, 3783134.587995931040496 ], [ 398855.035605289915111, 3783134.282807731535286 ], [ 398855.035605289915111, 3783133.977619532030076 ], [ 398858.697863682580646, 3783133.977619532030076 ], [ 398859.003051881969441, 3783134.282807731535286 ], [ 398859.003051881969441, 3783134.587995931040496 ], [ 398859.308240081358235, 3783134.893184130080044 ], [ 398859.308240081358235, 3783137.334689725190401 ], [ 398859.003051881969441, 3783137.639877924695611 ], [ 398859.003051881969441, 3783138.250254323706031 ], [ 398858.697863682580646, 3783138.555442522745579 ], [ 398858.697863682580646, 3783138.860630722250789 ], [ 398858.087487283803057, 3783139.471007121261209 ], [ 398858.087487283803057, 3783139.776195320300758 ], [ 398857.782299084414262, 3783140.081383519805968 ], [ 398857.782299084414262, 3783140.386571719311178 ], [ 398857.477110885025468, 3783140.691759918816388 ], [ 398857.477110885025468, 3783141.302136317361146 ], [ 398857.171922685636673, 3783141.302136317361146 ], [ 398856.866734486247879, 3783141.607324516866356 ], [ 398856.866734486247879, 3783141.912512716371566 ], [ 398856.561546286859084, 3783141.912512716371566 ], [ 398856.256358087470289, 3783142.217700915411115 ], [ 398856.256358087470289, 3783142.522889114916325 ], [ 398855.6459816886927, 3783143.133265513926744 ], [ 398855.340793489303906, 3783143.133265513926744 ], [ 398855.035605289915111, 3783143.438453712966293 ], [ 398854.120040691748727, 3783143.438453712966293 ] ] ] } },
{ "type": "Feature", "properties": { "confidence": 0.95473629236221313, "class": 1, "regularized": null }, "geometry": { "type": "Polygon", "coordinates": [ [ [ 398405.188199389609508, 3783229.196337741799653 ], [ 398405.188199389609508, 3783228.891149542294443 ], [ 398404.883011190220714, 3783228.585961342789233 ], [ 398404.577822990831919, 3783228.585961342789233 ], [ 398404.272634791443124, 3783228.280773143284023 ], [ 398404.272634791443124, 3783227.975584944244474 ], [ 398403.662258392665535, 3783227.365208545234054 ], [ 398403.662258392665535, 3783227.060020345728844 ], [ 398403.357070193276741, 3783226.754832146689296 ], [ 398403.357070193276741, 3783224.923702950123698 ], [ 398403.662258392665535, 3783224.618514750618488 ], [ 398403.662258392665535, 3783222.482197355013341 ], [ 398404.577822990831919, 3783221.566632756963372 ], [ 398404.883011190220714, 3783221.566632756963372 ], [ 398405.493387588998303, 3783220.956256357952952 ], [ 398405.493387588998303, 3783220.651068158913404 ], [ 398405.798575788387097, 3783220.345879959408194 ], [ 398406.103763987775892, 3783220.345879959408194 ], [ 398406.408952187164687, 3783220.040691759902984 ], [ 398407.629704984719865, 3783220.040691759902984 ], [ 398408.240081383497454, 3783220.651068158913404 ], [ 398409.460834181052633, 3783220.651068158913404 ], [ 398409.460834181052633, 3783224.313326551578939 ], [ 398408.850457782275043, 3783224.923702950123698 ], [ 398408.850457782275043, 3783225.534079349134117 ], [ 398408.545269582886249, 3783225.839267548173666 ], [ 398408.545269582886249, 3783226.449643947184086 ], [ 398408.240081383497454, 3783226.754832146689296 ], [ 398408.240081383497454, 3783227.060020345728844 ], [ 398407.93489318410866, 3783227.060020345728844 ], [ 398407.629704984719865, 3783227.365208545234054 ], [ 398407.629704984719865, 3783227.670396744739264 ], [ 398407.019328585942276, 3783227.670396744739264 ], [ 398405.798575788387097, 3783228.891149542294443 ], [ 398405.493387588998303, 3783228.891149542294443 ], [ 398405.188199389609508, 3783229.196337741799653 ] ] ] } },
{ "type": "Feature", "properties": { "confidence": 0.92139005661010742, "class": 1, "regularized": null }, "geometry": { "type": "Polygon", "coordinates": [ [ [ 398525.432349949143827, 3783058.290946083609015 ], [ 398524.821973550366238, 3783057.680569684598595 ], [ 398524.821973550366238, 3783054.01831129193306 ], [ 398525.127161749755032, 3783053.71312309242785 ], [ 398525.127161749755032, 3783053.407934893388301 ], [ 398525.432349949143827, 3783053.407934893388301 ], [ 398525.737538148532622, 3783053.102746693883091 ], [ 398527.873855544254184, 3783053.102746693883091 ], [ 398528.179043743642978, 3783053.407934893388301 ], [ 398529.399796541198157, 3783053.407934893388301 ], [ 398529.704984740586951, 3783053.71312309242785 ], [ 398529.704984740586951, 3783054.01831129193306 ], [ 398530.010172939975746, 3783054.32349949143827 ], [ 398530.010172939975746, 3783054.62868769094348 ], [ 398530.315361139364541, 3783054.933875889983028 ], [ 398530.315361139364541, 3783055.239064089488238 ], [ 398530.620549338753335, 3783055.544252288993448 ], [ 398530.315361139364541, 3783055.849440488498658 ], [ 398530.315361139364541, 3783056.154628687538207 ], [ 398530.010172939975746, 3783056.459816887043417 ], [ 398529.704984740586951, 3783056.459816887043417 ], [ 398529.399796541198157, 3783056.765005086548626 ], [ 398529.094608341809362, 3783056.765005086548626 ], [ 398528.484231943031773, 3783057.375381485093385 ], [ 398528.179043743642978, 3783057.375381485093385 ], [ 398527.873855544254184, 3783057.680569684598595 ], [ 398527.263479145476595, 3783057.680569684598595 ], [ 398526.9582909460878, 3783057.985757884103805 ], [ 398526.347914547310211, 3783057.985757884103805 ], [ 398526.042726347921416, 3783058.290946083609015 ], [ 398525.432349949143827, 3783058.290946083609015 ] ] ] } },
{ "type": "Feature", "properties": { "confidence": 0.92124032974243164, "class": 1, "regularized": null }, "geometry": { "type": "Polygon", "coordinates": [ [ [ 398422.278738555440214, 3783079.348931841086596 ], [ 398422.278738555440214, 3783075.381485249381512 ], [ 398428.077314343827311, 3783075.381485249381512 ], [ 398428.077314343827311, 3783076.297049847431481 ], [ 398428.382502543216106, 3783076.602238046936691 ], [ 398428.382502543216106, 3783079.043743642047048 ], [ 398427.466937945049722, 3783079.043743642047048 ], [ 398427.161749745660927, 3783079.348931841086596 ], [ 398422.278738555440214, 3783079.348931841086596 ] ] ] } },
{ "type": "Feature", "properties": { "confidence": 0.89559006690979004, "class": 1, "regularized": null }, "geometry": { "type": "Polygon", "coordinates": [ [ [ 398536.113936927751638, 3783067.751780264545232 ], [ 398535.808748728362843, 3783067.446592065040022 ], [ 398534.89318413019646, 3783067.446592065040022 ], [ 398534.587995930807665, 3783067.141403865534812 ], [ 398534.28280773141887, 3783067.141403865534812 ], [ 398534.28280773141887, 3783066.836215666495264 ], [ 398533.977619532030076, 3783066.531027466990054 ], [ 398533.977619532030076, 3783065.310274669434875 ], [ 398533.672431332641281, 3783065.005086469929665 ], [ 398533.672431332641281, 3783064.699898270424455 ], [ 398533.367243133252487, 3783064.394710071384907 ], [ 398533.367243133252487, 3783063.784333672374487 ], [ 398533.672431332641281, 3783063.479145472869277 ], [ 398533.672431332641281, 3783063.173957273829728 ], [ 398534.28280773141887, 3783063.173957273829728 ], [ 398534.587995930807665, 3783062.868769074324518 ], [ 398536.419125127140433, 3783062.868769074324518 ], [ 398536.724313326529227, 3783063.173957273829728 ], [ 398537.639877924695611, 3783063.173957273829728 ], [ 398537.945066124084406, 3783062.868769074324518 ], [ 398538.555442522861995, 3783062.868769074324518 ], [ 398538.860630722250789, 3783062.563580874819309 ], [ 398538.860630722250789, 3783062.258392675314099 ], [ 398539.165818921639584, 3783061.95320447627455 ], [ 398539.165818921639584, 3783061.64801627676934 ], [ 398539.471007121086586, 3783061.64801627676934 ], [ 398539.776195320475381, 3783061.34282807726413 ], [ 398540.081383519864175, 3783061.34282807726413 ], [ 398540.081383519864175, 3783061.64801627676934 ], [ 398542.217700915585738, 3783063.784333672374487 ], [ 398542.217700915585738, 3783065.005086469929665 ], [ 398541.912512716196943, 3783065.310274669434875 ], [ 398541.302136317419354, 3783065.310274669434875 ], [ 398540.691759918641765, 3783065.920651067979634 ], [ 398540.38657171925297, 3783065.920651067979634 ], [ 398540.081383519864175, 3783066.225839267484844 ], [ 398539.776195320475381, 3783066.225839267484844 ], [ 398539.471007121086586, 3783066.531027466990054 ], [ 398539.165818921639584, 3783066.531027466990054 ], [ 398538.555442522861995, 3783067.141403865534812 ], [ 398538.2502543234732, 3783067.141403865534812 ], [ 398537.945066124084406, 3783067.446592065040022 ], [ 398537.334689725306816, 3783067.446592065040022 ], [ 398537.029501525918022, 3783067.751780264545232 ], [ 398536.113936927751638, 3783067.751780264545232 ] ] ] } },
{ "type": "Feature", "properties": { "confidence": 0.87832498550415039, "class": 1, "regularized": null }, "geometry": { "type": "Polygon", "coordinates": [ [ [ 398703.662258392665535, 3783213.326551373116672 ], [ 398703.357070193276741, 3783213.021363174077123 ], [ 398703.051881993887946, 3783213.021363174077123 ], [ 398703.051881993887946, 3783212.105798575561494 ], [ 398701.831129196332768, 3783210.885045778006315 ], [ 398701.831129196332768, 3783209.664292980451137 ], [ 398714.343845371331554, 3783209.664292980451137 ], [ 398714.343845371331554, 3783210.579857578966767 ], [ 398714.038657171942759, 3783210.885045778006315 ], [ 398714.038657171942759, 3783211.190233977511525 ], [ 398713.733468972553965, 3783211.190233977511525 ], [ 398713.123092573776376, 3783211.800610376521945 ], [ 398712.817904374387581, 3783211.800610376521945 ], [ 398712.512716174998786, 3783212.105798575561494 ], [ 398712.207527975609992, 3783212.105798575561494 ], [ 398711.902339776221197, 3783212.410986775066704 ], [ 398709.155645981663838, 3783212.410986775066704 ], [ 398708.850457782275043, 3783212.716174974571913 ], [ 398706.103763987775892, 3783212.716174974571913 ], [ 398705.798575788387097, 3783213.021363174077123 ], [ 398704.883011190220714, 3783213.021363174077123 ], [ 398704.577822990831919, 3783213.326551373116672 ], [ 398703.662258392665535, 3783213.326551373116672 ] ] ] } },
{ "type": "Feature", "properties": { "confidence": 0.86898422241210938, "class": 1, "regularized": null }, "geometry": { "type": "Polygon", "coordinates": [ [ [ 398527.568667344865389, 3783530.417090539354831 ], [ 398527.263479145476595, 3783530.111902339849621 ], [ 398526.9582909460878, 3783530.111902339849621 ], [ 398526.9582909460878, 3783529.501525940839201 ], [ 398526.653102746699005, 3783529.196337741799653 ], [ 398526.653102746699005, 3783526.754832146689296 ], [ 398526.9582909460878, 3783526.449643947184086 ], [ 398526.9582909460878, 3783526.144455747678876 ], [ 398527.568667344865389, 3783525.534079349134117 ], [ 398527.568667344865389, 3783525.228891149628907 ], [ 398529.399796541198157, 3783523.397761953063309 ], [ 398529.704984740586951, 3783523.397761953063309 ], [ 398530.010172939975746, 3783523.092573754023761 ], [ 398530.315361139364541, 3783523.092573754023761 ], [ 398530.620549338753335, 3783522.787385554518551 ], [ 398530.620549338753335, 3783522.482197355013341 ], [ 398531.230925737530924, 3783521.871820956468582 ], [ 398531.536113936919719, 3783521.871820956468582 ], [ 398531.841302136308514, 3783521.566632756963372 ], [ 398533.062054933863692, 3783521.566632756963372 ], [ 398533.062054933863692, 3783521.871820956468582 ], [ 398532.756866734474897, 3783522.177009155508131 ], [ 398532.756866734474897, 3783522.482197355013341 ], [ 398532.451678535086103, 3783522.787385554518551 ], [ 398532.451678535086103, 3783523.397761953063309 ], [ 398532.756866734474897, 3783523.702950152568519 ], [ 398533.062054933863692, 3783523.702950152568519 ], [ 398533.367243133252487, 3783524.008138352073729 ], [ 398534.587995930807665, 3783524.008138352073729 ], [ 398535.198372329585254, 3783524.618514750618488 ], [ 398535.198372329585254, 3783525.534079349134117 ], [ 398534.89318413019646, 3783525.839267548173666 ], [ 398534.89318413019646, 3783526.144455747678876 ], [ 398534.587995930807665, 3783526.449643947184086 ], [ 398534.587995930807665, 3783526.754832146689296 ], [ 398534.28280773141887, 3783527.060020345728844 ], [ 398534.28280773141887, 3783527.365208545234054 ], [ 398533.367243133252487, 3783528.280773143284023 ], [ 398533.062054933863692, 3783528.280773143284023 ], [ 398532.756866734474897, 3783528.585961342789233 ], [ 398531.536113936919719, 3783528.585961342789233 ], [ 398531.230925737530924, 3783528.891149542294443 ], [ 398530.620549338753335, 3783528.891149542294443 ], [ 398530.315361139364541, 3783529.196337741799653 ], [ 398530.010172939975746, 3783529.196337741799653 ], [ 398529.399796541198157, 3783529.806714140344411 ], [ 398529.094608341809362, 3783529.806714140344411 ], [ 398528.484231943031773, 3783530.417090539354831 ], [ 398527.568667344865389, 3783530.417090539354831 ] ] ] } },
{ "type": "Feature", "properties": { "confidence": 0.86666876077651978, "class": 1, "regularized": null }, "geometry": { "type": "Polygon", "coordinates": [ [ [ 398759.51169888098957, 3783447.405900305137038 ], [ 398759.51169888098957, 3783447.100712105631828 ], [ 398758.290946083434392, 3783445.87995930807665 ], [ 398758.290946083434392, 3783445.574771109037101 ], [ 398757.985757884045597, 3783445.269582909531891 ], [ 398757.985757884045597, 3783444.048830111976713 ], [ 398763.173957273655105, 3783444.048830111976713 ], [ 398763.173957273655105, 3783444.964394710026681 ], [ 398762.868769074266311, 3783445.269582909531891 ], [ 398762.868769074266311, 3783446.49033570708707 ], [ 398762.563580874877516, 3783446.49033570708707 ], [ 398762.258392675488722, 3783446.79552390659228 ], [ 398761.953204476099927, 3783446.79552390659228 ], [ 398761.648016276711132, 3783447.100712105631828 ], [ 398761.037639877933543, 3783447.100712105631828 ], [ 398760.732451678544749, 3783447.405900305137038 ], [ 398759.51169888098957, 3783447.405900305137038 ] ] ] } },
{ "type": "Feature", "properties": { "confidence": 0.85229235887527466, "class": 1, "regularized": null }, "geometry": { "type": "Polygon", "coordinates": [ [ [ 398526.347914547310211, 3783051.576805696822703 ], [ 398525.432349949143827, 3783050.661241098772734 ], [ 398525.432349949143827, 3783050.050864699762315 ], [ 398525.127161749755032, 3783049.745676500722766 ], [ 398525.127161749755032, 3783049.440488301217556 ], [ 398524.821973550366238, 3783049.135300101712346 ], [ 398524.821973550366238, 3783048.219735503662378 ], [ 398524.516785350977443, 3783047.914547304157168 ], [ 398524.516785350977443, 3783047.304170905612409 ], [ 398524.821973550366238, 3783046.998982706107199 ], [ 398524.821973550366238, 3783046.693794506601989 ], [ 398525.127161749755032, 3783046.693794506601989 ], [ 398527.873855544254184, 3783043.947100711986423 ], [ 398529.094608341809362, 3783043.947100711986423 ], [ 398529.704984740586951, 3783044.557477110996842 ], [ 398529.704984740586951, 3783045.167853509541601 ], [ 398530.92573753814213, 3783046.388606307096779 ], [ 398531.230925737530924, 3783046.388606307096779 ], [ 398531.230925737530924, 3783046.693794506601989 ], [ 398531.536113936919719, 3783046.998982706107199 ], [ 398531.536113936919719, 3783047.609359104651958 ], [ 398530.92573753814213, 3783048.219735503662378 ], [ 398530.92573753814213, 3783048.524923703167588 ], [ 398528.179043743642978, 3783051.271617497317493 ], [ 398527.873855544254184, 3783051.271617497317493 ], [ 398527.568667344865389, 3783051.576805696822703 ], [ 398526.347914547310211, 3783051.576805696822703 ] ] ] } },
{ "type": "Feature", "properties": { "confidence": 0.82535094022750854, "class": 1, "regularized": "rectangle" }, "geometry": { "type": "Polygon", "coordinates": [ [ [ 398436.3125, 3783007.5 ], [ 398450.0625, 3783007.5 ], [ 398450.0625, 3783018.5 ], [ 398436.3125, 3783018.5 ], [ 398436.3125, 3783007.5 ] ] ] } },
{ "type": "Feature", "properties": { "confidence": 0.81118738651275635, "class": 1, "regularized": null }, "geometry": { "type": "Polygon", "coordinates": [ [ [ 398514.750762970477808, 3783149.847405900247395 ], [ 398514.445574771089014, 3783149.542217700742185 ], [ 398514.140386571700219, 3783149.542217700742185 ], [ 398514.140386571700219, 3783149.237029501702636 ], [ 398513.835198372311424, 3783148.931841302197427 ], [ 398513.835198372311424, 3783148.016276704147458 ], [ 398514.140386571700219, 3783147.711088504642248 ], [ 398514.140386571700219, 3783142.522889114916325 ], [ 398514.750762970477808, 3783141.912512716371566 ], [ 398515.361139369255397, 3783141.912512716371566 ], [ 398515.971515768032987, 3783141.302136317361146 ], [ 398519.328585961367935, 3783141.302136317361146 ], [ 398519.63377416075673, 3783141.607324516866356 ], [ 398519.938962360145524, 3783141.607324516866356 ], [ 398520.549338758923113, 3783142.217700915411115 ], [ 398520.549338758923113, 3783142.522889114916325 ], [ 398521.770091556478292, 3783143.743641912471503 ], [ 398521.770091556478292, 3783145.574771109037101 ], [ 398521.464903357089497, 3783145.87995930807665 ], [ 398521.464903357089497, 3783146.18514750758186 ], [ 398520.854526958311908, 3783146.79552390659228 ], [ 398520.854526958311908, 3783147.100712105631828 ], [ 398520.244150559534319, 3783147.711088504642248 ], [ 398520.244150559534319, 3783148.321464903187007 ], [ 398519.938962360145524, 3783148.626653102692217 ], [ 398519.938962360145524, 3783148.931841302197427 ], [ 398519.63377416075673, 3783148.931841302197427 ], [ 398519.02339776197914, 3783149.542217700742185 ], [ 398518.107833163812757, 3783149.542217700742185 ], [ 398517.802644964365754, 3783149.847405900247395 ], [ 398514.750762970477808, 3783149.847405900247395 ] ] ] } },
{ "type": "Feature", "properties": { "confidence": 0.79934000968933105, "class": 1, "regularized": null }, "geometry": { "type": "Polygon", "coordinates": [ [ [ 398698.168870803667232, 3783329.298067141324282 ], [ 398697.863682604278438, 3783328.992878941819072 ], [ 398697.558494404889643, 3783328.992878941819072 ], [ 398696.948118006112054, 3783328.382502543274313 ], [ 398696.948118006112054, 3783328.077314343769103 ], [ 398696.642929806723259, 3783327.772126144263893 ], [ 398696.642929806723259, 3783326.856561546213925 ], [ 398702.441505595110357, 3783326.856561546213925 ], [ 398702.441505595110357, 3783327.161749745719135 ], [ 398701.831129196332768, 3783327.772126144263893 ], [ 398701.525940996943973, 3783327.772126144263893 ], [ 398701.220752797555178, 3783328.077314343769103 ], [ 398701.220752797555178, 3783328.382502543274313 ], [ 398700.610376398777589, 3783328.992878941819072 ], [ 398700.305188199388795, 3783328.992878941819072 ], [ 398700.0, 3783329.298067141324282 ], [ 398698.168870803667232, 3783329.298067141324282 ] ] ] } },
{ "type": "Feature", "properties": { "confidence": 0.70860201120376587, "class": 1, "regularized": null }, "geometry": { "type": "Polygon", "coordinates": [ [ [ 398436.927772126160562, 3783459.613428280688822 ], [ 398436.622583926771767, 3783459.308240081183612 ], [ 398436.622583926771767, 3783459.003051882144064 ], [ 398436.317395727382973, 3783458.697863682638854 ], [ 398436.317395727382973, 3783458.087487283628434 ], [ 398436.622583926771767, 3783457.782299084588885 ], [ 398436.622583926771767, 3783454.12004069192335 ], [ 398436.317395727382973, 3783453.81485249241814 ], [ 398436.317395727382973, 3783451.373346897307783 ], [ 398436.622583926771767, 3783451.068158697802573 ], [ 398436.622583926771767, 3783450.762970498297364 ], [ 398436.927772126160562, 3783450.457782299257815 ], [ 398439.064089521882124, 3783450.457782299257815 ], [ 398439.369277721270919, 3783450.762970498297364 ], [ 398439.674465920659713, 3783450.762970498297364 ], [ 398439.979654120048508, 3783451.068158697802573 ], [ 398440.590030518826097, 3783451.068158697802573 ], [ 398440.895218718214892, 3783451.373346897307783 ], [ 398441.810783316381276, 3783451.373346897307783 ], [ 398441.810783316381276, 3783451.678535096812993 ], [ 398442.421159715158865, 3783452.288911495357752 ], [ 398442.421159715158865, 3783452.594099694862962 ], [ 398443.031536113936454, 3783453.20447609340772 ], [ 398443.947100712102838, 3783453.20447609340772 ], [ 398443.947100712102838, 3783454.12004069192335 ], [ 398443.641912512714043, 3783454.425228890962899 ], [ 398443.641912512714043, 3783454.730417090468109 ], [ 398443.336724313325249, 3783455.035605289973319 ], [ 398443.336724313325249, 3783455.340793489478528 ], [ 398443.031536113936454, 3783455.645981688518077 ], [ 398443.031536113936454, 3783455.951169888023287 ], [ 398442.726347914547659, 3783456.256358087528497 ], [ 398442.726347914547659, 3783456.561546287033707 ], [ 398442.421159715158865, 3783456.866734486073256 ], [ 398442.421159715158865, 3783457.171922685578465 ], [ 398441.810783316381276, 3783457.782299084588885 ], [ 398441.505595116992481, 3783457.782299084588885 ], [ 398441.200406917603686, 3783458.087487283628434 ], [ 398440.590030518826097, 3783458.087487283628434 ], [ 398440.284842319437303, 3783458.392675483133644 ], [ 398439.979654120048508, 3783458.392675483133644 ], [ 398439.674465920659713, 3783458.697863682638854 ], [ 398439.369277721270919, 3783458.697863682638854 ], [ 398438.75890132249333, 3783459.308240081183612 ], [ 398438.14852492371574, 3783459.308240081183612 ], [ 398437.843336724326946, 3783459.613428280688822 ], [ 398436.927772126160562, 3783459.613428280688822 ] ] ] } },
{ "type": "Feature", "properties": { "confidence": 0.66629546880722046, "class": 1, "regularized": null }, "geometry": { "type": "Polygon", "coordinates": [ [ [ 398801.017293997982051, 3783524.618514750618488 ], [ 398800.712105798593257, 3783524.313326551578939 ], [ 398800.101729399815667, 3783524.313326551578939 ], [ 398799.796541200426873, 3783524.008138352073729 ], [ 398799.186164801649284, 3783524.008138352073729 ], [ 398798.880976602260489, 3783523.702950152568519 ], [ 398798.2706002034829, 3783523.702950152568519 ], [ 398797.965412004094105, 3783523.397761953063309 ], [ 398797.355035605316516, 3783523.397761953063309 ], [ 398797.355035605316516, 3783523.092573754023761 ], [ 398797.049847405927721, 3783522.787385554518551 ], [ 398797.049847405927721, 3783522.177009155508131 ], [ 398797.355035605316516, 3783521.871820956468582 ], [ 398797.355035605316516, 3783519.430315361358225 ], [ 398797.965412004094105, 3783518.819938962347806 ], [ 398798.2706002034829, 3783518.819938962347806 ], [ 398798.880976602260489, 3783518.209562563803047 ], [ 398799.491353001038078, 3783518.209562563803047 ], [ 398799.796541200426873, 3783517.904374364297837 ], [ 398803.458799593092408, 3783517.904374364297837 ], [ 398803.763987792481203, 3783518.209562563803047 ], [ 398804.374364191258792, 3783518.209562563803047 ], [ 398804.679552390647586, 3783518.514750762842596 ], [ 398804.679552390647586, 3783519.735503560397774 ], [ 398804.374364191258792, 3783520.040691759902984 ], [ 398804.374364191258792, 3783520.956256357952952 ], [ 398804.069175991869997, 3783521.261444557458162 ], [ 398804.069175991869997, 3783523.702950152568519 ], [ 398803.153611393703613, 3783524.618514750618488 ], [ 398801.017293997982051, 3783524.618514750618488 ] ] ] } },
{ "type": "Feature", "properties": { "confidence": 0.63464552164077759, "class": 1, "regularized": null }, "geometry": { "type": "Polygon", "coordinates": [ [ [ 398756.459816887101624, 3783351.881993896327913 ], [ 398756.15462868771283, 3783351.576805696822703 ], [ 398753.102746693766676, 3783351.576805696822703 ], [ 398752.797558494377881, 3783351.271617497317493 ], [ 398752.797558494377881, 3783347.609359104651958 ], [ 398753.102746693766676, 3783347.304170905612409 ], [ 398753.102746693766676, 3783346.998982706107199 ], [ 398753.40793489315547, 3783346.998982706107199 ], [ 398753.713123092602473, 3783346.693794506601989 ], [ 398753.713123092602473, 3783346.388606307096779 ], [ 398754.323499491380062, 3783346.388606307096779 ], [ 398754.628687690768857, 3783346.083418108057231 ], [ 398754.933875890157651, 3783346.388606307096779 ], [ 398755.239064089546446, 3783346.388606307096779 ], [ 398757.070193285879213, 3783348.219735503662378 ], [ 398757.375381485268008, 3783348.219735503662378 ], [ 398757.375381485268008, 3783348.524923703167588 ], [ 398757.985757884045597, 3783349.135300101712346 ], [ 398757.985757884045597, 3783350.661241098772734 ], [ 398757.680569684656803, 3783350.966429298277944 ], [ 398757.680569684656803, 3783351.271617497317493 ], [ 398757.375381485268008, 3783351.271617497317493 ], [ 398756.765005086490419, 3783351.881993896327913 ], [ 398756.459816887101624, 3783351.881993896327913 ] ] ] } },
{ "type": "Feature", "properties": { "confidence": 0.62888801097869873, "class": 1, "regularized": null }, "geometry": { "type": "Polygon", "coordinates": [ [ [ 398517.192268565588165, 3783085.757884028367698 ], [ 398517.192268565588165, 3783079.654120040591806 ], [ 398517.49745676497696, 3783079.654120040591806 ], [ 398517.802644964365754, 3783079.348931841086596 ], [ 398518.107833163812757, 3783079.348931841086596 ], [ 398518.413021363201551, 3783079.043743642047048 ], [ 398519.328585961367935, 3783079.043743642047048 ], [ 398519.938962360145524, 3783079.654120040591806 ], [ 398520.244150559534319, 3783079.654120040591806 ], [ 398520.549338758923113, 3783079.959308240097016 ], [ 398522.99084435403347, 3783079.959308240097016 ], [ 398522.99084435403347, 3783080.569684638641775 ], [ 398523.296032553422265, 3783080.874872838146985 ], [ 398522.99084435403347, 3783081.180061037652194 ], [ 398522.99084435403347, 3783082.400813835207373 ], [ 398522.685656154644676, 3783082.706002034712583 ], [ 398522.685656154644676, 3783083.316378433257341 ], [ 398521.770091556478292, 3783084.23194303130731 ], [ 398521.159715157700703, 3783084.23194303130731 ], [ 398520.854526958311908, 3783084.53713123081252 ], [ 398520.244150559534319, 3783084.53713123081252 ], [ 398519.63377416075673, 3783085.14750762982294 ], [ 398519.328585961367935, 3783085.14750762982294 ], [ 398519.02339776197914, 3783085.452695828862488 ], [ 398518.718209562590346, 3783085.452695828862488 ], [ 398518.413021363201551, 3783085.757884028367698 ], [ 398517.192268565588165, 3783085.757884028367698 ] ] ] } },
{ "type": "Feature", "properties": { "confidence": 0.62111353874206543, "class": 1, "regularized": null }, "geometry": { "type": "Polygon", "coordinates": [ [ [ 398419.837232960329857, 3783190.437436419073492 ], [ 398419.532044760941062, 3783190.132248219568282 ], [ 398419.226856561552268, 3783190.132248219568282 ], [ 398418.921668362163473, 3783189.827060020528734 ], [ 398418.616480162774678, 3783189.827060020528734 ], [ 398418.311291963385884, 3783189.521871821023524 ], [ 398418.006103763997089, 3783189.521871821023524 ], [ 398417.3957273652195, 3783188.911495422013104 ], [ 398417.090539165830705, 3783188.911495422013104 ], [ 398417.090539165830705, 3783188.606307222973555 ], [ 398416.785350966441911, 3783188.301119023468345 ], [ 398416.480162767053116, 3783188.301119023468345 ], [ 398415.869786368275527, 3783187.690742624457926 ], [ 398415.564598168886732, 3783187.690742624457926 ], [ 398415.259409969497938, 3783187.385554425418377 ], [ 398414.954221770109143, 3783187.385554425418377 ], [ 398414.649033570720349, 3783187.080366225913167 ], [ 398414.649033570720349, 3783186.775178026407957 ], [ 398414.038657171942759, 3783186.164801627863199 ], [ 398414.038657171942759, 3783185.249237029347569 ], [ 398414.343845371331554, 3783184.94404883030802 ], [ 398414.649033570720349, 3783184.94404883030802 ], [ 398414.954221770109143, 3783184.63886063080281 ], [ 398417.700915564608295, 3783184.63886063080281 ], [ 398418.006103763997089, 3783184.94404883030802 ], [ 398418.921668362163473, 3783184.94404883030802 ], [ 398419.226856561552268, 3783185.249237029347569 ], [ 398421.668362156662624, 3783185.249237029347569 ], [ 398421.973550356051419, 3783185.554425228852779 ], [ 398422.583926754829008, 3783185.554425228852779 ], [ 398422.889114954217803, 3783185.859613428357989 ], [ 398423.499491352995392, 3783185.859613428357989 ], [ 398423.804679552384187, 3783186.164801627863199 ], [ 398423.804679552384187, 3783186.469989826902747 ], [ 398424.109867751772981, 3783186.775178026407957 ], [ 398424.109867751772981, 3783187.690742624457926 ], [ 398423.804679552384187, 3783187.995930823963135 ], [ 398423.804679552384187, 3783188.301119023468345 ], [ 398423.499491352995392, 3783188.606307222973555 ], [ 398423.499491352995392, 3783188.911495422013104 ], [ 398422.278738555440214, 3783190.132248219568282 ], [ 398421.973550356051419, 3783190.132248219568282 ], [ 398421.668362156662624, 3783190.437436419073492 ], [ 398419.837232960329857, 3783190.437436419073492 ] ] ] } },
{ "type": "Feature", "properties": { "confidence": 0.61519408226013184, "class": 1, "regularized": null }, "geometry": { "type": "Polygon", "coordinates": [ [ [ 398951.169888097676449, 3783095.523906408809125 ], [ 398950.864699898287654, 3783095.218718209769577 ], [ 398950.559511698898859, 3783095.218718209769577 ], [ 398950.559511698898859, 3783094.913530010264367 ], [ 398949.94913530012127, 3783094.303153611253947 ], [ 398949.94913530012127, 3783093.997965412214398 ], [ 398949.643947100732476, 3783093.692777212709188 ], [ 398949.643947100732476, 3783092.47202441515401 ], [ 398955.442522889119573, 3783092.47202441515401 ], [ 398955.442522889119573, 3783092.77721261465922 ], [ 398955.137334689730778, 3783093.082400813698769 ], [ 398955.137334689730778, 3783093.692777212709188 ], [ 398954.832146490341984, 3783093.997965412214398 ], [ 398954.832146490341984, 3783094.303153611253947 ], [ 398953.9165818921756, 3783095.218718209769577 ], [ 398953.611393692786805, 3783095.218718209769577 ], [ 398953.306205493398011, 3783095.523906408809125 ], [ 398951.169888097676449, 3783095.523906408809125 ] ] ] } },
{ "type": "Feature", "properties": { "confidence": 0.60609811544418335, "class": 1, "regularized": null }, "geometry": { "type": "Polygon", "coordinates": [ [ [ 398557.782299084414262, 3783051.881993896327913 ], [ 398556.866734486247879, 3783050.966429298277944 ], [ 398556.561546286859084, 3783050.966429298277944 ], [ 398555.340793489303906, 3783049.745676500722766 ], [ 398555.340793489303906, 3783049.440488301217556 ], [ 398555.035605289915111, 3783049.135300101712346 ], [ 398555.035605289915111, 3783048.830111902207136 ], [ 398554.730417090526316, 3783048.524923703167588 ], [ 398554.730417090526316, 3783047.914547304157168 ], [ 398555.035605289915111, 3783047.609359104651958 ], [ 398555.035605289915111, 3783047.304170905612409 ], [ 398555.340793489303906, 3783046.998982706107199 ], [ 398555.340793489303906, 3783046.388606307096779 ], [ 398555.951169888081495, 3783045.778229908552021 ], [ 398559.308240081358235, 3783045.778229908552021 ], [ 398560.223804679524619, 3783046.693794506601989 ], [ 398560.223804679524619, 3783046.998982706107199 ], [ 398560.528992878913414, 3783047.304170905612409 ], [ 398560.528992878913414, 3783047.914547304157168 ], [ 398560.834181078360416, 3783048.219735503662378 ], [ 398560.834181078360416, 3783048.830111902207136 ], [ 398561.139369277749211, 3783049.135300101712346 ], [ 398561.139369277749211, 3783049.745676500722766 ], [ 398560.834181078360416, 3783050.050864699762315 ], [ 398560.834181078360416, 3783050.356052899267524 ], [ 398559.308240081358235, 3783051.881993896327913 ], [ 398557.782299084414262, 3783051.881993896327913 ] ] ] } },
{ "type": "Feature", "properties": { "confidence": 0.59454965591430664, "class": 1, "regularized": null }, "geometry": { "type": "Polygon", "coordinates": [ [ [ 398649.338758901343681, 3783017.700915564782917 ], [ 398649.033570701954886, 3783017.395727365277708 ], [ 398647.812817904399708, 3783017.395727365277708 ], [ 398647.507629705010913, 3783017.090539165772498 ], [ 398646.897253306233324, 3783017.090539165772498 ], [ 398646.59206510684453, 3783016.785350966267288 ], [ 398645.981688708008733, 3783016.785350966267288 ], [ 398645.676500508619938, 3783016.480162767227739 ], [ 398645.371312309231143, 3783016.480162767227739 ], [ 398645.066124109842349, 3783016.174974567722529 ], [ 398644.45574771106476, 3783016.174974567722529 ], [ 398644.150559511675965, 3783015.869786368217319 ], [ 398643.84537131228717, 3783015.869786368217319 ], [ 398642.624618514731992, 3783014.649033570662141 ], [ 398642.624618514731992, 3783014.343845371156931 ], [ 398642.319430315343197, 3783014.038657172117382 ], [ 398642.319430315343197, 3783013.733468972612172 ], [ 398642.014242115954403, 3783013.428280773106962 ], [ 398642.014242115954403, 3783013.123092573601753 ], [ 398641.098677517788019, 3783012.207527975551784 ], [ 398641.098677517788019, 3783011.597151577007025 ], [ 398640.793489318399224, 3783011.291963377501816 ], [ 398640.793489318399224, 3783008.850457782391459 ], [ 398641.098677517788019, 3783008.545269582886249 ], [ 398641.098677517788019, 3783007.93489318434149 ], [ 398641.403865717176814, 3783007.62970498483628 ], [ 398643.84537131228717, 3783007.62970498483628 ], [ 398644.150559511675965, 3783007.93489318434149 ], [ 398644.760935910453554, 3783007.93489318434149 ], [ 398645.066124109842349, 3783008.240081383381039 ], [ 398645.676500508619938, 3783008.240081383381039 ], [ 398645.981688708008733, 3783008.545269582886249 ], [ 398646.286876907397527, 3783008.545269582886249 ], [ 398646.59206510684453, 3783008.850457782391459 ], [ 398647.202441505622119, 3783008.850457782391459 ], [ 398647.507629705010913, 3783009.155645981896669 ], [ 398648.728382502566092, 3783009.155645981896669 ], [ 398649.033570701954886, 3783009.460834180936217 ], [ 398649.643947100732476, 3783009.460834180936217 ], [ 398650.254323499510065, 3783010.071210579946637 ], [ 398650.559511698898859, 3783010.071210579946637 ], [ 398650.559511698898859, 3783010.681586978491396 ], [ 398650.864699898287654, 3783010.986775177996606 ], [ 398650.864699898287654, 3783014.343845371156931 ], [ 398650.559511698898859, 3783014.649033570662141 ], [ 398650.559511698898859, 3783017.090539165772498 ], [ 398650.254323499510065, 3783017.395727365277708 ], [ 398649.643947100732476, 3783017.395727365277708 ], [ 398649.338758901343681, 3783017.700915564782917 ] ] ] } },
{ "type": "Feature", "properties": { "confidence": 0.58251124620437622, "class": 1, "regularized": null }, "geometry": { "type": "Polygon", "coordinates": [ [ [ 398837.029501525918022, 3783212.410986775066704 ], [ 398836.724313326529227, 3783212.105798575561494 ], [ 398835.808748728362843, 3783212.105798575561494 ], [ 398835.503560528974049, 3783211.800610376521945 ], [ 398835.198372329585254, 3783211.800610376521945 ], [ 398834.89318413019646, 3783211.495422177016735 ], [ 398834.587995930807665, 3783211.495422177016735 ], [ 398834.28280773141887, 3783211.190233977511525 ], [ 398833.672431332641281, 3783211.190233977511525 ], [ 398833.367243133252487, 3783210.885045778006315 ], [ 398833.062054933863692, 3783210.885045778006315 ], [ 398832.451678535086103, 3783210.274669379461557 ], [ 398832.451678535086103, 3783209.664292980451137 ], [ 398843.438453713140916, 3783209.664292980451137 ], [ 398843.438453713140916, 3783210.579857578966767 ], [ 398843.133265513752121, 3783210.885045778006315 ], [ 398842.828077314363327, 3783210.885045778006315 ], [ 398842.522889114974532, 3783211.190233977511525 ], [ 398841.912512716196943, 3783211.190233977511525 ], [ 398841.607324516808148, 3783211.495422177016735 ], [ 398840.996948118030559, 3783211.495422177016735 ], [ 398840.691759918641765, 3783211.800610376521945 ], [ 398839.471007121086586, 3783211.800610376521945 ], [ 398839.165818921639584, 3783212.105798575561494 ], [ 398838.555442522861995, 3783212.105798575561494 ], [ 398838.2502543234732, 3783212.410986775066704 ], [ 398837.029501525918022, 3783212.410986775066704 ] ] ] } },
{ "type": "Feature", "properties": { "confidence": 0.52167493104934692, "class": 1, "regularized": null }, "geometry": { "type": "Polygon", "coordinates": [ [ [ 398584.638860630744603, 3783124.516785351093858 ], [ 398584.333672431355808, 3783124.211597151588649 ], [ 398583.723296032578219, 3783124.211597151588649 ], [ 398582.807731434411835, 3783123.29603255353868 ], [ 398582.807731434411835, 3783122.99084435403347 ], [ 398582.50254323502304, 3783122.68565615452826 ], [ 398582.50254323502304, 3783122.38046795502305 ], [ 398582.197355035634246, 3783122.075279755983502 ], [ 398582.197355035634246, 3783121.159715157467872 ], [ 398581.892166836187243, 3783120.854526958428323 ], [ 398581.892166836187243, 3783119.633774160873145 ], [ 398581.586978636798449, 3783119.328585961367935 ], [ 398581.586978636798449, 3783118.718209562357515 ], [ 398581.281790437409654, 3783118.413021363317966 ], [ 398581.281790437409654, 3783117.192268565762788 ], [ 398581.892166836187243, 3783116.581892166752368 ], [ 398582.197355035634246, 3783116.581892166752368 ], [ 398582.50254323502304, 3783116.276703967247158 ], [ 398586.164801627688576, 3783116.276703967247158 ], [ 398586.46998982707737, 3783116.581892166752368 ], [ 398586.46998982707737, 3783116.887080366257578 ], [ 398586.775178026466165, 3783117.192268565762788 ], [ 398586.775178026466165, 3783117.802644964307547 ], [ 398587.080366225854959, 3783118.107833163812757 ], [ 398587.080366225854959, 3783118.718209562357515 ], [ 398587.385554425243754, 3783119.023397761862725 ], [ 398587.385554425243754, 3783123.601220752578229 ], [ 398587.080366225854959, 3783123.906408952083439 ], [ 398586.775178026466165, 3783123.906408952083439 ], [ 398586.46998982707737, 3783124.211597151588649 ], [ 398585.859613428299781, 3783124.211597151588649 ], [ 398585.554425228910986, 3783124.516785351093858 ], [ 398584.638860630744603, 3783124.516785351093858 ] ] ] } },
{ "type": "Feature", "properties": { "confidence": 0.5112578272819519, "class": 1, "regularized": null }, "geometry": { "type": "Polygon", "coordinates": [ [ [ 398880.671414038632065, 3783470.905391658190638 ], [ 398880.061037639854476, 3783470.295015259180218 ], [ 398879.755849440465681, 3783470.295015259180218 ], [ 398879.145473041688092, 3783469.684638860635459 ], [ 398878.840284842299297, 3783469.684638860635459 ], [ 398877.619532044744119, 3783468.463886063080281 ], [ 398877.314343845355324, 3783468.463886063080281 ], [ 398876.703967446577735, 3783467.853509664069861 ], [ 398876.703967446577735, 3783467.548321465030313 ], [ 398876.398779247188941, 3783467.243133265525103 ], [ 398876.398779247188941, 3783466.937945066019893 ], [ 398876.703967446577735, 3783466.632756866514683 ], [ 398876.703967446577735, 3783466.327568667475134 ], [ 398877.314343845355324, 3783465.717192268464714 ], [ 398877.924720244132914, 3783465.717192268464714 ], [ 398878.229908443521708, 3783465.412004068959504 ], [ 398879.145473041688092, 3783465.412004068959504 ], [ 398879.755849440465681, 3783466.022380467969924 ], [ 398880.36622583924327, 3783466.022380467969924 ], [ 398880.671414038632065, 3783466.327568667475134 ], [ 398881.281790437409654, 3783466.327568667475134 ], [ 398881.892166836187243, 3783466.937945066019893 ], [ 398882.197355035634246, 3783466.937945066019893 ], [ 398882.807731434411835, 3783467.548321465030313 ], [ 398882.807731434411835, 3783467.853509664069861 ], [ 398883.11291963380063, 3783468.158697863575071 ], [ 398883.11291963380063, 3783470.600203458685428 ], [ 398882.807731434411835, 3783470.905391658190638 ], [ 398880.671414038632065, 3783470.905391658190638 ] ] ] } },
{ "type": "Feature", "properties": { "confidence": 0.51018321514129639, "class": 1, "regularized": null }, "geometry": { "type": "Polygon", "coordinates": [ [ [ 398910.885045778239146, 3783525.534079349134117 ], [ 398910.579857578850351, 3783525.228891149628907 ], [ 398910.274669379461557, 3783525.228891149628907 ], [ 398909.664292980683967, 3783524.618514750618488 ], [ 398909.359104781295173, 3783524.618514750618488 ], [ 398909.053916581906378, 3783524.313326551578939 ], [ 398908.748728382517584, 3783524.313326551578939 ], [ 398908.138351983739994, 3783523.702950152568519 ], [ 398907.8331637843512, 3783523.702950152568519 ], [ 398907.8331637843512, 3783523.397761953063309 ], [ 398907.222787385573611, 3783522.787385554518551 ], [ 398907.222787385573611, 3783522.177009155508131 ], [ 398907.527975584962405, 3783521.871820956468582 ], [ 398907.527975584962405, 3783521.261444557458162 ], [ 398907.8331637843512, 3783520.956256357952952 ], [ 398907.8331637843512, 3783520.651068158913404 ], [ 398908.138351983739994, 3783520.651068158913404 ], [ 398908.443540183128789, 3783520.345879959408194 ], [ 398908.443540183128789, 3783520.040691759902984 ], [ 398909.053916581906378, 3783519.430315361358225 ], [ 398909.359104781295173, 3783519.430315361358225 ], [ 398909.664292980683967, 3783519.125127161853015 ], [ 398909.969481180072762, 3783519.125127161853015 ], [ 398910.274669379461557, 3783518.819938962347806 ], [ 398910.885045778239146, 3783518.819938962347806 ], [ 398910.885045778239146, 3783519.125127161853015 ], [ 398911.19023397762794, 3783519.430315361358225 ], [ 398912.716174974571913, 3783519.430315361358225 ], [ 398913.021363173960708, 3783519.735503560397774 ], [ 398913.631739572738297, 3783519.735503560397774 ], [ 398913.936927772127092, 3783520.040691759902984 ], [ 398914.242115971515886, 3783520.040691759902984 ], [ 398914.242115971515886, 3783520.651068158913404 ], [ 398914.547304170904681, 3783520.956256357952952 ], [ 398914.242115971515886, 3783521.261444557458162 ], [ 398914.242115971515886, 3783523.397761953063309 ], [ 398913.936927772127092, 3783523.702950152568519 ], [ 398913.936927772127092, 3783524.008138352073729 ], [ 398912.410986775183119, 3783525.534079349134117 ], [ 398910.885045778239146, 3783525.534079349134117 ] ] ] } },
{ "type": "Feature", "properties": { "confidence": 0.49762615561485291, "class": 1, "regularized": null }, "geometry": { "type": "Polygon", "coordinates": [ [ [ 398804.984740590036381, 3783188.911495422013104 ], [ 398804.679552390647586, 3783188.606307222973555 ], [ 398804.679552390647586, 3783188.301119023468345 ], [ 398804.374364191258792, 3783187.995930823963135 ], [ 398804.374364191258792, 3783187.385554425418377 ], [ 398804.069175991869997, 3783187.080366225913167 ], [ 398804.069175991869997, 3783186.469989826902747 ], [ 398804.374364191258792, 3783186.164801627863199 ], [ 398804.374364191258792, 3783185.249237029347569 ], [ 398804.679552390647586, 3783184.94404883030802 ], [ 398804.679552390647586, 3783181.586978636682034 ], [ 398804.374364191258792, 3783181.281790437642485 ], [ 398804.984740590036381, 3783180.671414038632065 ], [ 398804.984740590036381, 3783180.366225839126855 ], [ 398806.510681586980354, 3783178.840284842532128 ], [ 398806.815869786369149, 3783178.840284842532128 ], [ 398807.121057985757943, 3783178.535096643026918 ], [ 398809.5625635808683, 3783178.535096643026918 ], [ 398809.867751780257095, 3783178.840284842532128 ], [ 398809.867751780257095, 3783179.450661241076887 ], [ 398810.172939979645889, 3783179.755849440582097 ], [ 398810.172939979645889, 3783180.061037640087306 ], [ 398810.478128179034684, 3783180.366225839126855 ], [ 398810.478128179034684, 3783180.671414038632065 ], [ 398810.783316378423478, 3783180.976602238137275 ], [ 398810.783316378423478, 3783181.586978636682034 ], [ 398811.088504577812273, 3783181.892166836187243 ], [ 398811.088504577812273, 3783183.723296032752842 ], [ 398810.783316378423478, 3783184.02848423179239 ], [ 398810.783316378423478, 3783184.94404883030802 ], [ 398810.478128179034684, 3783185.249237029347569 ], [ 398810.478128179034684, 3783185.554425228852779 ], [ 398810.172939979645889, 3783185.859613428357989 ], [ 398810.172939979645889, 3783186.164801627863199 ], [ 398809.5625635808683, 3783186.775178026407957 ], [ 398809.5625635808683, 3783187.385554425418377 ], [ 398808.952187182090711, 3783187.995930823963135 ], [ 398808.646998982701916, 3783187.995930823963135 ], [ 398808.341810783313122, 3783188.301119023468345 ], [ 398807.731434384535532, 3783188.301119023468345 ], [ 398807.426246185146738, 3783188.606307222973555 ], [ 398806.510681586980354, 3783188.606307222973555 ], [ 398806.205493387591559, 3783188.911495422013104 ], [ 398804.984740590036381, 3783188.911495422013104 ] ] ] } },
{ "type": "Feature", "properties": { "confidence": 0.49251976609230042, "class": 1, "regularized": null }, "geometry": { "type": "Polygon", "coordinates": [ [ [ 398775.076297049876302, 3783362.868769074324518 ], [ 398775.076297049876302, 3783361.03763987775892 ], [ 398775.381485249265097, 3783360.732451678719372 ], [ 398775.381485249265097, 3783360.122075279708952 ], [ 398775.686673448653892, 3783360.122075279708952 ], [ 398775.991861648042686, 3783359.816887080203742 ], [ 398776.297049847431481, 3783359.816887080203742 ], [ 398776.602238046820275, 3783359.511698881164193 ], [ 398776.90742624620907, 3783359.511698881164193 ], [ 398777.517802644986659, 3783358.901322482153773 ], [ 398778.128179043764248, 3783358.901322482153773 ], [ 398778.433367243153043, 3783358.596134282648563 ], [ 398780.264496439485811, 3783358.596134282648563 ], [ 398780.264496439485811, 3783360.427263479214162 ], [ 398780.569684638874605, 3783360.732451678719372 ], [ 398780.569684638874605, 3783361.95320447627455 ], [ 398780.264496439485811, 3783362.258392675314099 ], [ 398779.959308240097016, 3783362.258392675314099 ], [ 398779.654120040708221, 3783362.563580874819309 ], [ 398776.90742624620907, 3783362.563580874819309 ], [ 398776.602238046820275, 3783362.868769074324518 ], [ 398775.076297049876302, 3783362.868769074324518 ] ] ] } },
{ "type": "Feature", "properties": { "confidence": 0.47746789455413818, "class": 1, "regularized": null }, "geometry": { "type": "Polygon", "coordinates": [ [ [ 398438.453713123104535, 3783059.816887080203742 ], [ 398438.14852492371574, 3783059.511698881164193 ], [ 398438.14852492371574, 3783058.901322482153773 ], [ 398437.843336724326946, 3783058.596134282648563 ], [ 398437.843336724326946, 3783057.375381485093385 ], [ 398437.538148524938151, 3783057.070193286053836 ], [ 398437.538148524938151, 3783053.102746693883091 ], [ 398437.232960325549357, 3783052.797558494377881 ], [ 398437.232960325549357, 3783049.440488301217556 ], [ 398437.843336724326946, 3783048.830111902207136 ], [ 398439.064089521882124, 3783048.830111902207136 ], [ 398439.369277721270919, 3783048.524923703167588 ], [ 398439.979654120048508, 3783048.524923703167588 ], [ 398440.284842319437303, 3783048.219735503662378 ], [ 398440.895218718214892, 3783048.219735503662378 ], [ 398441.200406917603686, 3783047.914547304157168 ], [ 398442.11597151577007, 3783047.914547304157168 ], [ 398442.421159715158865, 3783047.609359104651958 ], [ 398443.031536113936454, 3783047.609359104651958 ], [ 398443.336724313325249, 3783047.304170905612409 ], [ 398444.862665310269222, 3783047.304170905612409 ], [ 398445.167853509658016, 3783047.609359104651958 ], [ 398445.167853509658016, 3783048.524923703167588 ], [ 398445.473041709046811, 3783048.830111902207136 ], [ 398445.473041709046811, 3783051.576805696822703 ], [ 398445.778229908435605, 3783051.881993896327913 ], [ 398445.778229908435605, 3783053.102746693883091 ], [ 398446.0834181078244, 3783053.407934893388301 ], [ 398446.0834181078244, 3783055.849440488498658 ], [ 398445.778229908435605, 3783056.154628687538207 ], [ 398445.778229908435605, 3783057.070193286053836 ], [ 398445.473041709046811, 3783057.375381485093385 ], [ 398445.473041709046811, 3783057.985757884103805 ], [ 398445.167853509658016, 3783058.290946083609015 ], [ 398445.167853509658016, 3783058.596134282648563 ], [ 398444.862665310269222, 3783058.596134282648563 ], [ 398444.252288911491632, 3783059.206510681658983 ], [ 398443.336724313325249, 3783059.206510681658983 ], [ 398443.031536113936454, 3783059.511698881164193 ], [ 398441.505595116992481, 3783059.511698881164193 ], [ 398441.200406917603686, 3783059.816887080203742 ], [ 398438.453713123104535, 3783059.816887080203742 ] ] ] } },
{ "type": "Feature", "properties": { "confidence": 0.47693359851837158, "class": 1, "regularized": null }, "geometry": { "type": "Polygon", "coordinates": [ [ [ 398438.453713123104535, 3783016.785350966267288 ], [ 398438.14852492371574, 3783016.480162767227739 ], [ 398437.232960325549357, 3783016.480162767227739 ], [ 398436.927772126160562, 3783016.174974567722529 ], [ 398436.622583926771767, 3783016.174974567722529 ], [ 398436.622583926771767, 3783015.869786368217319 ], [ 398436.012207527994178, 3783015.259409969672561 ], [ 398436.012207527994178, 3783014.954221770167351 ], [ 398435.707019328605384, 3783014.649033570662141 ], [ 398435.707019328605384, 3783014.343845371156931 ], [ 398435.401831129216589, 3783014.038657172117382 ], [ 398435.401831129216589, 3783013.428280773106962 ], [ 398435.707019328605384, 3783013.123092573601753 ], [ 398435.707019328605384, 3783011.291963377501816 ], [ 398436.012207527994178, 3783010.986775177996606 ], [ 398436.012207527994178, 3783010.681586978491396 ], [ 398436.317395727382973, 3783010.376398779451847 ], [ 398436.622583926771767, 3783010.376398779451847 ], [ 398436.927772126160562, 3783010.071210579946637 ], [ 398437.538148524938151, 3783010.071210579946637 ], [ 398437.843336724326946, 3783009.766022380441427 ], [ 398439.064089521882124, 3783009.766022380441427 ], [ 398439.369277721270919, 3783009.460834180936217 ], [ 398440.284842319437303, 3783009.460834180936217 ], [ 398440.590030518826097, 3783009.766022380441427 ], [ 398442.11597151577007, 3783009.766022380441427 ], [ 398442.421159715158865, 3783010.071210579946637 ], [ 398443.336724313325249, 3783010.071210579946637 ], [ 398443.641912512714043, 3783010.376398779451847 ], [ 398443.947100712102838, 3783010.376398779451847 ], [ 398444.252288911491632, 3783010.681586978491396 ], [ 398444.252288911491632, 3783010.986775177996606 ], [ 398444.557477110880427, 3783011.291963377501816 ], [ 398444.557477110880427, 3783011.597151577007025 ], [ 398444.862665310269222, 3783011.902339776046574 ], [ 398444.862665310269222, 3783015.564598168712109 ], [ 398444.252288911491632, 3783016.174974567722529 ], [ 398443.336724313325249, 3783016.174974567722529 ], [ 398443.031536113936454, 3783016.480162767227739 ], [ 398443.031536113936454, 3783016.785350966267288 ], [ 398438.453713123104535, 3783016.785350966267288 ] ] ] } },
{ "type": "Feature", "properties": { "confidence": 0.4713483452796936, "class": 1, "regularized": null }, "geometry": { "type": "Polygon", "coordinates": [ [ [ 398635.300101729400922, 3783107.426246185321361 ], [ 398634.994913530012127, 3783107.121057985816151 ], [ 398634.994913530012127, 3783106.815869786310941 ], [ 398634.689725330623332, 3783106.510681586805731 ], [ 398634.384537131234538, 3783106.510681586805731 ], [ 398634.384537131234538, 3783105.595116988755763 ], [ 398634.994913530012127, 3783105.595116988755763 ], [ 398635.300101729400922, 3783105.289928789250553 ], [ 398635.300101729400922, 3783104.679552390705794 ], [ 398635.605289928789716, 3783104.374364191200584 ], [ 398635.605289928789716, 3783104.069175991695374 ], [ 398635.910478128178511, 3783103.763987792655826 ], [ 398635.910478128178511, 3783102.848423194140196 ], [ 398636.215666327567305, 3783102.543234995100647 ], [ 398636.215666327567305, 3783102.238046795595437 ], [ 398636.826042726344895, 3783101.627670396585017 ], [ 398636.826042726344895, 3783101.322482197545469 ], [ 398637.436419125122484, 3783100.712105798535049 ], [ 398637.436419125122484, 3783100.406917599029839 ], [ 398638.351983723288868, 3783099.491353000979871 ], [ 398638.351983723288868, 3783099.186164801474661 ], [ 398638.657171922677662, 3783098.880976602435112 ], [ 398638.657171922677662, 3783098.270600203424692 ], [ 398639.267548321455251, 3783098.270600203424692 ], [ 398639.572736520844046, 3783097.965412003919482 ], [ 398640.793489318399224, 3783097.965412003919482 ], [ 398641.098677517788019, 3783097.660223804879934 ], [ 398641.403865717176814, 3783097.660223804879934 ], [ 398641.709053916565608, 3783097.965412003919482 ], [ 398642.624618514731992, 3783097.965412003919482 ], [ 398642.624618514731992, 3783098.575788402929902 ], [ 398642.929806714120787, 3783098.880976602435112 ], [ 398642.929806714120787, 3783099.79654120048508 ], [ 398642.624618514731992, 3783100.10172939999029 ], [ 398642.624618514731992, 3783100.712105798535049 ], [ 398639.267548321455251, 3783104.069175991695374 ], [ 398639.267548321455251, 3783104.374364191200584 ], [ 398638.046795523900073, 3783105.595116988755763 ], [ 398638.046795523900073, 3783105.900305188260972 ], [ 398637.741607324511278, 3783106.205493387766182 ], [ 398637.741607324511278, 3783106.510681586805731 ], [ 398637.131230925733689, 3783107.121057985816151 ], [ 398636.826042726344895, 3783107.121057985816151 ], [ 398636.5208545269561, 3783107.426246185321361 ], [ 398635.300101729400922, 3783107.426246185321361 ] ] ] } },
{ "type": "Feature", "properties": { "confidence": 0.47060200572013855, "class": 1, "regularized": null }, "geometry": { "type": "Polygon", "coordinates": [ [ [ 398411.902339776221197, 3783056.459816887043417 ], [ 398411.597151576832402, 3783056.154628687538207 ], [ 398411.291963377443608, 3783056.154628687538207 ], [ 398410.681586978607811, 3783055.544252288993448 ], [ 398410.376398779219016, 3783055.544252288993448 ], [ 398410.071210579830222, 3783055.239064089488238 ], [ 398406.103763987775892, 3783055.239064089488238 ], [ 398405.798575788387097, 3783054.933875889983028 ], [ 398405.493387588998303, 3783054.933875889983028 ], [ 398405.188199389609508, 3783054.62868769094348 ], [ 398405.188199389609508, 3783052.797558494377881 ], [ 398405.493387588998303, 3783052.492370294872671 ], [ 398405.493387588998303, 3783052.187182095833123 ], [ 398405.798575788387097, 3783051.881993896327913 ], [ 398406.103763987775892, 3783051.881993896327913 ], [ 398406.408952187164687, 3783051.576805696822703 ], [ 398407.32451678533107, 3783051.576805696822703 ], [ 398407.629704984719865, 3783051.271617497317493 ], [ 398412.512716174998786, 3783051.271617497317493 ], [ 398412.817904374387581, 3783051.576805696822703 ], [ 398415.259409969497938, 3783051.576805696822703 ], [ 398415.564598168886732, 3783051.881993896327913 ], [ 398415.564598168886732, 3783053.71312309242785 ], [ 398415.259409969497938, 3783053.71312309242785 ], [ 398414.954221770109143, 3783054.01831129193306 ], [ 398414.954221770109143, 3783054.32349949143827 ], [ 398413.733468972553965, 3783055.544252288993448 ], [ 398413.733468972553965, 3783055.849440488498658 ], [ 398413.123092573776376, 3783055.849440488498658 ], [ 398412.512716174998786, 3783056.459816887043417 ], [ 398411.902339776221197, 3783056.459816887043417 ] ] ] } },
{ "type": "Feature", "properties": { "confidence": 0.45984482765197754, "class": 1, "regularized": "rectangle" }, "geometry": { "type": "Polygon", "coordinates": [ [ [ 398419.5, 3783145.5 ], [ 398421.8125, 3783131.5 ], [ 398431.4375, 3783133.0 ], [ 398429.125, 3783147.0 ], [ 398419.5, 3783145.5 ] ] ] } },
{ "type": "Feature", "properties": { "confidence": 0.41837102174758911, "class": 1, "regularized": null }, "geometry": { "type": "Polygon", "coordinates": [ [ [ 398906.307222787407227, 3783109.562563580926508 ], [ 398906.307222787407227, 3783108.952187181916088 ], [ 398906.002034588018432, 3783108.646998982876539 ], [ 398906.002034588018432, 3783103.153611393645406 ], [ 398906.307222787407227, 3783103.153611393645406 ], [ 398906.612410986796021, 3783102.848423194140196 ], [ 398907.527975584962405, 3783102.848423194140196 ], [ 398907.527975584962405, 3783109.562563580926508 ], [ 398906.307222787407227, 3783109.562563580926508 ] ] ] } },
{ "type": "Feature", "properties": { "confidence": 0.41649121046066284, "class": 1, "regularized": null }, "geometry": { "type": "Polygon", "coordinates": [ [ [ 398670.091556459839921, 3783333.265513733495027 ], [ 398669.786368260451127, 3783332.960325533989817 ], [ 398669.481180061062332, 3783332.960325533989817 ], [ 398669.481180061062332, 3783332.655137334484607 ], [ 398669.175991861673538, 3783332.349949135445058 ], [ 398669.175991861673538, 3783331.739572736434639 ], [ 398668.870803662284743, 3783331.434384536929429 ], [ 398668.870803662284743, 3783330.82400813838467 ], [ 398668.565615462895948, 3783330.51881993887946 ], [ 398668.565615462895948, 3783329.298067141324282 ], [ 398668.870803662284743, 3783329.298067141324282 ], [ 398669.175991861673538, 3783328.992878941819072 ], [ 398669.175991861673538, 3783327.466937945224345 ], [ 398673.143438453727867, 3783327.466937945224345 ], [ 398673.143438453727867, 3783332.655137334484607 ], [ 398672.838250254339073, 3783332.655137334484607 ], [ 398672.533062054950278, 3783332.960325533989817 ], [ 398672.227873855561484, 3783332.960325533989817 ], [ 398671.922685656172689, 3783333.265513733495027 ], [ 398670.091556459839921, 3783333.265513733495027 ] ] ] } },
{ "type": "Feature", "properties": { "confidence": 0.4119078516960144, "class": 1, "regularized": null }, "geometry": { "type": "Polygon", "coordinates": [ [ [ 398676.195320447615813, 3783329.908443540334702 ], [ 398675.890132248227019, 3783329.603255340829492 ], [ 398675.584944048838224, 3783329.603255340829492 ], [ 398675.27975584944943, 3783329.298067141324282 ], [ 398674.974567650060635, 3783329.298067141324282 ], [ 398674.364191251283046, 3783328.687690742779523 ], [ 398674.364191251283046, 3783328.382502543274313 ], [ 398673.753814852505457, 3783327.772126144263893 ], [ 398673.753814852505457, 3783326.856561546213925 ], [ 398681.383519837225322, 3783326.856561546213925 ], [ 398681.383519837225322, 3783327.466937945224345 ], [ 398681.078331637836527, 3783327.772126144263893 ], [ 398681.078331637836527, 3783328.382502543274313 ], [ 398680.467955239058938, 3783328.992878941819072 ], [ 398680.162767039670143, 3783328.992878941819072 ], [ 398679.857578840281349, 3783329.298067141324282 ], [ 398679.247202441503759, 3783329.298067141324282 ], [ 398678.942014242114965, 3783329.603255340829492 ], [ 398677.721261444559786, 3783329.603255340829492 ], [ 398677.416073245170992, 3783329.908443540334702 ], [ 398676.195320447615813, 3783329.908443540334702 ] ] ] } },
{ "type": "Feature", "properties": { "confidence": 0.38438341021537781, "class": 1, "regularized": null }, "geometry": { "type": "Polygon", "coordinates": [ [ [ 398874.567650050856173, 3783520.651068158913404 ], [ 398874.262461851467378, 3783520.345879959408194 ], [ 398873.957273652078584, 3783520.345879959408194 ], [ 398873.652085452689789, 3783520.040691759902984 ], [ 398873.652085452689789, 3783519.735503560397774 ], [ 398873.346897253300995, 3783519.430315361358225 ], [ 398873.346897253300995, 3783518.819938962347806 ], [ 398873.652085452689789, 3783518.514750762842596 ], [ 398873.652085452689789, 3783517.904374364297837 ], [ 398874.262461851467378, 3783517.293997965287417 ], [ 398874.567650050856173, 3783517.293997965287417 ], [ 398874.872838250244968, 3783516.988809766247869 ], [ 398875.178026449633762, 3783516.988809766247869 ], [ 398875.483214649022557, 3783516.683621566742659 ], [ 398877.314343845355324, 3783516.683621566742659 ], [ 398877.924720244132914, 3783517.293997965287417 ], [ 398878.229908443521708, 3783517.293997965287417 ], [ 398878.535096642910503, 3783517.599186164792627 ], [ 398878.535096642910503, 3783518.819938962347806 ], [ 398877.00915564596653, 3783520.345879959408194 ], [ 398876.093591047800146, 3783520.345879959408194 ], [ 398875.788402848411351, 3783520.651068158913404 ], [ 398874.567650050856173, 3783520.651068158913404 ] ] ] } },
{ "type": "Feature", "properties": { "confidence": 0.37493184208869934, "class": 1, "regularized": null }, "geometry": { "type": "Polygon", "coordinates": [ [ [ 398620.040691759902984, 3783066.531027466990054 ], [ 398619.735503560514189, 3783066.225839267484844 ], [ 398619.430315361125395, 3783066.225839267484844 ], [ 398619.430315361125395, 3783064.394710071384907 ], [ 398619.735503560514189, 3783064.089521871879697 ], [ 398619.735503560514189, 3783063.173957273829728 ], [ 398620.345879959291779, 3783062.563580874819309 ], [ 398620.651068158680573, 3783062.563580874819309 ], [ 398620.956256358069368, 3783062.258392675314099 ], [ 398623.09257375379093, 3783062.258392675314099 ], [ 398623.09257375379093, 3783062.563580874819309 ], [ 398624.618514750734903, 3783064.089521871879697 ], [ 398624.618514750734903, 3783065.615462868940085 ], [ 398624.313326551346108, 3783065.615462868940085 ], [ 398624.008138351957314, 3783065.920651067979634 ], [ 398623.09257375379093, 3783065.920651067979634 ], [ 398622.787385554402135, 3783066.225839267484844 ], [ 398620.956256358069368, 3783066.225839267484844 ], [ 398620.651068158680573, 3783066.531027466990054 ], [ 398620.040691759902984, 3783066.531027466990054 ] ] ] } },
{ "type": "Feature", "properties": { "confidence": 0.36724206805229187, "class": 1, "regularized": null }, "geometry": { "type": "Polygon", "coordinates": [ [ [ 398633.468972533068154, 3783108.341810783371329 ], [ 398633.163784333679359, 3783108.036622583866119 ], [ 398633.163784333679359, 3783107.731434384360909 ], [ 398632.858596134290565, 3783107.426246185321361 ], [ 398632.858596134290565, 3783105.900305188260972 ], [ 398633.163784333679359, 3783105.595116988755763 ], [ 398633.163784333679359, 3783104.984740590211004 ], [ 398633.468972533068154, 3783104.679552390705794 ], [ 398633.468972533068154, 3783104.374364191200584 ], [ 398635.300101729400922, 3783102.543234995100647 ], [ 398635.910478128178511, 3783102.543234995100647 ], [ 398636.5208545269561, 3783101.932858596090227 ], [ 398637.131230925733689, 3783101.932858596090227 ], [ 398638.351983723288868, 3783100.712105798535049 ], [ 398638.351983723288868, 3783100.406917599029839 ], [ 398638.657171922677662, 3783100.406917599029839 ], [ 398638.962360122066457, 3783100.10172939999029 ], [ 398639.877924720232841, 3783100.10172939999029 ], [ 398640.183112919621635, 3783100.406917599029839 ], [ 398640.793489318399224, 3783100.406917599029839 ], [ 398640.793489318399224, 3783101.932858596090227 ], [ 398640.48830111901043, 3783102.238046795595437 ], [ 398640.48830111901043, 3783102.543234995100647 ], [ 398640.183112919621635, 3783102.543234995100647 ], [ 398639.572736520844046, 3783103.153611393645406 ], [ 398639.572736520844046, 3783103.458799593150616 ], [ 398638.962360122066457, 3783104.069175991695374 ], [ 398638.962360122066457, 3783104.374364191200584 ], [ 398638.046795523900073, 3783105.289928789250553 ], [ 398638.046795523900073, 3783105.595116988755763 ], [ 398635.300101729400922, 3783108.341810783371329 ], [ 398633.468972533068154, 3783108.341810783371329 ] ] ] } },
{ "type": "Feature", "properties": { "confidence": 0.3478025496006012, "class": 1, "regularized": null }, "geometry": { "type": "Polygon", "coordinates": [ [ [ 398504.679552390647586, 3783060.732451678719372 ], [ 398504.374364191258792, 3783060.427263479214162 ], [ 398504.069175991869997, 3783060.427263479214162 ], [ 398504.069175991869997, 3783058.290946083609015 ], [ 398503.763987792481203, 3783057.985757884103805 ], [ 398504.069175991869997, 3783057.680569684598595 ], [ 398504.069175991869997, 3783057.375381485093385 ], [ 398504.374364191258792, 3783057.375381485093385 ], [ 398504.679552390647586, 3783057.070193286053836 ], [ 398504.984740590036381, 3783057.070193286053836 ], [ 398505.289928789425176, 3783056.765005086548626 ], [ 398505.59511698881397, 3783056.765005086548626 ], [ 398505.900305188202765, 3783056.459816887043417 ], [ 398507.426246185146738, 3783056.459816887043417 ], [ 398507.426246185146738, 3783057.070193286053836 ], [ 398507.731434384535532, 3783057.375381485093385 ], [ 398507.731434384535532, 3783057.985757884103805 ], [ 398508.036622583924327, 3783058.290946083609015 ], [ 398508.036622583924327, 3783058.901322482153773 ], [ 398508.341810783313122, 3783059.206510681658983 ], [ 398508.341810783313122, 3783059.511698881164193 ], [ 398508.646998982701916, 3783059.816887080203742 ], [ 398508.341810783313122, 3783060.122075279708952 ], [ 398508.341810783313122, 3783060.427263479214162 ], [ 398507.121057985757943, 3783060.427263479214162 ], [ 398506.815869786369149, 3783060.732451678719372 ], [ 398504.679552390647586, 3783060.732451678719372 ] ] ] } },
{ "type": "Feature", "properties": { "confidence": 0.34323087334632874, "class": 1, "regularized": null }, "geometry": { "type": "Polygon", "coordinates": [ [ [ 398752.797558494377881, 3783340.284842319320887 ], [ 398752.492370294989087, 3783339.979654119815677 ], [ 398752.187182095600292, 3783339.979654119815677 ], [ 398752.187182095600292, 3783338.758901322260499 ], [ 398752.492370294989087, 3783338.45371312322095 ], [ 398752.797558494377881, 3783338.45371312322095 ], [ 398753.40793489315547, 3783337.843336724210531 ], [ 398753.713123092602473, 3783337.843336724210531 ], [ 398754.628687690768857, 3783336.927772126160562 ], [ 398755.54425228893524, 3783336.927772126160562 ], [ 398755.849440488324035, 3783336.622583926655352 ], [ 398757.680569684656803, 3783336.622583926655352 ], [ 398757.680569684656803, 3783337.843336724210531 ], [ 398755.849440488324035, 3783339.674465920776129 ], [ 398755.239064089546446, 3783339.674465920776129 ], [ 398754.933875890157651, 3783339.979654119815677 ], [ 398754.323499491380062, 3783339.979654119815677 ], [ 398754.018311291991267, 3783340.284842319320887 ], [ 398752.797558494377881, 3783340.284842319320887 ] ] ] } },
{ "type": "Feature", "properties": { "confidence": 0.33200535178184509, "class": 1, "regularized": null }, "geometry": { "type": "Polygon", "coordinates": [ [ [ 398540.691759918641765, 3783120.854526958428323 ], [ 398540.38657171925297, 3783120.549338758923113 ], [ 398540.081383519864175, 3783120.549338758923113 ], [ 398539.471007121086586, 3783119.938962359912694 ], [ 398539.165818921639584, 3783119.938962359912694 ], [ 398538.860630722250789, 3783119.633774160873145 ], [ 398538.555442522861995, 3783119.633774160873145 ], [ 398538.2502543234732, 3783119.328585961367935 ], [ 398538.2502543234732, 3783119.023397761862725 ], [ 398537.639877924695611, 3783118.413021363317966 ], [ 398537.639877924695611, 3783117.802644964307547 ], [ 398537.334689725306816, 3783117.497456764802337 ], [ 398537.334689725306816, 3783117.192268565762788 ], [ 398537.639877924695611, 3783116.887080366257578 ], [ 398537.639877924695611, 3783115.97151576820761 ], [ 398537.334689725306816, 3783115.6663275687024 ], [ 398537.334689725306816, 3783114.750762970652431 ], [ 398537.029501525918022, 3783114.445574771147221 ], [ 398537.029501525918022, 3783112.614445574581623 ], [ 398537.639877924695611, 3783112.004069176036865 ], [ 398537.945066124084406, 3783112.004069176036865 ], [ 398538.2502543234732, 3783111.698880976531655 ], [ 398538.860630722250789, 3783111.698880976531655 ], [ 398539.471007121086586, 3783111.088504577986896 ], [ 398540.081383519864175, 3783111.088504577986896 ], [ 398540.38657171925297, 3783110.783316378481686 ], [ 398541.912512716196943, 3783110.783316378481686 ], [ 398542.217700915585738, 3783111.088504577986896 ], [ 398542.217700915585738, 3783111.393692777026445 ], [ 398542.522889114974532, 3783111.698880976531655 ], [ 398542.522889114974532, 3783112.309257375542074 ], [ 398542.828077314363327, 3783112.614445574581623 ], [ 398542.828077314363327, 3783112.919633774086833 ], [ 398543.133265513752121, 3783113.224821973592043 ], [ 398543.133265513752121, 3783115.6663275687024 ], [ 398542.828077314363327, 3783115.97151576820761 ], [ 398542.828077314363327, 3783119.938962359912694 ], [ 398542.217700915585738, 3783120.549338758923113 ], [ 398541.912512716196943, 3783120.549338758923113 ], [ 398541.607324516808148, 3783120.854526958428323 ], [ 398540.691759918641765, 3783120.854526958428323 ] ] ] } },
{ "type": "Feature", "properties": { "confidence": 0.30269140005111694, "class": 1, "regularized": null }, "geometry": { "type": "Polygon", "coordinates": [ [ [ 398982.909460834169295, 3783099.186164801474661 ], [ 398982.6042726347805, 3783098.880976602435112 ], [ 398981.383519837225322, 3783098.880976602435112 ], [ 398980.773143438447732, 3783098.270600203424692 ], [ 398980.773143438447732, 3783097.049847405869514 ], [ 398980.467955239058938, 3783096.744659206364304 ], [ 398980.773143438447732, 3783096.439471007324755 ], [ 398980.773143438447732, 3783096.134282807819545 ], [ 398981.078331637836527, 3783095.829094608314335 ], [ 398981.383519837225322, 3783095.829094608314335 ], [ 398981.993896236002911, 3783095.218718209769577 ], [ 398982.299084435391705, 3783095.218718209769577 ], [ 398982.909460834169295, 3783094.608341810759157 ], [ 398982.909460834169295, 3783093.387589013203979 ], [ 398986.876907426223624, 3783093.387589013203979 ], [ 398986.876907426223624, 3783095.218718209769577 ], [ 398986.57171922683483, 3783095.523906408809125 ], [ 398986.57171922683483, 3783097.355035605374724 ], [ 398986.876907426223624, 3783097.660223804879934 ], [ 398986.876907426223624, 3783098.270600203424692 ], [ 398986.57171922683483, 3783098.575788402929902 ], [ 398986.57171922683483, 3783098.880976602435112 ], [ 398985.961342828057241, 3783098.880976602435112 ], [ 398985.656154628668446, 3783099.186164801474661 ], [ 398982.909460834169295, 3783099.186164801474661 ] ] ] } },
{ "type": "Feature", "properties": { "confidence": 0.30208772420883179, "class": 1, "regularized": null }, "geometry": { "type": "Polygon", "coordinates": [ [ [ 398634.384537131234538, 3783059.816887080203742 ], [ 398634.384537131234538, 3783053.71312309242785 ], [ 398634.689725330623332, 3783053.71312309242785 ], [ 398634.689725330623332, 3783054.01831129193306 ], [ 398634.994913530012127, 3783054.32349949143827 ], [ 398634.994913530012127, 3783054.62868769094348 ], [ 398635.605289928789716, 3783055.239064089488238 ], [ 398635.910478128178511, 3783055.239064089488238 ], [ 398636.826042726344895, 3783056.154628687538207 ], [ 398637.131230925733689, 3783056.154628687538207 ], [ 398637.131230925733689, 3783056.459816887043417 ], [ 398637.436419125122484, 3783056.765005086548626 ], [ 398637.436419125122484, 3783058.290946083609015 ], [ 398636.826042726344895, 3783058.901322482153773 ], [ 398636.215666327567305, 3783058.901322482153773 ], [ 398635.910478128178511, 3783059.206510681658983 ], [ 398635.605289928789716, 3783059.206510681658983 ], [ 398635.300101729400922, 3783059.511698881164193 ], [ 398634.994913530012127, 3783059.511698881164193 ], [ 398634.689725330623332, 3783059.816887080203742 ], [ 398634.384537131234538, 3783059.816887080203742 ] ] ] } },
{ "type": "Feature", "properties": { "confidence": 0.29237580299377441, "class": 1, "regularized": null }, "geometry": { "type": "Polygon", "coordinates": [ [ [ 398935.605289928789716, 3783544.455747711006552 ], [ 398935.300101729400922, 3783544.150559511501342 ], [ 398934.994913530012127, 3783544.150559511501342 ], [ 398934.079348931845743, 3783543.234994913451374 ], [ 398934.079348931845743, 3783542.929806713946164 ], [ 398933.774160732456949, 3783542.624618514906615 ], [ 398933.774160732456949, 3783542.014242115896195 ], [ 398933.468972533068154, 3783541.709053916390985 ], [ 398933.468972533068154, 3783540.793489318341017 ], [ 398933.774160732456949, 3783540.488301118835807 ], [ 398933.774160732456949, 3783538.96236012224108 ], [ 398935.605289928789716, 3783538.96236012224108 ], [ 398935.910478128178511, 3783538.65717192273587 ], [ 398936.5208545269561, 3783538.65717192273587 ], [ 398936.826042726344895, 3783538.35198372323066 ], [ 398937.436419125122484, 3783538.35198372323066 ], [ 398937.741607324511278, 3783538.04679552372545 ], [ 398938.962360122066457, 3783538.04679552372545 ], [ 398939.267548321455251, 3783537.741607324685901 ], [ 398939.267548321455251, 3783537.436419125180691 ], [ 398940.183112919621635, 3783537.436419125180691 ], [ 398941.098677517788019, 3783538.35198372323066 ], [ 398941.098677517788019, 3783539.572736520785838 ], [ 398940.793489318399224, 3783539.877924720291048 ], [ 398940.793489318399224, 3783540.183112919796258 ], [ 398940.48830111901043, 3783540.183112919796258 ], [ 398940.183112919621635, 3783540.488301118835807 ], [ 398940.183112919621635, 3783540.793489318341017 ], [ 398938.046795523900073, 3783542.929806713946164 ], [ 398938.046795523900073, 3783543.234994913451374 ], [ 398937.741607324511278, 3783543.540183112956583 ], [ 398937.741607324511278, 3783543.845371312461793 ], [ 398937.436419125122484, 3783544.150559511501342 ], [ 398936.5208545269561, 3783544.150559511501342 ], [ 398936.215666327567305, 3783544.455747711006552 ], [ 398935.605289928789716, 3783544.455747711006552 ] ] ] } },
{ "type": "Feature", "properties": { "confidence": 0.28711134195327759, "class": 1, "regularized": null }, "geometry": { "type": "Polygon", "coordinates": [ [ [ 398578.840284842299297, 3783084.53713123081252 ], [ 398578.535096642910503, 3783084.23194303130731 ], [ 398578.229908443521708, 3783084.23194303130731 ], [ 398577.924720244132914, 3783083.926754832267761 ], [ 398577.619532044744119, 3783083.926754832267761 ], [ 398577.314343845355324, 3783083.621566632762551 ], [ 398577.00915564596653, 3783083.621566632762551 ], [ 398577.00915564596653, 3783083.316378433257341 ], [ 398576.703967446577735, 3783083.011190233752131 ], [ 398576.703967446577735, 3783081.790437436196953 ], [ 398577.00915564596653, 3783081.485249237157404 ], [ 398577.00915564596653, 3783080.874872838146985 ], [ 398577.314343845355324, 3783080.569684638641775 ], [ 398577.314343845355324, 3783079.654120040591806 ], [ 398577.924720244132914, 3783079.043743642047048 ], [ 398577.924720244132914, 3783078.738555442541838 ], [ 398579.450661241076887, 3783077.212614445481449 ], [ 398579.450661241076887, 3783076.907426245976239 ], [ 398580.061037639854476, 3783076.297049847431481 ], [ 398581.892166836187243, 3783076.297049847431481 ], [ 398582.197355035634246, 3783076.602238046936691 ], [ 398582.197355035634246, 3783077.517802644986659 ], [ 398582.50254323502304, 3783077.822990844491869 ], [ 398582.50254323502304, 3783080.569684638641775 ], [ 398582.197355035634246, 3783080.874872838146985 ], [ 398582.197355035634246, 3783082.706002034712583 ], [ 398581.892166836187243, 3783083.011190233752131 ], [ 398581.892166836187243, 3783083.621566632762551 ], [ 398581.586978636798449, 3783083.926754832267761 ], [ 398581.586978636798449, 3783084.23194303130731 ], [ 398581.281790437409654, 3783084.53713123081252 ], [ 398578.840284842299297, 3783084.53713123081252 ] ] ] } },
{ "type": "Feature", "properties": { "confidence": 0.2724284827709198, "class": 1, "regularized": null }, "geometry": { "type": "Polygon", "coordinates": [ [ [ 398753.40793489315547, 3783440.996948117855936 ], [ 398753.102746693766676, 3783440.691759918816388 ], [ 398752.797558494377881, 3783440.691759918816388 ], [ 398752.492370294989087, 3783440.386571719311178 ], [ 398752.492370294989087, 3783439.165818921755999 ], [ 398752.187182095600292, 3783438.860630722250789 ], [ 398752.187182095600292, 3783435.198372329585254 ], [ 398753.40793489315547, 3783435.198372329585254 ], [ 398753.713123092602473, 3783435.503560529090464 ], [ 398754.323499491380062, 3783435.503560529090464 ], [ 398754.628687690768857, 3783435.198372329585254 ], [ 398754.628687690768857, 3783434.893184130080044 ], [ 398754.933875890157651, 3783434.893184130080044 ], [ 398754.933875890157651, 3783435.808748728595674 ], [ 398755.849440488324035, 3783436.724313326645643 ], [ 398755.849440488324035, 3783438.860630722250789 ], [ 398755.239064089546446, 3783439.471007121261209 ], [ 398755.239064089546446, 3783439.776195320300758 ], [ 398754.933875890157651, 3783440.081383519805968 ], [ 398754.933875890157651, 3783440.386571719311178 ], [ 398754.323499491380062, 3783440.996948117855936 ], [ 398753.40793489315547, 3783440.996948117855936 ] ] ] } },
{ "type": "Feature", "properties": { "confidence": 0.26686957478523254, "class": 1, "regularized": null }, "geometry": { "type": "Polygon", "coordinates": [ [ [ 398549.542217700916808, 3783520.956256357952952 ], [ 398549.542217700916808, 3783520.651068158913404 ], [ 398548.931841302139219, 3783520.040691759902984 ], [ 398548.931841302139219, 3783518.209562563803047 ], [ 398548.32146490336163, 3783517.599186164792627 ], [ 398548.32146490336163, 3783516.073245167732239 ], [ 398550.762970498471987, 3783513.631739572621882 ], [ 398550.762970498471987, 3783513.326551373116672 ], [ 398551.068158697860781, 3783513.021363174077123 ], [ 398551.068158697860781, 3783512.716174974571913 ], [ 398551.373346897249576, 3783512.410986775066704 ], [ 398552.899287894193549, 3783512.410986775066704 ], [ 398553.204476093582343, 3783512.716174974571913 ], [ 398554.425228891137522, 3783512.716174974571913 ], [ 398554.730417090526316, 3783513.021363174077123 ], [ 398554.730417090526316, 3783513.936927772127092 ], [ 398554.425228891137522, 3783514.242115971632302 ], [ 398554.425228891137522, 3783514.85249237017706 ], [ 398554.120040691748727, 3783515.15768056968227 ], [ 398554.120040691748727, 3783515.46286876918748 ], [ 398553.814852492359933, 3783515.76805696869269 ], [ 398553.814852492359933, 3783516.378433367237449 ], [ 398553.509664292971138, 3783516.683621566742659 ], [ 398553.509664292971138, 3783516.988809766247869 ], [ 398553.204476093582343, 3783517.293997965287417 ], [ 398553.204476093582343, 3783517.904374364297837 ], [ 398552.28891149541596, 3783518.819938962347806 ], [ 398552.28891149541596, 3783519.125127161853015 ], [ 398551.983723296027165, 3783519.430315361358225 ], [ 398551.983723296027165, 3783520.040691759902984 ], [ 398551.67853509663837, 3783520.345879959408194 ], [ 398551.67853509663837, 3783520.651068158913404 ], [ 398551.373346897249576, 3783520.956256357952952 ], [ 398549.542217700916808, 3783520.956256357952952 ] ] ] } },
{ "type": "Feature", "properties": { "confidence": 0.25564059615135193, "class": 1, "regularized": null }, "geometry": { "type": "Polygon", "coordinates": [ [ [ 398903.86571719229687, 3783214.547304171137512 ], [ 398903.560528992908075, 3783214.242115971632302 ], [ 398903.255340793461073, 3783214.242115971632302 ], [ 398902.950152594072279, 3783213.936927772127092 ], [ 398902.950152594072279, 3783212.716174974571913 ], [ 398903.255340793461073, 3783212.410986775066704 ], [ 398903.255340793461073, 3783211.800610376521945 ], [ 398903.560528992908075, 3783211.495422177016735 ], [ 398903.560528992908075, 3783210.579857578966767 ], [ 398904.170905391685665, 3783209.969481179956347 ], [ 398904.170905391685665, 3783209.664292980451137 ], [ 398907.527975584962405, 3783209.664292980451137 ], [ 398907.527975584962405, 3783213.631739572621882 ], [ 398905.696846388629638, 3783213.631739572621882 ], [ 398905.086469989852048, 3783214.242115971632302 ], [ 398904.476093591074459, 3783214.242115971632302 ], [ 398904.170905391685665, 3783214.547304171137512 ], [ 398903.86571719229687, 3783214.547304171137512 ] ] ] } }
]
}
