{
"type": "FeatureCollection",
"name": "cell_00103_pre",
"crs": { "type": "name", "properties": { "name": "urn:ogc:def:crs:EPSG::32611" } },
"features": [
{ "type": "Feature", "properties": { "confidence": 0.87014591693878174, "class": 1 }, "geometry": { "type": "Polygon", "coordinates": [ [ [ 352422.482197355013341, 3770130.51881993887946 ], [ 352422.177009155624546, 3770130.21363173937425 ], [ 352421.871820956235752, 3770130.21363173937425 ], [ 352420.345879959291779, 3770128.687690742779523 ], [ 352420.345879959291779, 3770128.382502543274313 ], [ 352420.040691759902984, 3770128.077314343769103 ], [ 352420.040691759902984, 3770127.772126144263893 ], [ 352419.735503560514189, 3770127.466937945224345 ], [ 352419.735503560514189, 3770126.856561546213925 ], [ 352426.449643947125878, 3770126.856561546213925 ], [ 352426.449643947125878, 3770127.772126144263893 ], [ 352426.144455747737084, 3770128.077314343769103 ], [ 352426.144455747737084, 3770128.382502543274313 ], [ 352425.839267548348289, 3770128.687690742779523 ], [ 352425.839267548348289, 3770128.992878941819072 ], [ 352424.313326551346108, 3770130.51881993887946 ], [ 352422.482197355013341, 3770130.51881993887946 ] ] ] } },
{ "type": "Feature", "properties": { "confidence": 0.46743834018707275, "class": 1 }, "geometry": { "type": "Polygon", "coordinates": [ [ [ 352331.841302136308514, 3770353.916581891942769 ], [ 352331.536113936919719, 3770353.611393692903221 ], [ 352330.620549338753335, 3770353.611393692903221 ], [ 352330.315361139364541, 3770353.306205493398011 ], [ 352329.704984740586951, 3770353.306205493398011 ], [ 352329.399796541198157, 3770353.001017293892801 ], [ 352329.094608341809362, 3770353.001017293892801 ], [ 352327.873855544254184, 3770351.780264496337622 ], [ 352327.873855544254184, 3770351.475076296832412 ], [ 352327.568667344865389, 3770351.169888097792864 ], [ 352327.568667344865389, 3770350.864699898287654 ], [ 352327.263479145476595, 3770350.559511698782444 ], [ 352327.263479145476595, 3770349.643947100732476 ], [ 352327.568667344865389, 3770349.338758901227266 ], [ 352327.568667344865389, 3770349.033570701722056 ], [ 352328.484231943031773, 3770348.118006103672087 ], [ 352329.094608341809362, 3770348.118006103672087 ], [ 352329.399796541198157, 3770347.812817904166877 ], [ 352329.704984740586951, 3770347.812817904166877 ], [ 352330.010172939975746, 3770347.507629705127329 ], [ 352333.977619532030076, 3770347.507629705127329 ], [ 352334.587995930807665, 3770348.118006103672087 ], [ 352334.587995930807665, 3770348.423194303177297 ], [ 352334.89318413019646, 3770348.728382502682507 ], [ 352334.89318413019646, 3770350.254323499277234 ], [ 352335.198372329585254, 3770350.559511698782444 ], [ 352335.198372329585254, 3770353.001017293892801 ], [ 352334.28280773141887, 3770353.916581891942769 ], [ 352331.841302136308514, 3770353.916581891942769 ] ] ] } }
]
}
