{
"type": "FeatureCollection",
"name": "cell_00518_pre",
"crs": { "type": "name", "properties": { "name": "urn:ogc:def:crs:EPSG::32611" } },
"features": [
{ "type": "Feature", "properties": { "confidence": 0.99141943454742432, "class": 1 }, "geometry": { "type": "Polygon", "coordinates": [ [ [ 403529.908443540160079, 3782617.904374364297837 ], [ 403529.603255340771284, 3782617.599186164792627 ], [ 403529.298067141382489, 3782617.599186164792627 ], [ 403528.382502543216106, 3782616.683621566742659 ], [ 403528.382502543216106, 3782616.378433367237449 ], [ 403527.772126144438516, 3782615.76805696869269 ], [ 403527.772126144438516, 3782614.85249237017706 ], [ 403527.466937945049722, 3782614.547304171137512 ], [ 403527.466937945049722, 3782613.021363174077123 ], [ 403527.161749745660927, 3782612.716174974571913 ], [ 403527.161749745660927, 3782612.105798575561494 ], [ 403527.466937945049722, 3782611.800610376521945 ], [ 403527.466937945049722, 3782611.495422177016735 ], [ 403527.772126144438516, 3782611.190233977511525 ], [ 403527.772126144438516, 3782610.885045778006315 ], [ 403528.6876907426049, 3782609.969481179956347 ], [ 403528.6876907426049, 3782609.359104781411588 ], [ 403529.603255340771284, 3782608.443540182895958 ], [ 403529.908443540160079, 3782608.443540182895958 ], [ 403530.213631739548873, 3782608.13835198385641 ], [ 403531.129196337715257, 3782608.13835198385641 ], [ 403531.434384537104052, 3782608.443540182895958 ], [ 403531.739572736492846, 3782608.443540182895958 ], [ 403532.044760935881641, 3782608.748728382401168 ], [ 403532.349949135328643, 3782608.748728382401168 ], [ 403532.960325534106232, 3782609.359104781411588 ], [ 403534.486266531050205, 3782609.359104781411588 ], [ 403534.791454730439, 3782609.664292980451137 ], [ 403535.096642929827794, 3782609.664292980451137 ], [ 403535.096642929827794, 3782610.579857578966767 ], [ 403535.401831129216589, 3782610.885045778006315 ], [ 403535.401831129216589, 3782611.190233977511525 ], [ 403535.096642929827794, 3782611.495422177016735 ], [ 403535.096642929827794, 3782614.547304171137512 ], [ 403534.791454730439, 3782614.85249237017706 ], [ 403534.791454730439, 3782616.073245167732239 ], [ 403534.486266531050205, 3782616.378433367237449 ], [ 403534.486266531050205, 3782616.683621566742659 ], [ 403534.181078331661411, 3782616.988809766247869 ], [ 403533.875890132272616, 3782616.988809766247869 ], [ 403533.265513733495027, 3782617.599186164792627 ], [ 403531.434384537104052, 3782617.599186164792627 ], [ 403531.129196337715257, 3782617.904374364297837 ], [ 403529.908443540160079, 3782617.904374364297837 ] ] ] } },
{ "type": "Feature", "properties": { "confidence": 0.98905491828918457, "class": 1 }, "geometry": { "type": "Polygon", "coordinates": [ [ [ 403520.752797558496241, 3782611.495422177016735 ], [ 403520.447609359107446, 3782611.190233977511525 ], [ 403519.837232960329857, 3782611.190233977511525 ], [ 403519.226856561552268, 3782610.579857578966767 ], [ 403518.921668362163473, 3782610.579857578966767 ], [ 403518.616480162774678, 3782610.274669379461557 ], [ 403517.700915564608295, 3782610.274669379461557 ], [ 403517.090539165830705, 3782609.664292980451137 ], [ 403517.090539165830705, 3782608.443540182895958 ], [ 403517.3957273652195, 3782608.13835198385641 ], [ 403517.3957273652195, 3782607.8331637843512 ], [ 403517.700915564608295, 3782607.52797558484599 ], [ 403518.311291963385884, 3782607.52797558484599 ], [ 403518.616480162774678, 3782607.22278738534078 ], [ 403518.921668362163473, 3782607.22278738534078 ], [ 403519.226856561552268, 3782606.917599186301231 ], [ 403519.532044760941062, 3782606.917599186301231 ], [ 403520.142421159718651, 3782606.307222787290812 ], [ 403521.668362156662624, 3782606.307222787290812 ], [ 403521.973550356051419, 3782606.002034587785602 ], [ 403522.583926754829008, 3782606.002034587785602 ], [ 403522.889114954217803, 3782606.307222787290812 ], [ 403522.889114954217803, 3782610.579857578966767 ], [ 403521.973550356051419, 3782611.495422177016735 ], [ 403520.752797558496241, 3782611.495422177016735 ] ] ] } },
{ "type": "Feature", "properties": { "confidence": 0.98537802696228027, "class": 1 }, "geometry": { "type": "Polygon", "coordinates": [ [ [ 403690.132248219742905, 3782681.078331637661904 ], [ 403689.827060020354111, 3782680.773143438622355 ], [ 403689.827060020354111, 3782680.467955239117146 ], [ 403689.521871820965316, 3782680.162767039611936 ], [ 403689.521871820965316, 3782674.059003051836044 ], [ 403689.827060020354111, 3782673.753814852330834 ], [ 403689.827060020354111, 3782672.838250254280865 ], [ 403690.132248219742905, 3782672.533062054775655 ], [ 403690.132248219742905, 3782672.227873855736107 ], [ 403690.742624618520495, 3782672.227873855736107 ], [ 403690.4374364191317, 3782672.533062054775655 ], [ 403690.4374364191317, 3782673.448626653291285 ], [ 403690.742624618520495, 3782673.753814852330834 ], [ 403692.268565615464468, 3782673.753814852330834 ], [ 403692.573753814853262, 3782673.448626653291285 ], [ 403694.710071210574824, 3782673.448626653291285 ], [ 403695.625635808741208, 3782674.364191251341254 ], [ 403695.625635808741208, 3782674.974567649886012 ], [ 403695.930824008130003, 3782675.279755849391222 ], [ 403695.930824008130003, 3782676.19532044744119 ], [ 403695.625635808741208, 3782676.5005086469464 ], [ 403695.625635808741208, 3782679.247202441561967 ], [ 403694.40488301118603, 3782680.467955239117146 ], [ 403693.794506612408441, 3782680.467955239117146 ], [ 403693.489318413019646, 3782680.773143438622355 ], [ 403692.573753814853262, 3782680.773143438622355 ], [ 403692.268565615464468, 3782681.078331637661904 ], [ 403690.132248219742905, 3782681.078331637661904 ] ] ] } },
{ "type": "Feature", "properties": { "confidence": 0.98435646295547485, "class": 1 }, "geometry": { "type": "Polygon", "coordinates": [ [ [ 403520.752797558496241, 3782932.858596134465188 ], [ 403520.447609359107446, 3782932.553407934959978 ], [ 403520.142421159718651, 3782932.553407934959978 ], [ 403519.532044760941062, 3782931.943031535949558 ], [ 403519.532044760941062, 3782931.637843336910009 ], [ 403519.226856561552268, 3782931.332655137404799 ], [ 403519.226856561552268, 3782931.02746693789959 ], [ 403518.921668362163473, 3782930.72227873839438 ], [ 403518.921668362163473, 3782928.891149542294443 ], [ 403519.532044760941062, 3782928.280773143284023 ], [ 403520.142421159718651, 3782928.280773143284023 ], [ 403520.447609359107446, 3782927.975584944244474 ], [ 403521.057985757885035, 3782927.975584944244474 ], [ 403521.36317395727383, 3782928.280773143284023 ], [ 403523.194303153606597, 3782928.280773143284023 ], [ 403523.499491352995392, 3782928.585961342789233 ], [ 403524.109867751772981, 3782928.585961342789233 ], [ 403524.415055951161776, 3782928.891149542294443 ], [ 403525.025432349939365, 3782928.891149542294443 ], [ 403525.635808748716954, 3782929.501525940839201 ], [ 403525.635808748716954, 3782930.111902339849621 ], [ 403525.940996948105749, 3782930.417090539354831 ], [ 403525.940996948105749, 3782931.637843336910009 ], [ 403525.33062054932816, 3782932.248219735454768 ], [ 403525.025432349939365, 3782932.248219735454768 ], [ 403524.72024415055057, 3782932.553407934959978 ], [ 403523.804679552384187, 3782932.553407934959978 ], [ 403523.499491352995392, 3782932.858596134465188 ], [ 403520.752797558496241, 3782932.858596134465188 ] ] ] } },
{ "type": "Feature", "properties": { "confidence": 0.97328919172286987, "class": 1 }, "geometry": { "type": "Polygon", "coordinates": [ [ [ 403446.59206510684453, 3782864.801627670414746 ], [ 403446.286876907397527, 3782864.496439470909536 ], [ 403445.981688708008733, 3782864.496439470909536 ], [ 403445.676500508619938, 3782864.191251271404326 ], [ 403445.371312309231143, 3782864.191251271404326 ], [ 403444.760935910453554, 3782863.580874872859567 ], [ 403444.760935910453554, 3782862.970498473849148 ], [ 403444.150559511675965, 3782862.360122075304389 ], [ 403444.150559511675965, 3782862.054933875799179 ], [ 403443.84537131228717, 3782861.749745676293969 ], [ 403443.84537131228717, 3782861.444557477254421 ], [ 403443.540183112898376, 3782861.139369277749211 ], [ 403443.234994913509581, 3782861.139369277749211 ], [ 403443.234994913509581, 3782860.834181078244001 ], [ 403442.929806714120787, 3782860.528992878738791 ], [ 403442.929806714120787, 3782858.392675483133644 ], [ 403443.234994913509581, 3782858.087487283628434 ], [ 403443.540183112898376, 3782858.087487283628434 ], [ 403444.150559511675965, 3782857.477110885083675 ], [ 403444.150559511675965, 3782857.171922685578465 ], [ 403444.45574771106476, 3782857.171922685578465 ], [ 403444.760935910453554, 3782856.866734486073256 ], [ 403445.066124109842349, 3782856.866734486073256 ], [ 403445.371312309231143, 3782856.561546287033707 ], [ 403445.676500508619938, 3782856.561546287033707 ], [ 403445.981688708008733, 3782856.256358087528497 ], [ 403446.897253306233324, 3782856.256358087528497 ], [ 403447.202441505622119, 3782855.951169888023287 ], [ 403449.94913530012127, 3782855.951169888023287 ], [ 403449.94913530012127, 3782856.256358087528497 ], [ 403449.643947100732476, 3782856.561546287033707 ], [ 403449.643947100732476, 3782857.477110885083675 ], [ 403450.864699898287654, 3782858.697863682638854 ], [ 403451.169888097676449, 3782858.697863682638854 ], [ 403451.780264496454038, 3782859.308240081183612 ], [ 403451.780264496454038, 3782859.918616480194032 ], [ 403452.085452695842832, 3782860.223804679699242 ], [ 403452.085452695842832, 3782861.139369277749211 ], [ 403451.780264496454038, 3782861.444557477254421 ], [ 403451.780264496454038, 3782862.054933875799179 ], [ 403451.475076297065243, 3782862.054933875799179 ], [ 403450.864699898287654, 3782862.665310274809599 ], [ 403450.559511698898859, 3782862.665310274809599 ], [ 403449.338758901343681, 3782863.886063072364777 ], [ 403449.338758901343681, 3782864.191251271404326 ], [ 403449.033570701954886, 3782864.496439470909536 ], [ 403448.423194303177297, 3782864.496439470909536 ], [ 403448.118006103788503, 3782864.801627670414746 ], [ 403446.59206510684453, 3782864.801627670414746 ] ] ] } },
{ "type": "Feature", "properties": { "confidence": 0.9466012716293335, "class": 1 }, "geometry": { "type": "Polygon", "coordinates": [ [ [ 403573.550356052874122, 3782960.630722278729081 ], [ 403573.245167853485327, 3782960.325534079223871 ], [ 403572.634791454707738, 3782960.325534079223871 ], [ 403572.024415055930149, 3782959.715157680679113 ], [ 403571.719226856541354, 3782959.715157680679113 ], [ 403571.719226856541354, 3782959.409969481173903 ], [ 403571.41403865715256, 3782959.104781281668693 ], [ 403571.41403865715256, 3782957.578840285073966 ], [ 403571.108850457763765, 3782957.273652085568756 ], [ 403571.108850457763765, 3782956.052899288013577 ], [ 403571.41403865715256, 3782955.747711088508368 ], [ 403571.41403865715256, 3782955.137334689497948 ], [ 403572.329603255318943, 3782954.221770091447979 ], [ 403572.329603255318943, 3782953.916581891942769 ], [ 403573.245167853485327, 3782953.001017293892801 ], [ 403573.550356052874122, 3782953.001017293892801 ], [ 403574.7711088504293, 3782951.780264496337622 ], [ 403575.076297049876302, 3782951.780264496337622 ], [ 403575.381485249265097, 3782951.475076296832412 ], [ 403575.381485249265097, 3782951.169888097792864 ], [ 403575.991861648042686, 3782951.169888097792864 ], [ 403576.297049847431481, 3782950.864699898287654 ], [ 403576.90742624620907, 3782950.864699898287654 ], [ 403577.212614445597865, 3782951.169888097792864 ], [ 403577.822990844375454, 3782951.169888097792864 ], [ 403578.128179043764248, 3782951.475076296832412 ], [ 403578.738555442541838, 3782951.475076296832412 ], [ 403579.043743641930632, 3782951.780264496337622 ], [ 403579.348931841319427, 3782951.780264496337622 ], [ 403579.348931841319427, 3782952.085452695842832 ], [ 403579.654120040708221, 3782952.390640895348042 ], [ 403579.654120040708221, 3782952.695829094387591 ], [ 403579.348931841319427, 3782953.001017293892801 ], [ 403579.348931841319427, 3782954.221770091447979 ], [ 403578.738555442541838, 3782954.832146490458399 ], [ 403578.738555442541838, 3782955.137334689497948 ], [ 403578.433367243153043, 3782955.137334689497948 ], [ 403576.90742624620907, 3782956.663275686558336 ], [ 403576.90742624620907, 3782956.968463886063546 ], [ 403576.602238046820275, 3782957.273652085568756 ], [ 403576.602238046820275, 3782957.884028484113514 ], [ 403576.297049847431481, 3782958.189216683618724 ], [ 403576.297049847431481, 3782958.799593082629144 ], [ 403575.381485249265097, 3782959.715157680679113 ], [ 403575.381485249265097, 3782960.020345880184323 ], [ 403575.076297049876302, 3782960.325534079223871 ], [ 403574.465920651040506, 3782960.325534079223871 ], [ 403574.160732451651711, 3782960.630722278729081 ], [ 403573.550356052874122, 3782960.630722278729081 ] ] ] } },
{ "type": "Feature", "properties": { "confidence": 0.93558263778686523, "class": 1 }, "geometry": { "type": "Polygon", "coordinates": [ [ [ 403352.28891149541596, 3782878.229908443521708 ], [ 403351.983723296027165, 3782877.924720244016498 ], [ 403351.67853509663837, 3782877.924720244016498 ], [ 403351.67853509663837, 3782877.61953204497695 ], [ 403351.373346897249576, 3782877.31434384547174 ], [ 403351.068158697860781, 3782877.31434384547174 ], [ 403351.068158697860781, 3782877.00915564596653 ], [ 403350.762970498471987, 3782876.70396744646132 ], [ 403350.457782299083192, 3782876.70396744646132 ], [ 403349.847405900305603, 3782876.093591047916561 ], [ 403349.542217700916808, 3782876.093591047916561 ], [ 403348.931841302139219, 3782875.483214648906142 ], [ 403348.931841302139219, 3782875.178026449866593 ], [ 403348.626653102750424, 3782874.872838250361383 ], [ 403348.626653102750424, 3782873.957273652311414 ], [ 403348.931841302139219, 3782873.652085452806205 ], [ 403348.931841302139219, 3782873.346897253300995 ], [ 403351.068158697860781, 3782871.210579857695848 ], [ 403351.373346897249576, 3782871.210579857695848 ], [ 403351.67853509663837, 3782870.905391658190638 ], [ 403351.983723296027165, 3782870.905391658190638 ], [ 403352.28891149541596, 3782870.600203458685428 ], [ 403352.899287894193549, 3782870.600203458685428 ], [ 403353.204476093582343, 3782870.295015259180218 ], [ 403353.509664292971138, 3782870.295015259180218 ], [ 403353.814852492359933, 3782870.600203458685428 ], [ 403353.814852492359933, 3782871.210579857695848 ], [ 403354.120040691748727, 3782871.515768057201058 ], [ 403354.120040691748727, 3782873.652085452806205 ], [ 403354.425228891137522, 3782873.957273652311414 ], [ 403354.425228891137522, 3782877.924720244016498 ], [ 403353.509664292971138, 3782877.924720244016498 ], [ 403353.204476093582343, 3782878.229908443521708 ], [ 403352.28891149541596, 3782878.229908443521708 ] ] ] } },
{ "type": "Feature", "properties": { "confidence": 0.91183257102966309, "class": 1 }, "geometry": { "type": "Polygon", "coordinates": [ [ [ 403533.570701932883821, 3782626.754832146689296 ], [ 403533.570701932883821, 3782626.449643947184086 ], [ 403533.265513733495027, 3782626.144455747678876 ], [ 403533.265513733495027, 3782621.871820956468582 ], [ 403532.960325534106232, 3782621.566632756963372 ], [ 403533.265513733495027, 3782621.261444557458162 ], [ 403533.265513733495027, 3782620.651068158913404 ], [ 403534.181078331661411, 3782619.735503560397774 ], [ 403534.486266531050205, 3782619.735503560397774 ], [ 403534.791454730439, 3782619.430315361358225 ], [ 403534.791454730439, 3782619.125127161853015 ], [ 403535.096642929827794, 3782619.125127161853015 ], [ 403535.401831129216589, 3782618.819938962347806 ], [ 403535.401831129216589, 3782618.514750762842596 ], [ 403535.707019328605384, 3782618.514750762842596 ], [ 403536.012207527994178, 3782618.209562563803047 ], [ 403536.317395727382973, 3782618.209562563803047 ], [ 403536.622583926771767, 3782617.904374364297837 ], [ 403537.232960325549357, 3782617.904374364297837 ], [ 403537.538148524938151, 3782617.599186164792627 ], [ 403538.453713123104535, 3782617.599186164792627 ], [ 403538.75890132249333, 3782617.904374364297837 ], [ 403539.369277721270919, 3782617.904374364297837 ], [ 403540.284842319437303, 3782618.819938962347806 ], [ 403540.590030518826097, 3782618.819938962347806 ], [ 403540.590030518826097, 3782619.125127161853015 ], [ 403540.895218718214892, 3782619.430315361358225 ], [ 403540.895218718214892, 3782620.040691759902984 ], [ 403541.200406917603686, 3782620.345879959408194 ], [ 403541.200406917603686, 3782624.008138352073729 ], [ 403540.895218718214892, 3782624.313326551578939 ], [ 403540.895218718214892, 3782624.618514750618488 ], [ 403539.979654120048508, 3782625.534079349134117 ], [ 403536.927772126160562, 3782625.534079349134117 ], [ 403536.622583926771767, 3782625.839267548173666 ], [ 403535.707019328605384, 3782625.839267548173666 ], [ 403535.096642929827794, 3782626.449643947184086 ], [ 403534.486266531050205, 3782626.449643947184086 ], [ 403534.181078331661411, 3782626.754832146689296 ], [ 403533.570701932883821, 3782626.754832146689296 ] ] ] } },
{ "type": "Feature", "properties": { "confidence": 0.90211212635040283, "class": 1 }, "geometry": { "type": "Polygon", "coordinates": [ [ [ 403745.981688708008733, 3782501.627670396585017 ], [ 403745.676500508619938, 3782501.322482197545469 ], [ 403745.066124109842349, 3782501.322482197545469 ], [ 403744.760935910453554, 3782501.017293998040259 ], [ 403744.760935910453554, 3782500.10172939999029 ], [ 403745.066124109842349, 3782499.79654120048508 ], [ 403745.066124109842349, 3782498.880976602435112 ], [ 403745.371312309231143, 3782498.575788402929902 ], [ 403745.371312309231143, 3782498.270600203424692 ], [ 403745.676500508619938, 3782497.965412003919482 ], [ 403745.981688708008733, 3782497.965412003919482 ], [ 403746.286876907397527, 3782497.660223804879934 ], [ 403747.812817904399708, 3782497.660223804879934 ], [ 403748.118006103788503, 3782497.965412003919482 ], [ 403749.338758901343681, 3782497.965412003919482 ], [ 403749.643947100732476, 3782498.270600203424692 ], [ 403750.559511698898859, 3782498.270600203424692 ], [ 403750.864699898287654, 3782498.575788402929902 ], [ 403750.864699898287654, 3782501.017293998040259 ], [ 403750.254323499510065, 3782501.627670396585017 ], [ 403745.981688708008733, 3782501.627670396585017 ] ] ] } },
{ "type": "Feature", "properties": { "confidence": 0.89173519611358643, "class": 1 }, "geometry": { "type": "Polygon", "coordinates": [ [ [ 403420.956256358069368, 3782895.930824008304626 ], [ 403420.651068158680573, 3782895.625635808799416 ], [ 403420.040691759902984, 3782895.625635808799416 ], [ 403419.735503560514189, 3782895.320447609294206 ], [ 403419.430315361125395, 3782895.320447609294206 ], [ 403419.1251271617366, 3782895.015259409788996 ], [ 403417.904374364181422, 3782895.015259409788996 ], [ 403417.599186164792627, 3782894.710071210749447 ], [ 403417.599186164792627, 3782892.878942014183849 ], [ 403417.904374364181422, 3782892.573753814678639 ], [ 403417.904374364181422, 3782891.658189216628671 ], [ 403418.209562563570216, 3782891.353001017123461 ], [ 403418.209562563570216, 3782891.047812818083912 ], [ 403419.735503560514189, 3782889.521871821023524 ], [ 403420.040691759902984, 3782889.521871821023524 ], [ 403420.345879959291779, 3782889.216683621518314 ], [ 403420.345879959291779, 3782888.911495422013104 ], [ 403421.261444557458162, 3782887.995930823963135 ], [ 403421.871820956235752, 3782887.995930823963135 ], [ 403422.787385554402135, 3782888.911495422013104 ], [ 403422.787385554402135, 3782889.827060020528734 ], [ 403423.09257375379093, 3782890.132248219568282 ], [ 403423.09257375379093, 3782891.658189216628671 ], [ 403422.787385554402135, 3782891.963377416133881 ], [ 403422.787385554402135, 3782893.184130213689059 ], [ 403422.482197355013341, 3782893.489318413194269 ], [ 403422.482197355013341, 3782894.404883011244237 ], [ 403422.177009155624546, 3782894.710071210749447 ], [ 403422.177009155624546, 3782895.625635808799416 ], [ 403421.871820956235752, 3782895.930824008304626 ], [ 403420.956256358069368, 3782895.930824008304626 ] ] ] } },
{ "type": "Feature", "properties": { "confidence": 0.88964587450027466, "class": 1 }, "geometry": { "type": "Polygon", "coordinates": [ [ [ 403673.957273652078584, 3782680.467955239117146 ], [ 403673.652085452689789, 3782680.162767039611936 ], [ 403673.346897253300995, 3782680.162767039611936 ], [ 403673.0417090539122, 3782679.857578840106726 ], [ 403672.736520854523405, 3782679.857578840106726 ], [ 403672.431332655134611, 3782679.552390641067177 ], [ 403672.126144455745816, 3782679.552390641067177 ], [ 403671.820956256357022, 3782679.247202441561967 ], [ 403671.515768056968227, 3782679.247202441561967 ], [ 403671.210579857579432, 3782678.942014242056757 ], [ 403670.905391658190638, 3782678.942014242056757 ], [ 403670.295015259413049, 3782678.331637843511999 ], [ 403670.295015259413049, 3782678.026449644006789 ], [ 403669.989827060024254, 3782677.721261444501579 ], [ 403669.989827060024254, 3782677.11088504595682 ], [ 403669.684638860635459, 3782676.80569684645161 ], [ 403669.684638860635459, 3782674.974567649886012 ], [ 403669.379450661246665, 3782674.669379450846463 ], [ 403669.379450661246665, 3782674.059003051836044 ], [ 403669.07426246185787, 3782673.753814852330834 ], [ 403668.769074262469076, 3782673.753814852330834 ], [ 403668.769074262469076, 3782671.312309257220477 ], [ 403669.379450661246665, 3782671.312309257220477 ], [ 403669.684638860635459, 3782671.007121058180928 ], [ 403669.684638860635459, 3782670.396744659170508 ], [ 403670.905391658190638, 3782670.396744659170508 ], [ 403671.210579857579432, 3782670.701932858675718 ], [ 403671.515768056968227, 3782670.701932858675718 ], [ 403671.820956256357022, 3782671.007121058180928 ], [ 403673.0417090539122, 3782671.007121058180928 ], [ 403673.346897253300995, 3782671.312309257220477 ], [ 403673.652085452689789, 3782671.312309257220477 ], [ 403673.957273652078584, 3782671.617497456725687 ], [ 403674.262461851467378, 3782671.617497456725687 ], [ 403674.567650050856173, 3782671.922685656230897 ], [ 403674.872838250244968, 3782671.922685656230897 ], [ 403675.178026449633762, 3782672.227873855736107 ], [ 403675.178026449633762, 3782672.533062054775655 ], [ 403675.483214649022557, 3782672.838250254280865 ], [ 403675.483214649022557, 3782673.448626653291285 ], [ 403675.788402848411351, 3782673.753814852330834 ], [ 403675.788402848411351, 3782674.669379450846463 ], [ 403675.483214649022557, 3782674.974567649886012 ], [ 403675.483214649022557, 3782679.857578840106726 ], [ 403674.872838250244968, 3782680.467955239117146 ], [ 403673.957273652078584, 3782680.467955239117146 ] ] ] } },
{ "type": "Feature", "properties": { "confidence": 0.87298315763473511, "class": 1 }, "geometry": { "type": "Polygon", "coordinates": [ [ [ 403389.216683621576522, 3782901.424211597070098 ], [ 403388.911495422187727, 3782901.119023397564888 ], [ 403387.385554425243754, 3782901.119023397564888 ], [ 403387.080366225854959, 3782900.813835198525339 ], [ 403386.775178026466165, 3782900.813835198525339 ], [ 403386.46998982707737, 3782900.508646999020129 ], [ 403386.164801627688576, 3782900.508646999020129 ], [ 403386.164801627688576, 3782899.89827060000971 ], [ 403385.859613428299781, 3782899.593082400970161 ], [ 403385.859613428299781, 3782897.456765004899353 ], [ 403387.080366225854959, 3782896.236012207344174 ], [ 403391.963377416075673, 3782896.236012207344174 ], [ 403391.963377416075673, 3782898.982706001959741 ], [ 403391.658189216686878, 3782899.287894201464951 ], [ 403391.658189216686878, 3782900.813835198525339 ], [ 403391.353001017298084, 3782900.813835198525339 ], [ 403391.047812817909289, 3782901.119023397564888 ], [ 403390.132248219742905, 3782901.119023397564888 ], [ 403389.827060020354111, 3782901.424211597070098 ], [ 403389.216683621576522, 3782901.424211597070098 ] ] ] } },
{ "type": "Feature", "properties": { "confidence": 0.86999279260635376, "class": 1 }, "geometry": { "type": "Polygon", "coordinates": [ [ [ 403331.841302136308514, 3782887.080366225913167 ], [ 403331.536113936919719, 3782886.775178026407957 ], [ 403331.230925737530924, 3782886.775178026407957 ], [ 403330.92573753814213, 3782886.469989826902747 ], [ 403330.620549338753335, 3782886.469989826902747 ], [ 403330.010172939975746, 3782885.859613428357989 ], [ 403330.010172939975746, 3782885.249237029347569 ], [ 403329.704984740586951, 3782884.94404883030802 ], [ 403329.704984740586951, 3782880.061037640087306 ], [ 403330.620549338753335, 3782879.145473041571677 ], [ 403331.230925737530924, 3782879.145473041571677 ], [ 403331.536113936919719, 3782878.840284842532128 ], [ 403332.146490335697308, 3782878.840284842532128 ], [ 403333.062054933863692, 3782879.755849440582097 ], [ 403333.062054933863692, 3782880.366225839126855 ], [ 403334.28280773141887, 3782881.586978636682034 ], [ 403334.28280773141887, 3782881.892166836187243 ], [ 403334.587995930807665, 3782882.197355035692453 ], [ 403334.587995930807665, 3782885.554425228852779 ], [ 403334.28280773141887, 3782885.859613428357989 ], [ 403333.977619532030076, 3782885.859613428357989 ], [ 403333.672431332641281, 3782886.164801627863199 ], [ 403333.367243133252487, 3782886.164801627863199 ], [ 403332.756866734474897, 3782886.775178026407957 ], [ 403332.451678535086103, 3782886.775178026407957 ], [ 403332.146490335697308, 3782887.080366225913167 ], [ 403331.841302136308514, 3782887.080366225913167 ] ] ] } },
{ "type": "Feature", "properties": { "confidence": 0.86954909563064575, "class": 1 }, "geometry": { "type": "Polygon", "coordinates": [ [ [ 403472.533062054950278, 3782890.132248219568282 ], [ 403472.227873855561484, 3782889.827060020528734 ], [ 403471.922685656172689, 3782889.827060020528734 ], [ 403471.922685656172689, 3782889.521871821023524 ], [ 403471.617497456783894, 3782889.216683621518314 ], [ 403471.617497456783894, 3782888.301119023468345 ], [ 403471.3123092573951, 3782887.995930823963135 ], [ 403471.3123092573951, 3782887.385554425418377 ], [ 403471.007121058006305, 3782887.080366225913167 ], [ 403471.007121058006305, 3782885.249237029347569 ], [ 403471.3123092573951, 3782884.94404883030802 ], [ 403471.3123092573951, 3782884.63886063080281 ], [ 403471.617497456783894, 3782884.63886063080281 ], [ 403471.922685656172689, 3782884.3336724312976 ], [ 403472.227873855561484, 3782884.3336724312976 ], [ 403472.533062054950278, 3782884.02848423179239 ], [ 403472.838250254339073, 3782884.02848423179239 ], [ 403473.143438453727867, 3782883.723296032752842 ], [ 403473.448626653116662, 3782883.723296032752842 ], [ 403473.753814852505457, 3782883.418107833247632 ], [ 403476.195320447615813, 3782883.418107833247632 ], [ 403476.195320447615813, 3782883.723296032752842 ], [ 403476.500508647004608, 3782884.02848423179239 ], [ 403476.805696846393403, 3782884.02848423179239 ], [ 403476.805696846393403, 3782887.080366225913167 ], [ 403476.500508647004608, 3782887.385554425418377 ], [ 403476.500508647004608, 3782888.911495422013104 ], [ 403475.27975584944943, 3782890.132248219568282 ], [ 403472.533062054950278, 3782890.132248219568282 ] ] ] } },
{ "type": "Feature", "properties": { "confidence": 0.8511468768119812, "class": 1 }, "geometry": { "type": "Polygon", "coordinates": [ [ [ 403503.357070193276741, 3782607.52797558484599 ], [ 403503.051881993887946, 3782607.22278738534078 ], [ 403503.051881993887946, 3782605.086469989735633 ], [ 403503.662258392665535, 3782604.476093591190875 ], [ 403503.96744659205433, 3782604.476093591190875 ], [ 403504.272634791443124, 3782604.170905391685665 ], [ 403507.32451678533107, 3782604.170905391685665 ], [ 403507.629704984719865, 3782604.476093591190875 ], [ 403507.629704984719865, 3782604.781281790230423 ], [ 403507.93489318410866, 3782605.086469989735633 ], [ 403507.93489318410866, 3782605.696846388746053 ], [ 403507.629704984719865, 3782606.002034587785602 ], [ 403507.629704984719865, 3782606.917599186301231 ], [ 403507.019328585942276, 3782607.52797558484599 ], [ 403503.357070193276741, 3782607.52797558484599 ] ] ] } },
{ "type": "Feature", "properties": { "confidence": 0.80749243497848511, "class": 1 }, "geometry": { "type": "Polygon", "coordinates": [ [ [ 403465.818921668338589, 3782609.053916581906378 ], [ 403465.208545269561, 3782608.443540182895958 ], [ 403464.903357070172206, 3782608.443540182895958 ], [ 403464.292980671394616, 3782607.8331637843512 ], [ 403464.292980671394616, 3782607.52797558484599 ], [ 403463.987792472005822, 3782607.22278738534078 ], [ 403463.682604272617027, 3782607.22278738534078 ], [ 403463.682604272617027, 3782606.917599186301231 ], [ 403462.767039674450643, 3782606.002034587785602 ], [ 403462.767039674450643, 3782605.696846388746053 ], [ 403462.461851475061849, 3782605.391658189240843 ], [ 403462.461851475061849, 3782605.086469989735633 ], [ 403462.156663275673054, 3782604.781281790230423 ], [ 403462.156663275673054, 3782600.813835198525339 ], [ 403464.903357070172206, 3782600.813835198525339 ], [ 403465.818921668338589, 3782601.729399796575308 ], [ 403465.818921668338589, 3782602.034587996080518 ], [ 403466.124109867727384, 3782602.339776195120066 ], [ 403467.650050864671357, 3782602.339776195120066 ], [ 403467.955239064118359, 3782602.644964394625276 ], [ 403467.955239064118359, 3782602.950152594130486 ], [ 403468.565615462895948, 3782603.560528992675245 ], [ 403468.565615462895948, 3782603.865717192180455 ], [ 403468.870803662284743, 3782604.170905391685665 ], [ 403468.870803662284743, 3782607.8331637843512 ], [ 403467.955239064118359, 3782608.748728382401168 ], [ 403467.650050864671357, 3782608.748728382401168 ], [ 403467.344862665282562, 3782609.053916581906378 ], [ 403465.818921668338589, 3782609.053916581906378 ] ] ] } },
{ "type": "Feature", "properties": { "confidence": 0.72206133604049683, "class": 1 }, "geometry": { "type": "Polygon", "coordinates": [ [ [ 403738.657171922677662, 3782472.024415055755526 ], [ 403738.046795523900073, 3782471.414038657210767 ], [ 403738.046795523900073, 3782470.803662258200347 ], [ 403737.741607324511278, 3782470.498474059160799 ], [ 403737.741607324511278, 3782470.193285859655589 ], [ 403737.436419125122484, 3782469.888097660150379 ], [ 403737.436419125122484, 3782469.27772126160562 ], [ 403737.131230925733689, 3782468.97253306210041 ], [ 403737.131230925733689, 3782467.446592065040022 ], [ 403737.436419125122484, 3782467.141403865534812 ], [ 403737.436419125122484, 3782466.836215666495264 ], [ 403737.741607324511278, 3782466.531027466990054 ], [ 403739.877924720232841, 3782466.531027466990054 ], [ 403742.014242115954403, 3782468.667344862595201 ], [ 403742.014242115954403, 3782468.97253306210041 ], [ 403742.319430315343197, 3782469.27772126160562 ], [ 403742.624618514731992, 3782469.27772126160562 ], [ 403742.624618514731992, 3782469.888097660150379 ], [ 403742.929806714120787, 3782470.193285859655589 ], [ 403742.929806714120787, 3782471.108850457705557 ], [ 403742.319430315343197, 3782471.108850457705557 ], [ 403742.014242115954403, 3782471.414038657210767 ], [ 403741.403865717176814, 3782471.414038657210767 ], [ 403741.098677517788019, 3782471.719226856715977 ], [ 403740.48830111901043, 3782471.719226856715977 ], [ 403740.183112919621635, 3782472.024415055755526 ], [ 403738.657171922677662, 3782472.024415055755526 ] ] ] } },
{ "type": "Feature", "properties": { "confidence": 0.71229004859924316, "class": 1 }, "geometry": { "type": "Polygon", "coordinates": [ [ [ 403464.598168870783411, 3782920.345879959408194 ], [ 403464.598168870783411, 3782919.735503560397774 ], [ 403464.292980671394616, 3782919.430315361358225 ], [ 403464.292980671394616, 3782918.209562563803047 ], [ 403464.598168870783411, 3782917.904374364297837 ], [ 403464.598168870783411, 3782916.378433367237449 ], [ 403465.513733468949795, 3782915.46286876918748 ], [ 403465.818921668338589, 3782915.46286876918748 ], [ 403466.124109867727384, 3782915.15768056968227 ], [ 403467.955239064118359, 3782915.15768056968227 ], [ 403467.955239064118359, 3782915.46286876918748 ], [ 403468.260427263507154, 3782915.76805696869269 ], [ 403468.260427263507154, 3782916.073245167732239 ], [ 403468.565615462895948, 3782916.378433367237449 ], [ 403468.870803662284743, 3782916.378433367237449 ], [ 403469.175991861673538, 3782916.683621566742659 ], [ 403469.175991861673538, 3782919.735503560397774 ], [ 403468.870803662284743, 3782920.040691759902984 ], [ 403468.260427263507154, 3782920.040691759902984 ], [ 403467.955239064118359, 3782920.345879959408194 ], [ 403464.598168870783411, 3782920.345879959408194 ] ] ] } },
{ "type": "Feature", "properties": { "confidence": 0.71214556694030762, "class": 1 }, "geometry": { "type": "Polygon", "coordinates": [ [ [ 403430.722278738569003, 3782904.170905391685665 ], [ 403430.417090539180208, 3782903.865717192180455 ], [ 403430.111902339791413, 3782903.865717192180455 ], [ 403430.111902339791413, 3782903.560528992675245 ], [ 403429.501525941013824, 3782902.950152594130486 ], [ 403428.891149542236235, 3782902.950152594130486 ], [ 403428.280773143458646, 3782902.339776195120066 ], [ 403428.280773143458646, 3782902.034587996080518 ], [ 403427.975584944069851, 3782901.729399796575308 ], [ 403427.975584944069851, 3782901.119023397564888 ], [ 403427.670396744681057, 3782900.813835198525339 ], [ 403427.670396744681057, 3782900.20345879951492 ], [ 403427.365208545292262, 3782899.89827060000971 ], [ 403427.365208545292262, 3782898.982706001959741 ], [ 403427.060020345903467, 3782898.677517802454531 ], [ 403427.060020345903467, 3782898.372329603414983 ], [ 403426.754832146514673, 3782898.067141403909773 ], [ 403426.754832146514673, 3782897.456765004899353 ], [ 403427.060020345903467, 3782897.151576805859804 ], [ 403428.280773143458646, 3782897.151576805859804 ], [ 403429.19633774162503, 3782898.067141403909773 ], [ 403429.501525941013824, 3782898.067141403909773 ], [ 403429.501525941013824, 3782898.372329603414983 ], [ 403429.806714140402619, 3782898.677517802454531 ], [ 403430.111902339791413, 3782898.677517802454531 ], [ 403430.417090539180208, 3782898.982706001959741 ], [ 403430.722278738569003, 3782898.982706001959741 ], [ 403431.332655137346592, 3782899.593082400970161 ], [ 403431.637843336735386, 3782899.593082400970161 ], [ 403431.943031536124181, 3782899.89827060000971 ], [ 403432.248219735512976, 3782899.89827060000971 ], [ 403432.55340793490177, 3782900.20345879951492 ], [ 403432.858596134290565, 3782900.20345879951492 ], [ 403433.163784333679359, 3782900.508646999020129 ], [ 403433.163784333679359, 3782903.255340793635696 ], [ 403432.858596134290565, 3782903.560528992675245 ], [ 403432.55340793490177, 3782903.560528992675245 ], [ 403432.248219735512976, 3782903.865717192180455 ], [ 403431.943031536124181, 3782903.865717192180455 ], [ 403431.637843336735386, 3782904.170905391685665 ], [ 403430.722278738569003, 3782904.170905391685665 ] ] ] } },
{ "type": "Feature", "properties": { "confidence": 0.68559944629669189, "class": 1 }, "geometry": { "type": "Polygon", "coordinates": [ [ [ 403529.908443540160079, 3782944.150559511501342 ], [ 403529.603255340771284, 3782943.845371312461793 ], [ 403529.298067141382489, 3782943.845371312461793 ], [ 403528.6876907426049, 3782943.234994913451374 ], [ 403528.6876907426049, 3782942.014242115896195 ], [ 403528.992878941993695, 3782941.709053916390985 ], [ 403528.992878941993695, 3782941.403865717351437 ], [ 403529.298067141382489, 3782941.098677517846227 ], [ 403529.908443540160079, 3782941.098677517846227 ], [ 403530.518819938937668, 3782940.488301118835807 ], [ 403530.824008138326462, 3782940.488301118835807 ], [ 403531.129196337715257, 3782940.183112919796258 ], [ 403531.434384537104052, 3782940.183112919796258 ], [ 403531.739572736492846, 3782939.877924720291048 ], [ 403532.349949135328643, 3782939.877924720291048 ], [ 403532.960325534106232, 3782939.267548321280628 ], [ 403534.181078331661411, 3782939.267548321280628 ], [ 403535.096642929827794, 3782940.183112919796258 ], [ 403535.096642929827794, 3782942.624618514906615 ], [ 403534.791454730439, 3782942.929806713946164 ], [ 403534.791454730439, 3782943.234994913451374 ], [ 403534.486266531050205, 3782943.234994913451374 ], [ 403534.181078331661411, 3782943.540183112956583 ], [ 403533.265513733495027, 3782943.540183112956583 ], [ 403532.960325534106232, 3782943.845371312461793 ], [ 403531.739572736492846, 3782943.845371312461793 ], [ 403531.434384537104052, 3782944.150559511501342 ], [ 403529.908443540160079, 3782944.150559511501342 ] ] ] } },
{ "type": "Feature", "properties": { "confidence": 0.67053109407424927, "class": 1 }, "geometry": { "type": "Polygon", "coordinates": [ [ [ 403546.0834181078244, 3782631.332655137404799 ], [ 403545.167853509658016, 3782630.417090539354831 ], [ 403545.167853509658016, 3782630.111902339849621 ], [ 403544.862665310269222, 3782629.806714140344411 ], [ 403544.862665310269222, 3782629.501525940839201 ], [ 403544.557477110880427, 3782629.196337741799653 ], [ 403544.557477110880427, 3782627.060020345728844 ], [ 403544.252288911491632, 3782626.754832146689296 ], [ 403544.557477110880427, 3782626.449643947184086 ], [ 403544.557477110880427, 3782625.839267548173666 ], [ 403544.862665310269222, 3782625.534079349134117 ], [ 403544.862665310269222, 3782625.228891149628907 ], [ 403545.167853509658016, 3782624.923702950123698 ], [ 403545.167853509658016, 3782624.618514750618488 ], [ 403545.473041709046811, 3782624.313326551578939 ], [ 403545.473041709046811, 3782624.008138352073729 ], [ 403545.778229908435605, 3782623.702950152568519 ], [ 403545.778229908435605, 3782623.092573754023761 ], [ 403546.388606307213195, 3782622.482197355013341 ], [ 403546.388606307213195, 3782622.177009155508131 ], [ 403548.524923702934757, 3782620.040691759902984 ], [ 403548.830111902323551, 3782620.040691759902984 ], [ 403549.135300101712346, 3782619.735503560397774 ], [ 403549.440488301101141, 3782619.735503560397774 ], [ 403549.745676500489935, 3782620.040691759902984 ], [ 403550.05086469987873, 3782620.040691759902984 ], [ 403550.661241098656319, 3782620.651068158913404 ], [ 403550.661241098656319, 3782621.566632756963372 ], [ 403550.966429298045114, 3782621.871820956468582 ], [ 403550.966429298045114, 3782622.177009155508131 ], [ 403551.271617497433908, 3782622.482197355013341 ], [ 403551.271617497433908, 3782622.787385554518551 ], [ 403551.576805696822703, 3782623.092573754023761 ], [ 403551.576805696822703, 3782623.397761953063309 ], [ 403551.881993896211497, 3782623.702950152568519 ], [ 403551.881993896211497, 3782625.839267548173666 ], [ 403550.661241098656319, 3782627.060020345728844 ], [ 403550.661241098656319, 3782627.365208545234054 ], [ 403549.745676500489935, 3782628.280773143284023 ], [ 403549.745676500489935, 3782628.891149542294443 ], [ 403547.914547304157168, 3782630.72227873839438 ], [ 403547.914547304157168, 3782631.02746693789959 ], [ 403547.609359104768373, 3782631.02746693789959 ], [ 403547.304170905379578, 3782631.332655137404799 ], [ 403546.0834181078244, 3782631.332655137404799 ] ] ] } },
{ "type": "Feature", "properties": { "confidence": 0.65277910232543945, "class": 1 }, "geometry": { "type": "Polygon", "coordinates": [ [ [ 403579.043743641930632, 3782927.060020345728844 ], [ 403578.433367243153043, 3782926.449643947184086 ], [ 403578.128179043764248, 3782926.449643947184086 ], [ 403577.517802644986659, 3782925.839267548173666 ], [ 403577.517802644986659, 3782925.534079349134117 ], [ 403577.212614445597865, 3782925.228891149628907 ], [ 403577.212614445597865, 3782923.092573754023761 ], [ 403576.90742624620907, 3782922.787385554518551 ], [ 403576.90742624620907, 3782922.177009155508131 ], [ 403577.212614445597865, 3782921.871820956468582 ], [ 403577.212614445597865, 3782921.566632756963372 ], [ 403578.433367243153043, 3782920.345879959408194 ], [ 403580.569684638874605, 3782920.345879959408194 ], [ 403580.8748728382634, 3782920.651068158913404 ], [ 403581.485249237040989, 3782920.651068158913404 ], [ 403582.095625635818578, 3782921.261444557458162 ], [ 403582.095625635818578, 3782921.566632756963372 ], [ 403582.706002034596168, 3782922.177009155508131 ], [ 403583.011190233984962, 3782922.177009155508131 ], [ 403583.316378433373757, 3782922.482197355013341 ], [ 403583.926754832151346, 3782922.482197355013341 ], [ 403584.231943031540141, 3782922.787385554518551 ], [ 403584.537131230928935, 3782922.787385554518551 ], [ 403584.84231943031773, 3782923.092573754023761 ], [ 403584.84231943031773, 3782925.228891149628907 ], [ 403584.537131230928935, 3782925.534079349134117 ], [ 403584.537131230928935, 3782926.144455747678876 ], [ 403583.011190233984962, 3782926.144455747678876 ], [ 403582.706002034596168, 3782926.449643947184086 ], [ 403582.400813835207373, 3782926.449643947184086 ], [ 403582.095625635818578, 3782926.754832146689296 ], [ 403581.485249237040989, 3782926.754832146689296 ], [ 403581.180061037652194, 3782927.060020345728844 ], [ 403579.043743641930632, 3782927.060020345728844 ] ] ] } },
{ "type": "Feature", "properties": { "confidence": 0.65273064374923706, "class": 1 }, "geometry": { "type": "Polygon", "coordinates": [ [ [ 403513.733468972553965, 3782616.683621566742659 ], [ 403513.123092573776376, 3782616.073245167732239 ], [ 403513.123092573776376, 3782613.631739572621882 ], [ 403513.42828077316517, 3782613.326551373116672 ], [ 403513.42828077316517, 3782612.716174974571913 ], [ 403513.733468972553965, 3782612.410986775066704 ], [ 403514.038657171942759, 3782612.410986775066704 ], [ 403514.343845371331554, 3782612.105798575561494 ], [ 403515.869786368275527, 3782612.105798575561494 ], [ 403516.174974567664322, 3782612.410986775066704 ], [ 403516.480162767053116, 3782612.410986775066704 ], [ 403516.785350966441911, 3782612.716174974571913 ], [ 403516.785350966441911, 3782613.021363174077123 ], [ 403517.090539165830705, 3782613.326551373116672 ], [ 403517.090539165830705, 3782614.547304171137512 ], [ 403516.785350966441911, 3782614.85249237017706 ], [ 403516.785350966441911, 3782615.76805696869269 ], [ 403516.174974567664322, 3782616.378433367237449 ], [ 403515.869786368275527, 3782616.378433367237449 ], [ 403515.564598168886732, 3782616.683621566742659 ], [ 403513.733468972553965, 3782616.683621566742659 ] ] ] } },
{ "type": "Feature", "properties": { "confidence": 0.59683358669281006, "class": 1 }, "geometry": { "type": "Polygon", "coordinates": [ [ [ 403359.61342828074703, 3782879.755849440582097 ], [ 403359.308240081358235, 3782879.450661241076887 ], [ 403358.697863682580646, 3782879.450661241076887 ], [ 403358.697863682580646, 3782879.145473041571677 ], [ 403358.392675483191852, 3782878.840284842532128 ], [ 403358.392675483191852, 3782878.535096643026918 ], [ 403356.866734486247879, 3782877.00915564596653 ], [ 403356.561546286859084, 3782877.00915564596653 ], [ 403356.561546286859084, 3782876.398779247421771 ], [ 403356.866734486247879, 3782876.398779247421771 ], [ 403357.171922685636673, 3782876.093591047916561 ], [ 403357.171922685636673, 3782875.788402848411351 ], [ 403357.477110885025468, 3782875.788402848411351 ], [ 403358.087487283803057, 3782875.178026449866593 ], [ 403358.697863682580646, 3782875.178026449866593 ], [ 403359.003051881969441, 3782874.872838250361383 ], [ 403360.223804679524619, 3782874.872838250361383 ], [ 403360.528992878913414, 3782874.567650050856173 ], [ 403360.834181078360416, 3782874.567650050856173 ], [ 403361.139369277749211, 3782874.872838250361383 ], [ 403361.7497456765268, 3782874.872838250361383 ], [ 403362.054933875915594, 3782874.567650050856173 ], [ 403362.970498474081978, 3782874.567650050856173 ], [ 403363.275686673470773, 3782874.872838250361383 ], [ 403363.580874872859567, 3782874.872838250361383 ], [ 403363.886063072248362, 3782875.178026449866593 ], [ 403363.886063072248362, 3782875.483214648906142 ], [ 403364.191251271637157, 3782875.788402848411351 ], [ 403364.191251271637157, 3782876.70396744646132 ], [ 403364.496439471025951, 3782877.00915564596653 ], [ 403364.496439471025951, 3782879.145473041571677 ], [ 403363.886063072248362, 3782879.145473041571677 ], [ 403363.580874872859567, 3782879.450661241076887 ], [ 403362.970498474081978, 3782879.450661241076887 ], [ 403362.665310274693184, 3782879.755849440582097 ], [ 403359.61342828074703, 3782879.755849440582097 ] ] ] } },
{ "type": "Feature", "properties": { "confidence": 0.59255039691925049, "class": 1 }, "geometry": { "type": "Polygon", "coordinates": [ [ [ 403312.614445574756246, 3782910.885045778006315 ], [ 403312.309257375367451, 3782910.579857578966767 ], [ 403311.698880976589862, 3782910.579857578966767 ], [ 403311.393692777201068, 3782910.274669379461557 ], [ 403311.088504577812273, 3782910.274669379461557 ], [ 403311.088504577812273, 3782909.969481179956347 ], [ 403310.478128179034684, 3782909.359104781411588 ], [ 403310.172939979645889, 3782909.359104781411588 ], [ 403310.172939979645889, 3782909.053916581906378 ], [ 403308.952187182090711, 3782907.8331637843512 ], [ 403308.952187182090711, 3782907.52797558484599 ], [ 403308.646998982701916, 3782907.22278738534078 ], [ 403308.646998982701916, 3782906.002034587785602 ], [ 403308.341810783313122, 3782905.696846388746053 ], [ 403308.341810783313122, 3782904.781281790230423 ], [ 403308.036622583924327, 3782904.476093591190875 ], [ 403308.036622583924327, 3782903.560528992675245 ], [ 403308.341810783313122, 3782903.255340793635696 ], [ 403308.341810783313122, 3782902.950152594130486 ], [ 403308.646998982701916, 3782902.644964394625276 ], [ 403308.952187182090711, 3782902.644964394625276 ], [ 403309.257375381479505, 3782902.339776195120066 ], [ 403309.5625635808683, 3782902.339776195120066 ], [ 403309.867751780257095, 3782902.034587996080518 ], [ 403310.783316378423478, 3782902.034587996080518 ], [ 403311.088504577812273, 3782901.729399796575308 ], [ 403311.698880976589862, 3782901.729399796575308 ], [ 403312.004069175978657, 3782902.034587996080518 ], [ 403312.309257375367451, 3782902.034587996080518 ], [ 403312.614445574756246, 3782902.339776195120066 ], [ 403312.614445574756246, 3782902.644964394625276 ], [ 403312.919633774145041, 3782902.950152594130486 ], [ 403312.919633774145041, 3782903.255340793635696 ], [ 403314.445574771089014, 3782904.781281790230423 ], [ 403314.750762970477808, 3782904.781281790230423 ], [ 403315.666327568644192, 3782905.696846388746053 ], [ 403315.666327568644192, 3782906.307222787290812 ], [ 403315.971515768032987, 3782906.612410986796021 ], [ 403315.971515768032987, 3782907.22278738534078 ], [ 403316.276703967421781, 3782907.52797558484599 ], [ 403316.276703967421781, 3782908.13835198385641 ], [ 403315.971515768032987, 3782908.443540182895958 ], [ 403315.971515768032987, 3782909.359104781411588 ], [ 403316.276703967421781, 3782909.664292980451137 ], [ 403316.276703967421781, 3782910.274669379461557 ], [ 403315.666327568644192, 3782910.885045778006315 ], [ 403312.614445574756246, 3782910.885045778006315 ] ] ] } },
{ "type": "Feature", "properties": { "confidence": 0.55258083343505859, "class": 1 }, "geometry": { "type": "Polygon", "coordinates": [ [ [ 403692.878942014242057, 3782686.266531027387828 ], [ 403692.573753814853262, 3782685.961342827882618 ], [ 403692.573753814853262, 3782685.350966429337859 ], [ 403692.878942014242057, 3782685.045778229832649 ], [ 403692.878942014242057, 3782683.519837232772261 ], [ 403693.184130213630851, 3782683.214649033732712 ], [ 403693.184130213630851, 3782682.299084435217083 ], [ 403693.489318413019646, 3782681.993896236177534 ], [ 403693.489318413019646, 3782681.688708036672324 ], [ 403695.930824008130003, 3782681.688708036672324 ], [ 403695.930824008130003, 3782685.656154628843069 ], [ 403695.625635808741208, 3782685.961342827882618 ], [ 403695.015259409963619, 3782685.961342827882618 ], [ 403694.710071210574824, 3782686.266531027387828 ], [ 403692.878942014242057, 3782686.266531027387828 ] ] ] } },
{ "type": "Feature", "properties": { "confidence": 0.50417214632034302, "class": 1 }, "geometry": { "type": "Polygon", "coordinates": [ [ [ 403666.327568667358719, 3782584.63886063080281 ], [ 403666.022380467969924, 3782584.3336724312976 ], [ 403665.412004069192335, 3782584.3336724312976 ], [ 403665.10681586980354, 3782584.02848423179239 ], [ 403664.801627670414746, 3782584.02848423179239 ], [ 403664.496439471025951, 3782583.723296032752842 ], [ 403664.191251271637157, 3782583.723296032752842 ], [ 403664.191251271637157, 3782583.112919633742422 ], [ 403663.886063072248362, 3782582.807731434237212 ], [ 403663.886063072248362, 3782582.502543235197663 ], [ 403663.580874872859567, 3782582.197355035692453 ], [ 403663.275686673470773, 3782582.197355035692453 ], [ 403663.275686673470773, 3782581.892166836187243 ], [ 403662.970498474081978, 3782581.586978636682034 ], [ 403662.970498474081978, 3782581.281790437642485 ], [ 403662.665310274693184, 3782580.976602238137275 ], [ 403662.665310274693184, 3782577.61953204497695 ], [ 403662.970498474081978, 3782577.31434384547174 ], [ 403662.970498474081978, 3782577.00915564596653 ], [ 403663.275686673470773, 3782576.70396744646132 ], [ 403663.275686673470773, 3782576.398779247421771 ], [ 403663.886063072248362, 3782576.398779247421771 ], [ 403664.191251271637157, 3782576.093591047916561 ], [ 403664.496439471025951, 3782576.093591047916561 ], [ 403664.801627670414746, 3782575.788402848411351 ], [ 403666.327568667358719, 3782575.788402848411351 ], [ 403666.937945066136308, 3782576.398779247421771 ], [ 403666.937945066136308, 3782577.31434384547174 ], [ 403667.853509664302692, 3782578.229908443521708 ], [ 403668.158697863691486, 3782578.229908443521708 ], [ 403668.463886063080281, 3782578.535096643026918 ], [ 403669.07426246185787, 3782578.535096643026918 ], [ 403669.07426246185787, 3782579.145473041571677 ], [ 403669.379450661246665, 3782579.450661241076887 ], [ 403669.379450661246665, 3782580.061037640087306 ], [ 403669.07426246185787, 3782580.366225839126855 ], [ 403669.07426246185787, 3782582.502543235197663 ], [ 403668.769074262469076, 3782582.807731434237212 ], [ 403668.769074262469076, 3782583.723296032752842 ], [ 403668.463886063080281, 3782584.02848423179239 ], [ 403668.463886063080281, 3782584.3336724312976 ], [ 403668.158697863691486, 3782584.63886063080281 ], [ 403666.327568667358719, 3782584.63886063080281 ] ] ] } },
{ "type": "Feature", "properties": { "confidence": 0.47937223315238953, "class": 1 }, "geometry": { "type": "Polygon", "coordinates": [ [ [ 403296.439471007150132, 3782786.673448626883328 ], [ 403296.13428280770313, 3782786.368260427378118 ], [ 403295.523906408925541, 3782786.368260427378118 ], [ 403293.082400813815184, 3782783.926754832267761 ], [ 403293.082400813815184, 3782783.316378433257341 ], [ 403292.777212614426389, 3782783.011190233752131 ], [ 403292.777212614426389, 3782781.485249237157404 ], [ 403293.082400813815184, 3782781.180061037652194 ], [ 403293.082400813815184, 3782780.874872838146985 ], [ 403293.387589013203979, 3782780.569684638641775 ], [ 403293.692777212592773, 3782780.569684638641775 ], [ 403294.303153611370362, 3782779.959308240097016 ], [ 403294.608341810759157, 3782779.959308240097016 ], [ 403295.218718209536746, 3782779.348931841086596 ], [ 403295.829094608314335, 3782779.348931841086596 ], [ 403296.13428280770313, 3782779.043743642047048 ], [ 403296.744659206538927, 3782779.043743642047048 ], [ 403297.049847405927721, 3782778.738555442541838 ], [ 403298.575788402871694, 3782778.738555442541838 ], [ 403298.880976602260489, 3782779.043743642047048 ], [ 403299.491353001038078, 3782779.043743642047048 ], [ 403299.796541200426873, 3782779.348931841086596 ], [ 403300.712105798593257, 3782779.348931841086596 ], [ 403301.017293997982051, 3782779.654120040591806 ], [ 403301.322482197370846, 3782779.654120040591806 ], [ 403301.62767039675964, 3782779.959308240097016 ], [ 403301.62767039675964, 3782783.316378433257341 ], [ 403301.322482197370846, 3782783.621566632762551 ], [ 403301.322482197370846, 3782783.926754832267761 ], [ 403301.017293997982051, 3782784.23194303130731 ], [ 403300.712105798593257, 3782784.23194303130731 ], [ 403300.406917599204462, 3782784.53713123081252 ], [ 403300.101729399815667, 3782784.53713123081252 ], [ 403299.796541200426873, 3782784.84231943031773 ], [ 403299.186164801649284, 3782784.84231943031773 ], [ 403297.965412004094105, 3782786.063072227872908 ], [ 403297.660223804705311, 3782786.063072227872908 ], [ 403297.355035605316516, 3782786.368260427378118 ], [ 403296.744659206538927, 3782786.368260427378118 ], [ 403296.439471007150132, 3782786.673448626883328 ] ] ] } },
{ "type": "Feature", "properties": { "confidence": 0.47915399074554443, "class": 1 }, "geometry": { "type": "Polygon", "coordinates": [ [ [ 403469.786368260451127, 3782928.891149542294443 ], [ 403469.481180061062332, 3782928.585961342789233 ], [ 403469.175991861673538, 3782928.585961342789233 ], [ 403469.175991861673538, 3782928.280773143284023 ], [ 403468.565615462895948, 3782927.670396744739264 ], [ 403468.565615462895948, 3782925.839267548173666 ], [ 403468.870803662284743, 3782925.839267548173666 ], [ 403469.175991861673538, 3782925.534079349134117 ], [ 403469.786368260451127, 3782925.534079349134117 ], [ 403470.091556459839921, 3782925.228891149628907 ], [ 403471.922685656172689, 3782925.228891149628907 ], [ 403472.227873855561484, 3782924.923702950123698 ], [ 403472.533062054950278, 3782924.923702950123698 ], [ 403472.533062054950278, 3782928.280773143284023 ], [ 403472.227873855561484, 3782928.585961342789233 ], [ 403471.922685656172689, 3782928.585961342789233 ], [ 403471.617497456783894, 3782928.891149542294443 ], [ 403469.786368260451127, 3782928.891149542294443 ] ] ] } },
{ "type": "Feature", "properties": { "confidence": 0.46056240797042847, "class": 1 }, "geometry": { "type": "Polygon", "coordinates": [ [ [ 403289.420142421149649, 3782920.956256357952952 ], [ 403289.114954221760854, 3782920.651068158913404 ], [ 403289.114954221760854, 3782915.76805696869269 ], [ 403289.420142421149649, 3782915.46286876918748 ], [ 403289.420142421149649, 3782915.15768056968227 ], [ 403289.725330620538443, 3782914.85249237017706 ], [ 403290.640895218704827, 3782914.85249237017706 ], [ 403290.946083418093622, 3782915.15768056968227 ], [ 403293.082400813815184, 3782915.15768056968227 ], [ 403293.387589013203979, 3782914.85249237017706 ], [ 403294.913530010147952, 3782914.85249237017706 ], [ 403295.218718209536746, 3782915.15768056968227 ], [ 403295.523906408925541, 3782915.15768056968227 ], [ 403295.523906408925541, 3782915.46286876918748 ], [ 403295.829094608314335, 3782915.76805696869269 ], [ 403296.13428280770313, 3782915.76805696869269 ], [ 403296.13428280770313, 3782916.988809766247869 ], [ 403295.829094608314335, 3782917.293997965287417 ], [ 403295.829094608314335, 3782919.430315361358225 ], [ 403295.523906408925541, 3782919.735503560397774 ], [ 403295.523906408925541, 3782920.040691759902984 ], [ 403295.218718209536746, 3782920.345879959408194 ], [ 403294.913530010147952, 3782920.345879959408194 ], [ 403294.608341810759157, 3782920.651068158913404 ], [ 403292.472024415037595, 3782920.651068158913404 ], [ 403292.1668362156488, 3782920.956256357952952 ], [ 403289.420142421149649, 3782920.956256357952952 ] ] ] } },
{ "type": "Feature", "properties": { "confidence": 0.45803189277648926, "class": 1 }, "geometry": { "type": "Polygon", "coordinates": [ [ [ 403466.734486266504973, 3782853.81485249241814 ], [ 403466.429298067116179, 3782853.50966429291293 ], [ 403465.513733468949795, 3782853.50966429291293 ], [ 403465.208545269561, 3782853.20447609340772 ], [ 403463.987792472005822, 3782853.20447609340772 ], [ 403463.682604272617027, 3782852.899287894368172 ], [ 403463.377416073228233, 3782852.899287894368172 ], [ 403462.461851475061849, 3782851.983723295852542 ], [ 403462.461851475061849, 3782848.626653102692217 ], [ 403462.767039674450643, 3782848.321464903187007 ], [ 403462.767039674450643, 3782847.711088504642248 ], [ 403463.072227873839438, 3782847.405900305137038 ], [ 403463.072227873839438, 3782847.100712105631828 ], [ 403463.377416073228233, 3782846.79552390659228 ], [ 403464.598168870783411, 3782846.79552390659228 ], [ 403464.903357070172206, 3782847.100712105631828 ], [ 403465.513733468949795, 3782847.100712105631828 ], [ 403465.818921668338589, 3782847.405900305137038 ], [ 403466.124109867727384, 3782847.405900305137038 ], [ 403466.429298067116179, 3782847.711088504642248 ], [ 403466.734486266504973, 3782847.711088504642248 ], [ 403467.650050864671357, 3782848.626653102692217 ], [ 403467.955239064118359, 3782848.626653102692217 ], [ 403467.955239064118359, 3782848.931841302197427 ], [ 403468.260427263507154, 3782849.237029501702636 ], [ 403468.565615462895948, 3782849.237029501702636 ], [ 403468.565615462895948, 3782849.542217700742185 ], [ 403469.175991861673538, 3782850.152594099752605 ], [ 403469.175991861673538, 3782850.762970498297364 ], [ 403469.481180061062332, 3782851.068158697802573 ], [ 403469.481180061062332, 3782852.594099694862962 ], [ 403468.870803662284743, 3782853.20447609340772 ], [ 403468.870803662284743, 3782853.50966429291293 ], [ 403467.650050864671357, 3782853.50966429291293 ], [ 403467.344862665282562, 3782853.81485249241814 ], [ 403466.734486266504973, 3782853.81485249241814 ] ] ] } },
{ "type": "Feature", "properties": { "confidence": 0.44851511716842651, "class": 1 }, "geometry": { "type": "Polygon", "coordinates": [ [ [ 403492.370295015280135, 3782605.086469989735633 ], [ 403492.06510681589134, 3782604.781281790230423 ], [ 403492.06510681589134, 3782602.950152594130486 ], [ 403492.370295015280135, 3782602.644964394625276 ], [ 403492.370295015280135, 3782602.034587996080518 ], [ 403493.591047812835313, 3782600.813835198525339 ], [ 403494.811800610390492, 3782600.813835198525339 ], [ 403495.116988809779286, 3782600.508646999020129 ], [ 403496.337741607334465, 3782600.508646999020129 ], [ 403496.642929806723259, 3782600.813835198525339 ], [ 403496.948118006112054, 3782600.813835198525339 ], [ 403496.948118006112054, 3782603.255340793635696 ], [ 403496.642929806723259, 3782603.560528992675245 ], [ 403496.642929806723259, 3782604.170905391685665 ], [ 403496.03255340794567, 3782604.781281790230423 ], [ 403495.422177009168081, 3782604.781281790230423 ], [ 403495.116988809779286, 3782605.086469989735633 ], [ 403492.370295015280135, 3782605.086469989735633 ] ] ] } },
{ "type": "Feature", "properties": { "confidence": 0.44690105319023132, "class": 1 }, "geometry": { "type": "Polygon", "coordinates": [ [ [ 403546.998982705990784, 3782943.540183112956583 ], [ 403546.998982705990784, 3782942.929806713946164 ], [ 403546.693794506601989, 3782942.624618514906615 ], [ 403546.693794506601989, 3782940.793489318341017 ], [ 403546.998982705990784, 3782940.488301118835807 ], [ 403546.998982705990784, 3782936.215666327625513 ], [ 403547.304170905379578, 3782935.910478128120303 ], [ 403547.609359104768373, 3782935.910478128120303 ], [ 403547.914547304157168, 3782935.605289928615093 ], [ 403549.135300101712346, 3782935.605289928615093 ], [ 403549.440488301101141, 3782935.910478128120303 ], [ 403551.576805696822703, 3782935.910478128120303 ], [ 403551.881993896211497, 3782936.215666327625513 ], [ 403552.492370294989087, 3782936.215666327625513 ], [ 403552.492370294989087, 3782936.520854527130723 ], [ 403553.102746693766676, 3782937.131230925675482 ], [ 403553.40793489315547, 3782937.131230925675482 ], [ 403553.40793489315547, 3782938.96236012224108 ], [ 403553.102746693766676, 3782939.267548321280628 ], [ 403553.102746693766676, 3782939.572736520785838 ], [ 403551.881993896211497, 3782940.793489318341017 ], [ 403551.881993896211497, 3782941.098677517846227 ], [ 403551.576805696822703, 3782941.403865717351437 ], [ 403551.576805696822703, 3782941.709053916390985 ], [ 403551.271617497433908, 3782942.014242115896195 ], [ 403551.271617497433908, 3782942.319430315401405 ], [ 403550.356052899267524, 3782943.234994913451374 ], [ 403549.745676500489935, 3782943.234994913451374 ], [ 403549.440488301101141, 3782943.540183112956583 ], [ 403546.998982705990784, 3782943.540183112956583 ] ] ] } },
{ "type": "Feature", "properties": { "confidence": 0.44041734933853149, "class": 1 }, "geometry": { "type": "Polygon", "coordinates": [ [ [ 403530.213631739548873, 3782882.807731434237212 ], [ 403530.213631739548873, 3782882.197355035692453 ], [ 403529.908443540160079, 3782881.892166836187243 ], [ 403529.908443540160079, 3782881.281790437642485 ], [ 403530.213631739548873, 3782880.976602238137275 ], [ 403530.213631739548873, 3782880.671414038632065 ], [ 403530.518819938937668, 3782880.366225839126855 ], [ 403530.518819938937668, 3782880.061037640087306 ], [ 403531.434384537104052, 3782879.145473041571677 ], [ 403531.739572736492846, 3782879.145473041571677 ], [ 403532.044760935881641, 3782878.840284842532128 ], [ 403533.875890132272616, 3782878.840284842532128 ], [ 403534.181078331661411, 3782879.145473041571677 ], [ 403534.486266531050205, 3782879.145473041571677 ], [ 403535.096642929827794, 3782879.755849440582097 ], [ 403535.096642929827794, 3782881.892166836187243 ], [ 403534.486266531050205, 3782882.502543235197663 ], [ 403534.486266531050205, 3782882.807731434237212 ], [ 403530.213631739548873, 3782882.807731434237212 ] ] ] } },
{ "type": "Feature", "properties": { "confidence": 0.43862602114677429, "class": 1 }, "geometry": { "type": "Polygon", "coordinates": [ [ [ 403665.412004069192335, 3782655.747711088508368 ], [ 403665.10681586980354, 3782655.442522889003158 ], [ 403665.10681586980354, 3782653.306205493398011 ], [ 403665.412004069192335, 3782653.001017293892801 ], [ 403665.71719226858113, 3782653.001017293892801 ], [ 403666.327568667358719, 3782652.390640895348042 ], [ 403667.243133265525103, 3782652.390640895348042 ], [ 403667.853509664302692, 3782651.780264496337622 ], [ 403669.684638860635459, 3782651.780264496337622 ], [ 403669.989827060024254, 3782652.085452695842832 ], [ 403670.295015259413049, 3782652.085452695842832 ], [ 403670.905391658190638, 3782652.695829094387591 ], [ 403670.905391658190638, 3782653.916581891942769 ], [ 403670.295015259413049, 3782654.526958290953189 ], [ 403670.295015259413049, 3782654.832146490458399 ], [ 403669.684638860635459, 3782655.442522889003158 ], [ 403669.684638860635459, 3782655.747711088508368 ], [ 403667.853509664302692, 3782655.747711088508368 ], [ 403667.548321464913897, 3782655.442522889003158 ], [ 403665.71719226858113, 3782655.442522889003158 ], [ 403665.412004069192335, 3782655.747711088508368 ] ] ] } },
{ "type": "Feature", "properties": { "confidence": 0.40327551960945129, "class": 1 }, "geometry": { "type": "Polygon", "coordinates": [ [ [ 403557.680569684656803, 3782894.710071210749447 ], [ 403557.375381485268008, 3782894.404883011244237 ], [ 403557.070193285879213, 3782894.404883011244237 ], [ 403556.765005086490419, 3782894.099694811739028 ], [ 403556.765005086490419, 3782892.878942014183849 ], [ 403557.070193285879213, 3782892.573753814678639 ], [ 403557.375381485268008, 3782892.573753814678639 ], [ 403557.680569684656803, 3782892.268565615639091 ], [ 403557.985757884045597, 3782892.268565615639091 ], [ 403558.596134282823186, 3782891.658189216628671 ], [ 403558.596134282823186, 3782891.047812818083912 ], [ 403558.290946083434392, 3782890.742624618578702 ], [ 403560.122075279767159, 3782890.742624618578702 ], [ 403561.342828077322338, 3782891.963377416133881 ], [ 403561.342828077322338, 3782893.794506612233818 ], [ 403560.732451678544749, 3782894.404883011244237 ], [ 403560.122075279767159, 3782894.404883011244237 ], [ 403559.816887080378365, 3782894.710071210749447 ], [ 403557.680569684656803, 3782894.710071210749447 ] ] ] } },
{ "type": "Feature", "properties": { "confidence": 0.3964383602142334, "class": 1 }, "geometry": { "type": "Polygon", "coordinates": [ [ [ 403684.333672431355808, 3782686.571719226893038 ], [ 403684.028484231967013, 3782686.266531027387828 ], [ 403683.723296032578219, 3782686.266531027387828 ], [ 403683.418107833189424, 3782685.961342827882618 ], [ 403683.418107833189424, 3782684.740590030327439 ], [ 403683.11291963380063, 3782684.435401831287891 ], [ 403683.11291963380063, 3782683.825025432277471 ], [ 403682.807731434411835, 3782683.519837232772261 ], [ 403682.807731434411835, 3782682.604272634722292 ], [ 403683.11291963380063, 3782682.299084435217083 ], [ 403683.418107833189424, 3782682.299084435217083 ], [ 403683.723296032578219, 3782681.993896236177534 ], [ 403686.46998982707737, 3782681.993896236177534 ], [ 403686.775178026466165, 3782682.299084435217083 ], [ 403686.775178026466165, 3782682.604272634722292 ], [ 403687.080366225854959, 3782682.909460834227502 ], [ 403687.080366225854959, 3782685.656154628843069 ], [ 403686.775178026466165, 3782685.961342827882618 ], [ 403686.775178026466165, 3782686.266531027387828 ], [ 403686.164801627688576, 3782686.266531027387828 ], [ 403685.859613428299781, 3782686.571719226893038 ], [ 403684.333672431355808, 3782686.571719226893038 ] ] ] } },
{ "type": "Feature", "properties": { "confidence": 0.38323324918746948, "class": 1 }, "geometry": { "type": "Polygon", "coordinates": [ [ [ 403460.325534079340287, 3782875.788402848411351 ], [ 403460.020345879951492, 3782875.483214648906142 ], [ 403459.104781281785108, 3782875.483214648906142 ], [ 403459.104781281785108, 3782875.178026449866593 ], [ 403458.799593082396314, 3782874.872838250361383 ], [ 403458.799593082396314, 3782872.126144455745816 ], [ 403459.104781281785108, 3782871.820956256240606 ], [ 403459.104781281785108, 3782871.210579857695848 ], [ 403459.409969481173903, 3782870.905391658190638 ], [ 403459.409969481173903, 3782870.295015259180218 ], [ 403459.715157680562697, 3782869.989827060140669 ], [ 403459.715157680562697, 3782869.684638860635459 ], [ 403460.020345879951492, 3782869.37945066113025 ], [ 403460.020345879951492, 3782869.07426246162504 ], [ 403460.630722278729081, 3782868.463886063080281 ], [ 403461.546286876895465, 3782868.463886063080281 ], [ 403461.85147507628426, 3782868.769074262585491 ], [ 403462.767039674450643, 3782868.769074262585491 ], [ 403463.072227873839438, 3782868.463886063080281 ], [ 403465.208545269561, 3782868.463886063080281 ], [ 403465.513733468949795, 3782868.769074262585491 ], [ 403465.513733468949795, 3782869.989827060140669 ], [ 403465.208545269561, 3782870.295015259180218 ], [ 403465.208545269561, 3782873.652085452806205 ], [ 403464.598168870783411, 3782874.262461851350963 ], [ 403464.598168870783411, 3782874.567650050856173 ], [ 403464.292980671394616, 3782874.567650050856173 ], [ 403463.377416073228233, 3782875.483214648906142 ], [ 403462.767039674450643, 3782875.483214648906142 ], [ 403462.461851475061849, 3782875.788402848411351 ], [ 403460.325534079340287, 3782875.788402848411351 ] ] ] } },
{ "type": "Feature", "properties": { "confidence": 0.36238110065460205, "class": 1 }, "geometry": { "type": "Polygon", "coordinates": [ [ [ 403378.840284842299297, 3782924.313326551578939 ], [ 403378.535096642910503, 3782924.008138352073729 ], [ 403378.229908443521708, 3782924.008138352073729 ], [ 403378.229908443521708, 3782923.702950152568519 ], [ 403377.924720244132914, 3782923.397761953063309 ], [ 403378.535096642910503, 3782922.787385554518551 ], [ 403378.535096642910503, 3782920.040691759902984 ], [ 403379.145473041688092, 3782919.430315361358225 ], [ 403379.145473041688092, 3782919.125127161853015 ], [ 403380.061037639854476, 3782918.209562563803047 ], [ 403380.97660223802086, 3782918.209562563803047 ], [ 403381.281790437409654, 3782918.514750762842596 ], [ 403381.586978636798449, 3782918.514750762842596 ], [ 403381.586978636798449, 3782918.819938962347806 ], [ 403381.892166836187243, 3782919.125127161853015 ], [ 403382.197355035634246, 3782919.125127161853015 ], [ 403382.50254323502304, 3782919.430315361358225 ], [ 403383.11291963380063, 3782919.430315361358225 ], [ 403383.11291963380063, 3782920.040691759902984 ], [ 403383.418107833189424, 3782920.345879959408194 ], [ 403383.418107833189424, 3782922.482197355013341 ], [ 403383.11291963380063, 3782922.787385554518551 ], [ 403383.11291963380063, 3782923.702950152568519 ], [ 403382.807731434411835, 3782924.008138352073729 ], [ 403382.197355035634246, 3782924.008138352073729 ], [ 403381.892166836187243, 3782924.313326551578939 ], [ 403378.840284842299297, 3782924.313326551578939 ] ] ] } },
{ "type": "Feature", "properties": { "confidence": 0.35561275482177734, "class": 1 }, "geometry": { "type": "Polygon", "coordinates": [ [ [ 403585.452695829095319, 3782989.013224822003394 ], [ 403585.147507629706524, 3782988.708036622498184 ], [ 403584.84231943031773, 3782988.708036622498184 ], [ 403584.537131230928935, 3782988.402848422992975 ], [ 403584.231943031540141, 3782988.402848422992975 ], [ 403583.926754832151346, 3782988.097660223953426 ], [ 403583.621566632762551, 3782988.097660223953426 ], [ 403581.180061037652194, 3782985.656154628843069 ], [ 403581.180061037652194, 3782984.740590030327439 ], [ 403580.8748728382634, 3782984.435401831287891 ], [ 403580.8748728382634, 3782983.519837232772261 ], [ 403581.485249237040989, 3782982.909460834227502 ], [ 403582.095625635818578, 3782982.909460834227502 ], [ 403582.400813835207373, 3782982.604272634722292 ], [ 403583.621566632762551, 3782982.604272634722292 ], [ 403583.926754832151346, 3782982.909460834227502 ], [ 403584.231943031540141, 3782982.909460834227502 ], [ 403584.537131230928935, 3782983.214649033732712 ], [ 403584.84231943031773, 3782983.214649033732712 ], [ 403585.147507629706524, 3782983.519837232772261 ], [ 403585.452695829095319, 3782983.519837232772261 ], [ 403585.452695829095319, 3782983.825025432277471 ], [ 403586.063072227872908, 3782984.435401831287891 ], [ 403586.063072227872908, 3782984.740590030327439 ], [ 403586.368260427261703, 3782985.045778229832649 ], [ 403586.368260427261703, 3782985.350966429337859 ], [ 403586.978636826039292, 3782985.961342827882618 ], [ 403587.283825025428087, 3782985.961342827882618 ], [ 403587.894201424205676, 3782986.571719226893038 ], [ 403587.894201424205676, 3782988.402848422992975 ], [ 403587.589013224816881, 3782988.708036622498184 ], [ 403586.673448626650497, 3782988.708036622498184 ], [ 403586.368260427261703, 3782989.013224822003394 ], [ 403585.452695829095319, 3782989.013224822003394 ] ] ] } },
{ "type": "Feature", "properties": { "confidence": 0.34951433539390564, "class": 1 }, "geometry": { "type": "Polygon", "coordinates": [ [ [ 403704.781281790463254, 3782688.402848422992975 ], [ 403704.476093591074459, 3782688.097660223953426 ], [ 403704.476093591074459, 3782686.876907426398247 ], [ 403704.781281790463254, 3782686.571719226893038 ], [ 403704.781281790463254, 3782685.045778229832649 ], [ 403705.086469989852048, 3782684.740590030327439 ], [ 403705.391658189240843, 3782684.740590030327439 ], [ 403706.307222787407227, 3782683.825025432277471 ], [ 403706.612410986796021, 3782683.825025432277471 ], [ 403706.917599186184816, 3782683.519837232772261 ], [ 403707.527975584962405, 3782683.519837232772261 ], [ 403707.8331637843512, 3782683.825025432277471 ], [ 403708.443540183128789, 3782683.825025432277471 ], [ 403708.748728382517584, 3782684.130213631782681 ], [ 403709.359104781295173, 3782684.130213631782681 ], [ 403709.969481180072762, 3782684.740590030327439 ], [ 403710.274669379461557, 3782684.740590030327439 ], [ 403710.274669379461557, 3782685.961342827882618 ], [ 403709.969481180072762, 3782686.266531027387828 ], [ 403709.969481180072762, 3782686.876907426398247 ], [ 403709.664292980683967, 3782687.182095625437796 ], [ 403709.053916581906378, 3782687.182095625437796 ], [ 403708.748728382517584, 3782687.487283824943006 ], [ 403708.138351983739994, 3782687.487283824943006 ], [ 403707.222787385573611, 3782688.402848422992975 ], [ 403704.781281790463254, 3782688.402848422992975 ] ] ] } },
{ "type": "Feature", "properties": { "confidence": 0.34929552674293518, "class": 1 }, "geometry": { "type": "Polygon", "coordinates": [ [ [ 403320.549338758923113, 3782625.839267548173666 ], [ 403320.244150559534319, 3782625.534079349134117 ], [ 403319.63377416075673, 3782625.534079349134117 ], [ 403319.328585961367935, 3782625.228891149628907 ], [ 403319.02339776197914, 3782625.228891149628907 ], [ 403318.718209562590346, 3782624.923702950123698 ], [ 403318.718209562590346, 3782624.618514750618488 ], [ 403316.88708036619937, 3782622.787385554518551 ], [ 403316.88708036619937, 3782622.482197355013341 ], [ 403316.581892166810576, 3782622.177009155508131 ], [ 403316.581892166810576, 3782621.566632756963372 ], [ 403316.276703967421781, 3782621.261444557458162 ], [ 403316.276703967421781, 3782620.040691759902984 ], [ 403316.88708036619937, 3782619.430315361358225 ], [ 403320.854526958311908, 3782619.430315361358225 ], [ 403321.159715157700703, 3782619.125127161853015 ], [ 403322.075279755867086, 3782619.125127161853015 ], [ 403322.380467955255881, 3782618.819938962347806 ], [ 403324.211597151588649, 3782618.819938962347806 ], [ 403324.516785350977443, 3782619.125127161853015 ], [ 403324.821973550366238, 3782619.125127161853015 ], [ 403324.821973550366238, 3782619.430315361358225 ], [ 403325.127161749755032, 3782619.735503560397774 ], [ 403325.127161749755032, 3782620.345879959408194 ], [ 403325.432349949143827, 3782620.651068158913404 ], [ 403325.432349949143827, 3782620.956256357952952 ], [ 403325.127161749755032, 3782621.261444557458162 ], [ 403325.127161749755032, 3782621.566632756963372 ], [ 403324.821973550366238, 3782621.871820956468582 ], [ 403324.821973550366238, 3782622.482197355013341 ], [ 403324.516785350977443, 3782622.787385554518551 ], [ 403324.516785350977443, 3782623.092573754023761 ], [ 403324.211597151588649, 3782623.397761953063309 ], [ 403324.211597151588649, 3782624.618514750618488 ], [ 403323.906408952199854, 3782624.923702950123698 ], [ 403323.906408952199854, 3782625.228891149628907 ], [ 403323.601220752811059, 3782625.534079349134117 ], [ 403323.296032553422265, 3782625.534079349134117 ], [ 403322.99084435403347, 3782625.839267548173666 ], [ 403320.549338758923113, 3782625.839267548173666 ] ] ] } },
{ "type": "Feature", "properties": { "confidence": 0.2860679030418396, "class": 1 }, "geometry": { "type": "Polygon", "coordinates": [ [ [ 403771.3123092573951, 3782531.230925737414509 ], [ 403771.3123092573951, 3782530.92573753837496 ], [ 403770.091556459839921, 3782529.704984740819782 ], [ 403770.091556459839921, 3782528.179043743759394 ], [ 403771.617497456783894, 3782526.653102746699005 ], [ 403771.922685656172689, 3782526.653102746699005 ], [ 403772.227873855561484, 3782526.347914547193795 ], [ 403772.838250254339073, 3782526.347914547193795 ], [ 403773.143438453727867, 3782526.042726347688586 ], [ 403774.059003051894251, 3782526.042726347688586 ], [ 403774.364191251283046, 3782526.347914547193795 ], [ 403774.66937945067184, 3782526.347914547193795 ], [ 403775.584944048838224, 3782527.263479145243764 ], [ 403775.890132248227019, 3782527.263479145243764 ], [ 403776.500508647004608, 3782527.873855544254184 ], [ 403776.805696846393403, 3782527.873855544254184 ], [ 403776.805696846393403, 3782528.789420142304152 ], [ 403776.500508647004608, 3782529.094608341809362 ], [ 403776.500508647004608, 3782529.704984740819782 ], [ 403775.890132248227019, 3782530.315361139364541 ], [ 403775.890132248227019, 3782530.62054933886975 ], [ 403775.584944048838224, 3782530.62054933886975 ], [ 403775.27975584944943, 3782530.92573753837496 ], [ 403775.27975584944943, 3782531.230925737414509 ], [ 403771.3123092573951, 3782531.230925737414509 ] ] ] } },
{ "type": "Feature", "properties": { "confidence": 0.28548696637153625, "class": 1 }, "geometry": { "type": "Polygon", "coordinates": [ [ [ 403292.472024415037595, 3782899.287894201464951 ], [ 403292.1668362156488, 3782898.982706001959741 ], [ 403291.861648016260006, 3782898.982706001959741 ], [ 403291.556459816871211, 3782898.677517802454531 ], [ 403291.251271617482416, 3782898.677517802454531 ], [ 403290.640895218704827, 3782898.067141403909773 ], [ 403290.640895218704827, 3782897.761953204404563 ], [ 403290.335707019316033, 3782897.456765004899353 ], [ 403290.335707019316033, 3782897.151576805859804 ], [ 403289.725330620538443, 3782896.541200406849384 ], [ 403289.725330620538443, 3782896.236012207344174 ], [ 403289.420142421149649, 3782895.930824008304626 ], [ 403289.420142421149649, 3782894.710071210749447 ], [ 403289.725330620538443, 3782894.404883011244237 ], [ 403290.030518819927238, 3782894.404883011244237 ], [ 403290.335707019316033, 3782894.099694811739028 ], [ 403290.640895218704827, 3782894.099694811739028 ], [ 403291.556459816871211, 3782893.184130213689059 ], [ 403291.861648016260006, 3782893.184130213689059 ], [ 403292.472024415037595, 3782892.573753814678639 ], [ 403293.692777212592773, 3782892.573753814678639 ], [ 403294.303153611370362, 3782893.184130213689059 ], [ 403294.303153611370362, 3782893.489318413194269 ], [ 403296.439471007150132, 3782895.625635808799416 ], [ 403296.439471007150132, 3782895.930824008304626 ], [ 403296.744659206538927, 3782896.236012207344174 ], [ 403296.439471007150132, 3782896.541200406849384 ], [ 403296.439471007150132, 3782897.456765004899353 ], [ 403296.13428280770313, 3782897.761953204404563 ], [ 403296.13428280770313, 3782898.067141403909773 ], [ 403295.829094608314335, 3782898.372329603414983 ], [ 403295.829094608314335, 3782898.677517802454531 ], [ 403295.523906408925541, 3782898.677517802454531 ], [ 403295.218718209536746, 3782898.982706001959741 ], [ 403295.218718209536746, 3782899.287894201464951 ], [ 403292.472024415037595, 3782899.287894201464951 ] ] ] } },
{ "type": "Feature", "properties": { "confidence": 0.26325720548629761, "class": 1 }, "geometry": { "type": "Polygon", "coordinates": [ [ [ 403688.301119023410138, 3782764.394710071384907 ], [ 403687.995930824021343, 3782764.089521871879697 ], [ 403686.775178026466165, 3782764.089521871879697 ], [ 403686.775178026466165, 3782763.784333672374487 ], [ 403686.46998982707737, 3782763.479145472869277 ], [ 403685.249237029522192, 3782763.479145472869277 ], [ 403685.249237029522192, 3782763.173957273829728 ], [ 403684.333672431355808, 3782762.258392675314099 ], [ 403684.333672431355808, 3782759.511698881164193 ], [ 403684.028484231967013, 3782759.206510681658983 ], [ 403684.028484231967013, 3782758.901322482153773 ], [ 403683.723296032578219, 3782758.596134282648563 ], [ 403683.723296032578219, 3782755.849440488498658 ], [ 403684.028484231967013, 3782755.849440488498658 ], [ 403684.333672431355808, 3782755.544252288993448 ], [ 403684.333672431355808, 3782755.239064089488238 ], [ 403685.554425228910986, 3782755.239064089488238 ], [ 403686.164801627688576, 3782754.62868769094348 ], [ 403687.385554425243754, 3782754.62868769094348 ], [ 403687.690742624632549, 3782754.933875889983028 ], [ 403689.521871820965316, 3782754.933875889983028 ], [ 403689.827060020354111, 3782755.239064089488238 ], [ 403689.827060020354111, 3782756.459816887043417 ], [ 403690.132248219742905, 3782756.765005086548626 ], [ 403690.132248219742905, 3782757.070193286053836 ], [ 403690.742624618520495, 3782757.680569684598595 ], [ 403690.742624618520495, 3782757.985757884103805 ], [ 403691.658189216686878, 3782758.901322482153773 ], [ 403691.658189216686878, 3782759.511698881164193 ], [ 403691.963377416075673, 3782759.816887080203742 ], [ 403691.963377416075673, 3782761.64801627676934 ], [ 403691.658189216686878, 3782761.95320447627455 ], [ 403690.742624618520495, 3782761.95320447627455 ], [ 403690.4374364191317, 3782762.258392675314099 ], [ 403690.132248219742905, 3782762.258392675314099 ], [ 403689.216683621576522, 3782763.173957273829728 ], [ 403689.216683621576522, 3782764.089521871879697 ], [ 403688.606307222798932, 3782764.089521871879697 ], [ 403688.301119023410138, 3782764.394710071384907 ] ] ] } },
{ "type": "Feature", "properties": { "confidence": 0.26072278618812561, "class": 1 }, "geometry": { "type": "Polygon", "coordinates": [ [ [ 403334.89318413019646, 3782899.89827060000971 ], [ 403334.587995930807665, 3782899.593082400970161 ], [ 403334.28280773141887, 3782899.593082400970161 ], [ 403334.28280773141887, 3782899.287894201464951 ], [ 403333.977619532030076, 3782898.982706001959741 ], [ 403333.977619532030076, 3782898.372329603414983 ], [ 403332.756866734474897, 3782897.151576805859804 ], [ 403332.756866734474897, 3782896.846388606354594 ], [ 403332.451678535086103, 3782896.541200406849384 ], [ 403332.451678535086103, 3782895.930824008304626 ], [ 403332.756866734474897, 3782895.625635808799416 ], [ 403332.756866734474897, 3782894.404883011244237 ], [ 403332.451678535086103, 3782894.099694811739028 ], [ 403332.451678535086103, 3782891.658189216628671 ], [ 403332.146490335697308, 3782891.353001017123461 ], [ 403332.146490335697308, 3782891.047812818083912 ], [ 403332.451678535086103, 3782890.742624618578702 ], [ 403332.451678535086103, 3782890.132248219568282 ], [ 403333.062054933863692, 3782889.521871821023524 ], [ 403336.419125127140433, 3782889.521871821023524 ], [ 403337.029501525918022, 3782890.132248219568282 ], [ 403337.334689725306816, 3782890.132248219568282 ], [ 403337.639877924695611, 3782890.437436419073492 ], [ 403337.639877924695611, 3782891.047812818083912 ], [ 403338.860630722250789, 3782892.268565615639091 ], [ 403339.165818921639584, 3782892.268565615639091 ], [ 403339.165818921639584, 3782892.573753814678639 ], [ 403339.776195320475381, 3782893.184130213689059 ], [ 403339.776195320475381, 3782893.794506612233818 ], [ 403339.471007121086586, 3782894.099694811739028 ], [ 403339.471007121086586, 3782894.404883011244237 ], [ 403338.860630722250789, 3782895.015259409788996 ], [ 403338.860630722250789, 3782895.320447609294206 ], [ 403338.555442522861995, 3782895.320447609294206 ], [ 403338.2502543234732, 3782895.625635808799416 ], [ 403338.2502543234732, 3782895.930824008304626 ], [ 403337.639877924695611, 3782896.541200406849384 ], [ 403337.639877924695611, 3782897.761953204404563 ], [ 403337.334689725306816, 3782898.067141403909773 ], [ 403337.334689725306816, 3782898.677517802454531 ], [ 403337.029501525918022, 3782898.982706001959741 ], [ 403337.029501525918022, 3782899.593082400970161 ], [ 403336.724313326529227, 3782899.89827060000971 ], [ 403334.89318413019646, 3782899.89827060000971 ] ] ] } },
{ "type": "Feature", "properties": { "confidence": 0.25585943460464478, "class": 1 }, "geometry": { "type": "Polygon", "coordinates": [ [ [ 403649.237029501528013, 3782439.064089521765709 ], [ 403648.931841302139219, 3782438.758901322260499 ], [ 403648.626653102750424, 3782438.758901322260499 ], [ 403648.32146490336163, 3782438.45371312322095 ], [ 403647.71108850458404, 3782438.45371312322095 ], [ 403647.405900305195246, 3782438.14852492371574 ], [ 403646.795523906417657, 3782438.14852492371574 ], [ 403646.185147507640067, 3782437.538148524705321 ], [ 403646.185147507640067, 3782437.232960325665772 ], [ 403645.879959308251273, 3782436.927772126160562 ], [ 403645.879959308251273, 3782436.012207528110594 ], [ 403645.574771108862478, 3782435.707019328605384 ], [ 403645.574771108862478, 3782434.486266531050205 ], [ 403645.269582909473684, 3782434.181078331544995 ], [ 403645.269582909473684, 3782432.349949135445058 ], [ 403644.964394710084889, 3782432.044760935939848 ], [ 403644.964394710084889, 3782430.21363173937425 ], [ 403644.659206510696094, 3782429.908443540334702 ], [ 403644.659206510696094, 3782427.772126144263893 ], [ 403645.269582909473684, 3782427.772126144263893 ], [ 403645.574771108862478, 3782427.466937945224345 ], [ 403648.016276703972835, 3782427.466937945224345 ], [ 403648.32146490336163, 3782427.772126144263893 ], [ 403648.931841302139219, 3782427.772126144263893 ], [ 403649.542217700916808, 3782428.382502543274313 ], [ 403649.847405900305603, 3782428.382502543274313 ], [ 403650.457782299083192, 3782428.992878941819072 ], [ 403650.457782299083192, 3782430.51881993887946 ], [ 403651.068158697860781, 3782431.12919633788988 ], [ 403651.068158697860781, 3782431.739572736434639 ], [ 403651.373346897249576, 3782432.044760935939848 ], [ 403651.373346897249576, 3782432.655137334484607 ], [ 403651.67853509663837, 3782432.960325533989817 ], [ 403651.67853509663837, 3782434.181078331544995 ], [ 403651.983723296027165, 3782434.486266531050205 ], [ 403651.983723296027165, 3782434.791454730555415 ], [ 403651.67853509663837, 3782435.096642929594964 ], [ 403651.67853509663837, 3782436.317395727150142 ], [ 403651.373346897249576, 3782436.622583926655352 ], [ 403651.373346897249576, 3782437.232960325665772 ], [ 403650.762970498471987, 3782437.843336724210531 ], [ 403650.762970498471987, 3782438.14852492371574 ], [ 403649.847405900305603, 3782439.064089521765709 ], [ 403649.237029501528013, 3782439.064089521765709 ] ] ] } }
]
}
