{
"type": "FeatureCollection",
"name": "cell_00128_pre",
"crs": { "type": "name", "properties": { "name": "urn:ogc:def:crs:EPSG::32611" } },
"features": [
{ "type": "Feature", "properties": { "confidence": 0.34740197658538818, "class": 1 }, "geometry": { "type": "Polygon", "coordinates": [ [ [ 353626.754832146514673, 3773131.739572736434639 ], [ 353626.754832146514673, 3773131.434384536929429 ], [ 353626.449643947125878, 3773131.12919633788988 ], [ 353623.702950152568519, 3773131.12919633788988 ], [ 353623.397761953179725, 3773130.82400813838467 ], [ 353623.09257375379093, 3773130.82400813838467 ], [ 353622.787385554402135, 3773130.51881993887946 ], [ 353622.482197355013341, 3773130.51881993887946 ], [ 353621.566632756846957, 3773129.603255340829492 ], [ 353621.261444557458162, 3773129.603255340829492 ], [ 353620.956256358069368, 3773129.298067141324282 ], [ 353620.651068158680573, 3773129.298067141324282 ], [ 353619.1251271617366, 3773127.772126144263893 ], [ 353619.1251271617366, 3773126.856561546213925 ], [ 353636.826042726344895, 3773126.856561546213925 ], [ 353636.826042726344895, 3773127.161749745719135 ], [ 353635.910478128178511, 3773128.077314343769103 ], [ 353635.910478128178511, 3773128.382502543274313 ], [ 353635.605289928789716, 3773128.382502543274313 ], [ 353634.689725330623332, 3773129.298067141324282 ], [ 353634.689725330623332, 3773129.603255340829492 ], [ 353634.384537131234538, 3773129.908443540334702 ], [ 353634.384537131234538, 3773130.21363173937425 ], [ 353634.079348931845743, 3773130.51881993887946 ], [ 353633.774160732456949, 3773130.51881993887946 ], [ 353633.163784333679359, 3773131.12919633788988 ], [ 353632.858596134290565, 3773131.12919633788988 ], [ 353632.55340793490177, 3773131.434384536929429 ], [ 353631.943031536124181, 3773131.434384536929429 ], [ 353631.637843336735386, 3773131.739572736434639 ], [ 353626.754832146514673, 3773131.739572736434639 ] ] ] } },
{ "type": "Feature", "properties": { "confidence": 0.30358916521072388, "class": 1 }, "geometry": { "type": "Polygon", "coordinates": [ [ [ 353533.062054933863692, 3773259.003051882144064 ], [ 353532.756866734474897, 3773258.697863682638854 ], [ 353531.841302136308514, 3773258.697863682638854 ], [ 353531.536113936919719, 3773258.392675483133644 ], [ 353531.230925737530924, 3773258.392675483133644 ], [ 353530.620549338753335, 3773257.782299084588885 ], [ 353530.315361139364541, 3773257.782299084588885 ], [ 353530.315361139364541, 3773257.171922685578465 ], [ 353530.010172939975746, 3773256.866734486073256 ], [ 353530.010172939975746, 3773255.951169888023287 ], [ 353529.704984740586951, 3773255.645981688518077 ], [ 353529.704984740586951, 3773255.340793489478528 ], [ 353529.399796541198157, 3773255.035605289973319 ], [ 353529.094608341809362, 3773255.035605289973319 ], [ 353529.094608341809362, 3773254.730417090468109 ], [ 353528.789420142420568, 3773254.425228890962899 ], [ 353528.789420142420568, 3773254.12004069192335 ], [ 353528.484231943031773, 3773253.81485249241814 ], [ 353528.484231943031773, 3773252.288911495357752 ], [ 353530.010172939975746, 3773252.288911495357752 ], [ 353530.315361139364541, 3773251.983723295852542 ], [ 353534.89318413019646, 3773251.983723295852542 ], [ 353535.198372329585254, 3773252.288911495357752 ], [ 353535.503560528974049, 3773252.288911495357752 ], [ 353536.113936927751638, 3773252.899287894368172 ], [ 353536.113936927751638, 3773253.20447609340772 ], [ 353537.639877924695611, 3773254.730417090468109 ], [ 353537.639877924695611, 3773255.035605289973319 ], [ 353537.945066124084406, 3773255.340793489478528 ], [ 353537.945066124084406, 3773255.951169888023287 ], [ 353538.2502543234732, 3773256.256358087528497 ], [ 353538.2502543234732, 3773256.561546287033707 ], [ 353538.555442522861995, 3773256.866734486073256 ], [ 353538.555442522861995, 3773257.477110885083675 ], [ 353538.2502543234732, 3773257.477110885083675 ], [ 353537.945066124084406, 3773257.782299084588885 ], [ 353537.945066124084406, 3773258.087487283628434 ], [ 353537.334689725306816, 3773258.087487283628434 ], [ 353537.029501525918022, 3773258.392675483133644 ], [ 353536.724313326529227, 3773258.392675483133644 ], [ 353536.419125127140433, 3773258.697863682638854 ], [ 353534.28280773141887, 3773258.697863682638854 ], [ 353533.977619532030076, 3773259.003051882144064 ], [ 353533.062054933863692, 3773259.003051882144064 ] ] ] } },
{ "type": "Feature", "properties": { "confidence": 0.29442170262336731, "class": 1 }, "geometry": { "type": "Polygon", "coordinates": [ [ [ 353947.507629705010913, 3772902.848423194140196 ], [ 353947.202441505622119, 3772902.543234995100647 ], [ 353945.371312309231143, 3772902.543234995100647 ], [ 353945.066124109842349, 3772902.238046795595437 ], [ 353944.45574771106476, 3772902.238046795595437 ], [ 353944.150559511675965, 3772901.932858596090227 ], [ 353944.150559511675965, 3772901.627670396585017 ], [ 353943.540183112898376, 3772901.017293998040259 ], [ 353943.540183112898376, 3772900.406917599029839 ], [ 353943.234994913509581, 3772900.10172939999029 ], [ 353943.234994913509581, 3772899.79654120048508 ], [ 353942.929806714120787, 3772899.491353000979871 ], [ 353942.929806714120787, 3772898.880976602435112 ], [ 353942.624618514731992, 3772898.575788402929902 ], [ 353942.929806714120787, 3772898.270600203424692 ], [ 353942.929806714120787, 3772897.660223804879934 ], [ 353943.540183112898376, 3772897.049847405869514 ], [ 353943.540183112898376, 3772896.134282807819545 ], [ 353943.84537131228717, 3772895.829094608314335 ], [ 353943.84537131228717, 3772895.218718209769577 ], [ 353944.150559511675965, 3772895.218718209769577 ], [ 353944.45574771106476, 3772894.913530010264367 ], [ 353944.45574771106476, 3772893.692777212709188 ], [ 353944.150559511675965, 3772893.387589013203979 ], [ 353944.45574771106476, 3772893.082400813698769 ], [ 353951.169888097676449, 3772893.082400813698769 ], [ 353951.475076297065243, 3772893.387589013203979 ], [ 353952.085452695842832, 3772893.387589013203979 ], [ 353952.085452695842832, 3772893.692777212709188 ], [ 353952.695829094620422, 3772894.303153611253947 ], [ 353952.695829094620422, 3772894.608341810759157 ], [ 353953.001017294009216, 3772894.913530010264367 ], [ 353953.001017294009216, 3772895.218718209769577 ], [ 353953.306205493398011, 3772895.523906408809125 ], [ 353953.306205493398011, 3772896.744659206364304 ], [ 353953.611393692786805, 3772897.049847405869514 ], [ 353953.611393692786805, 3772898.880976602435112 ], [ 353953.306205493398011, 3772899.186164801474661 ], [ 353953.306205493398011, 3772900.406917599029839 ], [ 353952.390640895231627, 3772901.322482197545469 ], [ 353952.085452695842832, 3772901.322482197545469 ], [ 353951.780264496454038, 3772901.627670396585017 ], [ 353951.475076297065243, 3772901.627670396585017 ], [ 353951.169888097676449, 3772901.932858596090227 ], [ 353950.864699898287654, 3772901.932858596090227 ], [ 353950.559511698898859, 3772902.238046795595437 ], [ 353949.94913530012127, 3772902.238046795595437 ], [ 353949.643947100732476, 3772902.543234995100647 ], [ 353949.338758901343681, 3772902.543234995100647 ], [ 353949.033570701954886, 3772902.848423194140196 ], [ 353947.507629705010913, 3772902.848423194140196 ] ] ] } }
]
}
