{
"type": "FeatureCollection",
"name": "cell_00227_pre",
"crs": { "type": "name", "properties": { "name": "urn:ogc:def:crs:EPSG::32611" } },
"features": [
{ "type": "Feature", "properties": { "confidence": 0.57046353816986084, "class": 1 }, "geometry": { "type": "Polygon", "coordinates": [ [ [ 357721.464903357089497, 3775529.908443540334702 ], [ 357721.159715157700703, 3775529.603255340829492 ], [ 357719.938962360145524, 3775529.603255340829492 ], [ 357719.63377416075673, 3775529.298067141324282 ], [ 357719.328585961367935, 3775529.298067141324282 ], [ 357718.107833163812757, 3775528.077314343769103 ], [ 357718.107833163812757, 3775526.856561546213925 ], [ 357724.516785350977443, 3775526.856561546213925 ], [ 357724.516785350977443, 3775528.382502543274313 ], [ 357724.211597151588649, 3775528.687690742779523 ], [ 357724.211597151588649, 3775529.298067141324282 ], [ 357723.906408952199854, 3775529.603255340829492 ], [ 357723.601220752811059, 3775529.603255340829492 ], [ 357723.296032553422265, 3775529.908443540334702 ], [ 357721.464903357089497, 3775529.908443540334702 ] ] ] } },
{ "type": "Feature", "properties": { "confidence": 0.30167722702026367, "class": 1 }, "geometry": { "type": "Polygon", "coordinates": [ [ [ 357699.796541200426873, 3775349.237029501702636 ], [ 357699.491353001038078, 3775348.931841302197427 ], [ 357699.186164801649284, 3775348.931841302197427 ], [ 357699.186164801649284, 3775348.626653102692217 ], [ 357698.2706002034829, 3775347.711088504642248 ], [ 357698.2706002034829, 3775346.79552390659228 ], [ 357699.186164801649284, 3775345.87995930807665 ], [ 357701.62767039675964, 3775345.87995930807665 ], [ 357702.23804679553723, 3775346.49033570708707 ], [ 357702.543234994926024, 3775346.49033570708707 ], [ 357703.153611393703613, 3775347.100712105631828 ], [ 357703.153611393703613, 3775348.626653102692217 ], [ 357702.848423194314819, 3775348.931841302197427 ], [ 357702.543234994926024, 3775348.931841302197427 ], [ 357702.23804679553723, 3775349.237029501702636 ], [ 357699.796541200426873, 3775349.237029501702636 ] ] ] } }
]
}
