{
"type": "FeatureCollection",
"name": "cell_00534_pre",
"crs": { "type": "name", "properties": { "name": "urn:ogc:def:crs:EPSG::32611" } },
"features": [
{ "type": "Feature", "properties": { "confidence": 0.91258347034454346, "class": 1 }, "geometry": { "type": "Polygon", "coordinates": [ [ [ 404425.33062054932816, 3783395.218718209769577 ], [ 404425.025432349939365, 3783394.913530010264367 ], [ 404424.72024415055057, 3783394.913530010264367 ], [ 404424.72024415055057, 3783393.997965412214398 ], [ 404424.109867751772981, 3783393.387589013203979 ], [ 404424.109867751772981, 3783391.556459817104042 ], [ 404424.415055951161776, 3783391.556459817104042 ], [ 404424.72024415055057, 3783391.251271617598832 ], [ 404425.025432349939365, 3783391.556459817104042 ], [ 404425.940996948105749, 3783391.556459817104042 ], [ 404426.246185147494543, 3783391.251271617598832 ], [ 404427.772126144438516, 3783391.251271617598832 ], [ 404428.077314343827311, 3783391.556459817104042 ], [ 404428.382502543216106, 3783391.556459817104042 ], [ 404428.6876907426049, 3783391.86164801614359 ], [ 404428.6876907426049, 3783393.082400813698769 ], [ 404428.077314343827311, 3783393.692777212709188 ], [ 404427.161749745660927, 3783393.692777212709188 ], [ 404426.551373346883338, 3783394.303153611253947 ], [ 404426.551373346883338, 3783394.608341810759157 ], [ 404426.246185147494543, 3783394.913530010264367 ], [ 404425.635808748716954, 3783394.913530010264367 ], [ 404425.33062054932816, 3783395.218718209769577 ] ] ] } },
{ "type": "Feature", "properties": { "confidence": 0.51235604286193848, "class": 1 }, "geometry": { "type": "Polygon", "coordinates": [ [ [ 404468.972533062042203, 3783056.459816887043417 ], [ 404468.667344862653408, 3783056.154628687538207 ], [ 404468.362156663264614, 3783056.154628687538207 ], [ 404468.362156663264614, 3783054.62868769094348 ], [ 404468.056968463875819, 3783054.32349949143827 ], [ 404468.056968463875819, 3783054.01831129193306 ], [ 404468.362156663264614, 3783053.71312309242785 ], [ 404468.362156663264614, 3783052.797558494377881 ], [ 404471.719226856541354, 3783052.797558494377881 ], [ 404472.024415055930149, 3783053.102746693883091 ], [ 404473.245167853485327, 3783053.102746693883091 ], [ 404473.550356052874122, 3783053.407934893388301 ], [ 404473.855544252262916, 3783053.407934893388301 ], [ 404474.160732451651711, 3783053.71312309242785 ], [ 404474.160732451651711, 3783054.01831129193306 ], [ 404473.245167853485327, 3783054.933875889983028 ], [ 404473.245167853485327, 3783055.239064089488238 ], [ 404472.634791454707738, 3783055.849440488498658 ], [ 404472.329603255318943, 3783055.849440488498658 ], [ 404472.024415055930149, 3783056.154628687538207 ], [ 404471.41403865715256, 3783056.154628687538207 ], [ 404471.108850457763765, 3783056.459816887043417 ], [ 404468.972533062042203, 3783056.459816887043417 ] ] ] } },
{ "type": "Feature", "properties": { "confidence": 0.50566130876541138, "class": 1 }, "geometry": { "type": "Polygon", "coordinates": [ [ [ 404547.71108850458404, 3783515.15768056968227 ], [ 404547.100712105806451, 3783514.547304171137512 ], [ 404547.100712105806451, 3783512.716174974571913 ], [ 404547.405900305195246, 3783512.410986775066704 ], [ 404547.405900305195246, 3783510.274669379461557 ], [ 404547.71108850458404, 3783509.969481179956347 ], [ 404547.71108850458404, 3783509.664292980451137 ], [ 404548.016276703972835, 3783509.664292980451137 ], [ 404548.32146490336163, 3783509.359104781411588 ], [ 404548.32146490336163, 3783509.053916581906378 ], [ 404549.847405900305603, 3783507.52797558484599 ], [ 404550.152594099694397, 3783507.52797558484599 ], [ 404550.457782299083192, 3783507.22278738534078 ], [ 404550.762970498471987, 3783507.22278738534078 ], [ 404551.068158697860781, 3783506.917599186301231 ], [ 404551.373346897249576, 3783506.917599186301231 ], [ 404551.67853509663837, 3783506.612410986796021 ], [ 404552.28891149541596, 3783506.612410986796021 ], [ 404552.594099694804754, 3783506.307222787290812 ], [ 404553.509664292971138, 3783506.307222787290812 ], [ 404553.814852492359933, 3783506.002034587785602 ], [ 404554.730417090526316, 3783506.002034587785602 ], [ 404555.035605289915111, 3783505.696846388746053 ], [ 404555.340793489303906, 3783505.696846388746053 ], [ 404555.6459816886927, 3783505.391658189240843 ], [ 404556.866734486247879, 3783505.391658189240843 ], [ 404557.171922685636673, 3783505.696846388746053 ], [ 404557.171922685636673, 3783506.002034587785602 ], [ 404557.477110885025468, 3783506.307222787290812 ], [ 404557.171922685636673, 3783506.307222787290812 ], [ 404556.866734486247879, 3783506.612410986796021 ], [ 404556.866734486247879, 3783507.52797558484599 ], [ 404557.171922685636673, 3783507.8331637843512 ], [ 404557.171922685636673, 3783508.13835198385641 ], [ 404556.866734486247879, 3783508.443540182895958 ], [ 404556.866734486247879, 3783509.053916581906378 ], [ 404556.561546286859084, 3783509.053916581906378 ], [ 404556.256358087470289, 3783509.359104781411588 ], [ 404556.256358087470289, 3783509.969481179956347 ], [ 404555.951169888081495, 3783510.274669379461557 ], [ 404555.951169888081495, 3783510.885045778006315 ], [ 404555.6459816886927, 3783511.190233977511525 ], [ 404555.6459816886927, 3783513.326551373116672 ], [ 404554.425228891137522, 3783514.547304171137512 ], [ 404552.28891149541596, 3783514.547304171137512 ], [ 404551.983723296027165, 3783514.85249237017706 ], [ 404551.068158697860781, 3783514.85249237017706 ], [ 404550.762970498471987, 3783515.15768056968227 ], [ 404547.71108850458404, 3783515.15768056968227 ] ] ] } },
{ "type": "Feature", "properties": { "confidence": 0.4851033091545105, "class": 1 }, "geometry": { "type": "Polygon", "coordinates": [ [ [ 404482.095625635818578, 3783459.308240081183612 ], [ 404481.790437436429784, 3783459.003051882144064 ], [ 404481.790437436429784, 3783458.697863682638854 ], [ 404481.485249237040989, 3783458.392675483133644 ], [ 404481.485249237040989, 3783458.087487283628434 ], [ 404481.790437436429784, 3783457.782299084588885 ], [ 404481.790437436429784, 3783456.561546287033707 ], [ 404482.400813835207373, 3783455.951169888023287 ], [ 404483.621566632762551, 3783455.951169888023287 ], [ 404483.926754832151346, 3783456.256358087528497 ], [ 404484.84231943031773, 3783456.256358087528497 ], [ 404485.147507629706524, 3783456.561546287033707 ], [ 404485.452695829095319, 3783456.561546287033707 ], [ 404485.757884028484114, 3783456.866734486073256 ], [ 404486.063072227872908, 3783456.866734486073256 ], [ 404486.063072227872908, 3783457.477110885083675 ], [ 404485.757884028484114, 3783457.477110885083675 ], [ 404484.537131230928935, 3783458.697863682638854 ], [ 404484.231943031540141, 3783458.697863682638854 ], [ 404483.926754832151346, 3783459.003051882144064 ], [ 404483.316378433373757, 3783459.003051882144064 ], [ 404483.011190233984962, 3783459.308240081183612 ], [ 404482.095625635818578, 3783459.308240081183612 ] ] ] } },
{ "type": "Feature", "properties": { "confidence": 0.35752305388450623, "class": 1 }, "geometry": { "type": "Polygon", "coordinates": [ [ [ 404529.094608341809362, 3783447.711088504642248 ], [ 404529.094608341809362, 3783446.79552390659228 ], [ 404527.873855544254184, 3783445.574771109037101 ], [ 404527.873855544254184, 3783445.269582909531891 ], [ 404527.568667344865389, 3783444.964394710026681 ], [ 404527.568667344865389, 3783444.048830111976713 ], [ 404532.146490335697308, 3783444.048830111976713 ], [ 404532.146490335697308, 3783445.269582909531891 ], [ 404531.536113936919719, 3783445.87995930807665 ], [ 404531.536113936919719, 3783446.18514750758186 ], [ 404531.230925737530924, 3783446.49033570708707 ], [ 404531.230925737530924, 3783446.79552390659228 ], [ 404530.620549338753335, 3783447.405900305137038 ], [ 404530.315361139364541, 3783447.405900305137038 ], [ 404530.010172939975746, 3783447.711088504642248 ], [ 404529.094608341809362, 3783447.711088504642248 ] ] ] } },
{ "type": "Feature", "properties": { "confidence": 0.30319830775260925, "class": 1 }, "geometry": { "type": "Polygon", "coordinates": [ [ [ 404406.714140386553481, 3783458.697863682638854 ], [ 404406.408952187164687, 3783458.392675483133644 ], [ 404404.883011190220714, 3783458.392675483133644 ], [ 404404.577822990831919, 3783458.087487283628434 ], [ 404404.272634791443124, 3783458.087487283628434 ], [ 404403.96744659205433, 3783457.782299084588885 ], [ 404403.96744659205433, 3783456.561546287033707 ], [ 404403.662258392665535, 3783456.256358087528497 ], [ 404403.662258392665535, 3783455.340793489478528 ], [ 404403.96744659205433, 3783455.035605289973319 ], [ 404403.96744659205433, 3783454.730417090468109 ], [ 404404.577822990831919, 3783454.12004069192335 ], [ 404405.798575788387097, 3783454.12004069192335 ], [ 404406.714140386553481, 3783453.20447609340772 ], [ 404407.019328585942276, 3783453.20447609340772 ], [ 404407.93489318410866, 3783452.288911495357752 ], [ 404408.545269582886249, 3783452.288911495357752 ], [ 404408.850457782275043, 3783452.594099694862962 ], [ 404408.545269582886249, 3783452.899287894368172 ], [ 404408.545269582886249, 3783455.645981688518077 ], [ 404408.240081383497454, 3783455.951169888023287 ], [ 404408.240081383497454, 3783456.866734486073256 ], [ 404407.93489318410866, 3783457.171922685578465 ], [ 404407.93489318410866, 3783457.477110885083675 ], [ 404407.629704984719865, 3783457.782299084588885 ], [ 404407.629704984719865, 3783458.087487283628434 ], [ 404407.32451678533107, 3783458.392675483133644 ], [ 404407.32451678533107, 3783458.697863682638854 ], [ 404406.714140386553481, 3783458.697863682638854 ] ] ] } },
{ "type": "Feature", "properties": { "confidence": 0.27058693766593933, "class": 1 }, "geometry": { "type": "Polygon", "coordinates": [ [ [ 404510.172939979645889, 3783178.229908443521708 ], [ 404509.5625635808683, 3783177.61953204497695 ], [ 404509.5625635808683, 3783175.788402848411351 ], [ 404509.867751780257095, 3783175.483214648906142 ], [ 404509.867751780257095, 3783175.178026449866593 ], [ 404510.478128179034684, 3783174.567650050856173 ], [ 404510.783316378423478, 3783174.567650050856173 ], [ 404511.088504577812273, 3783174.262461851350963 ], [ 404512.309257375367451, 3783174.262461851350963 ], [ 404513.224821973533835, 3783175.178026449866593 ], [ 404513.224821973533835, 3783177.31434384547174 ], [ 404512.309257375367451, 3783178.229908443521708 ], [ 404510.172939979645889, 3783178.229908443521708 ] ] ] } }
]
}
