{
"type": "FeatureCollection",
"name": "cell_00161_pre",
"crs": { "type": "name", "properties": { "name": "urn:ogc:def:crs:EPSG::32611" } },
"features": [
{ "type": "Feature", "properties": { "confidence": 0.37502267956733704, "class": 1 }, "geometry": { "type": "Polygon", "coordinates": [ [ [ 355541.810783316381276, 3774445.574771109037101 ], [ 355541.505595116992481, 3774445.269582909531891 ], [ 355540.590030518826097, 3774445.269582909531891 ], [ 355540.284842319437303, 3774444.964394710026681 ], [ 355540.284842319437303, 3774444.659206510521472 ], [ 355540.590030518826097, 3774444.354018311481923 ], [ 355540.590030518826097, 3774444.048830111976713 ], [ 355547.609359104768373, 3774444.048830111976713 ], [ 355547.609359104768373, 3774444.659206510521472 ], [ 355547.304170905379578, 3774444.964394710026681 ], [ 355547.304170905379578, 3774445.269582909531891 ], [ 355546.998982705990784, 3774445.269582909531891 ], [ 355546.693794506601989, 3774445.574771109037101 ], [ 355541.810783316381276, 3774445.574771109037101 ] ] ] } },
{ "type": "Feature", "properties": { "confidence": 0.3559863269329071, "class": 1 }, "geometry": { "type": "Polygon", "coordinates": [ [ [ 355408.748728382517584, 3774097.049847405869514 ], [ 355408.443540183128789, 3774096.744659206364304 ], [ 355407.8331637843512, 3774096.744659206364304 ], [ 355407.222787385573611, 3774096.134282807819545 ], [ 355407.222787385573611, 3774095.829094608314335 ], [ 355406.917599186184816, 3774095.523906408809125 ], [ 355406.917599186184816, 3774095.218718209769577 ], [ 355406.307222787407227, 3774094.608341810759157 ], [ 355406.307222787407227, 3774094.303153611253947 ], [ 355406.002034588018432, 3774093.997965412214398 ], [ 355406.002034588018432, 3774092.47202441515401 ], [ 355417.599186164792627, 3774092.47202441515401 ], [ 355417.599186164792627, 3774093.082400813698769 ], [ 355417.904374364181422, 3774093.387589013203979 ], [ 355417.293997965403832, 3774093.997965412214398 ], [ 355417.293997965403832, 3774094.303153611253947 ], [ 355416.988809766015038, 3774094.608341810759157 ], [ 355416.988809766015038, 3774094.913530010264367 ], [ 355415.15768056968227, 3774096.744659206364304 ], [ 355414.547304170904681, 3774096.744659206364304 ], [ 355414.242115971515886, 3774097.049847405869514 ], [ 355408.748728382517584, 3774097.049847405869514 ] ] ] } },
{ "type": "Feature", "properties": { "confidence": 0.34578564763069153, "class": 1 }, "geometry": { "type": "Polygon", "coordinates": [ [ [ 355733.468972533068154, 3774456.256358087528497 ], [ 355733.163784333679359, 3774455.951169888023287 ], [ 355732.55340793490177, 3774455.951169888023287 ], [ 355732.248219735512976, 3774455.645981688518077 ], [ 355732.248219735512976, 3774453.81485249241814 ], [ 355732.55340793490177, 3774453.50966429291293 ], [ 355732.55340793490177, 3774451.983723295852542 ], [ 355732.858596134290565, 3774451.678535096812993 ], [ 355732.858596134290565, 3774449.847405900247395 ], [ 355732.55340793490177, 3774449.542217700742185 ], [ 355732.55340793490177, 3774447.405900305137038 ], [ 355732.248219735512976, 3774447.100712105631828 ], [ 355732.248219735512976, 3774445.269582909531891 ], [ 355732.55340793490177, 3774444.964394710026681 ], [ 355734.994913530012127, 3774444.964394710026681 ], [ 355735.300101729400922, 3774444.659206510521472 ], [ 355735.605289928789716, 3774444.964394710026681 ], [ 355738.351983723288868, 3774444.964394710026681 ], [ 355738.351983723288868, 3774452.288911495357752 ], [ 355738.046795523900073, 3774452.594099694862962 ], [ 355738.046795523900073, 3774453.50966429291293 ], [ 355737.741607324511278, 3774453.81485249241814 ], [ 355737.741607324511278, 3774454.12004069192335 ], [ 355737.131230925733689, 3774454.730417090468109 ], [ 355737.131230925733689, 3774455.035605289973319 ], [ 355736.826042726344895, 3774455.035605289973319 ], [ 355736.215666327567305, 3774455.645981688518077 ], [ 355735.605289928789716, 3774455.645981688518077 ], [ 355735.300101729400922, 3774455.951169888023287 ], [ 355734.384537131234538, 3774455.951169888023287 ], [ 355734.079348931845743, 3774456.256358087528497 ], [ 355733.468972533068154, 3774456.256358087528497 ] ] ] } },
{ "type": "Feature", "properties": { "confidence": 0.26687702536582947, "class": 1 }, "geometry": { "type": "Polygon", "coordinates": [ [ [ 355325.127161749755032, 3774464.801627670414746 ], [ 355324.821973550366238, 3774464.496439470909536 ], [ 355324.516785350977443, 3774464.496439470909536 ], [ 355324.211597151588649, 3774464.191251271404326 ], [ 355324.211597151588649, 3774463.886063072364777 ], [ 355322.99084435403347, 3774462.665310274809599 ], [ 355322.99084435403347, 3774462.360122075304389 ], [ 355322.685656154644676, 3774462.054933875799179 ], [ 355322.685656154644676, 3774461.444557477254421 ], [ 355322.99084435403347, 3774461.444557477254421 ], [ 355323.296032553422265, 3774461.139369277749211 ], [ 355324.821973550366238, 3774461.139369277749211 ], [ 355325.127161749755032, 3774460.834181078244001 ], [ 355326.653102746699005, 3774460.834181078244001 ], [ 355326.9582909460878, 3774461.139369277749211 ], [ 355327.263479145476595, 3774461.139369277749211 ], [ 355327.263479145476595, 3774462.360122075304389 ], [ 355326.9582909460878, 3774462.665310274809599 ], [ 355326.9582909460878, 3774462.970498473849148 ], [ 355326.653102746699005, 3774463.275686673354357 ], [ 355326.653102746699005, 3774464.191251271404326 ], [ 355326.042726347921416, 3774464.801627670414746 ], [ 355325.127161749755032, 3774464.801627670414746 ] ] ] } }
]
}
