{
"type": "FeatureCollection",
"name": "cell_00188_pre",
"crs": { "type": "name", "properties": { "name": "urn:ogc:def:crs:EPSG::32611" } },
"features": [
{ "type": "Feature", "properties": { "confidence": 0.507252037525177, "class": 1 }, "geometry": { "type": "Polygon", "coordinates": [ [ [ 356993.591047812835313, 3773381.688708036672324 ], [ 356993.285859613446519, 3773381.383519837167114 ], [ 356992.980671414057724, 3773381.383519837167114 ], [ 356992.06510681589134, 3773380.467955239117146 ], [ 356991.759918616502546, 3773380.467955239117146 ], [ 356991.149542217724957, 3773379.857578840106726 ], [ 356990.844354018336162, 3773379.857578840106726 ], [ 356990.844354018336162, 3773379.247202441561967 ], [ 356990.539165818947367, 3773378.942014242056757 ], [ 356990.539165818947367, 3773378.636826042551547 ], [ 356990.233977619558573, 3773378.331637843511999 ], [ 356990.233977619558573, 3773377.721261444501579 ], [ 356989.928789420169778, 3773377.416073244996369 ], [ 356989.928789420169778, 3773377.11088504595682 ], [ 356989.623601220780984, 3773376.80569684645161 ], [ 356989.623601220780984, 3773376.19532044744119 ], [ 356989.318413021392189, 3773375.890132248401642 ], [ 356989.318413021392189, 3773374.669379450846463 ], [ 356989.013224821945187, 3773374.364191251341254 ], [ 356989.013224821945187, 3773372.838250254280865 ], [ 356989.318413021392189, 3773372.838250254280865 ], [ 356989.623601220780984, 3773372.533062054775655 ], [ 356990.233977619558573, 3773372.533062054775655 ], [ 356990.539165818947367, 3773372.838250254280865 ], [ 356991.149542217724957, 3773372.838250254280865 ], [ 356991.454730417113751, 3773373.143438453786075 ], [ 356991.759918616502546, 3773373.143438453786075 ], [ 356992.370295015280135, 3773373.753814852330834 ], [ 356993.285859613446519, 3773373.753814852330834 ], [ 356993.591047812835313, 3773374.059003051836044 ], [ 356994.201424211612903, 3773374.059003051836044 ], [ 356994.506612411001697, 3773374.364191251341254 ], [ 356995.116988809779286, 3773374.364191251341254 ], [ 356996.03255340794567, 3773375.279755849391222 ], [ 356996.03255340794567, 3773380.773143438622355 ], [ 356995.422177009168081, 3773381.383519837167114 ], [ 356995.116988809779286, 3773381.383519837167114 ], [ 356994.811800610390492, 3773381.688708036672324 ], [ 356993.591047812835313, 3773381.688708036672324 ] ] ] } },
{ "type": "Feature", "properties": { "confidence": 0.33588442206382751, "class": 1 }, "geometry": { "type": "Polygon", "coordinates": [ [ [ 356638.962360122066457, 3772826.856561546213925 ], [ 356638.657171922677662, 3772826.551373346708715 ], [ 356638.351983723288868, 3772826.551373346708715 ], [ 356638.351983723288868, 3772825.330620549153537 ], [ 356638.657171922677662, 3772825.025432350113988 ], [ 356638.657171922677662, 3772823.4994913530536 ], [ 356640.793489318399224, 3772823.4994913530536 ], [ 356641.098677517788019, 3772823.80467955255881 ], [ 356641.403865717176814, 3772823.80467955255881 ], [ 356641.403865717176814, 3772824.109867751598358 ], [ 356641.709053916565608, 3772824.415055951103568 ], [ 356641.709053916565608, 3772825.330620549153537 ], [ 356642.014242115954403, 3772825.635808748658746 ], [ 356642.014242115954403, 3772826.246185147669166 ], [ 356641.403865717176814, 3772826.856561546213925 ], [ 356638.962360122066457, 3772826.856561546213925 ] ] ] } },
{ "type": "Feature", "properties": { "confidence": 0.30407524108886719, "class": 1 }, "geometry": { "type": "Polygon", "coordinates": [ [ [ 356680.162767039670143, 3772944.659206510521472 ], [ 356679.857578840281349, 3772944.354018311481923 ], [ 356679.247202441503759, 3772944.354018311481923 ], [ 356678.942014242114965, 3772944.048830111976713 ], [ 356678.942014242114965, 3772943.743641912471503 ], [ 356678.63682604272617, 3772943.438453712966293 ], [ 356678.63682604272617, 3772943.133265513926744 ], [ 356678.331637843337376, 3772942.828077314421535 ], [ 356678.331637843337376, 3772942.217700915411115 ], [ 356678.026449643948581, 3772941.912512716371566 ], [ 356678.026449643948581, 3772941.607324516866356 ], [ 356677.721261444559786, 3772941.302136317361146 ], [ 356677.721261444559786, 3772940.996948117855936 ], [ 356677.416073245170992, 3772940.691759918816388 ], [ 356677.416073245170992, 3772940.386571719311178 ], [ 356677.110885045782197, 3772940.081383519805968 ], [ 356677.110885045782197, 3772939.776195320300758 ], [ 356676.805696846393403, 3772939.471007121261209 ], [ 356676.805696846393403, 3772938.555442522745579 ], [ 356676.195320447615813, 3772937.945066124200821 ], [ 356676.195320447615813, 3772935.503560529090464 ], [ 356676.500508647004608, 3772935.198372329585254 ], [ 356677.110885045782197, 3772935.198372329585254 ], [ 356677.416073245170992, 3772934.893184130080044 ], [ 356678.942014242114965, 3772934.893184130080044 ], [ 356679.552390640892554, 3772934.282807731535286 ], [ 356679.857578840281349, 3772934.282807731535286 ], [ 356680.162767039670143, 3772933.977619532030076 ], [ 356681.688708036614116, 3772933.977619532030076 ], [ 356681.993896236002911, 3772934.282807731535286 ], [ 356681.993896236002911, 3772934.587995931040496 ], [ 356682.299084435391705, 3772934.893184130080044 ], [ 356682.299084435391705, 3772935.503560529090464 ], [ 356682.6042726347805, 3772935.808748728595674 ], [ 356682.6042726347805, 3772937.639877924695611 ], [ 356682.299084435391705, 3772937.945066124200821 ], [ 356682.299084435391705, 3772938.860630722250789 ], [ 356681.993896236002911, 3772939.165818921755999 ], [ 356681.993896236002911, 3772940.691759918816388 ], [ 356682.299084435391705, 3772940.996948117855936 ], [ 356682.299084435391705, 3772941.302136317361146 ], [ 356682.6042726347805, 3772941.607324516866356 ], [ 356682.6042726347805, 3772942.522889114916325 ], [ 356682.909460834169295, 3772942.828077314421535 ], [ 356682.909460834169295, 3772943.438453712966293 ], [ 356682.6042726347805, 3772943.743641912471503 ], [ 356682.6042726347805, 3772944.048830111976713 ], [ 356682.299084435391705, 3772944.354018311481923 ], [ 356681.993896236002911, 3772944.354018311481923 ], [ 356681.688708036614116, 3772944.659206510521472 ], [ 356680.162767039670143, 3772944.659206510521472 ] ] ] } },
{ "type": "Feature", "properties": { "confidence": 0.25319162011146545, "class": 1 }, "geometry": { "type": "Polygon", "coordinates": [ [ [ 356663.987792472005822, 3772895.218718209769577 ], [ 356663.377416073228233, 3772894.608341810759157 ], [ 356663.377416073228233, 3772894.303153611253947 ], [ 356663.072227873839438, 3772893.997965412214398 ], [ 356663.072227873839438, 3772892.47202441515401 ], [ 356667.650050864671357, 3772892.47202441515401 ], [ 356667.650050864671357, 3772894.303153611253947 ], [ 356667.344862665282562, 3772894.608341810759157 ], [ 356667.344862665282562, 3772894.913530010264367 ], [ 356667.039674465893768, 3772894.913530010264367 ], [ 356666.734486266504973, 3772895.218718209769577 ], [ 356663.987792472005822, 3772895.218718209769577 ] ] ] } }
]
}
