{
"type": "FeatureCollection",
"name": "cell_00209_pre",
"crs": { "type": "name", "properties": { "name": "urn:ogc:def:crs:EPSG::32611" } },
"features": [
{ "type": "Feature", "properties": { "confidence": 0.43943694233894348, "class": 1 }, "geometry": { "type": "Polygon", "coordinates": [ [ [ 357583.519837232946884, 3775648.016276704147458 ], [ 357583.214649033558089, 3775647.711088504642248 ], [ 357582.909460834169295, 3775647.711088504642248 ], [ 357582.909460834169295, 3775646.79552390659228 ], [ 357582.6042726347805, 3775646.49033570708707 ], [ 357582.6042726347805, 3775645.269582909531891 ], [ 357582.909460834169295, 3775644.964394710026681 ], [ 357582.909460834169295, 3775644.659206510521472 ], [ 357587.182095625612419, 3775644.659206510521472 ], [ 357586.876907426223624, 3775644.964394710026681 ], [ 357586.876907426223624, 3775645.87995930807665 ], [ 357587.182095625612419, 3775646.18514750758186 ], [ 357587.182095625612419, 3775647.100712105631828 ], [ 357586.57171922683483, 3775647.711088504642248 ], [ 357586.266531027446035, 3775647.711088504642248 ], [ 357585.961342828057241, 3775648.016276704147458 ], [ 357583.519837232946884, 3775648.016276704147458 ] ] ] } },
{ "type": "Feature", "properties": { "confidence": 0.41378200054168701, "class": 1 }, "geometry": { "type": "Polygon", "coordinates": [ [ [ 357589.623601220780984, 3775682.197355035692453 ], [ 357589.318413021392189, 3775681.892166836187243 ], [ 357588.097660223778803, 3775681.892166836187243 ], [ 357588.097660223778803, 3775681.586978636682034 ], [ 357587.792472024390008, 3775681.281790437642485 ], [ 357587.487283825001214, 3775681.281790437642485 ], [ 357586.57171922683483, 3775680.366225839126855 ], [ 357586.57171922683483, 3775680.061037640087306 ], [ 357586.266531027446035, 3775679.755849440582097 ], [ 357586.266531027446035, 3775678.535096643026918 ], [ 357586.57171922683483, 3775678.229908443521708 ], [ 357586.57171922683483, 3775677.924720244016498 ], [ 357588.097660223778803, 3775677.924720244016498 ], [ 357588.402848423167598, 3775677.61953204497695 ], [ 357591.149542217724957, 3775677.61953204497695 ], [ 357591.454730417113751, 3775677.924720244016498 ], [ 357592.370295015280135, 3775677.924720244016498 ], [ 357592.980671414057724, 3775678.535096643026918 ], [ 357592.980671414057724, 3775679.755849440582097 ], [ 357593.285859613446519, 3775680.061037640087306 ], [ 357593.285859613446519, 3775680.976602238137275 ], [ 357592.980671414057724, 3775681.281790437642485 ], [ 357592.980671414057724, 3775681.586978636682034 ], [ 357592.370295015280135, 3775682.197355035692453 ], [ 357589.623601220780984, 3775682.197355035692453 ] ] ] } },
{ "type": "Feature", "properties": { "confidence": 0.35021468997001648, "class": 1 }, "geometry": { "type": "Polygon", "coordinates": [ [ [ 357500.813835198350716, 3775529.908443540334702 ], [ 357500.508646998961922, 3775529.603255340829492 ], [ 357500.508646998961922, 3775529.298067141324282 ], [ 357500.203458799573127, 3775528.992878941819072 ], [ 357500.203458799573127, 3775528.077314343769103 ], [ 357499.898270600184333, 3775527.772126144263893 ], [ 357499.898270600184333, 3775526.856561546213925 ], [ 357504.170905391685665, 3775526.856561546213925 ], [ 357504.170905391685665, 3775528.687690742779523 ], [ 357502.950152594072279, 3775529.908443540334702 ], [ 357500.813835198350716, 3775529.908443540334702 ] ] ] } },
{ "type": "Feature", "properties": { "confidence": 0.34920200705528259, "class": 1 }, "geometry": { "type": "Polygon", "coordinates": [ [ [ 357191.963377416075673, 3775296.439471007324755 ], [ 357191.658189216686878, 3775296.134282807819545 ], [ 357191.353001017298084, 3775296.134282807819545 ], [ 357191.353001017298084, 3775295.829094608314335 ], [ 357190.4374364191317, 3775294.913530010264367 ], [ 357190.4374364191317, 3775294.608341810759157 ], [ 357190.132248219742905, 3775294.303153611253947 ], [ 357190.132248219742905, 3775293.997965412214398 ], [ 357189.827060020354111, 3775293.692777212709188 ], [ 357189.827060020354111, 3775292.47202441515401 ], [ 357195.625635808741208, 3775292.47202441515401 ], [ 357195.625635808741208, 3775294.913530010264367 ], [ 357195.930824008130003, 3775295.218718209769577 ], [ 357195.930824008130003, 3775296.134282807819545 ], [ 357195.625635808741208, 3775296.439471007324755 ], [ 357191.963377416075673, 3775296.439471007324755 ] ] ] } },
{ "type": "Feature", "properties": { "confidence": 0.26092079281806946, "class": 1 }, "geometry": { "type": "Polygon", "coordinates": [ [ [ 357382.706002034596168, 3775418.819938962347806 ], [ 357382.095625635818578, 3775418.209562563803047 ], [ 357382.095625635818578, 3775417.904374364297837 ], [ 357381.485249237040989, 3775417.293997965287417 ], [ 357381.485249237040989, 3775416.073245167732239 ], [ 357381.180061037652194, 3775415.76805696869269 ], [ 357381.180061037652194, 3775413.631739572621882 ], [ 357381.485249237040989, 3775413.326551373116672 ], [ 357381.485249237040989, 3775413.021363174077123 ], [ 357381.790437436429784, 3775412.716174974571913 ], [ 357381.790437436429784, 3775412.410986775066704 ], [ 357382.095625635818578, 3775412.410986775066704 ], [ 357382.706002034596168, 3775411.800610376521945 ], [ 357382.706002034596168, 3775411.495422177016735 ], [ 357383.011190233984962, 3775411.495422177016735 ], [ 357383.316378433373757, 3775411.190233977511525 ], [ 357383.316378433373757, 3775410.885045778006315 ], [ 357383.621566632762551, 3775410.579857578966767 ], [ 357386.673448626650497, 3775410.579857578966767 ], [ 357386.978636826039292, 3775410.274669379461557 ], [ 357390.030518819927238, 3775410.274669379461557 ], [ 357390.335707019316033, 3775410.579857578966767 ], [ 357390.946083418093622, 3775410.579857578966767 ], [ 357390.946083418093622, 3775410.885045778006315 ], [ 357391.251271617482416, 3775411.190233977511525 ], [ 357391.251271617482416, 3775411.495422177016735 ], [ 357391.556459816871211, 3775411.800610376521945 ], [ 357391.556459816871211, 3775412.410986775066704 ], [ 357391.861648016260006, 3775412.716174974571913 ], [ 357391.861648016260006, 3775414.242115971632302 ], [ 357391.251271617482416, 3775414.85249237017706 ], [ 357391.251271617482416, 3775415.15768056968227 ], [ 357390.946083418093622, 3775415.15768056968227 ], [ 357390.640895218704827, 3775415.46286876918748 ], [ 357390.640895218704827, 3775415.76805696869269 ], [ 357390.335707019316033, 3775415.76805696869269 ], [ 357390.030518819927238, 3775416.073245167732239 ], [ 357390.030518819927238, 3775416.378433367237449 ], [ 357389.725330620538443, 3775416.378433367237449 ], [ 357389.420142421149649, 3775416.683621566742659 ], [ 357389.420142421149649, 3775416.988809766247869 ], [ 357389.114954221760854, 3775416.988809766247869 ], [ 357388.19938962359447, 3775417.904374364297837 ], [ 357387.894201424205676, 3775417.904374364297837 ], [ 357387.589013224816881, 3775418.209562563803047 ], [ 357386.978636826039292, 3775418.209562563803047 ], [ 357386.673448626650497, 3775418.514750762842596 ], [ 357385.452695829095319, 3775418.514750762842596 ], [ 357385.147507629706524, 3775418.819938962347806 ], [ 357382.706002034596168, 3775418.819938962347806 ] ] ] } },
{ "type": "Feature", "properties": { "confidence": 0.25647902488708496, "class": 1 }, "geometry": { "type": "Polygon", "coordinates": [ [ [ 357111.698880976589862, 3775294.608341810759157 ], [ 357111.393692777201068, 3775294.303153611253947 ], [ 357111.088504577812273, 3775294.303153611253947 ], [ 357110.783316378423478, 3775293.997965412214398 ], [ 357110.478128179034684, 3775293.997965412214398 ], [ 357109.5625635808683, 3775293.082400813698769 ], [ 357109.5625635808683, 3775292.47202441515401 ], [ 357115.055951169866603, 3775292.47202441515401 ], [ 357115.055951169866603, 3775293.387589013203979 ], [ 357114.750762970477808, 3775293.692777212709188 ], [ 357114.750762970477808, 3775294.303153611253947 ], [ 357114.445574771089014, 3775294.303153611253947 ], [ 357114.140386571700219, 3775294.608341810759157 ], [ 357111.698880976589862, 3775294.608341810759157 ] ] ] } }
]
}
