{
"type": "FeatureCollection",
"name": "cell_00192_pre",
"crs": { "type": "name", "properties": { "name": "urn:ogc:def:crs:EPSG::32611" } },
"features": [
{ "type": "Feature", "properties": { "confidence": 0.63653761148452759, "class": 1 }, "geometry": { "type": "Polygon", "coordinates": [ [ [ 356555.340793489303906, 3775648.016276704147458 ], [ 356555.035605289915111, 3775647.711088504642248 ], [ 356554.425228891137522, 3775647.711088504642248 ], [ 356554.120040691748727, 3775647.405900305137038 ], [ 356553.509664292971138, 3775647.405900305137038 ], [ 356553.204476093582343, 3775647.100712105631828 ], [ 356553.204476093582343, 3775646.79552390659228 ], [ 356552.899287894193549, 3775646.49033570708707 ], [ 356552.899287894193549, 3775646.18514750758186 ], [ 356552.594099694804754, 3775645.87995930807665 ], [ 356552.594099694804754, 3775645.574771109037101 ], [ 356552.28891149541596, 3775645.269582909531891 ], [ 356552.28891149541596, 3775644.048830111976713 ], [ 356555.951169888081495, 3775644.048830111976713 ], [ 356555.951169888081495, 3775648.016276704147458 ], [ 356555.340793489303906, 3775648.016276704147458 ] ] ] } },
{ "type": "Feature", "properties": { "confidence": 0.60708576440811157, "class": 1 }, "geometry": { "type": "Polygon", "coordinates": [ [ [ 356695.727365208556876, 3775246.083418108057231 ], [ 356695.116988809779286, 3775245.473041709046811 ], [ 356694.811800610390492, 3775245.473041709046811 ], [ 356694.811800610390492, 3775245.167853509541601 ], [ 356694.506612411001697, 3775244.862665310502052 ], [ 356694.201424211612903, 3775244.862665310502052 ], [ 356692.67548321466893, 3775243.336724313441664 ], [ 356692.370295015280135, 3775243.336724313441664 ], [ 356691.149542217724957, 3775242.115971515886486 ], [ 356690.844354018336162, 3775242.115971515886486 ], [ 356690.539165818947367, 3775241.810783316381276 ], [ 356690.233977619558573, 3775241.810783316381276 ], [ 356689.928789420169778, 3775241.505595116876066 ], [ 356689.928789420169778, 3775241.200406917370856 ], [ 356689.623601220780984, 3775240.895218718331307 ], [ 356689.623601220780984, 3775240.590030518826097 ], [ 356689.318413021392189, 3775240.284842319320887 ], [ 356689.318413021392189, 3775239.369277721270919 ], [ 356689.013224821945187, 3775239.064089521765709 ], [ 356689.013224821945187, 3775238.758901322260499 ], [ 356689.318413021392189, 3775238.45371312322095 ], [ 356689.318413021392189, 3775238.14852492371574 ], [ 356689.623601220780984, 3775237.843336724210531 ], [ 356691.759918616502546, 3775237.843336724210531 ], [ 356692.06510681589134, 3775238.14852492371574 ], [ 356692.67548321466893, 3775238.14852492371574 ], [ 356692.980671414057724, 3775238.45371312322095 ], [ 356693.285859613446519, 3775238.45371312322095 ], [ 356694.506612411001697, 3775239.674465920776129 ], [ 356694.811800610390492, 3775239.674465920776129 ], [ 356696.03255340794567, 3775240.895218718331307 ], [ 356696.337741607334465, 3775240.895218718331307 ], [ 356698.474059003056027, 3775243.031536113936454 ], [ 356698.474059003056027, 3775243.336724313441664 ], [ 356698.779247202444822, 3775243.641912512946874 ], [ 356698.779247202444822, 3775245.473041709046811 ], [ 356698.474059003056027, 3775245.473041709046811 ], [ 356698.168870803667232, 3775245.778229908552021 ], [ 356697.558494404889643, 3775245.778229908552021 ], [ 356697.253306205500849, 3775246.083418108057231 ], [ 356695.727365208556876, 3775246.083418108057231 ] ] ] } },
{ "type": "Feature", "properties": { "confidence": 0.40390503406524658, "class": 1 }, "geometry": { "type": "Polygon", "coordinates": [ [ [ 356637.436419125122484, 3775295.829094608314335 ], [ 356637.436419125122484, 3775295.523906408809125 ], [ 356637.131230925733689, 3775295.218718209769577 ], [ 356637.131230925733689, 3775294.913530010264367 ], [ 356636.826042726344895, 3775294.608341810759157 ], [ 356636.826042726344895, 3775294.303153611253947 ], [ 356636.5208545269561, 3775293.997965412214398 ], [ 356636.5208545269561, 3775293.387589013203979 ], [ 356636.215666327567305, 3775293.082400813698769 ], [ 356636.215666327567305, 3775292.47202441515401 ], [ 356640.48830111901043, 3775292.47202441515401 ], [ 356640.48830111901043, 3775293.692777212709188 ], [ 356640.183112919621635, 3775293.997965412214398 ], [ 356640.183112919621635, 3775294.303153611253947 ], [ 356638.962360122066457, 3775295.523906408809125 ], [ 356638.657171922677662, 3775295.523906408809125 ], [ 356638.351983723288868, 3775295.829094608314335 ], [ 356637.436419125122484, 3775295.829094608314335 ] ] ] } },
{ "type": "Feature", "properties": { "confidence": 0.34084457159042358, "class": 1 }, "geometry": { "type": "Polygon", "coordinates": [ [ [ 356518.107833163812757, 3775530.82400813838467 ], [ 356517.802644964365754, 3775530.51881993887946 ], [ 356517.802644964365754, 3775528.687690742779523 ], [ 356517.49745676497696, 3775528.382502543274313 ], [ 356517.192268565588165, 3775528.382502543274313 ], [ 356517.192268565588165, 3775526.856561546213925 ], [ 356521.464903357089497, 3775526.856561546213925 ], [ 356521.464903357089497, 3775528.687690742779523 ], [ 356521.159715157700703, 3775528.992878941819072 ], [ 356521.159715157700703, 3775529.603255340829492 ], [ 356519.938962360145524, 3775530.82400813838467 ], [ 356518.107833163812757, 3775530.82400813838467 ] ] ] } },
{ "type": "Feature", "properties": { "confidence": 0.26470628380775452, "class": 1 }, "geometry": { "type": "Polygon", "coordinates": [ [ [ 356450.356052899267524, 3775582.706002034712583 ], [ 356449.440488301101141, 3775581.790437436196953 ], [ 356449.440488301101141, 3775581.485249237157404 ], [ 356448.830111902323551, 3775580.874872838146985 ], [ 356448.830111902323551, 3775580.569684638641775 ], [ 356448.524923702934757, 3775580.264496439602226 ], [ 356448.524923702934757, 3775579.959308240097016 ], [ 356448.219735503545962, 3775579.654120040591806 ], [ 356448.219735503545962, 3775579.348931841086596 ], [ 356447.609359104768373, 3775578.738555442541838 ], [ 356447.609359104768373, 3775578.433367243036628 ], [ 356447.304170905379578, 3775578.128179043531418 ], [ 356447.304170905379578, 3775576.907426245976239 ], [ 356447.914547304157168, 3775576.297049847431481 ], [ 356448.219735503545962, 3775576.297049847431481 ], [ 356448.524923702934757, 3775575.991861647926271 ], [ 356449.135300101712346, 3775575.991861647926271 ], [ 356449.440488301101141, 3775575.686673448421061 ], [ 356451.881993896211497, 3775575.686673448421061 ], [ 356452.187182095600292, 3775575.991861647926271 ], [ 356452.187182095600292, 3775576.297049847431481 ], [ 356452.492370294989087, 3775576.602238046936691 ], [ 356452.492370294989087, 3775582.400813835207373 ], [ 356452.187182095600292, 3775582.706002034712583 ], [ 356450.356052899267524, 3775582.706002034712583 ] ] ] } }
]
}
