{
"type": "FeatureCollection",
"name": "cell_00489_pre",
"crs": { "type": "name", "properties": { "name": "urn:ogc:def:crs:EPSG::32611" } },
"features": [
{ "type": "Feature", "properties": { "confidence": 0.98052316904067993, "class": 1 }, "geometry": { "type": "Polygon", "coordinates": [ [ [ 401703.357070193276741, 3785130.82400813838467 ], [ 401703.051881993887946, 3785130.51881993887946 ], [ 401702.441505595110357, 3785130.51881993887946 ], [ 401702.136317395721562, 3785130.21363173937425 ], [ 401701.831129196332768, 3785130.21363173937425 ], [ 401701.525940996943973, 3785129.908443540334702 ], [ 401701.525940996943973, 3785129.603255340829492 ], [ 401701.220752797555178, 3785129.298067141324282 ], [ 401701.220752797555178, 3785128.992878941819072 ], [ 401700.915564598166384, 3785128.687690742779523 ], [ 401700.915564598166384, 3785127.466937945224345 ], [ 401707.629704984719865, 3785127.466937945224345 ], [ 401707.32451678533107, 3785127.772126144263893 ], [ 401707.32451678533107, 3785128.992878941819072 ], [ 401706.714140386553481, 3785129.603255340829492 ], [ 401706.408952187164687, 3785129.603255340829492 ], [ 401706.103763987775892, 3785129.908443540334702 ], [ 401705.798575788387097, 3785129.908443540334702 ], [ 401705.493387588998303, 3785130.21363173937425 ], [ 401705.188199389609508, 3785130.21363173937425 ], [ 401704.883011190220714, 3785130.51881993887946 ], [ 401703.96744659205433, 3785130.51881993887946 ], [ 401703.662258392665535, 3785130.82400813838467 ], [ 401703.357070193276741, 3785130.82400813838467 ] ] ] } },
{ "type": "Feature", "properties": { "confidence": 0.87113058567047119, "class": 1 }, "geometry": { "type": "Polygon", "coordinates": [ [ [ 401826.042726347921416, 3785368.87080366211012 ], [ 401825.737538148532622, 3785368.565615463070571 ], [ 401824.516785350977443, 3785368.565615463070571 ], [ 401824.211597151588649, 3785368.260427263565361 ], [ 401822.99084435403347, 3785368.260427263565361 ], [ 401822.685656154644676, 3785367.955239064060152 ], [ 401822.685656154644676, 3785364.903357070405036 ], [ 401822.99084435403347, 3785364.598168870899826 ], [ 401822.99084435403347, 3785362.156663275789469 ], [ 401823.296032553422265, 3785361.85147507628426 ], [ 401823.296032553422265, 3785361.241098677739501 ], [ 401824.516785350977443, 3785360.020345880184323 ], [ 401824.821973550366238, 3785360.020345880184323 ], [ 401825.127161749755032, 3785359.715157680679113 ], [ 401828.789420142420568, 3785359.715157680679113 ], [ 401829.704984740586951, 3785360.630722278729081 ], [ 401829.704984740586951, 3785361.241098677739501 ], [ 401830.010172939975746, 3785361.54628687677905 ], [ 401830.010172939975746, 3785362.156663275789469 ], [ 401830.315361139364541, 3785362.461851475294679 ], [ 401830.315361139364541, 3785364.903357070405036 ], [ 401830.620549338753335, 3785365.208545269444585 ], [ 401830.620549338753335, 3785366.734486266504973 ], [ 401828.789420142420568, 3785368.565615463070571 ], [ 401828.484231943031773, 3785368.565615463070571 ], [ 401828.179043743642978, 3785368.87080366211012 ], [ 401826.042726347921416, 3785368.87080366211012 ] ] ] } },
{ "type": "Feature", "properties": { "confidence": 0.76394879817962646, "class": 1 }, "geometry": { "type": "Polygon", "coordinates": [ [ [ 401852.899287894193549, 3784924.211597151588649 ], [ 401852.594099694804754, 3784923.906408952083439 ], [ 401851.983723296027165, 3784923.906408952083439 ], [ 401851.983723296027165, 3784922.99084435403347 ], [ 401851.67853509663837, 3784922.68565615452826 ], [ 401851.67853509663837, 3784919.328585961367935 ], [ 401851.983723296027165, 3784919.023397761862725 ], [ 401851.983723296027165, 3784918.718209562357515 ], [ 401852.594099694804754, 3784918.718209562357515 ], [ 401853.204476093582343, 3784918.107833163812757 ], [ 401853.509664292971138, 3784918.107833163812757 ], [ 401853.814852492359933, 3784917.802644964307547 ], [ 401853.814852492359933, 3784917.497456764802337 ], [ 401855.951169888081495, 3784917.497456764802337 ], [ 401856.256358087470289, 3784917.192268565762788 ], [ 401857.477110885025468, 3784917.192268565762788 ], [ 401857.782299084414262, 3784917.497456764802337 ], [ 401857.782299084414262, 3784922.68565615452826 ], [ 401857.477110885025468, 3784922.99084435403347 ], [ 401857.171922685636673, 3784922.99084435403347 ], [ 401856.866734486247879, 3784923.29603255353868 ], [ 401856.561546286859084, 3784923.29603255353868 ], [ 401856.256358087470289, 3784923.601220752578229 ], [ 401855.6459816886927, 3784923.601220752578229 ], [ 401855.340793489303906, 3784923.906408952083439 ], [ 401854.730417090526316, 3784923.906408952083439 ], [ 401854.425228891137522, 3784924.211597151588649 ], [ 401852.899287894193549, 3784924.211597151588649 ] ] ] } },
{ "type": "Feature", "properties": { "confidence": 0.75102484226226807, "class": 1 }, "geometry": { "type": "Polygon", "coordinates": [ [ [ 401543.438453713140916, 3785193.082400813698769 ], [ 401543.133265513752121, 3785192.77721261465922 ], [ 401542.522889114974532, 3785192.77721261465922 ], [ 401542.217700915585738, 3785192.47202441515401 ], [ 401539.165818921639584, 3785192.47202441515401 ], [ 401539.165818921639584, 3785192.1668362156488 ], [ 401538.555442522861995, 3785191.556459817104042 ], [ 401538.555442522861995, 3785190.946083418093622 ], [ 401538.2502543234732, 3785190.640895218588412 ], [ 401538.2502543234732, 3785189.725330620538443 ], [ 401537.945066124084406, 3785189.420142421033233 ], [ 401537.945066124084406, 3785186.978636825922877 ], [ 401537.639877924695611, 3785186.673448626883328 ], [ 401537.639877924695611, 3785186.368260427378118 ], [ 401537.945066124084406, 3785186.063072227872908 ], [ 401537.945066124084406, 3785185.757884028367698 ], [ 401538.2502543234732, 3785185.452695828862488 ], [ 401538.860630722250789, 3785185.452695828862488 ], [ 401539.165818921639584, 3785185.14750762982294 ], [ 401543.133265513752121, 3785185.14750762982294 ], [ 401543.438453713140916, 3785185.452695828862488 ], [ 401546.490335707028862, 3785185.452695828862488 ], [ 401546.795523906417657, 3785185.757884028367698 ], [ 401547.100712105806451, 3785185.757884028367698 ], [ 401547.100712105806451, 3785186.063072227872908 ], [ 401546.795523906417657, 3785186.368260427378118 ], [ 401546.795523906417657, 3785188.199389623478055 ], [ 401546.490335707028862, 3785188.504577822983265 ], [ 401546.490335707028862, 3785188.809766022488475 ], [ 401546.185147507640067, 3785189.114954221993685 ], [ 401546.185147507640067, 3785190.640895218588412 ], [ 401545.879959308251273, 3785190.946083418093622 ], [ 401545.879959308251273, 3785191.556459817104042 ], [ 401545.574771108862478, 3785191.86164801614359 ], [ 401545.574771108862478, 3785192.1668362156488 ], [ 401545.269582909473684, 3785192.1668362156488 ], [ 401544.964394710084889, 3785192.47202441515401 ], [ 401544.964394710084889, 3785192.77721261465922 ], [ 401544.659206510696094, 3785192.77721261465922 ], [ 401544.3540183113073, 3785193.082400813698769 ], [ 401543.438453713140916, 3785193.082400813698769 ] ] ] } },
{ "type": "Feature", "properties": { "confidence": 0.62669461965560913, "class": 1 }, "geometry": { "type": "Polygon", "coordinates": [ [ [ 401854.730417090526316, 3784904.374364191200584 ], [ 401854.425228891137522, 3784904.069175991695374 ], [ 401853.509664292971138, 3784904.069175991695374 ], [ 401851.983723296027165, 3784902.543234995100647 ], [ 401851.983723296027165, 3784902.238046795595437 ], [ 401851.373346897249576, 3784901.627670396585017 ], [ 401851.373346897249576, 3784901.322482197545469 ], [ 401851.068158697860781, 3784901.017293998040259 ], [ 401851.068158697860781, 3784898.880976602435112 ], [ 401850.762970498471987, 3784898.575788402929902 ], [ 401850.762970498471987, 3784897.049847405869514 ], [ 401850.457782299083192, 3784896.744659206364304 ], [ 401850.457782299083192, 3784895.829094608314335 ], [ 401850.762970498471987, 3784895.523906408809125 ], [ 401850.762970498471987, 3784894.913530010264367 ], [ 401851.67853509663837, 3784894.913530010264367 ], [ 401851.983723296027165, 3784895.218718209769577 ], [ 401851.983723296027165, 3784895.829094608314335 ], [ 401852.28891149541596, 3784896.134282807819545 ], [ 401852.28891149541596, 3784896.439471007324755 ], [ 401852.594099694804754, 3784896.744659206364304 ], [ 401852.594099694804754, 3784897.049847405869514 ], [ 401852.899287894193549, 3784897.355035605374724 ], [ 401853.204476093582343, 3784897.355035605374724 ], [ 401853.814852492359933, 3784897.965412003919482 ], [ 401854.120040691748727, 3784897.965412003919482 ], [ 401854.425228891137522, 3784898.270600203424692 ], [ 401854.730417090526316, 3784898.270600203424692 ], [ 401855.035605289915111, 3784898.575788402929902 ], [ 401855.035605289915111, 3784899.186164801474661 ], [ 401855.340793489303906, 3784899.491353000979871 ], [ 401855.6459816886927, 3784899.491353000979871 ], [ 401855.6459816886927, 3784899.79654120048508 ], [ 401855.951169888081495, 3784900.10172939999029 ], [ 401856.256358087470289, 3784900.10172939999029 ], [ 401856.256358087470289, 3784900.406917599029839 ], [ 401856.561546286859084, 3784900.712105798535049 ], [ 401856.561546286859084, 3784903.458799593150616 ], [ 401855.951169888081495, 3784904.069175991695374 ], [ 401855.340793489303906, 3784904.069175991695374 ], [ 401855.035605289915111, 3784904.374364191200584 ], [ 401854.730417090526316, 3784904.374364191200584 ] ] ] } },
{ "type": "Feature", "properties": { "confidence": 0.61394411325454712, "class": 1 }, "geometry": { "type": "Polygon", "coordinates": [ [ [ 401535.808748728362843, 3785359.104781281668693 ], [ 401535.503560528974049, 3785358.799593082629144 ], [ 401533.672431332641281, 3785358.799593082629144 ], [ 401533.367243133252487, 3785358.494404883123934 ], [ 401532.756866734474897, 3785358.494404883123934 ], [ 401532.451678535086103, 3785358.189216683618724 ], [ 401532.146490335697308, 3785358.189216683618724 ], [ 401531.841302136308514, 3785357.884028484113514 ], [ 401531.230925737530924, 3785357.884028484113514 ], [ 401530.92573753814213, 3785357.578840285073966 ], [ 401530.620549338753335, 3785357.578840285073966 ], [ 401530.620549338753335, 3785357.273652085568756 ], [ 401530.315361139364541, 3785356.968463886063546 ], [ 401530.010172939975746, 3785356.968463886063546 ], [ 401530.010172939975746, 3785356.663275686558336 ], [ 401529.704984740586951, 3785356.358087487053126 ], [ 401529.704984740586951, 3785353.001017293892801 ], [ 401530.010172939975746, 3785352.695829094387591 ], [ 401530.010172939975746, 3785351.780264496337622 ], [ 401531.536113936919719, 3785350.254323499277234 ], [ 401532.146490335697308, 3785350.254323499277234 ], [ 401532.451678535086103, 3785349.949135300237685 ], [ 401533.062054933863692, 3785349.949135300237685 ], [ 401533.367243133252487, 3785350.254323499277234 ], [ 401534.28280773141887, 3785350.254323499277234 ], [ 401534.587995930807665, 3785350.559511698782444 ], [ 401534.89318413019646, 3785350.559511698782444 ], [ 401535.808748728362843, 3785351.475076296832412 ], [ 401535.808748728362843, 3785351.780264496337622 ], [ 401536.113936927751638, 3785352.085452695842832 ], [ 401537.029501525918022, 3785352.085452695842832 ], [ 401537.334689725306816, 3785351.780264496337622 ], [ 401537.945066124084406, 3785351.780264496337622 ], [ 401538.2502543234732, 3785352.085452695842832 ], [ 401538.2502543234732, 3785352.695829094387591 ], [ 401538.555442522861995, 3785353.001017293892801 ], [ 401538.2502543234732, 3785353.306205493398011 ], [ 401538.2502543234732, 3785355.747711088508368 ], [ 401537.945066124084406, 3785356.052899288013577 ], [ 401537.945066124084406, 3785356.968463886063546 ], [ 401537.639877924695611, 3785357.273652085568756 ], [ 401537.639877924695611, 3785358.189216683618724 ], [ 401537.029501525918022, 3785358.799593082629144 ], [ 401536.113936927751638, 3785358.799593082629144 ], [ 401535.808748728362843, 3785359.104781281668693 ] ] ] } },
{ "type": "Feature", "properties": { "confidence": 0.54498827457427979, "class": 1 }, "geometry": { "type": "Polygon", "coordinates": [ [ [ 401463.4791454730439, 3785129.908443540334702 ], [ 401463.173957273655105, 3785129.603255340829492 ], [ 401463.173957273655105, 3785127.772126144263893 ], [ 401463.4791454730439, 3785127.466937945224345 ], [ 401463.4791454730439, 3785127.161749745719135 ], [ 401463.784333672432695, 3785126.856561546213925 ], [ 401463.784333672432695, 3785124.720244150608778 ], [ 401464.089521871821489, 3785124.415055951103568 ], [ 401464.089521871821489, 3785123.4994913530536 ], [ 401465.005086469987873, 3785122.583926755003631 ], [ 401465.310274669376668, 3785122.583926755003631 ], [ 401465.615462868765462, 3785122.278738555498421 ], [ 401465.920651068154257, 3785122.278738555498421 ], [ 401466.225839267543051, 3785121.973550355993211 ], [ 401466.531027466931846, 3785121.973550355993211 ], [ 401466.836215666320641, 3785121.668362156488001 ], [ 401467.141403865709435, 3785121.668362156488001 ], [ 401467.44659206509823, 3785121.363173957448453 ], [ 401467.751780264487024, 3785121.363173957448453 ], [ 401468.362156663264614, 3785120.752797558438033 ], [ 401469.888097660208587, 3785120.752797558438033 ], [ 401470.193285859597381, 3785121.057985757943243 ], [ 401470.193285859597381, 3785121.363173957448453 ], [ 401470.498474058986176, 3785121.668362156488001 ], [ 401470.498474058986176, 3785121.973550355993211 ], [ 401470.193285859597381, 3785122.278738555498421 ], [ 401470.193285859597381, 3785124.415055951103568 ], [ 401469.888097660208587, 3785124.720244150608778 ], [ 401469.888097660208587, 3785125.635808748658746 ], [ 401469.582909460819792, 3785125.940996948163956 ], [ 401469.582909460819792, 3785126.246185147669166 ], [ 401468.972533062042203, 3785126.856561546213925 ], [ 401468.972533062042203, 3785127.161749745719135 ], [ 401468.056968463875819, 3785128.077314343769103 ], [ 401467.751780264487024, 3785128.077314343769103 ], [ 401466.836215666320641, 3785128.992878941819072 ], [ 401466.531027466931846, 3785128.992878941819072 ], [ 401466.225839267543051, 3785129.298067141324282 ], [ 401465.920651068154257, 3785129.298067141324282 ], [ 401465.615462868765462, 3785129.603255340829492 ], [ 401464.699898270599078, 3785129.603255340829492 ], [ 401464.394710071210284, 3785129.908443540334702 ], [ 401463.4791454730439, 3785129.908443540334702 ] ] ] } },
{ "type": "Feature", "properties": { "confidence": 0.53624206781387329, "class": 1 }, "geometry": { "type": "Polygon", "coordinates": [ [ [ 401776.297049847431481, 3785191.86164801614359 ], [ 401775.991861648042686, 3785191.556459817104042 ], [ 401775.076297049876302, 3785191.556459817104042 ], [ 401774.7711088504293, 3785191.251271617598832 ], [ 401774.465920651040506, 3785191.251271617598832 ], [ 401774.160732451651711, 3785190.946083418093622 ], [ 401773.855544252262916, 3785190.946083418093622 ], [ 401773.855544252262916, 3785190.640895218588412 ], [ 401773.550356052874122, 3785190.335707019548863 ], [ 401773.245167853485327, 3785190.335707019548863 ], [ 401773.245167853485327, 3785190.030518820043653 ], [ 401772.634791454707738, 3785189.420142421033233 ], [ 401772.634791454707738, 3785189.114954221993685 ], [ 401772.329603255318943, 3785188.809766022488475 ], [ 401772.329603255318943, 3785188.504577822983265 ], [ 401772.024415055930149, 3785188.199389623478055 ], [ 401772.024415055930149, 3785186.063072227872908 ], [ 401772.939979654096533, 3785185.14750762982294 ], [ 401773.550356052874122, 3785185.14750762982294 ], [ 401773.855544252262916, 3785184.84231943031773 ], [ 401774.465920651040506, 3785184.84231943031773 ], [ 401775.076297049876302, 3785184.23194303130731 ], [ 401775.381485249265097, 3785184.23194303130731 ], [ 401775.686673448653892, 3785183.926754832267761 ], [ 401776.297049847431481, 3785183.926754832267761 ], [ 401776.602238046820275, 3785183.621566632762551 ], [ 401776.90742624620907, 3785183.621566632762551 ], [ 401777.212614445597865, 3785183.316378433257341 ], [ 401777.517802644986659, 3785183.621566632762551 ], [ 401777.822990844375454, 3785183.621566632762551 ], [ 401778.128179043764248, 3785183.926754832267761 ], [ 401778.433367243153043, 3785183.926754832267761 ], [ 401779.043743641930632, 3785184.53713123081252 ], [ 401779.043743641930632, 3785184.84231943031773 ], [ 401779.348931841319427, 3785185.14750762982294 ], [ 401779.348931841319427, 3785185.452695828862488 ], [ 401779.654120040708221, 3785185.757884028367698 ], [ 401779.654120040708221, 3785186.063072227872908 ], [ 401779.959308240097016, 3785186.368260427378118 ], [ 401779.959308240097016, 3785189.420142421033233 ], [ 401779.348931841319427, 3785190.030518820043653 ], [ 401779.348931841319427, 3785190.335707019548863 ], [ 401779.043743641930632, 3785190.335707019548863 ], [ 401777.822990844375454, 3785191.556459817104042 ], [ 401777.212614445597865, 3785191.556459817104042 ], [ 401776.90742624620907, 3785191.86164801614359 ], [ 401776.297049847431481, 3785191.86164801614359 ] ] ] } },
{ "type": "Feature", "properties": { "confidence": 0.52790707349777222, "class": 1 }, "geometry": { "type": "Polygon", "coordinates": [ [ [ 401452.797558494377881, 3785165.615462868940085 ], [ 401452.797558494377881, 3785165.310274669434875 ], [ 401452.187182095600292, 3785164.699898270424455 ], [ 401452.187182095600292, 3785163.784333672374487 ], [ 401452.492370294989087, 3785163.479145472869277 ], [ 401452.492370294989087, 3785162.258392675314099 ], [ 401453.40793489315547, 3785161.34282807726413 ], [ 401453.40793489315547, 3785161.03763987775892 ], [ 401453.713123092602473, 3785161.03763987775892 ], [ 401454.628687690768857, 3785160.122075279708952 ], [ 401455.239064089546446, 3785160.122075279708952 ], [ 401455.54425228893524, 3785159.816887080203742 ], [ 401456.459816887101624, 3785159.816887080203742 ], [ 401456.765005086490419, 3785160.122075279708952 ], [ 401456.765005086490419, 3785161.95320447627455 ], [ 401456.15462868771283, 3785162.563580874819309 ], [ 401456.15462868771283, 3785162.868769074324518 ], [ 401455.54425228893524, 3785163.479145472869277 ], [ 401455.54425228893524, 3785164.089521871879697 ], [ 401454.933875890157651, 3785164.699898270424455 ], [ 401454.933875890157651, 3785165.005086469929665 ], [ 401454.628687690768857, 3785165.005086469929665 ], [ 401454.323499491380062, 3785165.310274669434875 ], [ 401454.323499491380062, 3785165.615462868940085 ], [ 401452.797558494377881, 3785165.615462868940085 ] ] ] } },
{ "type": "Feature", "properties": { "confidence": 0.5005645751953125, "class": 1 }, "geometry": { "type": "Polygon", "coordinates": [ [ [ 401458.596134282823186, 3785130.51881993887946 ], [ 401458.290946083434392, 3785130.21363173937425 ], [ 401457.680569684656803, 3785130.21363173937425 ], [ 401457.375381485268008, 3785129.908443540334702 ], [ 401457.375381485268008, 3785129.603255340829492 ], [ 401456.765005086490419, 3785128.992878941819072 ], [ 401456.459816887101624, 3785128.992878941819072 ], [ 401455.239064089546446, 3785127.772126144263893 ], [ 401455.239064089546446, 3785126.856561546213925 ], [ 401460.732451678544749, 3785126.856561546213925 ], [ 401460.732451678544749, 3785128.382502543274313 ], [ 401460.427263479155954, 3785128.687690742779523 ], [ 401460.427263479155954, 3785129.298067141324282 ], [ 401460.122075279767159, 3785129.603255340829492 ], [ 401460.122075279767159, 3785130.21363173937425 ], [ 401459.816887080378365, 3785130.21363173937425 ], [ 401459.51169888098957, 3785130.51881993887946 ], [ 401458.596134282823186, 3785130.51881993887946 ] ] ] } },
{ "type": "Feature", "properties": { "confidence": 0.47495570778846741, "class": 1 }, "geometry": { "type": "Polygon", "coordinates": [ [ [ 401945.981688708008733, 3784821.363173957448453 ], [ 401945.676500508619938, 3784821.057985757943243 ], [ 401945.371312309231143, 3784821.057985757943243 ], [ 401945.066124109842349, 3784820.752797558438033 ], [ 401945.066124109842349, 3784820.447609358932823 ], [ 401944.760935910453554, 3784820.142421159893274 ], [ 401944.760935910453554, 3784818.616480162832886 ], [ 401945.066124109842349, 3784818.311291963327676 ], [ 401945.066124109842349, 3784818.006103763822466 ], [ 401945.371312309231143, 3784818.006103763822466 ], [ 401945.676500508619938, 3784817.700915564782917 ], [ 401945.981688708008733, 3784817.700915564782917 ], [ 401946.286876907397527, 3784817.395727365277708 ], [ 401946.897253306233324, 3784817.395727365277708 ], [ 401947.202441505622119, 3784817.090539165772498 ], [ 401947.507629705010913, 3784817.090539165772498 ], [ 401948.118006103788503, 3784816.480162767227739 ], [ 401950.559511698898859, 3784816.480162767227739 ], [ 401950.559511698898859, 3784816.785350966267288 ], [ 401950.864699898287654, 3784817.090539165772498 ], [ 401950.864699898287654, 3784818.616480162832886 ], [ 401950.559511698898859, 3784818.921668362338096 ], [ 401950.559511698898859, 3784819.226856561377645 ], [ 401948.728382502566092, 3784821.057985757943243 ], [ 401948.118006103788503, 3784821.057985757943243 ], [ 401947.812817904399708, 3784821.363173957448453 ], [ 401945.981688708008733, 3784821.363173957448453 ] ] ] } },
{ "type": "Feature", "properties": { "confidence": 0.45736879110336304, "class": 1 }, "geometry": { "type": "Polygon", "coordinates": [ [ [ 401758.290946083434392, 3785037.436419125180691 ], [ 401757.985757884045597, 3785037.131230925675482 ], [ 401757.680569684656803, 3785037.131230925675482 ], [ 401757.375381485268008, 3785036.826042726170272 ], [ 401757.375381485268008, 3785036.520854527130723 ], [ 401756.459816887101624, 3785035.605289928615093 ], [ 401756.15462868771283, 3785035.605289928615093 ], [ 401754.933875890157651, 3785034.384537131059915 ], [ 401754.933875890157651, 3785034.079348932020366 ], [ 401754.628687690768857, 3785033.774160732515156 ], [ 401754.628687690768857, 3785033.163784333504736 ], [ 401754.933875890157651, 3785032.858596134465188 ], [ 401755.239064089546446, 3785032.858596134465188 ], [ 401756.15462868771283, 3785031.943031535949558 ], [ 401756.459816887101624, 3785031.943031535949558 ], [ 401756.765005086490419, 3785031.637843336910009 ], [ 401757.070193285879213, 3785031.637843336910009 ], [ 401757.375381485268008, 3785031.332655137404799 ], [ 401757.985757884045597, 3785031.332655137404799 ], [ 401758.290946083434392, 3785031.02746693789959 ], [ 401758.596134282823186, 3785031.332655137404799 ], [ 401758.901322482211981, 3785031.332655137404799 ], [ 401759.206510681600776, 3785031.637843336910009 ], [ 401759.51169888098957, 3785031.637843336910009 ], [ 401760.122075279767159, 3785032.248219735454768 ], [ 401760.427263479155954, 3785032.248219735454768 ], [ 401760.427263479155954, 3785032.553407934959978 ], [ 401760.732451678544749, 3785032.858596134465188 ], [ 401760.732451678544749, 3785035.910478128120303 ], [ 401760.427263479155954, 3785036.215666327625513 ], [ 401760.427263479155954, 3785036.520854527130723 ], [ 401760.122075279767159, 3785036.826042726170272 ], [ 401760.122075279767159, 3785037.131230925675482 ], [ 401759.816887080378365, 3785037.131230925675482 ], [ 401759.51169888098957, 3785037.436419125180691 ], [ 401758.290946083434392, 3785037.436419125180691 ] ] ] } },
{ "type": "Feature", "properties": { "confidence": 0.41260480880737305, "class": 1 }, "geometry": { "type": "Polygon", "coordinates": [ [ [ 401786.673448626650497, 3785282.807731434237212 ], [ 401786.673448626650497, 3785280.671414038632065 ], [ 401788.504577822983265, 3785278.840284842532128 ], [ 401789.420142421149649, 3785278.840284842532128 ], [ 401790.030518819927238, 3785278.229908443521708 ], [ 401790.335707019316033, 3785278.229908443521708 ], [ 401790.335707019316033, 3785282.197355035692453 ], [ 401790.030518819927238, 3785282.197355035692453 ], [ 401789.725330620538443, 3785282.502543235197663 ], [ 401789.725330620538443, 3785282.807731434237212 ], [ 401786.673448626650497, 3785282.807731434237212 ] ] ] } },
{ "type": "Feature", "properties": { "confidence": 0.39162641763687134, "class": 1 }, "geometry": { "type": "Polygon", "coordinates": [ [ [ 401882.807731434411835, 3785317.599186164792627 ], [ 401882.807731434411835, 3785317.293997965287417 ], [ 401882.50254323502304, 3785316.988809766247869 ], [ 401882.50254323502304, 3785316.683621566742659 ], [ 401882.197355035634246, 3785316.378433367237449 ], [ 401882.197355035634246, 3785316.073245167732239 ], [ 401881.892166836187243, 3785315.76805696869269 ], [ 401881.892166836187243, 3785314.242115971632302 ], [ 401881.586978636798449, 3785313.936927772127092 ], [ 401881.586978636798449, 3785313.631739572621882 ], [ 401881.281790437409654, 3785313.326551373116672 ], [ 401881.281790437409654, 3785312.716174974571913 ], [ 401880.97660223802086, 3785312.410986775066704 ], [ 401880.97660223802086, 3785312.105798575561494 ], [ 401880.671414038632065, 3785311.800610376521945 ], [ 401880.671414038632065, 3785311.190233977511525 ], [ 401880.97660223802086, 3785310.885045778006315 ], [ 401881.281790437409654, 3785310.885045778006315 ], [ 401881.586978636798449, 3785310.579857578966767 ], [ 401882.50254323502304, 3785310.579857578966767 ], [ 401882.807731434411835, 3785310.885045778006315 ], [ 401883.11291963380063, 3785310.885045778006315 ], [ 401884.028484231967013, 3785311.800610376521945 ], [ 401884.333672431355808, 3785311.800610376521945 ], [ 401884.638860630744603, 3785312.105798575561494 ], [ 401884.944048830133397, 3785312.105798575561494 ], [ 401885.859613428299781, 3785313.021363174077123 ], [ 401886.164801627688576, 3785313.021363174077123 ], [ 401886.46998982707737, 3785313.326551373116672 ], [ 401886.775178026466165, 3785313.326551373116672 ], [ 401887.690742624632549, 3785314.242115971632302 ], [ 401887.995930824021343, 3785314.242115971632302 ], [ 401888.911495422187727, 3785315.15768056968227 ], [ 401888.911495422187727, 3785315.76805696869269 ], [ 401889.216683621576522, 3785316.073245167732239 ], [ 401888.606307222798932, 3785316.683621566742659 ], [ 401888.301119023410138, 3785316.683621566742659 ], [ 401887.690742624632549, 3785317.293997965287417 ], [ 401887.385554425243754, 3785317.293997965287417 ], [ 401887.080366225854959, 3785317.599186164792627 ], [ 401882.807731434411835, 3785317.599186164792627 ] ] ] } },
{ "type": "Feature", "properties": { "confidence": 0.3884129524230957, "class": 1 }, "geometry": { "type": "Polygon", "coordinates": [ [ [ 401824.821973550366238, 3785381.078331637661904 ], [ 401824.516785350977443, 3785380.773143438622355 ], [ 401824.516785350977443, 3785378.026449644006789 ], [ 401824.821973550366238, 3785377.721261444501579 ], [ 401824.821973550366238, 3785376.5005086469464 ], [ 401825.432349949143827, 3785375.890132248401642 ], [ 401825.432349949143827, 3785375.584944048896432 ], [ 401826.042726347921416, 3785374.974567649886012 ], [ 401826.347914547310211, 3785374.974567649886012 ], [ 401826.653102746699005, 3785374.669379450846463 ], [ 401827.568667344865389, 3785374.669379450846463 ], [ 401827.873855544254184, 3785374.364191251341254 ], [ 401830.010172939975746, 3785374.364191251341254 ], [ 401830.315361139364541, 3785374.669379450846463 ], [ 401830.315361139364541, 3785376.5005086469464 ], [ 401830.010172939975746, 3785376.80569684645161 ], [ 401830.010172939975746, 3785377.416073244996369 ], [ 401829.704984740586951, 3785377.416073244996369 ], [ 401826.347914547310211, 3785380.773143438622355 ], [ 401826.042726347921416, 3785380.773143438622355 ], [ 401825.737538148532622, 3785381.078331637661904 ], [ 401824.821973550366238, 3785381.078331637661904 ] ] ] } },
{ "type": "Feature", "properties": { "confidence": 0.35257425904273987, "class": 1 }, "geometry": { "type": "Polygon", "coordinates": [ [ [ 401701.831129196332768, 3785267.548321465030313 ], [ 401701.525940996943973, 3785267.243133265525103 ], [ 401701.525940996943973, 3785266.937945066019893 ], [ 401701.220752797555178, 3785266.632756866514683 ], [ 401701.525940996943973, 3785266.327568667475134 ], [ 401701.525940996943973, 3785264.191251271404326 ], [ 401701.831129196332768, 3785263.886063072364777 ], [ 401701.831129196332768, 3785262.970498473849148 ], [ 401702.136317395721562, 3785262.665310274809599 ], [ 401702.136317395721562, 3785262.360122075304389 ], [ 401704.883011190220714, 3785259.613428280688822 ], [ 401705.493387588998303, 3785259.613428280688822 ], [ 401705.798575788387097, 3785259.308240081183612 ], [ 401706.408952187164687, 3785259.308240081183612 ], [ 401707.019328585942276, 3785258.697863682638854 ], [ 401707.32451678533107, 3785258.697863682638854 ], [ 401708.240081383497454, 3785257.782299084588885 ], [ 401709.766022380441427, 3785257.782299084588885 ], [ 401709.766022380441427, 3785259.308240081183612 ], [ 401709.460834181052633, 3785259.613428280688822 ], [ 401709.460834181052633, 3785260.223804679699242 ], [ 401707.93489318410866, 3785261.749745676293969 ], [ 401707.93489318410866, 3785262.054933875799179 ], [ 401706.408952187164687, 3785263.580874872859567 ], [ 401706.103763987775892, 3785263.580874872859567 ], [ 401705.798575788387097, 3785263.886063072364777 ], [ 401705.798575788387097, 3785264.191251271404326 ], [ 401704.883011190220714, 3785265.106815869919956 ], [ 401704.883011190220714, 3785265.412004068959504 ], [ 401704.577822990831919, 3785265.717192268464714 ], [ 401704.577822990831919, 3785266.022380467969924 ], [ 401703.96744659205433, 3785266.632756866514683 ], [ 401703.96744659205433, 3785266.937945066019893 ], [ 401703.662258392665535, 3785266.937945066019893 ], [ 401703.357070193276741, 3785267.243133265525103 ], [ 401703.051881993887946, 3785267.243133265525103 ], [ 401702.746693794499151, 3785267.548321465030313 ], [ 401701.831129196332768, 3785267.548321465030313 ] ] ] } },
{ "type": "Feature", "properties": { "confidence": 0.33872351050376892, "class": 1 }, "geometry": { "type": "Polygon", "coordinates": [ [ [ 401870.905391658190638, 3784809.766022380441427 ], [ 401870.600203458801843, 3784809.460834180936217 ], [ 401869.684638860635459, 3784809.460834180936217 ], [ 401869.379450661246665, 3784809.155645981896669 ], [ 401869.07426246185787, 3784809.155645981896669 ], [ 401868.769074262469076, 3784808.850457782391459 ], [ 401868.463886063080281, 3784808.850457782391459 ], [ 401867.548321464913897, 3784807.93489318434149 ], [ 401867.548321464913897, 3784807.62970498483628 ], [ 401867.243133265525103, 3784807.32451678533107 ], [ 401867.243133265525103, 3784806.103763987775892 ], [ 401867.548321464913897, 3784805.798575788270682 ], [ 401867.548321464913897, 3784805.493387589231133 ], [ 401867.853509664302692, 3784805.188199389725924 ], [ 401867.853509664302692, 3784804.883011190220714 ], [ 401868.158697863691486, 3784804.883011190220714 ], [ 401868.463886063080281, 3784804.577822990715504 ], [ 401868.769074262469076, 3784804.577822990715504 ], [ 401869.07426246185787, 3784804.272634791675955 ], [ 401869.07426246185787, 3784803.967446592170745 ], [ 401869.379450661246665, 3784803.967446592170745 ], [ 401869.684638860635459, 3784803.662258392665535 ], [ 401869.684638860635459, 3784803.357070193160325 ], [ 401870.295015259413049, 3784803.357070193160325 ], [ 401870.600203458801843, 3784803.051881994120777 ], [ 401871.515768056968227, 3784803.051881994120777 ], [ 401871.820956256357022, 3784803.357070193160325 ], [ 401872.126144455745816, 3784803.357070193160325 ], [ 401872.431332655134611, 3784803.662258392665535 ], [ 401872.431332655134611, 3784804.883011190220714 ], [ 401872.736520854523405, 3784805.188199389725924 ], [ 401872.736520854523405, 3784809.155645981896669 ], [ 401872.431332655134611, 3784809.460834180936217 ], [ 401872.431332655134611, 3784809.766022380441427 ], [ 401870.905391658190638, 3784809.766022380441427 ] ] ] } },
{ "type": "Feature", "properties": { "confidence": 0.31715419888496399, "class": 1 }, "geometry": { "type": "Polygon", "coordinates": [ [ [ 401893.489318413019646, 3784863.173957273829728 ], [ 401893.184130213630851, 3784862.868769074324518 ], [ 401892.268565615464468, 3784862.868769074324518 ], [ 401891.963377416075673, 3784862.563580874819309 ], [ 401891.658189216686878, 3784862.563580874819309 ], [ 401891.047812817909289, 3784861.95320447627455 ], [ 401890.742624618520495, 3784861.95320447627455 ], [ 401890.4374364191317, 3784861.64801627676934 ], [ 401890.4374364191317, 3784861.34282807726413 ], [ 401890.132248219742905, 3784861.03763987775892 ], [ 401890.132248219742905, 3784859.206510681658983 ], [ 401890.742624618520495, 3784858.596134282648563 ], [ 401891.353001017298084, 3784858.596134282648563 ], [ 401891.658189216686878, 3784858.290946083609015 ], [ 401894.40488301118603, 3784858.290946083609015 ], [ 401894.710071210574824, 3784858.596134282648563 ], [ 401895.320447609352414, 3784858.596134282648563 ], [ 401895.320447609352414, 3784858.901322482153773 ], [ 401895.625635808741208, 3784859.206510681658983 ], [ 401895.625635808741208, 3784862.258392675314099 ], [ 401895.015259409963619, 3784862.258392675314099 ], [ 401894.099694811797235, 3784863.173957273829728 ], [ 401893.489318413019646, 3784863.173957273829728 ] ] ] } },
{ "type": "Feature", "properties": { "confidence": 0.31570327281951904, "class": 1 }, "geometry": { "type": "Polygon", "coordinates": [ [ [ 401497.965412004094105, 3785090.539165819063783 ], [ 401497.660223804705311, 3785090.233977619558573 ], [ 401496.744659206538927, 3785090.233977619558573 ], [ 401496.439471007150132, 3785089.928789420053363 ], [ 401495.829094608314335, 3785089.928789420053363 ], [ 401495.523906408925541, 3785089.623601220548153 ], [ 401495.523906408925541, 3785085.961342827882618 ], [ 401495.829094608314335, 3785085.656154628843069 ], [ 401495.829094608314335, 3785085.045778229832649 ], [ 401496.744659206538927, 3785084.130213631782681 ], [ 401497.049847405927721, 3785084.130213631782681 ], [ 401497.355035605316516, 3785083.825025432277471 ], [ 401498.2706002034829, 3785083.825025432277471 ], [ 401498.575788402871694, 3785083.519837232772261 ], [ 401500.406917599204462, 3785083.519837232772261 ], [ 401500.712105798593257, 3785083.825025432277471 ], [ 401501.017293997982051, 3785083.825025432277471 ], [ 401501.322482197370846, 3785084.130213631782681 ], [ 401501.62767039675964, 3785084.130213631782681 ], [ 401501.62767039675964, 3785086.571719226893038 ], [ 401501.322482197370846, 3785086.876907426398247 ], [ 401501.322482197370846, 3785089.623601220548153 ], [ 401501.017293997982051, 3785089.928789420053363 ], [ 401501.017293997982051, 3785090.233977619558573 ], [ 401500.712105798593257, 3785090.233977619558573 ], [ 401500.406917599204462, 3785090.539165819063783 ], [ 401497.965412004094105, 3785090.539165819063783 ] ] ] } },
{ "type": "Feature", "properties": { "confidence": 0.31149518489837646, "class": 1 }, "geometry": { "type": "Polygon", "coordinates": [ [ [ 401786.063072227872908, 3784895.218718209769577 ], [ 401785.757884028484114, 3784894.913530010264367 ], [ 401784.84231943031773, 3784894.913530010264367 ], [ 401783.926754832151346, 3784893.997965412214398 ], [ 401783.926754832151346, 3784893.692777212709188 ], [ 401783.316378433373757, 3784893.082400813698769 ], [ 401783.316378433373757, 3784892.77721261465922 ], [ 401783.011190233984962, 3784892.47202441515401 ], [ 401790.335707019316033, 3784892.47202441515401 ], [ 401790.335707019316033, 3784894.913530010264367 ], [ 401789.420142421149649, 3784894.913530010264367 ], [ 401789.114954221760854, 3784895.218718209769577 ], [ 401786.063072227872908, 3784895.218718209769577 ] ] ] } },
{ "type": "Feature", "properties": { "confidence": 0.30463576316833496, "class": 1 }, "geometry": { "type": "Polygon", "coordinates": [ [ [ 401666.429298067116179, 3785136.927772126160562 ], [ 401666.124109867727384, 3785136.622583926655352 ], [ 401665.513733468949795, 3785136.622583926655352 ], [ 401665.513733468949795, 3785136.012207528110594 ], [ 401664.903357070172206, 3785135.401831129100174 ], [ 401664.903357070172206, 3785131.12919633788988 ], [ 401665.208545269561, 3785130.82400813838467 ], [ 401665.208545269561, 3785129.908443540334702 ], [ 401665.513733468949795, 3785129.908443540334702 ], [ 401665.818921668338589, 3785129.603255340829492 ], [ 401665.818921668338589, 3785129.298067141324282 ], [ 401666.124109867727384, 3785128.992878941819072 ], [ 401666.124109867727384, 3785128.382502543274313 ], [ 401668.870803662284743, 3785128.382502543274313 ], [ 401669.175991861673538, 3785128.687690742779523 ], [ 401669.786368260451127, 3785128.687690742779523 ], [ 401670.091556459839921, 3785128.382502543274313 ], [ 401670.396744659228716, 3785128.382502543274313 ], [ 401670.701932858617511, 3785128.077314343769103 ], [ 401670.701932858617511, 3785127.772126144263893 ], [ 401671.922685656172689, 3785127.772126144263893 ], [ 401671.922685656172689, 3785128.077314343769103 ], [ 401672.227873855561484, 3785128.382502543274313 ], [ 401672.227873855561484, 3785131.434384536929429 ], [ 401671.922685656172689, 3785131.739572736434639 ], [ 401671.922685656172689, 3785132.960325533989817 ], [ 401671.617497456783894, 3785133.265513733495027 ], [ 401671.617497456783894, 3785133.875890132039785 ], [ 401671.3123092573951, 3785134.181078331544995 ], [ 401671.3123092573951, 3785134.486266531050205 ], [ 401671.007121058006305, 3785134.791454730555415 ], [ 401671.007121058006305, 3785135.401831129100174 ], [ 401670.701932858617511, 3785135.401831129100174 ], [ 401670.396744659228716, 3785135.707019328605384 ], [ 401667.955239064118359, 3785135.707019328605384 ], [ 401667.650050864671357, 3785136.012207528110594 ], [ 401667.344862665282562, 3785136.012207528110594 ], [ 401666.429298067116179, 3785136.927772126160562 ] ] ] } },
{ "type": "Feature", "properties": { "confidence": 0.27832192182540894, "class": 1 }, "geometry": { "type": "Polygon", "coordinates": [ [ [ 401462.563580874877516, 3785129.908443540334702 ], [ 401462.258392675488722, 3785129.603255340829492 ], [ 401462.258392675488722, 3785127.466937945224345 ], [ 401462.563580874877516, 3785127.161749745719135 ], [ 401462.563580874877516, 3785126.856561546213925 ], [ 401465.615462868765462, 3785126.856561546213925 ], [ 401465.615462868765462, 3785127.161749745719135 ], [ 401466.225839267543051, 3785127.772126144263893 ], [ 401465.920651068154257, 3785128.077314343769103 ], [ 401465.920651068154257, 3785128.382502543274313 ], [ 401465.615462868765462, 3785128.687690742779523 ], [ 401465.615462868765462, 3785128.992878941819072 ], [ 401465.310274669376668, 3785129.298067141324282 ], [ 401465.005086469987873, 3785129.298067141324282 ], [ 401464.699898270599078, 3785129.603255340829492 ], [ 401464.089521871821489, 3785129.603255340829492 ], [ 401463.784333672432695, 3785129.908443540334702 ], [ 401462.563580874877516, 3785129.908443540334702 ] ] ] } },
{ "type": "Feature", "properties": { "confidence": 0.27723944187164307, "class": 1 }, "geometry": { "type": "Polygon", "coordinates": [ [ [ 401553.509664292971138, 3785132.349949135445058 ], [ 401552.899287894193549, 3785131.739572736434639 ], [ 401552.899287894193549, 3785131.434384536929429 ], [ 401552.594099694804754, 3785131.12919633788988 ], [ 401552.594099694804754, 3785130.51881993887946 ], [ 401552.899287894193549, 3785130.21363173937425 ], [ 401552.899287894193549, 3785129.603255340829492 ], [ 401553.204476093582343, 3785129.298067141324282 ], [ 401553.204476093582343, 3785128.077314343769103 ], [ 401552.899287894193549, 3785127.772126144263893 ], [ 401552.899287894193549, 3785126.856561546213925 ], [ 401555.951169888081495, 3785126.856561546213925 ], [ 401555.951169888081495, 3785131.739572736434639 ], [ 401555.340793489303906, 3785131.739572736434639 ], [ 401554.730417090526316, 3785132.349949135445058 ], [ 401553.509664292971138, 3785132.349949135445058 ] ] ] } },
{ "type": "Feature", "properties": { "confidence": 0.26467141509056091, "class": 1 }, "geometry": { "type": "Polygon", "coordinates": [ [ [ 401886.164801627688576, 3785272.126144455745816 ], [ 401885.859613428299781, 3785271.820956256240606 ], [ 401884.944048830133397, 3785271.820956256240606 ], [ 401884.333672431355808, 3785271.210579857695848 ], [ 401884.333672431355808, 3785270.905391658190638 ], [ 401884.028484231967013, 3785270.600203458685428 ], [ 401884.028484231967013, 3785270.295015259180218 ], [ 401883.723296032578219, 3785269.989827060140669 ], [ 401883.723296032578219, 3785269.07426246162504 ], [ 401883.418107833189424, 3785268.769074262585491 ], [ 401883.418107833189424, 3785267.853509664069861 ], [ 401883.723296032578219, 3785267.548321465030313 ], [ 401883.723296032578219, 3785267.243133265525103 ], [ 401884.028484231967013, 3785267.243133265525103 ], [ 401884.333672431355808, 3785266.937945066019893 ], [ 401886.164801627688576, 3785266.937945066019893 ], [ 401886.46998982707737, 3785267.243133265525103 ], [ 401886.775178026466165, 3785267.243133265525103 ], [ 401886.775178026466165, 3785267.548321465030313 ], [ 401887.385554425243754, 3785268.158697863575071 ], [ 401888.301119023410138, 3785268.158697863575071 ], [ 401888.606307222798932, 3785268.463886063080281 ], [ 401888.911495422187727, 3785268.463886063080281 ], [ 401889.521871820965316, 3785269.07426246162504 ], [ 401889.521871820965316, 3785269.989827060140669 ], [ 401889.827060020354111, 3785270.295015259180218 ], [ 401889.827060020354111, 3785270.600203458685428 ], [ 401889.521871820965316, 3785270.905391658190638 ], [ 401889.521871820965316, 3785271.210579857695848 ], [ 401889.216683621576522, 3785271.210579857695848 ], [ 401888.911495422187727, 3785271.515768057201058 ], [ 401888.606307222798932, 3785271.515768057201058 ], [ 401888.301119023410138, 3785271.820956256240606 ], [ 401886.46998982707737, 3785271.820956256240606 ], [ 401886.164801627688576, 3785272.126144455745816 ] ] ] } }
]
}
