{
"type": "FeatureCollection",
"name": "cell_00410_pre",
"crs": { "type": "name", "properties": { "name": "urn:ogc:def:crs:EPSG::32611" } },
"features": [
{ "type": "Feature", "properties": { "confidence": 0.90122097730636597, "class": 1 }, "geometry": { "type": "Polygon", "coordinates": [ [ [ 398266.632756866747513, 3786827.060020345728844 ], [ 398266.327568667358719, 3786826.754832146689296 ], [ 398265.10681586980354, 3786826.754832146689296 ], [ 398264.801627670414746, 3786826.449643947184086 ], [ 398264.191251271637157, 3786826.449643947184086 ], [ 398263.886063072248362, 3786826.144455747678876 ], [ 398263.886063072248362, 3786825.839267548173666 ], [ 398263.275686673470773, 3786825.228891149628907 ], [ 398263.275686673470773, 3786824.923702950123698 ], [ 398262.970498474081978, 3786824.618514750618488 ], [ 398262.970498474081978, 3786824.008138352073729 ], [ 398262.665310274693184, 3786823.702950152568519 ], [ 398262.665310274693184, 3786816.378433367237449 ], [ 398262.970498474081978, 3786816.073245167732239 ], [ 398263.886063072248362, 3786816.073245167732239 ], [ 398264.191251271637157, 3786815.76805696869269 ], [ 398264.496439471025951, 3786816.073245167732239 ], [ 398266.632756866747513, 3786816.073245167732239 ], [ 398266.937945066136308, 3786816.378433367237449 ], [ 398267.548321464913897, 3786816.378433367237449 ], [ 398268.158697863691486, 3786816.988809766247869 ], [ 398268.463886063080281, 3786816.988809766247869 ], [ 398268.769074262469076, 3786817.293997965287417 ], [ 398268.769074262469076, 3786817.904374364297837 ], [ 398269.07426246185787, 3786818.209562563803047 ], [ 398269.07426246185787, 3786818.819938962347806 ], [ 398269.379450661246665, 3786819.125127161853015 ], [ 398269.684638860635459, 3786819.125127161853015 ], [ 398269.684638860635459, 3786819.735503560397774 ], [ 398269.989827060024254, 3786820.040691759902984 ], [ 398269.989827060024254, 3786825.839267548173666 ], [ 398269.379450661246665, 3786826.449643947184086 ], [ 398269.07426246185787, 3786826.449643947184086 ], [ 398268.769074262469076, 3786826.754832146689296 ], [ 398268.463886063080281, 3786826.754832146689296 ], [ 398268.158697863691486, 3786827.060020345728844 ], [ 398266.632756866747513, 3786827.060020345728844 ] ] ] } },
{ "type": "Feature", "properties": { "confidence": 0.85413497686386108, "class": 1 }, "geometry": { "type": "Polygon", "coordinates": [ [ [ 398068.260427263507154, 3787002.543234995100647 ], [ 398067.955239064118359, 3787002.238046795595437 ], [ 398065.513733468949795, 3787002.238046795595437 ], [ 398065.208545269561, 3787001.932858596090227 ], [ 398064.903357070172206, 3787001.932858596090227 ], [ 398064.598168870783411, 3787001.627670396585017 ], [ 398064.292980671394616, 3787001.627670396585017 ], [ 398064.292980671394616, 3787001.017293998040259 ], [ 398063.987792472005822, 3787000.712105798535049 ], [ 398063.987792472005822, 3786997.660223804879934 ], [ 398064.292980671394616, 3786997.355035605374724 ], [ 398064.292980671394616, 3786996.744659206364304 ], [ 398064.598168870783411, 3786996.439471007324755 ], [ 398064.598168870783411, 3786995.523906408809125 ], [ 398064.903357070172206, 3786995.218718209769577 ], [ 398065.818921668338589, 3786995.218718209769577 ], [ 398066.124109867727384, 3786994.913530010264367 ], [ 398067.039674465893768, 3786994.913530010264367 ], [ 398067.344862665282562, 3786995.218718209769577 ], [ 398067.650050864671357, 3786995.218718209769577 ], [ 398067.650050864671357, 3786995.523906408809125 ], [ 398069.481180061062332, 3786997.355035605374724 ], [ 398069.786368260451127, 3786997.355035605374724 ], [ 398070.091556459839921, 3786997.660223804879934 ], [ 398070.091556459839921, 3786998.270600203424692 ], [ 398070.396744659228716, 3786998.575788402929902 ], [ 398070.396744659228716, 3787001.322482197545469 ], [ 398070.091556459839921, 3787001.627670396585017 ], [ 398070.091556459839921, 3787001.932858596090227 ], [ 398069.786368260451127, 3787002.238046795595437 ], [ 398069.481180061062332, 3787002.238046795595437 ], [ 398069.175991861673538, 3787002.543234995100647 ], [ 398068.260427263507154, 3787002.543234995100647 ] ] ] } },
{ "type": "Feature", "properties": { "confidence": 0.85350227355957031, "class": 1 }, "geometry": { "type": "Polygon", "coordinates": [ [ [ 398201.62767039675964, 3786666.531027466990054 ], [ 398201.322482197370846, 3786666.225839267484844 ], [ 398200.406917599204462, 3786666.225839267484844 ], [ 398199.796541200426873, 3786665.615462868940085 ], [ 398199.491353001038078, 3786665.615462868940085 ], [ 398199.491353001038078, 3786665.310274669434875 ], [ 398198.880976602260489, 3786664.699898270424455 ], [ 398198.880976602260489, 3786664.394710071384907 ], [ 398198.575788402871694, 3786664.089521871879697 ], [ 398198.575788402871694, 3786661.95320447627455 ], [ 398198.880976602260489, 3786661.64801627676934 ], [ 398198.880976602260489, 3786661.03763987775892 ], [ 398199.491353001038078, 3786660.427263479214162 ], [ 398199.796541200426873, 3786660.427263479214162 ], [ 398200.101729399815667, 3786660.122075279708952 ], [ 398200.712105798593257, 3786660.122075279708952 ], [ 398201.017293997982051, 3786659.816887080203742 ], [ 398201.322482197370846, 3786659.816887080203742 ], [ 398201.62767039675964, 3786659.511698881164193 ], [ 398203.763987792481203, 3786659.511698881164193 ], [ 398204.679552390647586, 3786660.427263479214162 ], [ 398204.984740590036381, 3786660.427263479214162 ], [ 398205.289928789425176, 3786660.732451678719372 ], [ 398205.59511698881397, 3786660.732451678719372 ], [ 398206.510681586980354, 3786661.64801627676934 ], [ 398206.510681586980354, 3786663.479145472869277 ], [ 398206.205493387591559, 3786663.784333672374487 ], [ 398206.205493387591559, 3786665.920651067979634 ], [ 398205.900305188202765, 3786666.225839267484844 ], [ 398205.59511698881397, 3786666.225839267484844 ], [ 398205.289928789425176, 3786666.531027466990054 ], [ 398201.62767039675964, 3786666.531027466990054 ] ] ] } },
{ "type": "Feature", "properties": { "confidence": 0.84829920530319214, "class": 1 }, "geometry": { "type": "Polygon", "coordinates": [ [ [ 398292.268565615464468, 3786817.904374364297837 ], [ 398291.963377416075673, 3786817.599186164792627 ], [ 398291.658189216686878, 3786817.599186164792627 ], [ 398291.353001017298084, 3786817.293997965287417 ], [ 398291.047812817909289, 3786817.293997965287417 ], [ 398290.132248219742905, 3786816.378433367237449 ], [ 398289.827060020354111, 3786816.378433367237449 ], [ 398288.606307222798932, 3786815.15768056968227 ], [ 398288.606307222798932, 3786814.85249237017706 ], [ 398288.301119023410138, 3786814.547304171137512 ], [ 398288.301119023410138, 3786813.021363174077123 ], [ 398288.606307222798932, 3786812.716174974571913 ], [ 398288.911495422187727, 3786812.716174974571913 ], [ 398289.216683621576522, 3786812.410986775066704 ], [ 398290.4374364191317, 3786812.410986775066704 ], [ 398290.742624618520495, 3786812.105798575561494 ], [ 398291.353001017298084, 3786812.105798575561494 ], [ 398291.658189216686878, 3786812.410986775066704 ], [ 398292.268565615464468, 3786812.410986775066704 ], [ 398292.573753814853262, 3786812.716174974571913 ], [ 398292.878942014242057, 3786812.716174974571913 ], [ 398293.794506612408441, 3786813.631739572621882 ], [ 398294.099694811797235, 3786813.631739572621882 ], [ 398294.40488301118603, 3786813.936927772127092 ], [ 398294.710071210574824, 3786813.936927772127092 ], [ 398295.015259409963619, 3786814.242115971632302 ], [ 398295.320447609352414, 3786814.242115971632302 ], [ 398295.625635808741208, 3786814.547304171137512 ], [ 398295.625635808741208, 3786817.293997965287417 ], [ 398295.015259409963619, 3786817.904374364297837 ], [ 398292.268565615464468, 3786817.904374364297837 ] ] ] } },
{ "type": "Feature", "properties": { "confidence": 0.80730283260345459, "class": 1 }, "geometry": { "type": "Polygon", "coordinates": [ [ [ 398075.890132248227019, 3787052.594099694862962 ], [ 398075.27975584944943, 3787051.983723295852542 ], [ 398075.27975584944943, 3787048.626653102692217 ], [ 398075.584944048838224, 3787048.321464903187007 ], [ 398075.584944048838224, 3787048.016276704147458 ], [ 398076.195320447615813, 3787047.405900305137038 ], [ 398076.500508647004608, 3787047.405900305137038 ], [ 398076.805696846393403, 3787047.100712105631828 ], [ 398077.110885045782197, 3787047.100712105631828 ], [ 398078.026449643948581, 3787046.18514750758186 ], [ 398078.026449643948581, 3787045.87995930807665 ], [ 398078.331637843337376, 3787045.87995930807665 ], [ 398078.63682604272617, 3787045.574771109037101 ], [ 398078.63682604272617, 3787045.269582909531891 ], [ 398078.942014242114965, 3787045.269582909531891 ], [ 398079.247202441503759, 3787044.964394710026681 ], [ 398080.162767039670143, 3787044.964394710026681 ], [ 398080.467955239058938, 3787044.659206510521472 ], [ 398080.773143438447732, 3787044.964394710026681 ], [ 398081.383519837225322, 3787044.964394710026681 ], [ 398081.383519837225322, 3787045.269582909531891 ], [ 398081.078331637836527, 3787045.574771109037101 ], [ 398081.078331637836527, 3787046.49033570708707 ], [ 398081.383519837225322, 3787046.79552390659228 ], [ 398081.383519837225322, 3787047.405900305137038 ], [ 398081.688708036614116, 3787047.711088504642248 ], [ 398081.688708036614116, 3787048.016276704147458 ], [ 398081.383519837225322, 3787048.321464903187007 ], [ 398081.383519837225322, 3787048.931841302197427 ], [ 398081.078331637836527, 3787049.237029501702636 ], [ 398081.078331637836527, 3787049.542217700742185 ], [ 398080.773143438447732, 3787049.847405900247395 ], [ 398080.773143438447732, 3787050.457782299257815 ], [ 398080.467955239058938, 3787050.762970498297364 ], [ 398080.467955239058938, 3787051.068158697802573 ], [ 398080.162767039670143, 3787051.373346897307783 ], [ 398080.162767039670143, 3787051.983723295852542 ], [ 398079.857578840281349, 3787052.288911495357752 ], [ 398078.63682604272617, 3787052.288911495357752 ], [ 398078.331637843337376, 3787052.594099694862962 ], [ 398075.890132248227019, 3787052.594099694862962 ] ] ] } },
{ "type": "Feature", "properties": { "confidence": 0.72747915983200073, "class": 1 }, "geometry": { "type": "Polygon", "coordinates": [ [ [ 397832.044760935881641, 3787047.405900305137038 ], [ 397831.739572736492846, 3787047.100712105631828 ], [ 397829.908443540160079, 3787047.100712105631828 ], [ 397829.603255340771284, 3787046.79552390659228 ], [ 397828.992878941993695, 3787046.79552390659228 ], [ 397828.6876907426049, 3787046.49033570708707 ], [ 397827.772126144438516, 3787046.49033570708707 ], [ 397827.466937945049722, 3787046.18514750758186 ], [ 397826.856561546272133, 3787046.18514750758186 ], [ 397826.551373346883338, 3787045.87995930807665 ], [ 397826.551373346883338, 3787045.574771109037101 ], [ 397826.246185147494543, 3787045.269582909531891 ], [ 397826.246185147494543, 3787044.659206510521472 ], [ 397826.551373346883338, 3787044.659206510521472 ], [ 397826.856561546272133, 3787044.354018311481923 ], [ 397826.856561546272133, 3787044.048830111976713 ], [ 397834.791454730439, 3787044.048830111976713 ], [ 397834.791454730439, 3787044.354018311481923 ], [ 397835.096642929827794, 3787044.659206510521472 ], [ 397835.707019328605384, 3787044.659206510521472 ], [ 397835.707019328605384, 3787045.269582909531891 ], [ 397834.791454730439, 3787046.18514750758186 ], [ 397834.486266531050205, 3787046.18514750758186 ], [ 397833.875890132272616, 3787046.79552390659228 ], [ 397833.570701932883821, 3787046.79552390659228 ], [ 397833.265513733495027, 3787047.100712105631828 ], [ 397832.349949135328643, 3787047.100712105631828 ], [ 397832.044760935881641, 3787047.405900305137038 ] ] ] } },
{ "type": "Feature", "properties": { "confidence": 0.70273512601852417, "class": 1 }, "geometry": { "type": "Polygon", "coordinates": [ [ [ 397907.121057985757943, 3786993.387589013203979 ], [ 397906.815869786369149, 3786993.082400813698769 ], [ 397906.205493387591559, 3786993.082400813698769 ], [ 397905.900305188202765, 3786992.77721261465922 ], [ 397905.59511698881397, 3786992.77721261465922 ], [ 397905.59511698881397, 3786992.47202441515401 ], [ 397905.289928789425176, 3786992.1668362156488 ], [ 397905.289928789425176, 3786989.725330620538443 ], [ 397906.205493387591559, 3786988.809766022488475 ], [ 397906.815869786369149, 3786988.809766022488475 ], [ 397907.121057985757943, 3786988.504577822983265 ], [ 397907.731434384535532, 3786988.504577822983265 ], [ 397908.036622583924327, 3786988.199389623478055 ], [ 397908.646998982701916, 3786988.199389623478055 ], [ 397909.257375381479505, 3786987.589013224933296 ], [ 397909.5625635808683, 3786987.589013224933296 ], [ 397910.783316378423478, 3786986.368260427378118 ], [ 397911.393692777201068, 3786986.368260427378118 ], [ 397911.698880976589862, 3786986.063072227872908 ], [ 397913.224821973533835, 3786986.063072227872908 ], [ 397913.53001017292263, 3786986.368260427378118 ], [ 397913.53001017292263, 3786986.673448626883328 ], [ 397913.224821973533835, 3786986.978636825922877 ], [ 397913.224821973533835, 3786988.199389623478055 ], [ 397912.919633774145041, 3786988.504577822983265 ], [ 397912.919633774145041, 3786989.725330620538443 ], [ 397912.614445574756246, 3786990.030518820043653 ], [ 397912.614445574756246, 3786990.640895218588412 ], [ 397912.309257375367451, 3786990.946083418093622 ], [ 397912.309257375367451, 3786992.1668362156488 ], [ 397912.004069175978657, 3786992.47202441515401 ], [ 397912.004069175978657, 3786992.77721261465922 ], [ 397911.393692777201068, 3786992.77721261465922 ], [ 397911.088504577812273, 3786993.082400813698769 ], [ 397909.257375381479505, 3786993.082400813698769 ], [ 397908.952187182090711, 3786993.387589013203979 ], [ 397907.121057985757943, 3786993.387589013203979 ] ] ] } },
{ "type": "Feature", "properties": { "confidence": 0.69892740249633789, "class": 1 }, "geometry": { "type": "Polygon", "coordinates": [ [ [ 398359.715157680562697, 3786794.710071210749447 ], [ 398359.104781281785108, 3786794.099694811739028 ], [ 398359.104781281785108, 3786792.268565615639091 ], [ 398359.409969481173903, 3786791.963377416133881 ], [ 398359.409969481173903, 3786791.658189216628671 ], [ 398360.020345879951492, 3786791.047812818083912 ], [ 398360.325534079340287, 3786791.047812818083912 ], [ 398360.630722278729081, 3786790.742624618578702 ], [ 398360.935910478117876, 3786790.742624618578702 ], [ 398361.24109867750667, 3786790.437436419073492 ], [ 398362.461851475061849, 3786790.437436419073492 ], [ 398362.767039674450643, 3786790.132248219568282 ], [ 398363.987792472005822, 3786790.132248219568282 ], [ 398364.292980671394616, 3786789.827060020528734 ], [ 398364.292980671394616, 3786789.216683621518314 ], [ 398364.598168870783411, 3786788.911495422013104 ], [ 398365.513733468949795, 3786788.911495422013104 ], [ 398365.818921668338589, 3786789.216683621518314 ], [ 398365.818921668338589, 3786789.521871821023524 ], [ 398365.513733468949795, 3786789.827060020528734 ], [ 398365.513733468949795, 3786792.268565615639091 ], [ 398364.292980671394616, 3786793.489318413194269 ], [ 398363.987792472005822, 3786793.489318413194269 ], [ 398363.682604272617027, 3786793.794506612233818 ], [ 398363.072227873839438, 3786793.794506612233818 ], [ 398362.767039674450643, 3786794.099694811739028 ], [ 398361.85147507628426, 3786794.099694811739028 ], [ 398361.546286876895465, 3786794.404883011244237 ], [ 398360.935910478117876, 3786794.404883011244237 ], [ 398360.630722278729081, 3786794.710071210749447 ], [ 398359.715157680562697, 3786794.710071210749447 ] ] ] } },
{ "type": "Feature", "properties": { "confidence": 0.69779360294342041, "class": 1 }, "geometry": { "type": "Polygon", "coordinates": [ [ [ 398368.565615462895948, 3787155.747711088508368 ], [ 398368.260427263507154, 3787155.442522889003158 ], [ 398367.650050864671357, 3787155.442522889003158 ], [ 398367.039674465893768, 3787154.832146490458399 ], [ 398367.039674465893768, 3787153.916581891942769 ], [ 398367.344862665282562, 3787153.611393692903221 ], [ 398367.344862665282562, 3787152.695829094387591 ], [ 398367.955239064118359, 3787152.085452695842832 ], [ 398367.955239064118359, 3787151.780264496337622 ], [ 398370.396744659228716, 3787149.338758901227266 ], [ 398370.701932858617511, 3787149.338758901227266 ], [ 398371.007121058006305, 3787149.033570701722056 ], [ 398372.838250254339073, 3787149.033570701722056 ], [ 398373.753814852505457, 3787149.949135300237685 ], [ 398373.753814852505457, 3787151.780264496337622 ], [ 398374.059003051894251, 3787152.085452695842832 ], [ 398374.059003051894251, 3787154.832146490458399 ], [ 398373.448626653116662, 3787155.442522889003158 ], [ 398372.838250254339073, 3787155.442522889003158 ], [ 398372.533062054950278, 3787155.747711088508368 ], [ 398368.565615462895948, 3787155.747711088508368 ] ] ] } },
{ "type": "Feature", "properties": { "confidence": 0.68145859241485596, "class": 1 }, "geometry": { "type": "Polygon", "coordinates": [ [ [ 397948.626653102750424, 3786811.800610376521945 ], [ 397948.32146490336163, 3786811.495422177016735 ], [ 397947.100712105806451, 3786811.495422177016735 ], [ 397946.795523906417657, 3786811.190233977511525 ], [ 397946.490335707028862, 3786811.190233977511525 ], [ 397945.879959308251273, 3786810.579857578966767 ], [ 397945.879959308251273, 3786809.664292980451137 ], [ 397954.730417090526316, 3786809.664292980451137 ], [ 397954.730417090526316, 3786809.969481179956347 ], [ 397955.035605289915111, 3786810.274669379461557 ], [ 397954.730417090526316, 3786810.579857578966767 ], [ 397954.730417090526316, 3786810.885045778006315 ], [ 397954.120040691748727, 3786811.495422177016735 ], [ 397953.204476093582343, 3786811.495422177016735 ], [ 397952.899287894193549, 3786811.800610376521945 ], [ 397948.626653102750424, 3786811.800610376521945 ] ] ] } },
{ "type": "Feature", "properties": { "confidence": 0.60982131958007812, "class": 1 }, "geometry": { "type": "Polygon", "coordinates": [ [ [ 397924.211597151588649, 3786997.660223804879934 ], [ 397923.906408952199854, 3786997.355035605374724 ], [ 397922.99084435403347, 3786997.355035605374724 ], [ 397921.159715157700703, 3786995.523906408809125 ], [ 397920.854526958311908, 3786995.523906408809125 ], [ 397920.854526958311908, 3786994.913530010264367 ], [ 397920.549338758923113, 3786994.608341810759157 ], [ 397920.854526958311908, 3786994.303153611253947 ], [ 397920.854526958311908, 3786993.082400813698769 ], [ 397922.075279755867086, 3786991.86164801614359 ], [ 397922.380467955255881, 3786991.86164801614359 ], [ 397922.99084435403347, 3786991.251271617598832 ], [ 397923.296032553422265, 3786991.251271617598832 ], [ 397923.601220752811059, 3786990.946083418093622 ], [ 397923.906408952199854, 3786990.946083418093622 ], [ 397924.211597151588649, 3786990.640895218588412 ], [ 397925.432349949143827, 3786990.640895218588412 ], [ 397925.737538148532622, 3786990.946083418093622 ], [ 397926.347914547310211, 3786990.946083418093622 ], [ 397926.653102746699005, 3786991.251271617598832 ], [ 397927.873855544254184, 3786991.251271617598832 ], [ 397928.179043743642978, 3786991.556459817104042 ], [ 397929.094608341809362, 3786991.556459817104042 ], [ 397929.399796541198157, 3786991.86164801614359 ], [ 397929.399796541198157, 3786992.47202441515401 ], [ 397929.704984740586951, 3786992.77721261465922 ], [ 397929.399796541198157, 3786993.082400813698769 ], [ 397929.399796541198157, 3786994.303153611253947 ], [ 397928.789420142420568, 3786994.913530010264367 ], [ 397928.789420142420568, 3786995.218718209769577 ], [ 397926.653102746699005, 3786997.355035605374724 ], [ 397925.127161749755032, 3786997.355035605374724 ], [ 397924.821973550366238, 3786997.660223804879934 ], [ 397924.211597151588649, 3786997.660223804879934 ] ] ] } },
{ "type": "Feature", "properties": { "confidence": 0.54964160919189453, "class": 1 }, "geometry": { "type": "Polygon", "coordinates": [ [ [ 398266.327568667358719, 3786928.077314343769103 ], [ 398266.022380467969924, 3786927.772126144263893 ], [ 398266.022380467969924, 3786927.161749745719135 ], [ 398266.327568667358719, 3786926.856561546213925 ], [ 398266.327568667358719, 3786925.330620549153537 ], [ 398267.853509664302692, 3786923.80467955255881 ], [ 398267.853509664302692, 3786923.4994913530536 ], [ 398268.463886063080281, 3786922.88911495404318 ], [ 398268.463886063080281, 3786922.583926755003631 ], [ 398268.769074262469076, 3786922.583926755003631 ], [ 398269.07426246185787, 3786922.278738555498421 ], [ 398269.07426246185787, 3786921.973550355993211 ], [ 398269.379450661246665, 3786921.973550355993211 ], [ 398269.684638860635459, 3786921.668362156488001 ], [ 398269.684638860635459, 3786921.363173957448453 ], [ 398269.989827060024254, 3786921.057985757943243 ], [ 398269.989827060024254, 3786920.752797558438033 ], [ 398270.295015259413049, 3786920.447609358932823 ], [ 398271.515768056968227, 3786920.447609358932823 ], [ 398271.820956256357022, 3786920.752797558438033 ], [ 398272.126144455745816, 3786920.752797558438033 ], [ 398272.126144455745816, 3786921.057985757943243 ], [ 398272.431332655134611, 3786921.363173957448453 ], [ 398272.431332655134611, 3786921.973550355993211 ], [ 398272.126144455745816, 3786922.278738555498421 ], [ 398272.126144455745816, 3786922.583926755003631 ], [ 398271.515768056968227, 3786923.19430315354839 ], [ 398271.515768056968227, 3786923.4994913530536 ], [ 398271.210579857579432, 3786923.80467955255881 ], [ 398271.210579857579432, 3786924.109867751598358 ], [ 398270.905391658190638, 3786924.415055951103568 ], [ 398270.905391658190638, 3786924.720244150608778 ], [ 398269.989827060024254, 3786925.635808748658746 ], [ 398269.684638860635459, 3786925.635808748658746 ], [ 398269.07426246185787, 3786926.246185147669166 ], [ 398268.769074262469076, 3786926.246185147669166 ], [ 398268.463886063080281, 3786926.551373346708715 ], [ 398268.463886063080281, 3786926.856561546213925 ], [ 398268.158697863691486, 3786927.161749745719135 ], [ 398268.158697863691486, 3786927.466937945224345 ], [ 398267.853509664302692, 3786927.772126144263893 ], [ 398267.853509664302692, 3786928.077314343769103 ], [ 398266.327568667358719, 3786928.077314343769103 ] ] ] } },
{ "type": "Feature", "properties": { "confidence": 0.48323777318000793, "class": 1 }, "geometry": { "type": "Polygon", "coordinates": [ [ [ 397832.960325534106232, 3787109.969481179956347 ], [ 397832.655137334717438, 3787109.664292980451137 ], [ 397832.349949135328643, 3787109.664292980451137 ], [ 397831.739572736492846, 3787109.053916581906378 ], [ 397831.739572736492846, 3787107.52797558484599 ], [ 397833.570701932883821, 3787105.696846388746053 ], [ 397833.875890132272616, 3787105.696846388746053 ], [ 397834.181078331661411, 3787105.391658189240843 ], [ 397835.707019328605384, 3787105.391658189240843 ], [ 397835.707019328605384, 3787105.696846388746053 ], [ 397836.012207527994178, 3787106.002034587785602 ], [ 397836.012207527994178, 3787106.917599186301231 ], [ 397835.707019328605384, 3787107.22278738534078 ], [ 397835.707019328605384, 3787108.748728382401168 ], [ 397835.401831129216589, 3787109.053916581906378 ], [ 397835.401831129216589, 3787109.359104781411588 ], [ 397835.096642929827794, 3787109.664292980451137 ], [ 397835.096642929827794, 3787109.969481179956347 ], [ 397832.960325534106232, 3787109.969481179956347 ] ] ] } },
{ "type": "Feature", "properties": { "confidence": 0.4670414924621582, "class": 1 }, "geometry": { "type": "Polygon", "coordinates": [ [ [ 398260.834181078360416, 3787016.581892166752368 ], [ 398260.528992878913414, 3787016.276703967247158 ], [ 398260.223804679524619, 3787016.276703967247158 ], [ 398259.918616480135825, 3787015.97151576820761 ], [ 398259.003051881969441, 3787015.97151576820761 ], [ 398258.697863682580646, 3787015.6663275687024 ], [ 398258.392675483191852, 3787015.6663275687024 ], [ 398258.087487283803057, 3787015.36113936919719 ], [ 398257.782299084414262, 3787015.36113936919719 ], [ 398256.561546286859084, 3787014.140386571642011 ], [ 398256.561546286859084, 3787013.530010173097253 ], [ 398256.256358087470289, 3787013.224821973592043 ], [ 398255.951169888081495, 3787013.224821973592043 ], [ 398255.951169888081495, 3787012.004069176036865 ], [ 398256.256358087470289, 3787011.698880976531655 ], [ 398256.256358087470289, 3787011.393692777026445 ], [ 398256.561546286859084, 3787011.088504577986896 ], [ 398256.866734486247879, 3787011.088504577986896 ], [ 398257.171922685636673, 3787010.783316378481686 ], [ 398258.087487283803057, 3787010.783316378481686 ], [ 398258.392675483191852, 3787011.088504577986896 ], [ 398259.61342828074703, 3787011.088504577986896 ], [ 398259.918616480135825, 3787011.393692777026445 ], [ 398260.223804679524619, 3787011.393692777026445 ], [ 398261.139369277749211, 3787012.309257375542074 ], [ 398261.139369277749211, 3787012.614445574581623 ], [ 398261.444557477138005, 3787012.919633774086833 ], [ 398261.7497456765268, 3787012.919633774086833 ], [ 398262.360122075304389, 3787013.530010173097253 ], [ 398262.360122075304389, 3787013.835198372136801 ], [ 398262.665310274693184, 3787014.140386571642011 ], [ 398262.665310274693184, 3787015.36113936919719 ], [ 398262.360122075304389, 3787015.6663275687024 ], [ 398262.360122075304389, 3787015.97151576820761 ], [ 398262.054933875915594, 3787015.97151576820761 ], [ 398261.7497456765268, 3787016.276703967247158 ], [ 398261.139369277749211, 3787016.276703967247158 ], [ 398260.834181078360416, 3787016.581892166752368 ] ] ] } },
{ "type": "Feature", "properties": { "confidence": 0.42911818623542786, "class": 1 }, "geometry": { "type": "Polygon", "coordinates": [ [ [ 398186.063072227872908, 3786855.442522889003158 ], [ 398185.452695829095319, 3786854.832146490458399 ], [ 398185.452695829095319, 3786854.526958290953189 ], [ 398184.84231943031773, 3786853.916581891942769 ], [ 398184.84231943031773, 3786849.643947100732476 ], [ 398185.147507629706524, 3786849.338758901227266 ], [ 398185.147507629706524, 3786848.728382502682507 ], [ 398185.757884028484114, 3786848.118006103672087 ], [ 398185.757884028484114, 3786847.812817904166877 ], [ 398186.368260427261703, 3786847.202441505622119 ], [ 398187.283825025428087, 3786847.202441505622119 ], [ 398187.589013224816881, 3786846.897253306116909 ], [ 398189.420142421149649, 3786846.897253306116909 ], [ 398189.725330620538443, 3786847.202441505622119 ], [ 398190.335707019316033, 3786847.202441505622119 ], [ 398190.946083418093622, 3786847.812817904166877 ], [ 398190.946083418093622, 3786848.423194303177297 ], [ 398191.251271617482416, 3786848.728382502682507 ], [ 398191.251271617482416, 3786850.559511698782444 ], [ 398190.946083418093622, 3786850.864699898287654 ], [ 398190.946083418093622, 3786852.085452695842832 ], [ 398190.640895218704827, 3786852.390640895348042 ], [ 398190.640895218704827, 3786852.695829094387591 ], [ 398190.335707019316033, 3786853.001017293892801 ], [ 398190.030518819927238, 3786853.001017293892801 ], [ 398189.725330620538443, 3786853.306205493398011 ], [ 398189.420142421149649, 3786853.306205493398011 ], [ 398189.114954221760854, 3786853.611393692903221 ], [ 398188.80976602237206, 3786853.611393692903221 ], [ 398188.19938962359447, 3786854.221770091447979 ], [ 398188.19938962359447, 3786854.526958290953189 ], [ 398187.589013224816881, 3786855.137334689497948 ], [ 398186.978636826039292, 3786855.137334689497948 ], [ 398186.673448626650497, 3786855.442522889003158 ], [ 398186.063072227872908, 3786855.442522889003158 ] ] ] } },
{ "type": "Feature", "properties": { "confidence": 0.41350886225700378, "class": 1 }, "geometry": { "type": "Polygon", "coordinates": [ [ [ 397813.42828077316517, 3786895.422177009284496 ], [ 397813.123092573776376, 3786895.116988809779286 ], [ 397812.512716174998786, 3786895.116988809779286 ], [ 397812.207527975609992, 3786894.811800610274076 ], [ 397811.902339776221197, 3786894.811800610274076 ], [ 397810.071210579830222, 3786892.980671414174139 ], [ 397810.071210579830222, 3786892.67548321466893 ], [ 397809.766022380441427, 3786892.37029501516372 ], [ 397809.766022380441427, 3786891.454730417113751 ], [ 397810.071210579830222, 3786891.149542217608541 ], [ 397810.071210579830222, 3786890.844354018103331 ], [ 397810.376398779219016, 3786890.539165819063783 ], [ 397810.376398779219016, 3786890.233977619558573 ], [ 397810.681586978607811, 3786889.928789420053363 ], [ 397810.986775178054813, 3786889.928789420053363 ], [ 397811.597151576832402, 3786889.318413021508604 ], [ 397811.902339776221197, 3786889.318413021508604 ], [ 397812.817904374387581, 3786888.402848422992975 ], [ 397812.817904374387581, 3786888.097660223953426 ], [ 397813.42828077316517, 3786887.487283824943006 ], [ 397814.649033570720349, 3786887.487283824943006 ], [ 397815.259409969497938, 3786888.097660223953426 ], [ 397815.564598168886732, 3786888.097660223953426 ], [ 397815.564598168886732, 3786888.402848422992975 ], [ 397815.869786368275527, 3786888.708036622498184 ], [ 397816.174974567664322, 3786888.708036622498184 ], [ 397816.480162767053116, 3786889.013224822003394 ], [ 397816.785350966441911, 3786889.013224822003394 ], [ 397817.700915564608295, 3786889.928789420053363 ], [ 397817.700915564608295, 3786890.539165819063783 ], [ 397818.006103763997089, 3786890.844354018103331 ], [ 397818.006103763997089, 3786893.285859613213688 ], [ 397817.3957273652195, 3786893.896236012224108 ], [ 397817.3957273652195, 3786894.201424211729318 ], [ 397817.090539165830705, 3786894.201424211729318 ], [ 397816.785350966441911, 3786894.506612410768867 ], [ 397816.785350966441911, 3786894.811800610274076 ], [ 397816.480162767053116, 3786895.116988809779286 ], [ 397816.174974567664322, 3786895.116988809779286 ], [ 397815.869786368275527, 3786895.422177009284496 ], [ 397813.42828077316517, 3786895.422177009284496 ] ] ] } },
{ "type": "Feature", "properties": { "confidence": 0.41120794415473938, "class": 1 }, "geometry": { "type": "Polygon", "coordinates": [ [ [ 398266.327568667358719, 3786857.578840285073966 ], [ 398266.022380467969924, 3786857.273652085568756 ], [ 398265.10681586980354, 3786857.273652085568756 ], [ 398265.10681586980354, 3786856.968463886063546 ], [ 398264.801627670414746, 3786856.663275686558336 ], [ 398264.801627670414746, 3786851.780264496337622 ], [ 398265.10681586980354, 3786851.475076296832412 ], [ 398265.10681586980354, 3786851.169888097792864 ], [ 398265.412004069192335, 3786851.169888097792864 ], [ 398265.71719226858113, 3786850.864699898287654 ], [ 398266.327568667358719, 3786850.864699898287654 ], [ 398266.632756866747513, 3786850.559511698782444 ], [ 398266.937945066136308, 3786850.559511698782444 ], [ 398267.243133265525103, 3786850.254323499277234 ], [ 398267.548321464913897, 3786850.254323499277234 ], [ 398268.158697863691486, 3786850.864699898287654 ], [ 398269.07426246185787, 3786850.864699898287654 ], [ 398269.07426246185787, 3786851.475076296832412 ], [ 398269.684638860635459, 3786852.085452695842832 ], [ 398269.684638860635459, 3786852.695829094387591 ], [ 398269.989827060024254, 3786853.001017293892801 ], [ 398269.989827060024254, 3786853.306205493398011 ], [ 398270.295015259413049, 3786853.611393692903221 ], [ 398270.295015259413049, 3786855.747711088508368 ], [ 398269.989827060024254, 3786856.052899288013577 ], [ 398269.989827060024254, 3786856.358087487053126 ], [ 398269.684638860635459, 3786856.358087487053126 ], [ 398269.379450661246665, 3786856.663275686558336 ], [ 398269.379450661246665, 3786856.968463886063546 ], [ 398269.07426246185787, 3786857.273652085568756 ], [ 398269.07426246185787, 3786857.578840285073966 ], [ 398266.327568667358719, 3786857.578840285073966 ] ] ] } },
{ "type": "Feature", "properties": { "confidence": 0.33182388544082642, "class": 1 }, "geometry": { "type": "Polygon", "coordinates": [ [ [ 397986.775178026466165, 3787048.016276704147458 ], [ 397986.46998982707737, 3787047.711088504642248 ], [ 397986.46998982707737, 3787045.574771109037101 ], [ 397987.080366225854959, 3787044.964394710026681 ], [ 397987.080366225854959, 3787044.659206510521472 ], [ 397991.963377416075673, 3787044.659206510521472 ], [ 397991.963377416075673, 3787045.269582909531891 ], [ 397991.658189216686878, 3787045.574771109037101 ], [ 397991.353001017298084, 3787045.574771109037101 ], [ 397991.047812817909289, 3787045.87995930807665 ], [ 397990.742624618520495, 3787045.87995930807665 ], [ 397990.132248219742905, 3787046.49033570708707 ], [ 397989.827060020354111, 3787046.49033570708707 ], [ 397989.521871820965316, 3787046.79552390659228 ], [ 397989.216683621576522, 3787046.79552390659228 ], [ 397988.911495422187727, 3787047.100712105631828 ], [ 397988.606307222798932, 3787047.100712105631828 ], [ 397988.301119023410138, 3787047.405900305137038 ], [ 397988.301119023410138, 3787047.711088504642248 ], [ 397987.995930824021343, 3787048.016276704147458 ], [ 397986.775178026466165, 3787048.016276704147458 ] ] ] } },
{ "type": "Feature", "properties": { "confidence": 0.32714396715164185, "class": 1 }, "geometry": { "type": "Polygon", "coordinates": [ [ [ 397898.575788402871694, 3787108.443540182895958 ], [ 397898.2706002034829, 3787108.13835198385641 ], [ 397897.660223804705311, 3787108.13835198385641 ], [ 397897.355035605316516, 3787107.8331637843512 ], [ 397897.355035605316516, 3787106.002034587785602 ], [ 397897.660223804705311, 3787105.696846388746053 ], [ 397897.660223804705311, 3787105.086469989735633 ], [ 397898.575788402871694, 3787104.170905391685665 ], [ 397898.575788402871694, 3787103.865717192180455 ], [ 397898.880976602260489, 3787103.560528992675245 ], [ 397899.186164801649284, 3787103.560528992675245 ], [ 397900.101729399815667, 3787102.644964394625276 ], [ 397900.406917599204462, 3787102.644964394625276 ], [ 397900.712105798593257, 3787102.339776195120066 ], [ 397901.017293997982051, 3787102.339776195120066 ], [ 397901.322482197370846, 3787102.034587996080518 ], [ 397901.62767039675964, 3787102.034587996080518 ], [ 397901.932858596148435, 3787101.729399796575308 ], [ 397902.543234994926024, 3787101.729399796575308 ], [ 397902.848423194314819, 3787101.424211597070098 ], [ 397904.679552390647586, 3787101.424211597070098 ], [ 397905.289928789425176, 3787102.034587996080518 ], [ 397905.289928789425176, 3787102.950152594130486 ], [ 397904.984740590036381, 3787103.255340793635696 ], [ 397904.984740590036381, 3787103.560528992675245 ], [ 397904.679552390647586, 3787103.865717192180455 ], [ 397904.679552390647586, 3787104.170905391685665 ], [ 397903.153611393703613, 3787105.696846388746053 ], [ 397903.153611393703613, 3787106.002034587785602 ], [ 397902.848423194314819, 3787106.307222787290812 ], [ 397902.543234994926024, 3787106.307222787290812 ], [ 397901.932858596148435, 3787106.917599186301231 ], [ 397901.62767039675964, 3787106.917599186301231 ], [ 397901.322482197370846, 3787107.22278738534078 ], [ 397901.017293997982051, 3787107.22278738534078 ], [ 397900.101729399815667, 3787108.13835198385641 ], [ 397899.491353001038078, 3787108.13835198385641 ], [ 397899.186164801649284, 3787108.443540182895958 ], [ 397898.575788402871694, 3787108.443540182895958 ] ] ] } },
{ "type": "Feature", "properties": { "confidence": 0.32325276732444763, "class": 1 }, "geometry": { "type": "Polygon", "coordinates": [ [ [ 398248.931841302139219, 3786848.118006103672087 ], [ 398248.626653102750424, 3786847.812817904166877 ], [ 398248.016276703972835, 3786847.812817904166877 ], [ 398247.100712105806451, 3786846.897253306116909 ], [ 398247.100712105806451, 3786846.592065106611699 ], [ 398246.795523906417657, 3786846.28687690757215 ], [ 398246.490335707028862, 3786846.28687690757215 ], [ 398246.490335707028862, 3786845.98168870806694 ], [ 398246.185147507640067, 3786845.67650050856173 ], [ 398246.185147507640067, 3786844.150559511501342 ], [ 398246.490335707028862, 3786843.845371312461793 ], [ 398246.490335707028862, 3786843.540183112956583 ], [ 398246.795523906417657, 3786843.234994913451374 ], [ 398247.71108850458404, 3786843.234994913451374 ], [ 398248.016276703972835, 3786842.929806713946164 ], [ 398248.626653102750424, 3786842.929806713946164 ], [ 398248.931841302139219, 3786843.234994913451374 ], [ 398249.847405900305603, 3786843.234994913451374 ], [ 398250.457782299083192, 3786843.845371312461793 ], [ 398250.762970498471987, 3786843.845371312461793 ], [ 398251.068158697860781, 3786844.150559511501342 ], [ 398251.068158697860781, 3786844.455747711006552 ], [ 398251.373346897249576, 3786844.760935910511762 ], [ 398251.373346897249576, 3786845.066124110016972 ], [ 398251.67853509663837, 3786845.37131230905652 ], [ 398251.67853509663837, 3786847.202441505622119 ], [ 398251.373346897249576, 3786847.507629705127329 ], [ 398251.373346897249576, 3786847.812817904166877 ], [ 398250.762970498471987, 3786847.812817904166877 ], [ 398250.457782299083192, 3786848.118006103672087 ], [ 398248.931841302139219, 3786848.118006103672087 ] ] ] } },
{ "type": "Feature", "properties": { "confidence": 0.28683570027351379, "class": 1 }, "geometry": { "type": "Polygon", "coordinates": [ [ [ 398224.516785350977443, 3786828.280773143284023 ], [ 398223.906408952199854, 3786827.670396744739264 ], [ 398223.906408952199854, 3786827.365208545234054 ], [ 398223.296032553422265, 3786826.754832146689296 ], [ 398223.296032553422265, 3786825.839267548173666 ], [ 398222.99084435403347, 3786825.534079349134117 ], [ 398222.99084435403347, 3786824.618514750618488 ], [ 398222.380467955255881, 3786824.008138352073729 ], [ 398222.380467955255881, 3786823.702950152568519 ], [ 398222.075279755867086, 3786823.397761953063309 ], [ 398222.075279755867086, 3786823.092573754023761 ], [ 398221.770091556478292, 3786822.787385554518551 ], [ 398221.770091556478292, 3786822.177009155508131 ], [ 398222.380467955255881, 3786821.566632756963372 ], [ 398222.380467955255881, 3786821.261444557458162 ], [ 398222.685656154644676, 3786820.956256357952952 ], [ 398222.685656154644676, 3786820.651068158913404 ], [ 398222.99084435403347, 3786820.651068158913404 ], [ 398223.296032553422265, 3786820.345879959408194 ], [ 398223.601220752811059, 3786820.651068158913404 ], [ 398224.211597151588649, 3786820.651068158913404 ], [ 398224.821973550366238, 3786821.261444557458162 ], [ 398225.127161749755032, 3786821.261444557458162 ], [ 398226.347914547310211, 3786822.482197355013341 ], [ 398226.653102746699005, 3786822.482197355013341 ], [ 398226.653102746699005, 3786822.787385554518551 ], [ 398227.263479145476595, 3786823.397761953063309 ], [ 398227.263479145476595, 3786823.702950152568519 ], [ 398227.568667344865389, 3786824.008138352073729 ], [ 398227.568667344865389, 3786824.923702950123698 ], [ 398227.873855544254184, 3786825.228891149628907 ], [ 398227.873855544254184, 3786826.144455747678876 ], [ 398227.568667344865389, 3786826.449643947184086 ], [ 398227.568667344865389, 3786827.365208545234054 ], [ 398227.263479145476595, 3786827.365208545234054 ], [ 398226.653102746699005, 3786827.975584944244474 ], [ 398226.347914547310211, 3786827.975584944244474 ], [ 398226.042726347921416, 3786828.280773143284023 ], [ 398224.516785350977443, 3786828.280773143284023 ] ] ] } },
{ "type": "Feature", "properties": { "confidence": 0.27961054444313049, "class": 1 }, "geometry": { "type": "Polygon", "coordinates": [ [ [ 397931.841302136308514, 3787052.899287894368172 ], [ 397931.536113936919719, 3787052.594099694862962 ], [ 397930.620549338753335, 3787052.594099694862962 ], [ 397930.315361139364541, 3787052.288911495357752 ], [ 397929.399796541198157, 3787052.288911495357752 ], [ 397928.789420142420568, 3787051.678535096812993 ], [ 397928.789420142420568, 3787050.762970498297364 ], [ 397928.484231943031773, 3787050.457782299257815 ], [ 397928.484231943031773, 3787050.152594099752605 ], [ 397928.179043743642978, 3787049.847405900247395 ], [ 397928.179043743642978, 3787049.237029501702636 ], [ 397927.873855544254184, 3787048.931841302197427 ], [ 397927.568667344865389, 3787048.931841302197427 ], [ 397926.9582909460878, 3787048.321464903187007 ], [ 397926.9582909460878, 3787047.711088504642248 ], [ 397926.653102746699005, 3787047.405900305137038 ], [ 397926.653102746699005, 3787045.87995930807665 ], [ 397926.347914547310211, 3787045.574771109037101 ], [ 397926.347914547310211, 3787045.269582909531891 ], [ 397926.9582909460878, 3787044.659206510521472 ], [ 397927.263479145476595, 3787044.659206510521472 ], [ 397927.568667344865389, 3787044.354018311481923 ], [ 397927.568667344865389, 3787044.048830111976713 ], [ 397930.620549338753335, 3787044.048830111976713 ], [ 397930.620549338753335, 3787044.354018311481923 ], [ 397930.92573753814213, 3787044.659206510521472 ], [ 397931.841302136308514, 3787044.659206510521472 ], [ 397931.841302136308514, 3787044.964394710026681 ], [ 397931.536113936919719, 3787045.269582909531891 ], [ 397931.536113936919719, 3787046.18514750758186 ], [ 397931.841302136308514, 3787046.49033570708707 ], [ 397931.841302136308514, 3787046.79552390659228 ], [ 397932.146490335697308, 3787047.100712105631828 ], [ 397932.146490335697308, 3787048.626653102692217 ], [ 397932.756866734474897, 3787049.237029501702636 ], [ 397933.062054933863692, 3787049.237029501702636 ], [ 397933.062054933863692, 3787049.847405900247395 ], [ 397933.367243133252487, 3787050.152594099752605 ], [ 397933.367243133252487, 3787050.457782299257815 ], [ 397933.062054933863692, 3787050.762970498297364 ], [ 397933.062054933863692, 3787051.373346897307783 ], [ 397932.756866734474897, 3787051.678535096812993 ], [ 397932.756866734474897, 3787051.983723295852542 ], [ 397931.841302136308514, 3787052.899287894368172 ] ] ] } },
{ "type": "Feature", "properties": { "confidence": 0.27608057856559753, "class": 1 }, "geometry": { "type": "Polygon", "coordinates": [ [ [ 398251.068158697860781, 3786859.409969481173903 ], [ 398250.762970498471987, 3786859.104781281668693 ], [ 398251.068158697860781, 3786858.799593082629144 ], [ 398251.068158697860781, 3786857.884028484113514 ], [ 398250.762970498471987, 3786857.578840285073966 ], [ 398251.068158697860781, 3786857.273652085568756 ], [ 398251.068158697860781, 3786856.663275686558336 ], [ 398251.373346897249576, 3786856.358087487053126 ], [ 398251.373346897249576, 3786855.747711088508368 ], [ 398251.67853509663837, 3786855.442522889003158 ], [ 398251.67853509663837, 3786855.137334689497948 ], [ 398252.28891149541596, 3786854.526958290953189 ], [ 398252.594099694804754, 3786854.526958290953189 ], [ 398252.899287894193549, 3786854.221770091447979 ], [ 398252.899287894193549, 3786853.916581891942769 ], [ 398253.204476093582343, 3786853.611393692903221 ], [ 398253.204476093582343, 3786853.306205493398011 ], [ 398253.814852492359933, 3786853.306205493398011 ], [ 398254.120040691748727, 3786853.001017293892801 ], [ 398254.425228891137522, 3786853.001017293892801 ], [ 398254.730417090526316, 3786852.695829094387591 ], [ 398256.256358087470289, 3786852.695829094387591 ], [ 398256.866734486247879, 3786853.306205493398011 ], [ 398257.171922685636673, 3786853.306205493398011 ], [ 398257.171922685636673, 3786854.221770091447979 ], [ 398257.477110885025468, 3786854.526958290953189 ], [ 398257.477110885025468, 3786854.832146490458399 ], [ 398257.782299084414262, 3786855.137334689497948 ], [ 398257.477110885025468, 3786855.442522889003158 ], [ 398257.477110885025468, 3786855.747711088508368 ], [ 398257.171922685636673, 3786855.747711088508368 ], [ 398255.340793489303906, 3786857.578840285073966 ], [ 398255.340793489303906, 3786857.884028484113514 ], [ 398255.035605289915111, 3786858.189216683618724 ], [ 398254.730417090526316, 3786858.189216683618724 ], [ 398254.120040691748727, 3786858.799593082629144 ], [ 398253.509664292971138, 3786858.799593082629144 ], [ 398252.899287894193549, 3786859.409969481173903 ], [ 398251.068158697860781, 3786859.409969481173903 ] ] ] } },
{ "type": "Feature", "properties": { "confidence": 0.26194187998771667, "class": 1 }, "geometry": { "type": "Polygon", "coordinates": [ [ [ 398225.737538148532622, 3786965.615462868940085 ], [ 398225.737538148532622, 3786965.310274669434875 ], [ 398225.127161749755032, 3786964.699898270424455 ], [ 398225.127161749755032, 3786962.258392675314099 ], [ 398225.432349949143827, 3786961.95320447627455 ], [ 398225.432349949143827, 3786961.64801627676934 ], [ 398225.737538148532622, 3786961.64801627676934 ], [ 398226.042726347921416, 3786961.34282807726413 ], [ 398228.484231943031773, 3786961.34282807726413 ], [ 398229.094608341809362, 3786961.95320447627455 ], [ 398229.094608341809362, 3786963.479145472869277 ], [ 398228.789420142420568, 3786963.784333672374487 ], [ 398228.789420142420568, 3786964.089521871879697 ], [ 398228.179043743642978, 3786964.699898270424455 ], [ 398227.873855544254184, 3786964.699898270424455 ], [ 398227.568667344865389, 3786965.005086469929665 ], [ 398226.9582909460878, 3786965.005086469929665 ], [ 398226.653102746699005, 3786965.310274669434875 ], [ 398226.653102746699005, 3786965.615462868940085 ], [ 398225.737538148532622, 3786965.615462868940085 ] ] ] } },
{ "type": "Feature", "properties": { "confidence": 0.25473818182945251, "class": 1 }, "geometry": { "type": "Polygon", "coordinates": [ [ [ 398323.397761953179725, 3787136.826042726170272 ], [ 398323.09257375379093, 3787136.520854527130723 ], [ 398322.787385554402135, 3787136.520854527130723 ], [ 398322.482197355013341, 3787136.215666327625513 ], [ 398322.177009155624546, 3787136.215666327625513 ], [ 398321.871820956235752, 3787135.910478128120303 ], [ 398321.871820956235752, 3787134.994913530070335 ], [ 398321.566632756846957, 3787134.689725330565125 ], [ 398321.566632756846957, 3787133.774160732515156 ], [ 398321.871820956235752, 3787133.468972533009946 ], [ 398321.871820956235752, 3787133.163784333504736 ], [ 398322.177009155624546, 3787132.858596134465188 ], [ 398322.177009155624546, 3787132.553407934959978 ], [ 398322.482197355013341, 3787132.248219735454768 ], [ 398322.787385554402135, 3787132.248219735454768 ], [ 398323.09257375379093, 3787131.943031535949558 ], [ 398323.397761953179725, 3787131.943031535949558 ], [ 398323.702950152568519, 3787131.637843336910009 ], [ 398327.060020345903467, 3787131.637843336910009 ], [ 398327.060020345903467, 3787131.943031535949558 ], [ 398327.365208545292262, 3787132.248219735454768 ], [ 398327.365208545292262, 3787132.553407934959978 ], [ 398327.670396744681057, 3787132.858596134465188 ], [ 398327.670396744681057, 3787135.300101729575545 ], [ 398327.060020345903467, 3787135.910478128120303 ], [ 398326.754832146514673, 3787135.910478128120303 ], [ 398326.449643947125878, 3787136.215666327625513 ], [ 398326.144455747737084, 3787136.215666327625513 ], [ 398325.839267548348289, 3787136.520854527130723 ], [ 398325.2288911495707, 3787136.520854527130723 ], [ 398324.923702950123698, 3787136.826042726170272 ], [ 398323.397761953179725, 3787136.826042726170272 ] ] ] } }
]
}
