{
"type": "FeatureCollection",
"name": "cell_00446_pre",
"crs": { "type": "name", "properties": { "name": "urn:ogc:def:crs:EPSG::32611" } },
"features": [
{ "type": "Feature", "properties": { "confidence": 0.97865080833435059, "class": 1 }, "geometry": { "type": "Polygon", "coordinates": [ [ [ 399811.495422177016735, 3783818.819938962347806 ], [ 399811.19023397762794, 3783818.514750762842596 ], [ 399810.579857578850351, 3783818.514750762842596 ], [ 399810.274669379461557, 3783818.209562563803047 ], [ 399809.969481180072762, 3783818.209562563803047 ], [ 399809.664292980683967, 3783817.904374364297837 ], [ 399809.359104781295173, 3783817.904374364297837 ], [ 399808.748728382517584, 3783817.293997965287417 ], [ 399808.748728382517584, 3783816.988809766247869 ], [ 399808.138351983739994, 3783816.378433367237449 ], [ 399808.138351983739994, 3783815.46286876918748 ], [ 399807.8331637843512, 3783815.15768056968227 ], [ 399807.8331637843512, 3783813.936927772127092 ], [ 399807.222787385573611, 3783813.326551373116672 ], [ 399807.222787385573611, 3783811.800610376521945 ], [ 399807.527975584962405, 3783811.495422177016735 ], [ 399807.8331637843512, 3783811.495422177016735 ], [ 399808.138351983739994, 3783811.190233977511525 ], [ 399810.885045778239146, 3783811.190233977511525 ], [ 399811.19023397762794, 3783811.495422177016735 ], [ 399811.80061037640553, 3783811.495422177016735 ], [ 399812.410986775183119, 3783812.105798575561494 ], [ 399812.716174974571913, 3783812.105798575561494 ], [ 399812.716174974571913, 3783812.410986775066704 ], [ 399813.326551373349503, 3783813.021363174077123 ], [ 399813.326551373349503, 3783813.326551373116672 ], [ 399813.936927772127092, 3783813.936927772127092 ], [ 399813.936927772127092, 3783814.547304171137512 ], [ 399814.242115971515886, 3783814.85249237017706 ], [ 399814.242115971515886, 3783816.988809766247869 ], [ 399814.547304170904681, 3783817.293997965287417 ], [ 399814.547304170904681, 3783817.904374364297837 ], [ 399813.936927772127092, 3783818.514750762842596 ], [ 399813.631739572738297, 3783818.514750762842596 ], [ 399813.326551373349503, 3783818.819938962347806 ], [ 399811.495422177016735, 3783818.819938962347806 ] ] ] } },
{ "type": "Feature", "properties": { "confidence": 0.96595728397369385, "class": 1 }, "geometry": { "type": "Polygon", "coordinates": [ [ [ 399742.522889114974532, 3784127.365208545234054 ], [ 399742.217700915585738, 3784127.060020345728844 ], [ 399741.912512716196943, 3784127.060020345728844 ], [ 399741.912512716196943, 3784126.449643947184086 ], [ 399741.607324516808148, 3784126.144455747678876 ], [ 399741.912512716196943, 3784125.839267548173666 ], [ 399741.912512716196943, 3784125.228891149628907 ], [ 399743.438453713140916, 3784123.702950152568519 ], [ 399743.743641912529711, 3784123.702950152568519 ], [ 399744.048830111918505, 3784123.397761953063309 ], [ 399744.048830111918505, 3784123.092573754023761 ], [ 399744.3540183113073, 3784123.092573754023761 ], [ 399744.659206510696094, 3784122.787385554518551 ], [ 399744.659206510696094, 3784122.482197355013341 ], [ 399745.269582909473684, 3784121.871820956468582 ], [ 399745.269582909473684, 3784121.566632756963372 ], [ 399745.879959308251273, 3784121.566632756963372 ], [ 399748.016276703972835, 3784119.430315361358225 ], [ 399748.931841302139219, 3784119.430315361358225 ], [ 399749.237029501528013, 3784119.735503560397774 ], [ 399749.542217700916808, 3784119.735503560397774 ], [ 399749.847405900305603, 3784120.040691759902984 ], [ 399749.542217700916808, 3784120.345879959408194 ], [ 399749.542217700916808, 3784120.956256357952952 ], [ 399749.237029501528013, 3784121.261444557458162 ], [ 399749.237029501528013, 3784121.566632756963372 ], [ 399748.931841302139219, 3784121.566632756963372 ], [ 399746.795523906417657, 3784123.702950152568519 ], [ 399746.795523906417657, 3784124.008138352073729 ], [ 399745.574771108862478, 3784125.228891149628907 ], [ 399745.574771108862478, 3784125.534079349134117 ], [ 399745.269582909473684, 3784125.534079349134117 ], [ 399744.964394710084889, 3784125.839267548173666 ], [ 399744.964394710084889, 3784126.144455747678876 ], [ 399744.3540183113073, 3784126.754832146689296 ], [ 399744.048830111918505, 3784126.754832146689296 ], [ 399743.743641912529711, 3784127.060020345728844 ], [ 399743.438453713140916, 3784127.060020345728844 ], [ 399743.133265513752121, 3784127.365208545234054 ], [ 399742.522889114974532, 3784127.365208545234054 ] ] ] } },
{ "type": "Feature", "properties": { "confidence": 0.94984227418899536, "class": 1 }, "geometry": { "type": "Polygon", "coordinates": [ [ [ 399835.910478128178511, 3783878.636826042551547 ], [ 399835.910478128178511, 3783878.026449644006789 ], [ 399835.605289928789716, 3783877.721261444501579 ], [ 399835.605289928789716, 3783877.416073244996369 ], [ 399835.300101729400922, 3783877.11088504595682 ], [ 399835.300101729400922, 3783872.533062054775655 ], [ 399835.605289928789716, 3783872.533062054775655 ], [ 399835.910478128178511, 3783872.227873855736107 ], [ 399835.910478128178511, 3783871.922685656230897 ], [ 399838.046795523900073, 3783871.922685656230897 ], [ 399838.351983723288868, 3783872.227873855736107 ], [ 399838.962360122066457, 3783872.227873855736107 ], [ 399839.267548321455251, 3783871.922685656230897 ], [ 399840.183112919621635, 3783871.922685656230897 ], [ 399840.48830111901043, 3783871.617497456725687 ], [ 399841.403865717176814, 3783871.617497456725687 ], [ 399841.709053916565608, 3783871.922685656230897 ], [ 399841.709053916565608, 3783873.753814852330834 ], [ 399842.319430315343197, 3783874.364191251341254 ], [ 399842.319430315343197, 3783876.80569684645161 ], [ 399842.014242115954403, 3783877.11088504595682 ], [ 399842.014242115954403, 3783877.416073244996369 ], [ 399841.709053916565608, 3783877.416073244996369 ], [ 399841.403865717176814, 3783877.721261444501579 ], [ 399840.793489318399224, 3783877.721261444501579 ], [ 399840.48830111901043, 3783878.026449644006789 ], [ 399838.351983723288868, 3783878.026449644006789 ], [ 399838.046795523900073, 3783878.331637843511999 ], [ 399837.741607324511278, 3783878.331637843511999 ], [ 399837.436419125122484, 3783878.636826042551547 ], [ 399835.910478128178511, 3783878.636826042551547 ] ] ] } },
{ "type": "Feature", "properties": { "confidence": 0.93878579139709473, "class": 1 }, "geometry": { "type": "Polygon", "coordinates": [ [ [ 399795.625635808741208, 3783993.387589013203979 ], [ 399794.710071210574824, 3783992.47202441515401 ], [ 399794.099694811797235, 3783992.47202441515401 ], [ 399793.794506612408441, 3783992.1668362156488 ], [ 399793.184130213630851, 3783992.1668362156488 ], [ 399792.878942014242057, 3783991.86164801614359 ], [ 399791.963377416075673, 3783991.86164801614359 ], [ 399791.658189216686878, 3783991.556459817104042 ], [ 399791.047812817909289, 3783991.556459817104042 ], [ 399790.742624618520495, 3783991.251271617598832 ], [ 399790.4374364191317, 3783991.251271617598832 ], [ 399789.827060020354111, 3783990.640895218588412 ], [ 399789.521871820965316, 3783990.640895218588412 ], [ 399789.521871820965316, 3783988.809766022488475 ], [ 399789.827060020354111, 3783988.504577822983265 ], [ 399789.827060020354111, 3783985.14750762982294 ], [ 399790.132248219742905, 3783984.84231943031773 ], [ 399790.132248219742905, 3783984.23194303130731 ], [ 399790.742624618520495, 3783983.621566632762551 ], [ 399790.742624618520495, 3783983.316378433257341 ], [ 399791.047812817909289, 3783983.011190233752131 ], [ 399791.658189216686878, 3783983.011190233752131 ], [ 399791.963377416075673, 3783982.706002034712583 ], [ 399793.489318413019646, 3783982.706002034712583 ], [ 399793.794506612408441, 3783982.400813835207373 ], [ 399794.40488301118603, 3783982.400813835207373 ], [ 399794.710071210574824, 3783982.095625635702163 ], [ 399798.067141403851565, 3783982.095625635702163 ], [ 399798.067141403851565, 3783982.400813835207373 ], [ 399798.677517802629154, 3783983.011190233752131 ], [ 399798.677517802629154, 3783984.53713123081252 ], [ 399798.982706002017949, 3783984.84231943031773 ], [ 399798.982706002017949, 3783985.14750762982294 ], [ 399799.593082400795538, 3783985.757884028367698 ], [ 399799.593082400795538, 3783988.199389623478055 ], [ 399799.287894201406743, 3783988.504577822983265 ], [ 399799.287894201406743, 3783989.114954221993685 ], [ 399798.982706002017949, 3783989.420142421033233 ], [ 399798.982706002017949, 3783990.335707019548863 ], [ 399798.677517802629154, 3783990.640895218588412 ], [ 399798.677517802629154, 3783991.251271617598832 ], [ 399798.37232960324036, 3783991.556459817104042 ], [ 399798.37232960324036, 3783991.86164801614359 ], [ 399797.76195320446277, 3783992.47202441515401 ], [ 399797.76195320446277, 3783992.77721261465922 ], [ 399797.456765005073976, 3783992.77721261465922 ], [ 399796.846388606296387, 3783993.387589013203979 ], [ 399795.625635808741208, 3783993.387589013203979 ] ] ] } },
{ "type": "Feature", "properties": { "confidence": 0.91433495283126831, "class": 1 }, "geometry": { "type": "Polygon", "coordinates": [ [ [ 399712.004069175978657, 3784137.436419125180691 ], [ 399711.393692777201068, 3784136.826042726170272 ], [ 399711.393692777201068, 3784136.215666327625513 ], [ 399711.088504577812273, 3784135.910478128120303 ], [ 399711.088504577812273, 3784133.774160732515156 ], [ 399711.393692777201068, 3784133.468972533009946 ], [ 399711.393692777201068, 3784132.858596134465188 ], [ 399711.698880976589862, 3784132.553407934959978 ], [ 399711.698880976589862, 3784132.248219735454768 ], [ 399712.614445574756246, 3784131.332655137404799 ], [ 399713.835198372311424, 3784131.332655137404799 ], [ 399714.140386571700219, 3784131.02746693789959 ], [ 399715.361139369255397, 3784131.02746693789959 ], [ 399715.666327568644192, 3784130.72227873839438 ], [ 399717.192268565588165, 3784130.72227873839438 ], [ 399717.49745676497696, 3784130.417090539354831 ], [ 399718.107833163812757, 3784130.417090539354831 ], [ 399718.413021363201551, 3784130.72227873839438 ], [ 399718.718209562590346, 3784130.72227873839438 ], [ 399719.02339776197914, 3784131.02746693789959 ], [ 399719.02339776197914, 3784131.332655137404799 ], [ 399718.718209562590346, 3784131.637843336910009 ], [ 399718.718209562590346, 3784133.163784333504736 ], [ 399718.413021363201551, 3784133.468972533009946 ], [ 399718.413021363201551, 3784135.300101729575545 ], [ 399717.802644964365754, 3784135.910478128120303 ], [ 399717.49745676497696, 3784135.910478128120303 ], [ 399717.192268565588165, 3784136.215666327625513 ], [ 399716.276703967421781, 3784136.215666327625513 ], [ 399715.971515768032987, 3784136.520854527130723 ], [ 399714.750762970477808, 3784136.520854527130723 ], [ 399714.445574771089014, 3784136.826042726170272 ], [ 399714.140386571700219, 3784136.826042726170272 ], [ 399713.835198372311424, 3784137.131230925675482 ], [ 399713.224821973533835, 3784137.131230925675482 ], [ 399712.919633774145041, 3784137.436419125180691 ], [ 399712.004069175978657, 3784137.436419125180691 ] ] ] } },
{ "type": "Feature", "properties": { "confidence": 0.91102093458175659, "class": 1 }, "geometry": { "type": "Polygon", "coordinates": [ [ [ 399816.073245167848654, 3783841.403865717351437 ], [ 399815.768056968459859, 3783841.098677517846227 ], [ 399815.15768056968227, 3783841.098677517846227 ], [ 399814.852492370293476, 3783840.793489318341017 ], [ 399814.852492370293476, 3783840.183112919796258 ], [ 399814.547304170904681, 3783839.877924720291048 ], [ 399814.852492370293476, 3783839.572736520785838 ], [ 399814.852492370293476, 3783837.131230925675482 ], [ 399815.462868769071065, 3783836.520854527130723 ], [ 399815.768056968459859, 3783836.520854527130723 ], [ 399816.378433367237449, 3783835.910478128120303 ], [ 399816.683621566626243, 3783835.910478128120303 ], [ 399817.293997965403832, 3783835.300101729575545 ], [ 399819.1251271617366, 3783835.300101729575545 ], [ 399819.735503560514189, 3783835.910478128120303 ], [ 399819.735503560514189, 3783836.215666327625513 ], [ 399820.345879959291779, 3783836.826042726170272 ], [ 399820.345879959291779, 3783839.267548321280628 ], [ 399820.040691759902984, 3783839.572736520785838 ], [ 399820.040691759902984, 3783840.488301118835807 ], [ 399819.430315361125395, 3783841.098677517846227 ], [ 399819.430315361125395, 3783841.403865717351437 ], [ 399816.073245167848654, 3783841.403865717351437 ] ] ] } },
{ "type": "Feature", "properties": { "confidence": 0.89354723691940308, "class": 1 }, "geometry": { "type": "Polygon", "coordinates": [ [ [ 400179.247202441503759, 3783783.112919633742422 ], [ 400178.63682604272617, 3783782.502543235197663 ], [ 400178.331637843337376, 3783782.502543235197663 ], [ 400177.416073245170992, 3783781.586978636682034 ], [ 400177.416073245170992, 3783781.281790437642485 ], [ 400177.110885045782197, 3783780.976602238137275 ], [ 400177.110885045782197, 3783780.671414038632065 ], [ 400176.805696846393403, 3783780.366225839126855 ], [ 400176.805696846393403, 3783780.061037640087306 ], [ 400176.500508647004608, 3783779.755849440582097 ], [ 400176.500508647004608, 3783779.450661241076887 ], [ 400176.195320447615813, 3783779.145473041571677 ], [ 400176.195320447615813, 3783778.229908443521708 ], [ 400175.890132248227019, 3783777.924720244016498 ], [ 400175.890132248227019, 3783777.31434384547174 ], [ 400176.195320447615813, 3783777.00915564596653 ], [ 400176.500508647004608, 3783777.00915564596653 ], [ 400176.805696846393403, 3783776.70396744646132 ], [ 400177.110885045782197, 3783776.70396744646132 ], [ 400177.416073245170992, 3783776.398779247421771 ], [ 400177.721261444559786, 3783776.398779247421771 ], [ 400178.026449643948581, 3783776.70396744646132 ], [ 400178.63682604272617, 3783776.70396744646132 ], [ 400178.63682604272617, 3783777.00915564596653 ], [ 400178.942014242114965, 3783777.31434384547174 ], [ 400178.942014242114965, 3783777.61953204497695 ], [ 400179.247202441503759, 3783777.924720244016498 ], [ 400179.247202441503759, 3783778.229908443521708 ], [ 400179.552390640892554, 3783778.535096643026918 ], [ 400180.773143438447732, 3783778.535096643026918 ], [ 400181.078331637836527, 3783778.840284842532128 ], [ 400181.688708036614116, 3783778.840284842532128 ], [ 400181.993896236002911, 3783779.145473041571677 ], [ 400181.993896236002911, 3783780.061037640087306 ], [ 400182.299084435391705, 3783780.366225839126855 ], [ 400182.299084435391705, 3783782.502543235197663 ], [ 400181.993896236002911, 3783782.807731434237212 ], [ 400181.688708036614116, 3783782.807731434237212 ], [ 400181.383519837225322, 3783783.112919633742422 ], [ 400179.247202441503759, 3783783.112919633742422 ] ] ] } },
{ "type": "Feature", "properties": { "confidence": 0.8420710563659668, "class": 1 }, "geometry": { "type": "Polygon", "coordinates": [ [ [ 399642.11597151577007, 3784083.418107833247632 ], [ 399641.810783316381276, 3784083.112919633742422 ], [ 399641.505595116992481, 3784083.112919633742422 ], [ 399641.200406917603686, 3784082.807731434237212 ], [ 399641.200406917603686, 3784082.502543235197663 ], [ 399640.895218718214892, 3784082.197355035692453 ], [ 399640.895218718214892, 3784081.281790437642485 ], [ 399641.200406917603686, 3784080.976602238137275 ], [ 399641.200406917603686, 3784079.450661241076887 ], [ 399641.505595116992481, 3784079.145473041571677 ], [ 399641.505595116992481, 3784078.535096643026918 ], [ 399641.810783316381276, 3784078.229908443521708 ], [ 399641.810783316381276, 3784077.924720244016498 ], [ 399642.11597151577007, 3784077.61953204497695 ], [ 399642.11597151577007, 3784077.00915564596653 ], [ 399642.421159715158865, 3784076.70396744646132 ], [ 399642.421159715158865, 3784076.093591047916561 ], [ 399643.641912512714043, 3784074.872838250361383 ], [ 399643.947100712102838, 3784074.872838250361383 ], [ 399644.252288911491632, 3784074.567650050856173 ], [ 399645.473041709046811, 3784074.567650050856173 ], [ 399645.778229908435605, 3784074.872838250361383 ], [ 399646.693794506601989, 3784074.872838250361383 ], [ 399647.304170905379578, 3784075.483214648906142 ], [ 399649.135300101712346, 3784075.483214648906142 ], [ 399650.356052899267524, 3784076.70396744646132 ], [ 399650.966429298045114, 3784076.70396744646132 ], [ 399651.881993896211497, 3784077.61953204497695 ], [ 399651.881993896211497, 3784080.061037640087306 ], [ 399651.576805696822703, 3784080.366225839126855 ], [ 399651.576805696822703, 3784080.671414038632065 ], [ 399650.966429298045114, 3784081.281790437642485 ], [ 399650.966429298045114, 3784081.586978636682034 ], [ 399650.661241098656319, 3784081.586978636682034 ], [ 399649.135300101712346, 3784083.112919633742422 ], [ 399648.830111902323551, 3784083.112919633742422 ], [ 399648.524923702934757, 3784083.418107833247632 ], [ 399642.11597151577007, 3784083.418107833247632 ] ] ] } },
{ "type": "Feature", "properties": { "confidence": 0.84059011936187744, "class": 1 }, "geometry": { "type": "Polygon", "coordinates": [ [ [ 399703.153611393703613, 3783813.936927772127092 ], [ 399702.848423194314819, 3783813.631739572621882 ], [ 399702.848423194314819, 3783813.021363174077123 ], [ 399702.543234994926024, 3783812.716174974571913 ], [ 399702.543234994926024, 3783812.410986775066704 ], [ 399702.23804679553723, 3783812.105798575561494 ], [ 399702.23804679553723, 3783811.800610376521945 ], [ 399701.932858596148435, 3783811.495422177016735 ], [ 399701.932858596148435, 3783809.664292980451137 ], [ 399706.815869786369149, 3783809.664292980451137 ], [ 399706.815869786369149, 3783810.274669379461557 ], [ 399706.510681586980354, 3783810.579857578966767 ], [ 399706.510681586980354, 3783811.495422177016735 ], [ 399705.59511698881397, 3783812.410986775066704 ], [ 399705.289928789425176, 3783812.410986775066704 ], [ 399704.069175991869997, 3783813.631739572621882 ], [ 399703.763987792481203, 3783813.631739572621882 ], [ 399703.458799593092408, 3783813.936927772127092 ], [ 399703.153611393703613, 3783813.936927772127092 ] ] ] } },
{ "type": "Feature", "properties": { "confidence": 0.79702353477478027, "class": 1 }, "geometry": { "type": "Polygon", "coordinates": [ [ [ 400131.332655137346592, 3783983.926754832267761 ], [ 400131.027466937957797, 3783983.621566632762551 ], [ 400130.722278738569003, 3783983.621566632762551 ], [ 400129.501525941013824, 3783982.400813835207373 ], [ 400129.501525941013824, 3783982.095625635702163 ], [ 400129.19633774162503, 3783981.790437436196953 ], [ 400129.19633774162503, 3783977.517802644986659 ], [ 400129.501525941013824, 3783977.212614445481449 ], [ 400129.501525941013824, 3783976.907426245976239 ], [ 400130.722278738569003, 3783975.686673448421061 ], [ 400131.027466937957797, 3783975.686673448421061 ], [ 400131.332655137346592, 3783975.381485249381512 ], [ 400132.55340793490177, 3783975.381485249381512 ], [ 400132.858596134290565, 3783975.686673448421061 ], [ 400133.163784333679359, 3783975.686673448421061 ], [ 400133.468972533068154, 3783975.991861647926271 ], [ 400133.468972533068154, 3783976.297049847431481 ], [ 400133.774160732456949, 3783976.602238046936691 ], [ 400133.774160732456949, 3783976.907426245976239 ], [ 400134.079348931845743, 3783977.212614445481449 ], [ 400134.384537131234538, 3783977.212614445481449 ], [ 400135.300101729400922, 3783978.128179043531418 ], [ 400135.300101729400922, 3783978.433367243036628 ], [ 400135.605289928789716, 3783978.738555442541838 ], [ 400135.605289928789716, 3783979.043743642047048 ], [ 400135.910478128178511, 3783979.348931841086596 ], [ 400135.910478128178511, 3783979.654120040591806 ], [ 400136.215666327567305, 3783979.959308240097016 ], [ 400136.215666327567305, 3783980.569684638641775 ], [ 400136.5208545269561, 3783980.874872838146985 ], [ 400136.5208545269561, 3783981.485249237157404 ], [ 400136.215666327567305, 3783981.790437436196953 ], [ 400136.215666327567305, 3783982.095625635702163 ], [ 400135.910478128178511, 3783982.400813835207373 ], [ 400135.910478128178511, 3783983.316378433257341 ], [ 400135.605289928789716, 3783983.621566632762551 ], [ 400134.689725330623332, 3783983.621566632762551 ], [ 400134.384537131234538, 3783983.926754832267761 ], [ 400131.332655137346592, 3783983.926754832267761 ] ] ] } },
{ "type": "Feature", "properties": { "confidence": 0.77375388145446777, "class": 1 }, "geometry": { "type": "Polygon", "coordinates": [ [ [ 399691.251271617482416, 3784146.28687690757215 ], [ 399690.946083418093622, 3784145.98168870806694 ], [ 399689.420142421149649, 3784145.98168870806694 ], [ 399689.114954221760854, 3784145.67650050856173 ], [ 399688.80976602237206, 3784145.67650050856173 ], [ 399688.80976602237206, 3784144.760935910511762 ], [ 399689.114954221760854, 3784144.455747711006552 ], [ 399689.114954221760854, 3784141.403865717351437 ], [ 399689.420142421149649, 3784141.098677517846227 ], [ 399689.725330620538443, 3784141.098677517846227 ], [ 399690.030518819927238, 3784140.793489318341017 ], [ 399690.335707019316033, 3784140.793489318341017 ], [ 399690.640895218704827, 3784140.488301118835807 ], [ 399690.946083418093622, 3784140.488301118835807 ], [ 399692.777212614426389, 3784138.65717192273587 ], [ 399692.777212614426389, 3784138.35198372323066 ], [ 399693.387589013203979, 3784137.741607324685901 ], [ 399693.387589013203979, 3784136.520854527130723 ], [ 399693.082400813815184, 3784136.215666327625513 ], [ 399693.387589013203979, 3784135.910478128120303 ], [ 399693.387589013203979, 3784135.605289928615093 ], [ 399693.692777212592773, 3784135.605289928615093 ], [ 399693.997965411981568, 3784135.300101729575545 ], [ 399694.303153611370362, 3784135.300101729575545 ], [ 399694.608341810759157, 3784134.994913530070335 ], [ 399695.523906408925541, 3784134.994913530070335 ], [ 399695.829094608314335, 3784135.300101729575545 ], [ 399696.13428280770313, 3784135.300101729575545 ], [ 399697.049847405927721, 3784136.215666327625513 ], [ 399697.049847405927721, 3784136.826042726170272 ], [ 399697.355035605316516, 3784137.131230925675482 ], [ 399697.355035605316516, 3784140.183112919796258 ], [ 399697.049847405927721, 3784140.488301118835807 ], [ 399697.049847405927721, 3784142.319430315401405 ], [ 399696.744659206538927, 3784142.624618514906615 ], [ 399696.744659206538927, 3784144.760935910511762 ], [ 399695.523906408925541, 3784145.98168870806694 ], [ 399693.082400813815184, 3784145.98168870806694 ], [ 399692.777212614426389, 3784146.28687690757215 ], [ 399691.251271617482416, 3784146.28687690757215 ] ] ] } },
{ "type": "Feature", "properties": { "confidence": 0.70000886917114258, "class": 1 }, "geometry": { "type": "Polygon", "coordinates": [ [ [ 399945.473041709046811, 3783678.433367243036628 ], [ 399945.167853509658016, 3783678.128179043531418 ], [ 399944.862665310269222, 3783678.128179043531418 ], [ 399944.862665310269222, 3783677.822990844491869 ], [ 399942.726347914547659, 3783675.686673448421061 ], [ 399942.726347914547659, 3783675.381485249381512 ], [ 399942.421159715158865, 3783675.076297049876302 ], [ 399942.421159715158865, 3783670.193285859655589 ], [ 399942.726347914547659, 3783669.888097660150379 ], [ 399942.726347914547659, 3783668.97253306210041 ], [ 399943.031536113936454, 3783668.667344862595201 ], [ 399943.031536113936454, 3783668.362156663089991 ], [ 399943.641912512714043, 3783667.751780264545232 ], [ 399943.947100712102838, 3783667.751780264545232 ], [ 399944.557477110880427, 3783667.141403865534812 ], [ 399944.557477110880427, 3783666.836215666495264 ], [ 399945.473041709046811, 3783665.920651067979634 ], [ 399945.473041709046811, 3783665.615462868940085 ], [ 399945.778229908435605, 3783665.615462868940085 ], [ 399946.0834181078244, 3783665.310274669434875 ], [ 399946.693794506601989, 3783665.310274669434875 ], [ 399946.998982705990784, 3783665.005086469929665 ], [ 399947.914547304157168, 3783665.005086469929665 ], [ 399948.219735503545962, 3783665.310274669434875 ], [ 399948.219735503545962, 3783666.225839267484844 ], [ 399948.524923702934757, 3783666.531027466990054 ], [ 399948.524923702934757, 3783676.602238046936691 ], [ 399948.219735503545962, 3783676.907426245976239 ], [ 399947.914547304157168, 3783676.907426245976239 ], [ 399947.609359104768373, 3783677.212614445481449 ], [ 399947.304170905379578, 3783677.212614445481449 ], [ 399946.998982705990784, 3783677.517802644986659 ], [ 399946.388606307213195, 3783677.517802644986659 ], [ 399945.473041709046811, 3783678.433367243036628 ] ] ] } },
{ "type": "Feature", "properties": { "confidence": 0.67993313074111938, "class": 1 }, "geometry": { "type": "Polygon", "coordinates": [ [ [ 399802.950152594072279, 3783822.787385554518551 ], [ 399802.644964394683484, 3783822.482197355013341 ], [ 399802.339776195294689, 3783822.482197355013341 ], [ 399801.7293997965171, 3783821.871820956468582 ], [ 399801.7293997965171, 3783821.566632756963372 ], [ 399801.424211597128306, 3783821.261444557458162 ], [ 399801.424211597128306, 3783820.956256357952952 ], [ 399801.119023397739511, 3783820.651068158913404 ], [ 399801.119023397739511, 3783819.735503560397774 ], [ 399800.813835198350716, 3783819.430315361358225 ], [ 399801.119023397739511, 3783819.125127161853015 ], [ 399801.119023397739511, 3783818.514750762842596 ], [ 399802.339776195294689, 3783817.293997965287417 ], [ 399802.644964394683484, 3783817.293997965287417 ], [ 399802.950152594072279, 3783816.988809766247869 ], [ 399803.560528992849868, 3783816.988809766247869 ], [ 399803.86571719229687, 3783816.683621566742659 ], [ 399805.391658189240843, 3783816.683621566742659 ], [ 399805.696846388629638, 3783816.988809766247869 ], [ 399806.002034588018432, 3783816.988809766247869 ], [ 399806.307222787407227, 3783817.293997965287417 ], [ 399806.307222787407227, 3783817.599186164792627 ], [ 399806.917599186184816, 3783818.209562563803047 ], [ 399806.917599186184816, 3783820.040691759902984 ], [ 399806.612410986796021, 3783820.345879959408194 ], [ 399806.612410986796021, 3783820.651068158913404 ], [ 399805.696846388629638, 3783821.566632756963372 ], [ 399805.696846388629638, 3783821.871820956468582 ], [ 399805.086469989852048, 3783822.482197355013341 ], [ 399804.781281790463254, 3783822.482197355013341 ], [ 399804.476093591074459, 3783822.787385554518551 ], [ 399802.950152594072279, 3783822.787385554518551 ] ] ] } },
{ "type": "Feature", "properties": { "confidence": 0.66258448362350464, "class": 1 }, "geometry": { "type": "Polygon", "coordinates": [ [ [ 399831.027466937957797, 3784013.530010173097253 ], [ 399830.722278738569003, 3784013.224821973592043 ], [ 399830.722278738569003, 3784010.172939979471266 ], [ 399831.027466937957797, 3784009.867751780431718 ], [ 399831.027466937957797, 3784008.952187181916088 ], [ 399831.332655137346592, 3784008.646998982876539 ], [ 399831.332655137346592, 3784008.036622583866119 ], [ 399833.468972533068154, 3784005.900305188260972 ], [ 399833.468972533068154, 3784005.289928789250553 ], [ 399834.079348931845743, 3784004.679552390705794 ], [ 399836.215666327567305, 3784004.679552390705794 ], [ 399836.5208545269561, 3784004.984740590211004 ], [ 399836.5208545269561, 3784007.731434384360909 ], [ 399836.215666327567305, 3784008.036622583866119 ], [ 399836.215666327567305, 3784008.341810783371329 ], [ 399835.910478128178511, 3784008.646998982876539 ], [ 399835.910478128178511, 3784008.952187181916088 ], [ 399835.605289928789716, 3784009.257375381421298 ], [ 399835.605289928789716, 3784009.867751780431718 ], [ 399834.994913530012127, 3784010.478128178976476 ], [ 399834.994913530012127, 3784010.783316378481686 ], [ 399834.689725330623332, 3784011.088504577986896 ], [ 399834.689725330623332, 3784011.393692777026445 ], [ 399834.079348931845743, 3784012.004069176036865 ], [ 399834.079348931845743, 3784012.309257375542074 ], [ 399833.468972533068154, 3784012.919633774086833 ], [ 399833.163784333679359, 3784012.919633774086833 ], [ 399832.55340793490177, 3784013.530010173097253 ], [ 399831.027466937957797, 3784013.530010173097253 ] ] ] } },
{ "type": "Feature", "properties": { "confidence": 0.66041481494903564, "class": 1 }, "geometry": { "type": "Polygon", "coordinates": [ [ [ 400182.909460834169295, 3784025.737538148649037 ], [ 400182.6042726347805, 3784025.432349949143827 ], [ 400182.299084435391705, 3784025.432349949143827 ], [ 400181.993896236002911, 3784025.127161749638617 ], [ 400181.993896236002911, 3784023.906408952083439 ], [ 400182.299084435391705, 3784023.601220752578229 ], [ 400182.299084435391705, 3784022.99084435403347 ], [ 400182.6042726347805, 3784022.68565615452826 ], [ 400182.6042726347805, 3784022.38046795502305 ], [ 400183.519837232946884, 3784021.464903356973082 ], [ 400183.825025432335678, 3784021.464903356973082 ], [ 400184.130213631724473, 3784021.159715157467872 ], [ 400184.435401831113268, 3784021.159715157467872 ], [ 400184.740590030502062, 3784020.854526958428323 ], [ 400187.182095625612419, 3784020.854526958428323 ], [ 400187.182095625612419, 3784021.770091556478292 ], [ 400187.487283825001214, 3784022.075279755983502 ], [ 400187.487283825001214, 3784023.29603255353868 ], [ 400187.182095625612419, 3784023.601220752578229 ], [ 400187.182095625612419, 3784023.906408952083439 ], [ 400186.57171922683483, 3784024.516785351093858 ], [ 400186.57171922683483, 3784024.821973550133407 ], [ 400186.266531027446035, 3784025.127161749638617 ], [ 400185.961342828057241, 3784025.127161749638617 ], [ 400185.656154628668446, 3784025.432349949143827 ], [ 400184.130213631724473, 3784025.432349949143827 ], [ 400183.825025432335678, 3784025.737538148649037 ], [ 400182.909460834169295, 3784025.737538148649037 ] ] ] } },
{ "type": "Feature", "properties": { "confidence": 0.6562618613243103, "class": 1 }, "geometry": { "type": "Polygon", "coordinates": [ [ [ 399695.829094608314335, 3784181.078331637661904 ], [ 399695.523906408925541, 3784180.773143438622355 ], [ 399694.608341810759157, 3784180.773143438622355 ], [ 399694.303153611370362, 3784180.467955239117146 ], [ 399693.692777212592773, 3784180.467955239117146 ], [ 399693.387589013203979, 3784180.162767039611936 ], [ 399693.082400813815184, 3784180.162767039611936 ], [ 399692.777212614426389, 3784179.857578840106726 ], [ 399692.777212614426389, 3784179.552390641067177 ], [ 399691.251271617482416, 3784178.026449644006789 ], [ 399690.946083418093622, 3784178.026449644006789 ], [ 399690.640895218704827, 3784177.721261444501579 ], [ 399690.335707019316033, 3784177.721261444501579 ], [ 399689.420142421149649, 3784176.80569684645161 ], [ 399689.420142421149649, 3784176.5005086469464 ], [ 399689.114954221760854, 3784176.19532044744119 ], [ 399689.114954221760854, 3784173.753814852330834 ], [ 399689.420142421149649, 3784173.448626653291285 ], [ 399689.420142421149649, 3784172.838250254280865 ], [ 399690.335707019316033, 3784171.922685656230897 ], [ 399690.640895218704827, 3784171.922685656230897 ], [ 399692.777212614426389, 3784169.78636826062575 ], [ 399693.692777212592773, 3784169.78636826062575 ], [ 399693.997965411981568, 3784170.091556459665298 ], [ 399694.303153611370362, 3784170.091556459665298 ], [ 399694.608341810759157, 3784170.396744659170508 ], [ 399695.218718209536746, 3784170.396744659170508 ], [ 399695.218718209536746, 3784171.007121058180928 ], [ 399695.523906408925541, 3784171.312309257220477 ], [ 399695.829094608314335, 3784171.312309257220477 ], [ 399696.13428280770313, 3784171.617497456725687 ], [ 399696.13428280770313, 3784171.922685656230897 ], [ 399696.439471007150132, 3784172.227873855736107 ], [ 399696.439471007150132, 3784172.533062054775655 ], [ 399696.744659206538927, 3784172.838250254280865 ], [ 399696.744659206538927, 3784173.143438453786075 ], [ 399697.049847405927721, 3784173.448626653291285 ], [ 399697.049847405927721, 3784174.364191251341254 ], [ 399697.355035605316516, 3784174.669379450846463 ], [ 399697.355035605316516, 3784174.974567649886012 ], [ 399697.660223804705311, 3784175.279755849391222 ], [ 399697.660223804705311, 3784178.942014242056757 ], [ 399697.355035605316516, 3784179.247202441561967 ], [ 399697.355035605316516, 3784180.162767039611936 ], [ 399696.744659206538927, 3784180.773143438622355 ], [ 399696.13428280770313, 3784180.773143438622355 ], [ 399695.829094608314335, 3784181.078331637661904 ] ] ] } },
{ "type": "Feature", "properties": { "confidence": 0.65151828527450562, "class": 1 }, "geometry": { "type": "Polygon", "coordinates": [ [ [ 400151.169888097676449, 3783813.936927772127092 ], [ 400150.864699898287654, 3783813.631739572621882 ], [ 400149.94913530012127, 3783813.631739572621882 ], [ 400149.643947100732476, 3783813.326551373116672 ], [ 400148.423194303177297, 3783813.326551373116672 ], [ 400147.202441505622119, 3783812.105798575561494 ], [ 400147.202441505622119, 3783809.664292980451137 ], [ 400153.9165818921756, 3783809.664292980451137 ], [ 400153.9165818921756, 3783810.579857578966767 ], [ 400153.611393692786805, 3783810.885045778006315 ], [ 400153.611393692786805, 3783811.190233977511525 ], [ 400153.001017294009216, 3783811.800610376521945 ], [ 400153.001017294009216, 3783812.105798575561494 ], [ 400152.695829094620422, 3783812.410986775066704 ], [ 400152.695829094620422, 3783813.326551373116672 ], [ 400152.085452695842832, 3783813.936927772127092 ], [ 400151.169888097676449, 3783813.936927772127092 ] ] ] } },
{ "type": "Feature", "properties": { "confidence": 0.649699866771698, "class": 1 }, "geometry": { "type": "Polygon", "coordinates": [ [ [ 400187.182095625612419, 3784047.405900305137038 ], [ 400186.57171922683483, 3784046.79552390659228 ], [ 400186.57171922683483, 3784046.49033570708707 ], [ 400186.266531027446035, 3784046.18514750758186 ], [ 400186.266531027446035, 3784045.87995930807665 ], [ 400185.961342828057241, 3784045.574771109037101 ], [ 400185.961342828057241, 3784044.048830111976713 ], [ 400193.285859613446519, 3784044.048830111976713 ], [ 400193.285859613446519, 3784044.354018311481923 ], [ 400192.980671414057724, 3784044.659206510521472 ], [ 400192.980671414057724, 3784044.964394710026681 ], [ 400192.06510681589134, 3784045.87995930807665 ], [ 400191.759918616502546, 3784045.87995930807665 ], [ 400191.454730417113751, 3784046.18514750758186 ], [ 400191.149542217724957, 3784046.18514750758186 ], [ 400190.844354018336162, 3784046.49033570708707 ], [ 400190.539165818947367, 3784046.49033570708707 ], [ 400190.233977619558573, 3784046.79552390659228 ], [ 400189.928789420169778, 3784046.79552390659228 ], [ 400189.623601220780984, 3784047.100712105631828 ], [ 400189.318413021392189, 3784047.100712105631828 ], [ 400189.013224821945187, 3784047.405900305137038 ], [ 400187.182095625612419, 3784047.405900305137038 ] ] ] } },
{ "type": "Feature", "properties": { "confidence": 0.63049066066741943, "class": 1 }, "geometry": { "type": "Polygon", "coordinates": [ [ [ 399640.284842319437303, 3784116.988809766247869 ], [ 399639.979654120048508, 3784116.683621566742659 ], [ 399639.674465920659713, 3784116.683621566742659 ], [ 399639.369277721270919, 3784116.378433367237449 ], [ 399639.369277721270919, 3784115.76805696869269 ], [ 399639.064089521882124, 3784115.46286876918748 ], [ 399639.064089521882124, 3784112.105798575561494 ], [ 399639.369277721270919, 3784111.800610376521945 ], [ 399639.369277721270919, 3784111.190233977511525 ], [ 399639.674465920659713, 3784111.190233977511525 ], [ 399640.590030518826097, 3784110.274669379461557 ], [ 399643.031536113936454, 3784110.274669379461557 ], [ 399643.031536113936454, 3784111.190233977511525 ], [ 399643.336724313325249, 3784111.495422177016735 ], [ 399643.336724313325249, 3784116.378433367237449 ], [ 399643.031536113936454, 3784116.378433367237449 ], [ 399642.726347914547659, 3784116.683621566742659 ], [ 399642.11597151577007, 3784116.683621566742659 ], [ 399641.810783316381276, 3784116.988809766247869 ], [ 399640.284842319437303, 3784116.988809766247869 ] ] ] } },
{ "type": "Feature", "properties": { "confidence": 0.59753739833831787, "class": 1 }, "geometry": { "type": "Polygon", "coordinates": [ [ [ 399810.885045778239146, 3783931.12919633788988 ], [ 399810.579857578850351, 3783930.82400813838467 ], [ 399809.969481180072762, 3783930.82400813838467 ], [ 399809.664292980683967, 3783930.51881993887946 ], [ 399809.053916581906378, 3783930.51881993887946 ], [ 399808.748728382517584, 3783930.21363173937425 ], [ 399808.138351983739994, 3783930.21363173937425 ], [ 399807.8331637843512, 3783929.908443540334702 ], [ 399807.527975584962405, 3783929.908443540334702 ], [ 399806.917599186184816, 3783929.298067141324282 ], [ 399806.917599186184816, 3783928.687690742779523 ], [ 399806.307222787407227, 3783928.077314343769103 ], [ 399806.307222787407227, 3783926.856561546213925 ], [ 399814.242115971515886, 3783926.856561546213925 ], [ 399814.242115971515886, 3783927.466937945224345 ], [ 399814.547304170904681, 3783927.772126144263893 ], [ 399814.547304170904681, 3783928.077314343769103 ], [ 399814.242115971515886, 3783928.382502543274313 ], [ 399814.242115971515886, 3783929.908443540334702 ], [ 399813.936927772127092, 3783930.21363173937425 ], [ 399813.936927772127092, 3783930.51881993887946 ], [ 399813.631739572738297, 3783930.82400813838467 ], [ 399813.021363173960708, 3783930.82400813838467 ], [ 399812.716174974571913, 3783931.12919633788988 ], [ 399810.885045778239146, 3783931.12919633788988 ] ] ] } },
{ "type": "Feature", "properties": { "confidence": 0.56830805540084839, "class": 1 }, "geometry": { "type": "Polygon", "coordinates": [ [ [ 399860.325534079340287, 3783894.811800610274076 ], [ 399860.020345879951492, 3783894.506612410768867 ], [ 399859.409969481173903, 3783894.506612410768867 ], [ 399859.104781281785108, 3783894.201424211729318 ], [ 399859.104781281785108, 3783893.285859613213688 ], [ 399859.409969481173903, 3783892.980671414174139 ], [ 399859.409969481173903, 3783892.37029501516372 ], [ 399860.630722278729081, 3783891.149542217608541 ], [ 399860.935910478117876, 3783891.149542217608541 ], [ 399861.24109867750667, 3783890.844354018103331 ], [ 399863.377416073228233, 3783890.844354018103331 ], [ 399863.377416073228233, 3783893.896236012224108 ], [ 399863.072227873839438, 3783894.201424211729318 ], [ 399863.072227873839438, 3783894.506612410768867 ], [ 399862.767039674450643, 3783894.506612410768867 ], [ 399862.461851475061849, 3783894.811800610274076 ], [ 399860.325534079340287, 3783894.811800610274076 ] ] ] } },
{ "type": "Feature", "properties": { "confidence": 0.52857702970504761, "class": 1 }, "geometry": { "type": "Polygon", "coordinates": [ [ [ 400079.755849440465681, 3783724.211597151588649 ], [ 400079.145473041688092, 3783723.601220752578229 ], [ 400079.145473041688092, 3783722.68565615452826 ], [ 400079.450661241076887, 3783722.38046795502305 ], [ 400079.450661241076887, 3783721.159715157467872 ], [ 400080.061037639854476, 3783720.549338758923113 ], [ 400080.36622583924327, 3783720.549338758923113 ], [ 400080.671414038632065, 3783720.244150559417903 ], [ 400080.97660223802086, 3783720.244150559417903 ], [ 400081.281790437409654, 3783719.938962359912694 ], [ 400081.586978636798449, 3783719.938962359912694 ], [ 400081.892166836187243, 3783719.633774160873145 ], [ 400082.197355035634246, 3783719.633774160873145 ], [ 400082.50254323502304, 3783719.328585961367935 ], [ 400083.418107833189424, 3783719.328585961367935 ], [ 400083.723296032578219, 3783719.633774160873145 ], [ 400084.028484231967013, 3783719.633774160873145 ], [ 400084.333672431355808, 3783719.938962359912694 ], [ 400084.638860630744603, 3783719.938962359912694 ], [ 400084.944048830133397, 3783720.244150559417903 ], [ 400085.249237029522192, 3783720.244150559417903 ], [ 400085.859613428299781, 3783720.854526958428323 ], [ 400085.859613428299781, 3783721.159715157467872 ], [ 400086.164801627688576, 3783721.464903356973082 ], [ 400086.164801627688576, 3783722.38046795502305 ], [ 400085.859613428299781, 3783722.68565615452826 ], [ 400085.859613428299781, 3783723.29603255353868 ], [ 400085.249237029522192, 3783723.29603255353868 ], [ 400084.944048830133397, 3783723.601220752578229 ], [ 400083.723296032578219, 3783723.601220752578229 ], [ 400083.418107833189424, 3783723.906408952083439 ], [ 400082.50254323502304, 3783723.906408952083439 ], [ 400082.197355035634246, 3783724.211597151588649 ], [ 400079.755849440465681, 3783724.211597151588649 ] ] ] } },
{ "type": "Feature", "properties": { "confidence": 0.51614546775817871, "class": 1 }, "geometry": { "type": "Polygon", "coordinates": [ [ [ 399806.002034588018432, 3784052.899287894368172 ], [ 399805.696846388629638, 3784052.594099694862962 ], [ 399805.391658189240843, 3784052.594099694862962 ], [ 399804.781281790463254, 3784051.983723295852542 ], [ 399804.781281790463254, 3784049.542217700742185 ], [ 399805.696846388629638, 3784048.626653102692217 ], [ 399805.696846388629638, 3784046.79552390659228 ], [ 399806.002034588018432, 3784046.79552390659228 ], [ 399806.307222787407227, 3784046.49033570708707 ], [ 399807.222787385573611, 3784046.49033570708707 ], [ 399807.527975584962405, 3784046.18514750758186 ], [ 399808.443540183128789, 3784046.18514750758186 ], [ 399809.969481180072762, 3784044.659206510521472 ], [ 399815.15768056968227, 3784044.659206510521472 ], [ 399815.462868769071065, 3784044.964394710026681 ], [ 399816.073245167848654, 3784044.964394710026681 ], [ 399816.073245167848654, 3784045.574771109037101 ], [ 399816.683621566626243, 3784046.18514750758186 ], [ 399816.683621566626243, 3784047.100712105631828 ], [ 399816.988809766015038, 3784047.405900305137038 ], [ 399816.988809766015038, 3784048.321464903187007 ], [ 399817.293997965403832, 3784048.626653102692217 ], [ 399816.988809766015038, 3784048.931841302197427 ], [ 399816.988809766015038, 3784049.542217700742185 ], [ 399816.683621566626243, 3784049.847405900247395 ], [ 399816.683621566626243, 3784050.152594099752605 ], [ 399815.462868769071065, 3784051.373346897307783 ], [ 399815.15768056968227, 3784051.373346897307783 ], [ 399814.547304170904681, 3784051.983723295852542 ], [ 399813.936927772127092, 3784051.983723295852542 ], [ 399813.631739572738297, 3784052.288911495357752 ], [ 399811.495422177016735, 3784052.288911495357752 ], [ 399811.19023397762794, 3784052.594099694862962 ], [ 399809.664292980683967, 3784052.594099694862962 ], [ 399809.359104781295173, 3784052.899287894368172 ], [ 399806.002034588018432, 3784052.899287894368172 ] ] ] } },
{ "type": "Feature", "properties": { "confidence": 0.50194448232650757, "class": 1 }, "geometry": { "type": "Polygon", "coordinates": [ [ [ 399644.557477110880427, 3783909.460834180936217 ], [ 399644.252288911491632, 3783909.155645981896669 ], [ 399643.641912512714043, 3783909.155645981896669 ], [ 399642.421159715158865, 3783907.93489318434149 ], [ 399642.421159715158865, 3783907.62970498483628 ], [ 399642.11597151577007, 3783907.32451678533107 ], [ 399642.11597151577007, 3783905.493387589231133 ], [ 399642.726347914547659, 3783904.883011190220714 ], [ 399643.031536113936454, 3783904.883011190220714 ], [ 399643.336724313325249, 3783904.577822990715504 ], [ 399643.641912512714043, 3783904.577822990715504 ], [ 399643.947100712102838, 3783904.272634791675955 ], [ 399644.862665310269222, 3783904.272634791675955 ], [ 399645.167853509658016, 3783903.967446592170745 ], [ 399646.0834181078244, 3783903.967446592170745 ], [ 399646.388606307213195, 3783904.272634791675955 ], [ 399649.440488301101141, 3783904.272634791675955 ], [ 399649.745676500489935, 3783904.577822990715504 ], [ 399650.05086469987873, 3783904.577822990715504 ], [ 399650.05086469987873, 3783904.883011190220714 ], [ 399650.356052899267524, 3783905.188199389725924 ], [ 399650.356052899267524, 3783905.798575788270682 ], [ 399650.661241098656319, 3783906.103763987775892 ], [ 399650.661241098656319, 3783907.93489318434149 ], [ 399650.356052899267524, 3783908.240081383381039 ], [ 399650.356052899267524, 3783908.850457782391459 ], [ 399650.05086469987873, 3783908.850457782391459 ], [ 399649.745676500489935, 3783909.155645981896669 ], [ 399649.135300101712346, 3783909.155645981896669 ], [ 399648.830111902323551, 3783909.460834180936217 ], [ 399644.557477110880427, 3783909.460834180936217 ] ] ] } },
{ "type": "Feature", "properties": { "confidence": 0.49018701910972595, "class": 1 }, "geometry": { "type": "Polygon", "coordinates": [ [ [ 399986.368260427261703, 3783883.825025432277471 ], [ 399986.063072227872908, 3783883.519837232772261 ], [ 399984.231943031540141, 3783883.519837232772261 ], [ 399983.926754832151346, 3783883.214649033732712 ], [ 399983.621566632762551, 3783883.214649033732712 ], [ 399983.316378433373757, 3783882.909460834227502 ], [ 399983.316378433373757, 3783881.993896236177534 ], [ 399983.621566632762551, 3783881.688708036672324 ], [ 399983.621566632762551, 3783881.078331637661904 ], [ 399983.926754832151346, 3783880.773143438622355 ], [ 399984.231943031540141, 3783880.773143438622355 ], [ 399984.537131230928935, 3783880.467955239117146 ], [ 399984.84231943031773, 3783880.467955239117146 ], [ 399985.147507629706524, 3783880.162767039611936 ], [ 399985.757884028484114, 3783880.162767039611936 ], [ 399986.063072227872908, 3783879.857578840106726 ], [ 399986.673448626650497, 3783879.857578840106726 ], [ 399987.283825025428087, 3783879.247202441561967 ], [ 399987.589013224816881, 3783879.247202441561967 ], [ 399987.894201424205676, 3783878.942014242056757 ], [ 399988.504577822983265, 3783878.942014242056757 ], [ 399988.80976602237206, 3783878.636826042551547 ], [ 399990.335707019316033, 3783878.636826042551547 ], [ 399990.335707019316033, 3783883.519837232772261 ], [ 399988.80976602237206, 3783883.519837232772261 ], [ 399988.504577822983265, 3783883.825025432277471 ], [ 399986.368260427261703, 3783883.825025432277471 ] ] ] } },
{ "type": "Feature", "properties": { "confidence": 0.42578235268592834, "class": 1 }, "geometry": { "type": "Polygon", "coordinates": [ [ [ 399727.263479145476595, 3783931.434384536929429 ], [ 399726.9582909460878, 3783931.12919633788988 ], [ 399726.347914547310211, 3783931.12919633788988 ], [ 399726.347914547310211, 3783930.82400813838467 ], [ 399726.042726347921416, 3783930.51881993887946 ], [ 399726.042726347921416, 3783928.687690742779523 ], [ 399725.737538148532622, 3783928.382502543274313 ], [ 399725.737538148532622, 3783927.466937945224345 ], [ 399725.432349949143827, 3783927.161749745719135 ], [ 399725.432349949143827, 3783926.856561546213925 ], [ 399733.062054933863692, 3783926.856561546213925 ], [ 399733.062054933863692, 3783928.382502543274313 ], [ 399732.756866734474897, 3783928.382502543274313 ], [ 399731.841302136308514, 3783929.298067141324282 ], [ 399731.841302136308514, 3783929.603255340829492 ], [ 399730.92573753814213, 3783930.51881993887946 ], [ 399730.92573753814213, 3783930.82400813838467 ], [ 399730.010172939975746, 3783930.82400813838467 ], [ 399729.704984740586951, 3783931.12919633788988 ], [ 399728.484231943031773, 3783931.12919633788988 ], [ 399728.179043743642978, 3783931.434384536929429 ], [ 399727.263479145476595, 3783931.434384536929429 ] ] ] } },
{ "type": "Feature", "properties": { "confidence": 0.41326126456260681, "class": 1 }, "geometry": { "type": "Polygon", "coordinates": [ [ [ 399734.89318413019646, 3784169.48118006112054 ], [ 399734.587995930807665, 3784169.17599186161533 ], [ 399733.367243133252487, 3784169.17599186161533 ], [ 399733.062054933863692, 3784168.87080366211012 ], [ 399732.756866734474897, 3784168.87080366211012 ], [ 399732.451678535086103, 3784168.565615463070571 ], [ 399732.451678535086103, 3784166.429298066999763 ], [ 399732.756866734474897, 3784166.124109867960215 ], [ 399733.062054933863692, 3784166.124109867960215 ], [ 399733.672431332641281, 3784165.513733468949795 ], [ 399735.808748728362843, 3784165.513733468949795 ], [ 399736.724313326529227, 3784166.429298066999763 ], [ 399736.724313326529227, 3784168.565615463070571 ], [ 399736.419125127140433, 3784168.87080366211012 ], [ 399736.113936927751638, 3784168.87080366211012 ], [ 399735.808748728362843, 3784169.17599186161533 ], [ 399735.198372329585254, 3784169.17599186161533 ], [ 399734.89318413019646, 3784169.48118006112054 ] ] ] } },
{ "type": "Feature", "properties": { "confidence": 0.40412172675132751, "class": 1 }, "geometry": { "type": "Polygon", "coordinates": [ [ [ 399653.40793489315547, 3783914.343845371156931 ], [ 399652.797558494377881, 3783913.733468972612172 ], [ 399653.102746693766676, 3783913.428280773106962 ], [ 399653.102746693766676, 3783911.291963377501816 ], [ 399653.40793489315547, 3783910.986775177996606 ], [ 399653.40793489315547, 3783910.681586978491396 ], [ 399653.713123092602473, 3783910.376398779451847 ], [ 399653.713123092602473, 3783910.071210579946637 ], [ 399654.628687690768857, 3783909.155645981896669 ], [ 399654.933875890157651, 3783909.155645981896669 ], [ 399655.239064089546446, 3783908.850457782391459 ], [ 399656.459816887101624, 3783908.850457782391459 ], [ 399656.765005086490419, 3783908.545269582886249 ], [ 399657.985757884045597, 3783908.545269582886249 ], [ 399658.290946083434392, 3783908.850457782391459 ], [ 399659.206510681600776, 3783908.850457782391459 ], [ 399659.206510681600776, 3783909.155645981896669 ], [ 399659.51169888098957, 3783909.460834180936217 ], [ 399659.816887080378365, 3783909.460834180936217 ], [ 399659.816887080378365, 3783909.766022380441427 ], [ 399660.122075279767159, 3783910.071210579946637 ], [ 399660.122075279767159, 3783910.986775177996606 ], [ 399659.816887080378365, 3783911.291963377501816 ], [ 399659.816887080378365, 3783911.597151577007025 ], [ 399659.206510681600776, 3783912.207527975551784 ], [ 399659.206510681600776, 3783912.512716175056994 ], [ 399658.596134282823186, 3783913.123092573601753 ], [ 399658.596134282823186, 3783913.428280773106962 ], [ 399657.680569684656803, 3783913.428280773106962 ], [ 399657.375381485268008, 3783913.733468972612172 ], [ 399656.15462868771283, 3783913.733468972612172 ], [ 399655.849440488324035, 3783914.038657172117382 ], [ 399654.933875890157651, 3783914.038657172117382 ], [ 399654.628687690768857, 3783914.343845371156931 ], [ 399653.40793489315547, 3783914.343845371156931 ] ] ] } },
{ "type": "Feature", "properties": { "confidence": 0.38977238535881042, "class": 1 }, "geometry": { "type": "Polygon", "coordinates": [ [ [ 399839.572736520844046, 3784115.76805696869269 ], [ 399839.267548321455251, 3784115.46286876918748 ], [ 399838.962360122066457, 3784115.46286876918748 ], [ 399838.657171922677662, 3784115.15768056968227 ], [ 399838.657171922677662, 3784114.547304171137512 ], [ 399838.351983723288868, 3784114.242115971632302 ], [ 399838.351983723288868, 3784113.936927772127092 ], [ 399838.046795523900073, 3784113.631739572621882 ], [ 399838.046795523900073, 3784112.105798575561494 ], [ 399838.351983723288868, 3784111.800610376521945 ], [ 399838.351983723288868, 3784110.579857578966767 ], [ 399838.046795523900073, 3784110.274669379461557 ], [ 399838.046795523900073, 3784108.13835198385641 ], [ 399837.741607324511278, 3784107.8331637843512 ], [ 399837.741607324511278, 3784107.22278738534078 ], [ 399837.436419125122484, 3784106.917599186301231 ], [ 399837.436419125122484, 3784105.696846388746053 ], [ 399837.741607324511278, 3784105.391658189240843 ], [ 399837.741607324511278, 3784105.086469989735633 ], [ 399838.046795523900073, 3784105.086469989735633 ], [ 399838.351983723288868, 3784104.781281790230423 ], [ 399842.319430315343197, 3784104.781281790230423 ], [ 399842.624618514731992, 3784105.086469989735633 ], [ 399842.929806714120787, 3784105.086469989735633 ], [ 399843.234994913509581, 3784105.391658189240843 ], [ 399843.84537131228717, 3784105.391658189240843 ], [ 399844.150559511675965, 3784105.696846388746053 ], [ 399844.45574771106476, 3784105.696846388746053 ], [ 399845.371312309231143, 3784106.612410986796021 ], [ 399845.371312309231143, 3784107.8331637843512 ], [ 399845.676500508619938, 3784108.13835198385641 ], [ 399845.676500508619938, 3784112.105798575561494 ], [ 399845.066124109842349, 3784112.716174974571913 ], [ 399845.066124109842349, 3784113.021363174077123 ], [ 399844.760935910453554, 3784113.021363174077123 ], [ 399843.540183112898376, 3784114.242115971632302 ], [ 399843.540183112898376, 3784114.547304171137512 ], [ 399843.234994913509581, 3784114.85249237017706 ], [ 399842.929806714120787, 3784114.85249237017706 ], [ 399842.624618514731992, 3784115.15768056968227 ], [ 399842.014242115954403, 3784115.15768056968227 ], [ 399841.709053916565608, 3784115.46286876918748 ], [ 399840.48830111901043, 3784115.46286876918748 ], [ 399840.183112919621635, 3784115.76805696869269 ], [ 399839.572736520844046, 3784115.76805696869269 ] ] ] } },
{ "type": "Feature", "properties": { "confidence": 0.38789036870002747, "class": 1 }, "geometry": { "type": "Polygon", "coordinates": [ [ [ 399672.634791454707738, 3783795.320447609294206 ], [ 399672.329603255318943, 3783795.015259409788996 ], [ 399672.024415055930149, 3783795.015259409788996 ], [ 399672.024415055930149, 3783794.404883011244237 ], [ 399671.719226856541354, 3783794.099694811739028 ], [ 399671.719226856541354, 3783787.080366225913167 ], [ 399672.329603255318943, 3783786.469989826902747 ], [ 399673.855544252262916, 3783786.469989826902747 ], [ 399674.160732451651711, 3783786.775178026407957 ], [ 399674.7711088504293, 3783786.775178026407957 ], [ 399675.686673448653892, 3783787.690742624457926 ], [ 399675.991861648042686, 3783787.690742624457926 ], [ 399675.991861648042686, 3783787.995930823963135 ], [ 399676.297049847431481, 3783788.301119023468345 ], [ 399676.297049847431481, 3783788.606307222973555 ], [ 399676.602238046820275, 3783788.911495422013104 ], [ 399676.90742624620907, 3783788.911495422013104 ], [ 399676.90742624620907, 3783789.521871821023524 ], [ 399677.212614445597865, 3783789.827060020528734 ], [ 399677.212614445597865, 3783790.132248219568282 ], [ 399677.517802644986659, 3783790.437436419073492 ], [ 399677.517802644986659, 3783791.353001017123461 ], [ 399677.212614445597865, 3783791.658189216628671 ], [ 399677.212614445597865, 3783792.268565615639091 ], [ 399676.90742624620907, 3783792.573753814678639 ], [ 399676.90742624620907, 3783792.878942014183849 ], [ 399676.602238046820275, 3783793.184130213689059 ], [ 399676.602238046820275, 3783793.489318413194269 ], [ 399676.297049847431481, 3783793.489318413194269 ], [ 399675.991861648042686, 3783793.794506612233818 ], [ 399675.991861648042686, 3783794.099694811739028 ], [ 399675.686673448653892, 3783794.404883011244237 ], [ 399675.686673448653892, 3783794.710071210749447 ], [ 399675.381485249265097, 3783795.015259409788996 ], [ 399674.465920651040506, 3783795.015259409788996 ], [ 399674.160732451651711, 3783795.320447609294206 ], [ 399672.634791454707738, 3783795.320447609294206 ] ] ] } },
{ "type": "Feature", "properties": { "confidence": 0.38534832000732422, "class": 1 }, "geometry": { "type": "Polygon", "coordinates": [ [ [ 399635.707019328605384, 3784157.273652085568756 ], [ 399635.401831129216589, 3784156.968463886063546 ], [ 399635.096642929827794, 3784156.968463886063546 ], [ 399634.791454730439, 3784156.663275686558336 ], [ 399634.791454730439, 3784156.358087487053126 ], [ 399634.486266531050205, 3784156.052899288013577 ], [ 399634.486266531050205, 3784154.221770091447979 ], [ 399634.791454730439, 3784153.916581891942769 ], [ 399637.232960325549357, 3784153.916581891942769 ], [ 399637.538148524938151, 3784154.221770091447979 ], [ 399638.14852492371574, 3784154.221770091447979 ], [ 399638.453713123104535, 3784154.526958290953189 ], [ 399638.75890132249333, 3784154.526958290953189 ], [ 399638.75890132249333, 3784154.832146490458399 ], [ 399639.064089521882124, 3784155.137334689497948 ], [ 399639.064089521882124, 3784155.442522889003158 ], [ 399638.75890132249333, 3784155.747711088508368 ], [ 399638.75890132249333, 3784156.968463886063546 ], [ 399638.453713123104535, 3784156.968463886063546 ], [ 399638.14852492371574, 3784157.273652085568756 ], [ 399635.707019328605384, 3784157.273652085568756 ] ] ] } },
{ "type": "Feature", "properties": { "confidence": 0.36699911952018738, "class": 1 }, "geometry": { "type": "Polygon", "coordinates": [ [ [ 399823.09257375379093, 3784180.467955239117146 ], [ 399822.787385554402135, 3784180.162767039611936 ], [ 399822.482197355013341, 3784180.162767039611936 ], [ 399822.177009155624546, 3784179.857578840106726 ], [ 399822.177009155624546, 3784179.247202441561967 ], [ 399822.482197355013341, 3784178.942014242056757 ], [ 399822.482197355013341, 3784176.80569684645161 ], [ 399824.008138351957314, 3784175.279755849391222 ], [ 399824.313326551346108, 3784175.279755849391222 ], [ 399824.923702950123698, 3784174.669379450846463 ], [ 399825.2288911495707, 3784174.669379450846463 ], [ 399826.144455747737084, 3784173.753814852330834 ], [ 399826.144455747737084, 3784172.533062054775655 ], [ 399826.449643947125878, 3784172.227873855736107 ], [ 399826.449643947125878, 3784171.922685656230897 ], [ 399827.060020345903467, 3784171.312309257220477 ], [ 399827.365208545292262, 3784171.312309257220477 ], [ 399827.670396744681057, 3784171.007121058180928 ], [ 399828.58596134284744, 3784171.007121058180928 ], [ 399828.891149542236235, 3784171.312309257220477 ], [ 399829.501525941013824, 3784171.312309257220477 ], [ 399829.806714140402619, 3784171.617497456725687 ], [ 399829.806714140402619, 3784174.059003051836044 ], [ 399830.111902339791413, 3784174.364191251341254 ], [ 399830.111902339791413, 3784175.584944048896432 ], [ 399829.806714140402619, 3784175.890132248401642 ], [ 399829.806714140402619, 3784177.11088504595682 ], [ 399829.501525941013824, 3784177.416073244996369 ], [ 399829.501525941013824, 3784178.026449644006789 ], [ 399827.975584944069851, 3784179.552390641067177 ], [ 399826.449643947125878, 3784179.552390641067177 ], [ 399826.144455747737084, 3784179.857578840106726 ], [ 399825.839267548348289, 3784179.857578840106726 ], [ 399825.2288911495707, 3784180.467955239117146 ], [ 399823.09257375379093, 3784180.467955239117146 ] ] ] } },
{ "type": "Feature", "properties": { "confidence": 0.35833394527435303, "class": 1 }, "geometry": { "type": "Polygon", "coordinates": [ [ [ 399728.484231943031773, 3784046.49033570708707 ], [ 399728.179043743642978, 3784046.18514750758186 ], [ 399727.263479145476595, 3784046.18514750758186 ], [ 399726.9582909460878, 3784045.87995930807665 ], [ 399726.9582909460878, 3784044.354018311481923 ], [ 399726.653102746699005, 3784044.048830111976713 ], [ 399726.653102746699005, 3784043.438453712966293 ], [ 399726.9582909460878, 3784043.133265513926744 ], [ 399726.9582909460878, 3784042.522889114916325 ], [ 399727.263479145476595, 3784042.217700915411115 ], [ 399727.873855544254184, 3784042.217700915411115 ], [ 399728.179043743642978, 3784041.912512716371566 ], [ 399728.789420142420568, 3784041.912512716371566 ], [ 399729.094608341809362, 3784041.607324516866356 ], [ 399730.010172939975746, 3784041.607324516866356 ], [ 399730.315361139364541, 3784041.302136317361146 ], [ 399730.92573753814213, 3784041.302136317361146 ], [ 399731.230925737530924, 3784040.996948117855936 ], [ 399736.113936927751638, 3784040.996948117855936 ], [ 399736.113936927751638, 3784041.302136317361146 ], [ 399736.419125127140433, 3784041.607324516866356 ], [ 399736.419125127140433, 3784041.912512716371566 ], [ 399736.724313326529227, 3784042.217700915411115 ], [ 399736.724313326529227, 3784043.743641912471503 ], [ 399736.113936927751638, 3784044.354018311481923 ], [ 399735.808748728362843, 3784044.354018311481923 ], [ 399735.503560528974049, 3784044.659206510521472 ], [ 399735.198372329585254, 3784044.659206510521472 ], [ 399734.89318413019646, 3784044.964394710026681 ], [ 399734.587995930807665, 3784044.964394710026681 ], [ 399734.28280773141887, 3784045.269582909531891 ], [ 399732.146490335697308, 3784045.269582909531891 ], [ 399731.841302136308514, 3784045.574771109037101 ], [ 399730.315361139364541, 3784045.574771109037101 ], [ 399730.010172939975746, 3784045.87995930807665 ], [ 399729.399796541198157, 3784045.87995930807665 ], [ 399728.789420142420568, 3784046.49033570708707 ], [ 399728.484231943031773, 3784046.49033570708707 ] ] ] } },
{ "type": "Feature", "properties": { "confidence": 0.33129498362541199, "class": 1 }, "geometry": { "type": "Polygon", "coordinates": [ [ [ 399961.953204476099927, 3783818.819938962347806 ], [ 399961.648016276711132, 3783818.514750762842596 ], [ 399961.037639877933543, 3783818.514750762842596 ], [ 399960.732451678544749, 3783818.209562563803047 ], [ 399960.122075279767159, 3783818.209562563803047 ], [ 399960.122075279767159, 3783817.904374364297837 ], [ 399959.816887080378365, 3783817.599186164792627 ], [ 399959.816887080378365, 3783814.242115971632302 ], [ 399960.427263479155954, 3783813.631739572621882 ], [ 399960.427263479155954, 3783813.326551373116672 ], [ 399961.342828077322338, 3783812.410986775066704 ], [ 399961.648016276711132, 3783812.410986775066704 ], [ 399961.953204476099927, 3783812.105798575561494 ], [ 399961.953204476099927, 3783811.190233977511525 ], [ 399962.563580874877516, 3783810.579857578966767 ], [ 399966.836215666320641, 3783810.579857578966767 ], [ 399966.836215666320641, 3783810.885045778006315 ], [ 399967.141403865709435, 3783811.190233977511525 ], [ 399967.141403865709435, 3783811.495422177016735 ], [ 399967.751780264487024, 3783812.105798575561494 ], [ 399967.751780264487024, 3783812.716174974571913 ], [ 399966.836215666320641, 3783813.631739572621882 ], [ 399966.531027466931846, 3783813.631739572621882 ], [ 399965.920651068154257, 3783814.242115971632302 ], [ 399965.920651068154257, 3783816.378433367237449 ], [ 399964.699898270599078, 3783817.599186164792627 ], [ 399964.394710071210284, 3783817.599186164792627 ], [ 399963.4791454730439, 3783818.514750762842596 ], [ 399962.868769074266311, 3783818.514750762842596 ], [ 399962.563580874877516, 3783818.819938962347806 ], [ 399961.953204476099927, 3783818.819938962347806 ] ] ] } },
{ "type": "Feature", "properties": { "confidence": 0.31245550513267517, "class": 1 }, "geometry": { "type": "Polygon", "coordinates": [ [ [ 400064.191251271637157, 3783677.212614445481449 ], [ 400063.886063072248362, 3783676.907426245976239 ], [ 400063.580874872859567, 3783676.907426245976239 ], [ 400063.275686673470773, 3783676.602238046936691 ], [ 400063.275686673470773, 3783675.076297049876302 ], [ 400062.970498474081978, 3783674.771108850371093 ], [ 400062.970498474081978, 3783674.160732451826334 ], [ 400062.665310274693184, 3783673.855544252321124 ], [ 400062.665310274693184, 3783673.550356052815914 ], [ 400062.360122075304389, 3783673.245167853310704 ], [ 400062.360122075304389, 3783672.939979654271156 ], [ 400063.275686673470773, 3783672.024415055755526 ], [ 400063.580874872859567, 3783672.024415055755526 ], [ 400064.191251271637157, 3783671.414038657210767 ], [ 400064.496439471025951, 3783671.414038657210767 ], [ 400066.022380467969924, 3783669.888097660150379 ], [ 400066.327568667358719, 3783669.888097660150379 ], [ 400066.632756866747513, 3783669.582909460645169 ], [ 400069.07426246185787, 3783669.582909460645169 ], [ 400069.684638860635459, 3783670.193285859655589 ], [ 400069.989827060024254, 3783670.193285859655589 ], [ 400070.600203458801843, 3783670.803662258200347 ], [ 400070.600203458801843, 3783671.108850457705557 ], [ 400070.905391658190638, 3783671.414038657210767 ], [ 400070.905391658190638, 3783673.245167853310704 ], [ 400070.600203458801843, 3783673.550356052815914 ], [ 400070.600203458801843, 3783673.855544252321124 ], [ 400070.295015259413049, 3783674.160732451826334 ], [ 400069.989827060024254, 3783674.160732451826334 ], [ 400069.684638860635459, 3783674.465920650865883 ], [ 400069.379450661246665, 3783674.465920650865883 ], [ 400069.07426246185787, 3783674.771108850371093 ], [ 400068.769074262469076, 3783674.771108850371093 ], [ 400068.158697863691486, 3783675.381485249381512 ], [ 400067.853509664302692, 3783675.381485249381512 ], [ 400066.327568667358719, 3783676.907426245976239 ], [ 400065.71719226858113, 3783676.907426245976239 ], [ 400065.412004069192335, 3783677.212614445481449 ], [ 400064.191251271637157, 3783677.212614445481449 ] ] ] } },
{ "type": "Feature", "properties": { "confidence": 0.29260993003845215, "class": 1 }, "geometry": { "type": "Polygon", "coordinates": [ [ [ 399723.296032553422265, 3783992.1668362156488 ], [ 399722.99084435403347, 3783991.86164801614359 ], [ 399722.380467955255881, 3783991.86164801614359 ], [ 399722.380467955255881, 3783991.556459817104042 ], [ 399721.770091556478292, 3783990.946083418093622 ], [ 399721.770091556478292, 3783990.335707019548863 ], [ 399721.159715157700703, 3783989.725330620538443 ], [ 399721.159715157700703, 3783989.420142421033233 ], [ 399720.549338758923113, 3783988.809766022488475 ], [ 399720.549338758923113, 3783987.894201424438506 ], [ 399720.244150559534319, 3783987.589013224933296 ], [ 399719.938962360145524, 3783987.589013224933296 ], [ 399719.938962360145524, 3783985.757884028367698 ], [ 399720.244150559534319, 3783985.452695828862488 ], [ 399720.549338758923113, 3783985.452695828862488 ], [ 399720.854526958311908, 3783985.14750762982294 ], [ 399723.601220752811059, 3783985.14750762982294 ], [ 399723.906408952199854, 3783985.452695828862488 ], [ 399727.263479145476595, 3783985.452695828862488 ], [ 399727.568667344865389, 3783985.757884028367698 ], [ 399728.179043743642978, 3783985.757884028367698 ], [ 399728.484231943031773, 3783986.063072227872908 ], [ 399728.789420142420568, 3783986.063072227872908 ], [ 399729.094608341809362, 3783986.368260427378118 ], [ 399729.704984740586951, 3783986.368260427378118 ], [ 399729.704984740586951, 3783986.673448626883328 ], [ 399730.010172939975746, 3783986.978636825922877 ], [ 399730.010172939975746, 3783987.589013224933296 ], [ 399730.315361139364541, 3783987.894201424438506 ], [ 399730.315361139364541, 3783989.114954221993685 ], [ 399730.010172939975746, 3783989.420142421033233 ], [ 399730.010172939975746, 3783990.640895218588412 ], [ 399729.399796541198157, 3783991.251271617598832 ], [ 399729.399796541198157, 3783991.556459817104042 ], [ 399729.094608341809362, 3783991.86164801614359 ], [ 399728.179043743642978, 3783991.86164801614359 ], [ 399727.873855544254184, 3783992.1668362156488 ], [ 399723.296032553422265, 3783992.1668362156488 ] ] ] } },
{ "type": "Feature", "properties": { "confidence": 0.28581401705741882, "class": 1 }, "geometry": { "type": "Polygon", "coordinates": [ [ [ 399630.518819938937668, 3784047.405900305137038 ], [ 399630.213631739548873, 3784047.100712105631828 ], [ 399629.908443540160079, 3784047.100712105631828 ], [ 399629.603255340771284, 3784046.79552390659228 ], [ 399628.6876907426049, 3784046.79552390659228 ], [ 399628.077314343827311, 3784046.18514750758186 ], [ 399627.772126144438516, 3784046.18514750758186 ], [ 399626.856561546272133, 3784045.269582909531891 ], [ 399626.856561546272133, 3784044.964394710026681 ], [ 399626.551373346883338, 3784044.659206510521472 ], [ 399626.551373346883338, 3784044.048830111976713 ], [ 399634.486266531050205, 3784044.048830111976713 ], [ 399634.486266531050205, 3784044.354018311481923 ], [ 399634.181078331661411, 3784044.659206510521472 ], [ 399634.181078331661411, 3784045.574771109037101 ], [ 399633.875890132272616, 3784045.87995930807665 ], [ 399633.875890132272616, 3784046.18514750758186 ], [ 399633.570701932883821, 3784046.49033570708707 ], [ 399633.265513733495027, 3784046.49033570708707 ], [ 399632.960325534106232, 3784046.79552390659228 ], [ 399632.655137334717438, 3784046.79552390659228 ], [ 399632.349949135328643, 3784047.100712105631828 ], [ 399631.739572736492846, 3784047.100712105631828 ], [ 399631.434384537104052, 3784047.405900305137038 ], [ 399630.518819938937668, 3784047.405900305137038 ] ] ] } },
{ "type": "Feature", "properties": { "confidence": 0.27724131941795349, "class": 1 }, "geometry": { "type": "Polygon", "coordinates": [ [ [ 399607.93489318410866, 3784036.419125127140433 ], [ 399607.629704984719865, 3784036.113936927635223 ], [ 399606.714140386553481, 3784036.113936927635223 ], [ 399606.714140386553481, 3784035.808748728595674 ], [ 399606.103763987775892, 3784035.198372329585254 ], [ 399606.103763987775892, 3784033.977619532030076 ], [ 399605.798575788387097, 3784033.672431332524866 ], [ 399605.798575788387097, 3784032.451678534969687 ], [ 399606.103763987775892, 3784032.146490335930139 ], [ 399606.103763987775892, 3784031.230925737414509 ], [ 399606.408952187164687, 3784030.92573753837496 ], [ 399606.408952187164687, 3784030.62054933886975 ], [ 399607.019328585942276, 3784030.010172939859331 ], [ 399607.019328585942276, 3784029.704984740819782 ], [ 399607.32451678533107, 3784029.399796541314572 ], [ 399607.32451678533107, 3784028.789420142304152 ], [ 399607.93489318410866, 3784028.179043743759394 ], [ 399608.240081383497454, 3784028.179043743759394 ], [ 399608.545269582886249, 3784027.873855544254184 ], [ 399610.071210579830222, 3784027.873855544254184 ], [ 399610.376398779219016, 3784028.179043743759394 ], [ 399610.986775178054813, 3784028.179043743759394 ], [ 399611.291963377443608, 3784028.484231942798942 ], [ 399612.207527975609992, 3784028.484231942798942 ], [ 399612.512716174998786, 3784028.789420142304152 ], [ 399612.512716174998786, 3784029.094608341809362 ], [ 399612.817904374387581, 3784029.399796541314572 ], [ 399613.42828077316517, 3784029.399796541314572 ], [ 399614.343845371331554, 3784030.315361139364541 ], [ 399614.343845371331554, 3784030.62054933886975 ], [ 399614.649033570720349, 3784030.92573753837496 ], [ 399614.649033570720349, 3784032.146490335930139 ], [ 399614.343845371331554, 3784032.451678534969687 ], [ 399614.343845371331554, 3784033.062054933980107 ], [ 399614.038657171942759, 3784033.367243133485317 ], [ 399614.038657171942759, 3784033.672431332524866 ], [ 399613.733468972553965, 3784033.977619532030076 ], [ 399613.733468972553965, 3784034.282807731535286 ], [ 399612.817904374387581, 3784035.198372329585254 ], [ 399612.512716174998786, 3784035.198372329585254 ], [ 399611.902339776221197, 3784035.808748728595674 ], [ 399610.681586978607811, 3784035.808748728595674 ], [ 399610.376398779219016, 3784036.113936927635223 ], [ 399609.155645981663838, 3784036.113936927635223 ], [ 399608.850457782275043, 3784036.419125127140433 ], [ 399607.93489318410866, 3784036.419125127140433 ] ] ] } },
{ "type": "Feature", "properties": { "confidence": 0.26919582486152649, "class": 1 }, "geometry": { "type": "Polygon", "coordinates": [ [ [ 399851.780264496454038, 3783917.395727365277708 ], [ 399851.475076297065243, 3783917.090539165772498 ], [ 399850.559511698898859, 3783917.090539165772498 ], [ 399850.254323499510065, 3783916.785350966267288 ], [ 399849.643947100732476, 3783916.785350966267288 ], [ 399849.338758901343681, 3783916.480162767227739 ], [ 399849.033570701954886, 3783916.480162767227739 ], [ 399849.033570701954886, 3783916.174974567722529 ], [ 399848.728382502566092, 3783915.869786368217319 ], [ 399848.728382502566092, 3783915.259409969672561 ], [ 399848.423194303177297, 3783914.954221770167351 ], [ 399848.423194303177297, 3783914.343845371156931 ], [ 399848.118006103788503, 3783914.038657172117382 ], [ 399848.118006103788503, 3783912.817904374562204 ], [ 399847.812817904399708, 3783912.512716175056994 ], [ 399847.812817904399708, 3783912.207527975551784 ], [ 399847.507629705010913, 3783911.902339776046574 ], [ 399847.507629705010913, 3783909.460834180936217 ], [ 399849.643947100732476, 3783909.460834180936217 ], [ 399849.94913530012127, 3783909.766022380441427 ], [ 399850.254323499510065, 3783909.766022380441427 ], [ 399850.559511698898859, 3783910.071210579946637 ], [ 399850.864699898287654, 3783910.071210579946637 ], [ 399851.169888097676449, 3783910.376398779451847 ], [ 399851.475076297065243, 3783910.376398779451847 ], [ 399851.780264496454038, 3783910.681586978491396 ], [ 399852.390640895231627, 3783910.681586978491396 ], [ 399852.695829094620422, 3783910.986775177996606 ], [ 399853.001017294009216, 3783910.986775177996606 ], [ 399853.306205493398011, 3783911.291963377501816 ], [ 399853.611393692786805, 3783911.291963377501816 ], [ 399853.9165818921756, 3783911.597151577007025 ], [ 399854.221770091564395, 3783911.597151577007025 ], [ 399854.526958290953189, 3783911.902339776046574 ], [ 399854.832146490341984, 3783911.902339776046574 ], [ 399854.832146490341984, 3783912.207527975551784 ], [ 399855.137334689730778, 3783912.512716175056994 ], [ 399855.442522889119573, 3783912.512716175056994 ], [ 399855.442522889119573, 3783912.817904374562204 ], [ 399855.747711088508368, 3783913.123092573601753 ], [ 399855.747711088508368, 3783915.869786368217319 ], [ 399855.137334689730778, 3783916.480162767227739 ], [ 399855.137334689730778, 3783916.785350966267288 ], [ 399854.526958290953189, 3783916.785350966267288 ], [ 399854.221770091564395, 3783917.090539165772498 ], [ 399853.9165818921756, 3783917.090539165772498 ], [ 399853.611393692786805, 3783917.395727365277708 ], [ 399851.780264496454038, 3783917.395727365277708 ] ] ] } },
{ "type": "Feature", "properties": { "confidence": 0.26036408543586731, "class": 1 }, "geometry": { "type": "Polygon", "coordinates": [ [ [ 399919.226856561552268, 3784051.678535096812993 ], [ 399918.921668362163473, 3784051.373346897307783 ], [ 399916.785350966441911, 3784051.373346897307783 ], [ 399916.480162767053116, 3784051.068158697802573 ], [ 399915.869786368275527, 3784051.068158697802573 ], [ 399915.564598168886732, 3784050.762970498297364 ], [ 399915.564598168886732, 3784049.542217700742185 ], [ 399916.480162767053116, 3784048.626653102692217 ], [ 399916.785350966441911, 3784048.626653102692217 ], [ 399917.3957273652195, 3784048.016276704147458 ], [ 399917.700915564608295, 3784048.016276704147458 ], [ 399918.006103763997089, 3784047.711088504642248 ], [ 399918.921668362163473, 3784047.711088504642248 ], [ 399919.532044760941062, 3784047.100712105631828 ], [ 399920.142421159718651, 3784047.100712105631828 ], [ 399920.447609359107446, 3784046.79552390659228 ], [ 399920.447609359107446, 3784046.49033570708707 ], [ 399921.36317395727383, 3784046.49033570708707 ], [ 399921.668362156662624, 3784046.18514750758186 ], [ 399921.973550356051419, 3784046.18514750758186 ], [ 399922.278738555440214, 3784045.87995930807665 ], [ 399922.278738555440214, 3784044.659206510521472 ], [ 399925.33062054932816, 3784044.659206510521472 ], [ 399925.635808748716954, 3784044.964394710026681 ], [ 399925.635808748716954, 3784045.574771109037101 ], [ 399925.940996948105749, 3784045.87995930807665 ], [ 399925.940996948105749, 3784046.18514750758186 ], [ 399926.551373346883338, 3784046.79552390659228 ], [ 399926.551373346883338, 3784047.405900305137038 ], [ 399926.856561546272133, 3784047.711088504642248 ], [ 399926.856561546272133, 3784048.931841302197427 ], [ 399926.551373346883338, 3784049.237029501702636 ], [ 399926.551373346883338, 3784049.542217700742185 ], [ 399925.33062054932816, 3784050.762970498297364 ], [ 399925.025432349939365, 3784050.762970498297364 ], [ 399924.415055951161776, 3784051.373346897307783 ], [ 399923.194303153606597, 3784051.373346897307783 ], [ 399922.889114954217803, 3784051.678535096812993 ], [ 399919.226856561552268, 3784051.678535096812993 ] ] ] } }
]
}
