{
"type": "FeatureCollection",
"name": "cell_00406_pre",
"crs": { "type": "name", "properties": { "name": "urn:ogc:def:crs:EPSG::32611" } },
"features": [
{ "type": "Feature", "properties": { "confidence": 0.67884284257888794, "class": 1 }, "geometry": { "type": "Polygon", "coordinates": [ [ [ 398160.732451678544749, 3784472.227873855736107 ], [ 398160.427263479155954, 3784471.922685656230897 ], [ 398160.122075279767159, 3784471.922685656230897 ], [ 398159.816887080378365, 3784471.617497456725687 ], [ 398159.816887080378365, 3784471.312309257220477 ], [ 398159.51169888098957, 3784471.007121058180928 ], [ 398159.816887080378365, 3784470.701932858675718 ], [ 398159.816887080378365, 3784469.78636826062575 ], [ 398159.51169888098957, 3784469.48118006112054 ], [ 398159.51169888098957, 3784468.260427263565361 ], [ 398159.206510681600776, 3784467.955239064060152 ], [ 398159.206510681600776, 3784467.650050864554942 ], [ 398159.51169888098957, 3784467.344862665515393 ], [ 398159.51169888098957, 3784467.039674466010183 ], [ 398159.816887080378365, 3784466.734486266504973 ], [ 398159.816887080378365, 3784466.429298066999763 ], [ 398160.427263479155954, 3784465.818921668455005 ], [ 398160.427263479155954, 3784465.513733468949795 ], [ 398160.732451678544749, 3784465.513733468949795 ], [ 398161.037639877933543, 3784465.208545269444585 ], [ 398161.037639877933543, 3784464.903357070405036 ], [ 398161.648016276711132, 3784464.903357070405036 ], [ 398161.953204476099927, 3784464.598168870899826 ], [ 398164.089521871821489, 3784464.598168870899826 ], [ 398164.394710071210284, 3784464.903357070405036 ], [ 398164.394710071210284, 3784465.208545269444585 ], [ 398164.699898270599078, 3784465.513733468949795 ], [ 398164.699898270599078, 3784466.734486266504973 ], [ 398164.394710071210284, 3784467.039674466010183 ], [ 398164.394710071210284, 3784467.955239064060152 ], [ 398164.089521871821489, 3784468.260427263565361 ], [ 398164.089521871821489, 3784469.48118006112054 ], [ 398163.784333672432695, 3784469.78636826062575 ], [ 398163.784333672432695, 3784471.312309257220477 ], [ 398163.4791454730439, 3784471.617497456725687 ], [ 398163.4791454730439, 3784471.922685656230897 ], [ 398162.868769074266311, 3784471.922685656230897 ], [ 398162.563580874877516, 3784472.227873855736107 ], [ 398160.732451678544749, 3784472.227873855736107 ] ] ] } },
{ "type": "Feature", "properties": { "confidence": 0.59963011741638184, "class": 1 }, "geometry": { "type": "Polygon", "coordinates": [ [ [ 398186.368260427261703, 3784356.256358087528497 ], [ 398186.368260427261703, 3784355.035605289973319 ], [ 398186.063072227872908, 3784354.730417090468109 ], [ 398186.063072227872908, 3784354.425228890962899 ], [ 398186.368260427261703, 3784354.12004069192335 ], [ 398186.368260427261703, 3784353.81485249241814 ], [ 398187.589013224816881, 3784352.594099694862962 ], [ 398188.19938962359447, 3784352.594099694862962 ], [ 398188.504577822983265, 3784352.288911495357752 ], [ 398189.725330620538443, 3784352.288911495357752 ], [ 398190.335707019316033, 3784351.678535096812993 ], [ 398190.335707019316033, 3784356.256358087528497 ], [ 398186.368260427261703, 3784356.256358087528497 ] ] ] } },
{ "type": "Feature", "properties": { "confidence": 0.46730157732963562, "class": 1 }, "geometry": { "type": "Polygon", "coordinates": [ [ [ 398168.056968463875819, 3784709.969481179956347 ], [ 398167.44659206509823, 3784709.359104781411588 ], [ 398167.141403865709435, 3784709.359104781411588 ], [ 398167.141403865709435, 3784709.053916581906378 ], [ 398166.531027466931846, 3784708.443540182895958 ], [ 398166.531027466931846, 3784706.307222787290812 ], [ 398166.836215666320641, 3784706.002034587785602 ], [ 398166.836215666320641, 3784705.391658189240843 ], [ 398167.141403865709435, 3784705.086469989735633 ], [ 398167.141403865709435, 3784704.476093591190875 ], [ 398167.44659206509823, 3784704.170905391685665 ], [ 398167.44659206509823, 3784703.865717192180455 ], [ 398168.056968463875819, 3784703.255340793635696 ], [ 398170.498474058986176, 3784703.255340793635696 ], [ 398170.80366225837497, 3784702.950152594130486 ], [ 398172.329603255318943, 3784702.950152594130486 ], [ 398172.634791454707738, 3784703.255340793635696 ], [ 398173.245167853485327, 3784703.255340793635696 ], [ 398173.245167853485327, 3784703.865717192180455 ], [ 398173.550356052874122, 3784704.170905391685665 ], [ 398173.550356052874122, 3784704.476093591190875 ], [ 398173.855544252262916, 3784704.781281790230423 ], [ 398173.855544252262916, 3784705.391658189240843 ], [ 398173.550356052874122, 3784705.696846388746053 ], [ 398173.550356052874122, 3784706.612410986796021 ], [ 398172.939979654096533, 3784707.22278738534078 ], [ 398172.939979654096533, 3784707.52797558484599 ], [ 398172.634791454707738, 3784707.8331637843512 ], [ 398172.634791454707738, 3784708.13835198385641 ], [ 398172.024415055930149, 3784708.748728382401168 ], [ 398171.719226856541354, 3784708.748728382401168 ], [ 398171.108850457763765, 3784709.359104781411588 ], [ 398170.80366225837497, 3784709.359104781411588 ], [ 398170.498474058986176, 3784709.664292980451137 ], [ 398169.888097660208587, 3784709.664292980451137 ], [ 398169.582909460819792, 3784709.969481179956347 ], [ 398168.056968463875819, 3784709.969481179956347 ] ] ] } },
{ "type": "Feature", "properties": { "confidence": 0.37411054968833923, "class": 1 }, "geometry": { "type": "Polygon", "coordinates": [ [ [ 398161.037639877933543, 3784647.711088504642248 ], [ 398160.732451678544749, 3784647.405900305137038 ], [ 398160.427263479155954, 3784647.405900305137038 ], [ 398160.427263479155954, 3784647.100712105631828 ], [ 398160.122075279767159, 3784646.79552390659228 ], [ 398159.816887080378365, 3784646.79552390659228 ], [ 398159.206510681600776, 3784646.18514750758186 ], [ 398159.206510681600776, 3784645.87995930807665 ], [ 398158.901322482211981, 3784645.574771109037101 ], [ 398158.901322482211981, 3784644.048830111976713 ], [ 398164.089521871821489, 3784644.048830111976713 ], [ 398164.089521871821489, 3784646.49033570708707 ], [ 398163.784333672432695, 3784646.79552390659228 ], [ 398163.4791454730439, 3784646.79552390659228 ], [ 398162.563580874877516, 3784647.711088504642248 ], [ 398161.037639877933543, 3784647.711088504642248 ] ] ] } },
{ "type": "Feature", "properties": { "confidence": 0.36094599962234497, "class": 1 }, "geometry": { "type": "Polygon", "coordinates": [ [ [ 397805.493387588998303, 3784355.035605289973319 ], [ 397805.493387588998303, 3784354.730417090468109 ], [ 397805.188199389609508, 3784354.425228890962899 ], [ 397805.188199389609508, 3784353.81485249241814 ], [ 397805.493387588998303, 3784353.50966429291293 ], [ 397805.493387588998303, 3784352.899287894368172 ], [ 397806.714140386553481, 3784351.678535096812993 ], [ 397807.019328585942276, 3784351.678535096812993 ], [ 397807.629704984719865, 3784351.068158697802573 ], [ 397807.93489318410866, 3784351.068158697802573 ], [ 397808.240081383497454, 3784350.762970498297364 ], [ 397808.850457782275043, 3784350.762970498297364 ], [ 397809.155645981663838, 3784350.457782299257815 ], [ 397810.681586978607811, 3784350.457782299257815 ], [ 397810.986775178054813, 3784350.762970498297364 ], [ 397811.597151576832402, 3784350.762970498297364 ], [ 397811.902339776221197, 3784351.068158697802573 ], [ 397813.123092573776376, 3784351.068158697802573 ], [ 397813.42828077316517, 3784351.373346897307783 ], [ 397813.733468972553965, 3784351.373346897307783 ], [ 397814.038657171942759, 3784351.678535096812993 ], [ 397814.038657171942759, 3784352.288911495357752 ], [ 397813.42828077316517, 3784352.899287894368172 ], [ 397812.817904374387581, 3784352.899287894368172 ], [ 397812.207527975609992, 3784353.50966429291293 ], [ 397811.902339776221197, 3784353.50966429291293 ], [ 397811.597151576832402, 3784353.81485249241814 ], [ 397810.681586978607811, 3784353.81485249241814 ], [ 397810.376398779219016, 3784354.12004069192335 ], [ 397809.460834181052633, 3784354.12004069192335 ], [ 397809.155645981663838, 3784354.425228890962899 ], [ 397808.545269582886249, 3784354.425228890962899 ], [ 397808.240081383497454, 3784354.730417090468109 ], [ 397807.93489318410866, 3784354.730417090468109 ], [ 397807.629704984719865, 3784355.035605289973319 ], [ 397805.493387588998303, 3784355.035605289973319 ] ] ] } },
{ "type": "Feature", "properties": { "confidence": 0.32356879115104675, "class": 1 }, "geometry": { "type": "Polygon", "coordinates": [ [ [ 397952.28891149541596, 3784594.608341810759157 ], [ 397951.67853509663837, 3784593.997965412214398 ], [ 397951.373346897249576, 3784593.997965412214398 ], [ 397951.068158697860781, 3784593.692777212709188 ], [ 397950.762970498471987, 3784593.692777212709188 ], [ 397950.457782299083192, 3784593.387589013203979 ], [ 397949.847405900305603, 3784593.387589013203979 ], [ 397949.542217700916808, 3784593.082400813698769 ], [ 397949.237029501528013, 3784593.082400813698769 ], [ 397948.931841302139219, 3784592.77721261465922 ], [ 397948.931841302139219, 3784592.1668362156488 ], [ 397948.626653102750424, 3784591.86164801614359 ], [ 397948.626653102750424, 3784591.556459817104042 ], [ 397948.931841302139219, 3784591.251271617598832 ], [ 397948.931841302139219, 3784590.030518820043653 ], [ 397949.542217700916808, 3784590.030518820043653 ], [ 397949.847405900305603, 3784590.335707019548863 ], [ 397950.152594099694397, 3784590.335707019548863 ], [ 397950.457782299083192, 3784590.640895218588412 ], [ 397950.762970498471987, 3784590.640895218588412 ], [ 397951.373346897249576, 3784591.251271617598832 ], [ 397951.67853509663837, 3784591.251271617598832 ], [ 397951.983723296027165, 3784591.556459817104042 ], [ 397952.28891149541596, 3784591.556459817104042 ], [ 397952.594099694804754, 3784591.86164801614359 ], [ 397952.899287894193549, 3784591.86164801614359 ], [ 397953.204476093582343, 3784592.1668362156488 ], [ 397953.204476093582343, 3784593.997965412214398 ], [ 397952.594099694804754, 3784594.608341810759157 ], [ 397952.28891149541596, 3784594.608341810759157 ] ] ] } },
{ "type": "Feature", "properties": { "confidence": 0.30442416667938232, "class": 1 }, "geometry": { "type": "Polygon", "coordinates": [ [ [ 398298.067141403851565, 3784560.122075279708952 ], [ 398298.067141403851565, 3784559.816887080203742 ], [ 398297.76195320446277, 3784559.511698881164193 ], [ 398297.76195320446277, 3784559.206510681658983 ], [ 398298.067141403851565, 3784558.901322482153773 ], [ 398298.067141403851565, 3784558.290946083609015 ], [ 398298.677517802629154, 3784557.680569684598595 ], [ 398298.677517802629154, 3784557.375381485093385 ], [ 398299.287894201406743, 3784556.765005086548626 ], [ 398299.287894201406743, 3784556.459816887043417 ], [ 398299.593082400795538, 3784556.459816887043417 ], [ 398299.898270600184333, 3784556.154628687538207 ], [ 398300.203458799573127, 3784556.154628687538207 ], [ 398300.508646998961922, 3784555.849440488498658 ], [ 398300.813835198350716, 3784555.849440488498658 ], [ 398301.119023397739511, 3784555.544252288993448 ], [ 398302.034587995905895, 3784555.544252288993448 ], [ 398302.339776195294689, 3784555.239064089488238 ], [ 398302.950152594072279, 3784555.239064089488238 ], [ 398303.255340793461073, 3784554.933875889983028 ], [ 398304.476093591074459, 3784554.933875889983028 ], [ 398305.086469989852048, 3784555.544252288993448 ], [ 398305.391658189240843, 3784555.544252288993448 ], [ 398305.696846388629638, 3784555.849440488498658 ], [ 398304.170905391685665, 3784557.375381485093385 ], [ 398303.86571719229687, 3784557.375381485093385 ], [ 398302.950152594072279, 3784558.290946083609015 ], [ 398302.644964394683484, 3784558.290946083609015 ], [ 398302.339776195294689, 3784558.596134282648563 ], [ 398302.339776195294689, 3784558.901322482153773 ], [ 398302.034587995905895, 3784558.901322482153773 ], [ 398301.7293997965171, 3784559.206510681658983 ], [ 398301.424211597128306, 3784559.206510681658983 ], [ 398301.119023397739511, 3784559.511698881164193 ], [ 398300.813835198350716, 3784559.511698881164193 ], [ 398300.508646998961922, 3784559.816887080203742 ], [ 398299.593082400795538, 3784559.816887080203742 ], [ 398299.287894201406743, 3784560.122075279708952 ], [ 398298.067141403851565, 3784560.122075279708952 ] ] ] } },
{ "type": "Feature", "properties": { "confidence": 0.30130061507225037, "class": 1 }, "geometry": { "type": "Polygon", "coordinates": [ [ [ 398306.307222787407227, 3784238.45371312322095 ], [ 398306.002034588018432, 3784238.14852492371574 ], [ 398305.086469989852048, 3784238.14852492371574 ], [ 398304.781281790463254, 3784237.843336724210531 ], [ 398304.170905391685665, 3784237.843336724210531 ], [ 398303.86571719229687, 3784237.538148524705321 ], [ 398303.86571719229687, 3784237.232960325665772 ], [ 398303.560528992908075, 3784236.927772126160562 ], [ 398303.560528992908075, 3784231.739572736434639 ], [ 398303.86571719229687, 3784231.434384536929429 ], [ 398304.781281790463254, 3784231.434384536929429 ], [ 398305.086469989852048, 3784231.12919633788988 ], [ 398306.612410986796021, 3784231.12919633788988 ], [ 398306.917599186184816, 3784230.82400813838467 ], [ 398307.527975584962405, 3784230.82400813838467 ], [ 398307.527975584962405, 3784238.45371312322095 ], [ 398306.307222787407227, 3784238.45371312322095 ] ] ] } },
{ "type": "Feature", "properties": { "confidence": 0.25345355272293091, "class": 1 }, "geometry": { "type": "Polygon", "coordinates": [ [ [ 398272.126144455745816, 3784644.659206510521472 ], [ 398271.820956256357022, 3784644.354018311481923 ], [ 398271.820956256357022, 3784643.133265513926744 ], [ 398272.126144455745816, 3784642.828077314421535 ], [ 398272.126144455745816, 3784642.522889114916325 ], [ 398272.431332655134611, 3784642.217700915411115 ], [ 398272.431332655134611, 3784641.912512716371566 ], [ 398272.736520854523405, 3784641.912512716371566 ], [ 398273.346897253300995, 3784641.302136317361146 ], [ 398273.652085452689789, 3784641.302136317361146 ], [ 398273.957273652078584, 3784640.996948117855936 ], [ 398274.567650050856173, 3784640.996948117855936 ], [ 398274.872838250244968, 3784640.691759918816388 ], [ 398276.398779247188941, 3784640.691759918816388 ], [ 398276.703967446577735, 3784640.386571719311178 ], [ 398278.535096642910503, 3784640.386571719311178 ], [ 398278.535096642910503, 3784640.691759918816388 ], [ 398279.145473041688092, 3784641.302136317361146 ], [ 398279.450661241076887, 3784641.302136317361146 ], [ 398279.755849440465681, 3784641.607324516866356 ], [ 398279.755849440465681, 3784642.522889114916325 ], [ 398280.061037639854476, 3784642.828077314421535 ], [ 398280.061037639854476, 3784643.743641912471503 ], [ 398277.619532044744119, 3784643.743641912471503 ], [ 398277.314343845355324, 3784643.438453712966293 ], [ 398276.703967446577735, 3784643.438453712966293 ], [ 398276.398779247188941, 3784643.743641912471503 ], [ 398276.093591047800146, 3784643.743641912471503 ], [ 398275.788402848411351, 3784644.048830111976713 ], [ 398275.178026449633762, 3784644.048830111976713 ], [ 398274.872838250244968, 3784644.354018311481923 ], [ 398273.652085452689789, 3784644.354018311481923 ], [ 398273.346897253300995, 3784644.659206510521472 ], [ 398272.126144455745816, 3784644.659206510521472 ] ] ] } }
]
}
