{
"type": "FeatureCollection",
"name": "cell_00381_pre",
"crs": { "type": "name", "properties": { "name": "urn:ogc:def:crs:EPSG::32611" } },
"features": [
{ "type": "Feature", "properties": { "confidence": 0.99259960651397705, "class": 1 }, "geometry": { "type": "Polygon", "coordinates": [ [ [ 396356.15462868771283, 3787475.890132248401642 ], [ 396355.54425228893524, 3787475.279755849391222 ], [ 396355.54425228893524, 3787474.364191251341254 ], [ 396355.849440488324035, 3787474.059003051836044 ], [ 396355.849440488324035, 3787473.143438453786075 ], [ 396356.15462868771283, 3787472.838250254280865 ], [ 396356.15462868771283, 3787472.227873855736107 ], [ 396356.459816887101624, 3787471.922685656230897 ], [ 396356.459816887101624, 3787471.312309257220477 ], [ 396356.765005086490419, 3787471.007121058180928 ], [ 396356.765005086490419, 3787470.701932858675718 ], [ 396357.375381485268008, 3787470.091556459665298 ], [ 396357.375381485268008, 3787469.78636826062575 ], [ 396358.290946083434392, 3787468.87080366211012 ], [ 396358.290946083434392, 3787468.565615463070571 ], [ 396358.901322482211981, 3787467.955239064060152 ], [ 396358.901322482211981, 3787467.650050864554942 ], [ 396359.51169888098957, 3787467.039674466010183 ], [ 396359.51169888098957, 3787466.429298066999763 ], [ 396360.122075279767159, 3787465.818921668455005 ], [ 396360.122075279767159, 3787465.513733468949795 ], [ 396360.732451678544749, 3787465.513733468949795 ], [ 396361.037639877933543, 3787465.208545269444585 ], [ 396361.037639877933543, 3787464.903357070405036 ], [ 396361.342828077322338, 3787464.598168870899826 ], [ 396362.258392675488722, 3787464.598168870899826 ], [ 396362.563580874877516, 3787464.292980671394616 ], [ 396362.868769074266311, 3787464.598168870899826 ], [ 396363.173957273655105, 3787464.598168870899826 ], [ 396363.173957273655105, 3787464.903357070405036 ], [ 396363.4791454730439, 3787465.208545269444585 ], [ 396363.4791454730439, 3787466.124109867960215 ], [ 396363.784333672432695, 3787466.429298066999763 ], [ 396363.784333672432695, 3787470.701932858675718 ], [ 396363.4791454730439, 3787471.007121058180928 ], [ 396363.4791454730439, 3787471.617497456725687 ], [ 396363.173957273655105, 3787471.922685656230897 ], [ 396362.868769074266311, 3787471.922685656230897 ], [ 396361.953204476099927, 3787472.838250254280865 ], [ 396361.648016276711132, 3787472.838250254280865 ], [ 396361.037639877933543, 3787473.448626653291285 ], [ 396360.732451678544749, 3787473.448626653291285 ], [ 396360.122075279767159, 3787474.059003051836044 ], [ 396359.816887080378365, 3787474.059003051836044 ], [ 396358.596134282823186, 3787475.279755849391222 ], [ 396358.290946083434392, 3787475.279755849391222 ], [ 396357.985757884045597, 3787475.584944048896432 ], [ 396357.375381485268008, 3787475.584944048896432 ], [ 396357.070193285879213, 3787475.890132248401642 ], [ 396356.15462868771283, 3787475.890132248401642 ] ] ] } },
{ "type": "Feature", "properties": { "confidence": 0.98846787214279175, "class": 1 }, "geometry": { "type": "Polygon", "coordinates": [ [ [ 396579.552390640892554, 3787380.671414038632065 ], [ 396579.247202441503759, 3787380.366225839126855 ], [ 396579.247202441503759, 3787380.061037640087306 ], [ 396578.942014242114965, 3787379.755849440582097 ], [ 396578.942014242114965, 3787377.31434384547174 ], [ 396579.247202441503759, 3787377.00915564596653 ], [ 396579.247202441503759, 3787376.398779247421771 ], [ 396579.552390640892554, 3787376.093591047916561 ], [ 396579.552390640892554, 3787375.178026449866593 ], [ 396580.162767039670143, 3787374.567650050856173 ], [ 396580.162767039670143, 3787374.262461851350963 ], [ 396580.773143438447732, 3787373.652085452806205 ], [ 396581.383519837225322, 3787373.652085452806205 ], [ 396581.688708036614116, 3787373.346897253300995 ], [ 396582.299084435391705, 3787373.346897253300995 ], [ 396582.6042726347805, 3787373.041709053795785 ], [ 396583.214649033558089, 3787373.041709053795785 ], [ 396583.825025432335678, 3787372.431332655251026 ], [ 396584.435401831113268, 3787372.431332655251026 ], [ 396584.740590030502062, 3787372.126144455745816 ], [ 396587.182095625612419, 3787372.126144455745816 ], [ 396587.487283825001214, 3787371.820956256240606 ], [ 396588.097660223778803, 3787371.820956256240606 ], [ 396588.402848423167598, 3787371.515768057201058 ], [ 396588.402848423167598, 3787372.126144455745816 ], [ 396588.708036622556392, 3787372.431332655251026 ], [ 396588.708036622556392, 3787374.872838250361383 ], [ 396588.402848423167598, 3787375.178026449866593 ], [ 396588.402848423167598, 3787375.483214648906142 ], [ 396588.097660223778803, 3787375.788402848411351 ], [ 396588.097660223778803, 3787376.093591047916561 ], [ 396587.792472024390008, 3787376.398779247421771 ], [ 396587.792472024390008, 3787376.70396744646132 ], [ 396587.487283825001214, 3787377.00915564596653 ], [ 396587.487283825001214, 3787377.61953204497695 ], [ 396587.182095625612419, 3787377.924720244016498 ], [ 396587.182095625612419, 3787379.450661241076887 ], [ 396586.876907426223624, 3787379.755849440582097 ], [ 396586.876907426223624, 3787380.061037640087306 ], [ 396586.266531027446035, 3787380.061037640087306 ], [ 396585.961342828057241, 3787380.366225839126855 ], [ 396581.993896236002911, 3787380.366225839126855 ], [ 396581.688708036614116, 3787380.671414038632065 ], [ 396579.552390640892554, 3787380.671414038632065 ] ] ] } },
{ "type": "Feature", "properties": { "confidence": 0.96907806396484375, "class": 1 }, "geometry": { "type": "Polygon", "coordinates": [ [ [ 396079.348931841319427, 3787330.62054933886975 ], [ 396078.738555442541838, 3787330.010172939859331 ], [ 396078.738555442541838, 3787329.094608341809362 ], [ 396079.043743641930632, 3787328.789420142304152 ], [ 396079.043743641930632, 3787327.568667344748974 ], [ 396079.654120040708221, 3787326.958290946204215 ], [ 396079.959308240097016, 3787326.958290946204215 ], [ 396080.264496439485811, 3787326.653102746699005 ], [ 396080.569684638874605, 3787326.653102746699005 ], [ 396080.8748728382634, 3787326.347914547193795 ], [ 396081.180061037652194, 3787326.347914547193795 ], [ 396081.485249237040989, 3787326.042726347688586 ], [ 396081.790437436429784, 3787326.042726347688586 ], [ 396082.095625635818578, 3787325.737538148649037 ], [ 396082.706002034596168, 3787325.737538148649037 ], [ 396083.011190233984962, 3787325.432349949143827 ], [ 396083.926754832151346, 3787325.432349949143827 ], [ 396084.84231943031773, 3787324.516785351093858 ], [ 396085.147507629706524, 3787324.516785351093858 ], [ 396085.452695829095319, 3787324.211597151588649 ], [ 396085.757884028484114, 3787324.516785351093858 ], [ 396086.368260427261703, 3787324.516785351093858 ], [ 396086.673448626650497, 3787324.821973550133407 ], [ 396086.978636826039292, 3787324.821973550133407 ], [ 396086.978636826039292, 3787325.127161749638617 ], [ 396087.283825025428087, 3787325.432349949143827 ], [ 396087.283825025428087, 3787326.958290946204215 ], [ 396086.978636826039292, 3787327.263479145243764 ], [ 396086.978636826039292, 3787327.568667344748974 ], [ 396085.452695829095319, 3787329.094608341809362 ], [ 396085.147507629706524, 3787329.094608341809362 ], [ 396084.84231943031773, 3787329.399796541314572 ], [ 396084.537131230928935, 3787329.399796541314572 ], [ 396084.231943031540141, 3787329.704984740819782 ], [ 396083.926754832151346, 3787329.704984740819782 ], [ 396083.621566632762551, 3787330.010172939859331 ], [ 396083.011190233984962, 3787330.010172939859331 ], [ 396082.400813835207373, 3787330.62054933886975 ], [ 396079.348931841319427, 3787330.62054933886975 ] ] ] } },
{ "type": "Feature", "properties": { "confidence": 0.88605415821075439, "class": 1 }, "geometry": { "type": "Polygon", "coordinates": [ [ [ 396417.192268565588165, 3787444.760935910511762 ], [ 396416.88708036619937, 3787444.455747711006552 ], [ 396416.581892166810576, 3787444.455747711006552 ], [ 396416.581892166810576, 3787444.150559511501342 ], [ 396416.276703967421781, 3787443.845371312461793 ], [ 396416.276703967421781, 3787443.540183112956583 ], [ 396416.581892166810576, 3787443.234994913451374 ], [ 396416.581892166810576, 3787442.624618514906615 ], [ 396417.802644964365754, 3787441.403865717351437 ], [ 396418.107833163812757, 3787441.403865717351437 ], [ 396418.413021363201551, 3787441.098677517846227 ], [ 396418.718209562590346, 3787441.098677517846227 ], [ 396419.02339776197914, 3787440.793489318341017 ], [ 396419.328585961367935, 3787440.793489318341017 ], [ 396419.63377416075673, 3787440.488301118835807 ], [ 396420.549338758923113, 3787440.488301118835807 ], [ 396420.854526958311908, 3787440.183112919796258 ], [ 396422.075279755867086, 3787440.183112919796258 ], [ 396422.380467955255881, 3787440.488301118835807 ], [ 396421.464903357089497, 3787441.403865717351437 ], [ 396421.464903357089497, 3787441.709053916390985 ], [ 396420.854526958311908, 3787442.319430315401405 ], [ 396420.854526958311908, 3787442.624618514906615 ], [ 396420.244150559534319, 3787443.234994913451374 ], [ 396420.244150559534319, 3787443.540183112956583 ], [ 396419.938962360145524, 3787443.845371312461793 ], [ 396419.938962360145524, 3787444.455747711006552 ], [ 396419.63377416075673, 3787444.760935910511762 ], [ 396417.192268565588165, 3787444.760935910511762 ] ] ] } },
{ "type": "Feature", "properties": { "confidence": 0.88110965490341187, "class": 1 }, "geometry": { "type": "Polygon", "coordinates": [ [ [ 396217.293997965403832, 3787390.437436419073492 ], [ 396216.988809766015038, 3787390.132248219568282 ], [ 396216.988809766015038, 3787387.385554425418377 ], [ 396217.293997965403832, 3787387.080366225913167 ], [ 396217.599186164792627, 3787387.080366225913167 ], [ 396218.209562563570216, 3787386.469989826902747 ], [ 396218.514750762959011, 3787386.469989826902747 ], [ 396218.819938962347806, 3787386.164801627863199 ], [ 396219.430315361125395, 3787386.164801627863199 ], [ 396219.735503560514189, 3787385.859613428357989 ], [ 396219.735503560514189, 3787385.554425228852779 ], [ 396220.345879959291779, 3787385.554425228852779 ], [ 396220.651068158680573, 3787385.249237029347569 ], [ 396222.177009155624546, 3787385.249237029347569 ], [ 396222.482197355013341, 3787385.554425228852779 ], [ 396222.787385554402135, 3787385.554425228852779 ], [ 396222.787385554402135, 3787385.859613428357989 ], [ 396223.397761953179725, 3787386.469989826902747 ], [ 396223.397761953179725, 3787386.775178026407957 ], [ 396223.09257375379093, 3787387.080366225913167 ], [ 396223.09257375379093, 3787387.385554425418377 ], [ 396222.787385554402135, 3787387.690742624457926 ], [ 396222.787385554402135, 3787387.995930823963135 ], [ 396221.871820956235752, 3787388.911495422013104 ], [ 396221.871820956235752, 3787389.216683621518314 ], [ 396221.261444557458162, 3787389.827060020528734 ], [ 396220.956256358069368, 3787389.827060020528734 ], [ 396220.651068158680573, 3787390.132248219568282 ], [ 396220.040691759902984, 3787390.132248219568282 ], [ 396219.735503560514189, 3787390.437436419073492 ], [ 396217.293997965403832, 3787390.437436419073492 ] ] ] } },
{ "type": "Feature", "properties": { "confidence": 0.87734943628311157, "class": 1 }, "geometry": { "type": "Polygon", "coordinates": [ [ [ 396335.401831129216589, 3787450.864699898287654 ], [ 396335.096642929827794, 3787450.559511698782444 ], [ 396335.096642929827794, 3787448.728382502682507 ], [ 396335.401831129216589, 3787448.423194303177297 ], [ 396335.401831129216589, 3787447.812817904166877 ], [ 396336.012207527994178, 3787447.202441505622119 ], [ 396336.317395727382973, 3787447.202441505622119 ], [ 396337.538148524938151, 3787445.98168870806694 ], [ 396338.453713123104535, 3787445.98168870806694 ], [ 396338.75890132249333, 3787445.67650050856173 ], [ 396339.979654120048508, 3787445.67650050856173 ], [ 396340.284842319437303, 3787445.37131230905652 ], [ 396340.590030518826097, 3787445.67650050856173 ], [ 396340.895218718214892, 3787445.67650050856173 ], [ 396340.895218718214892, 3787447.202441505622119 ], [ 396340.590030518826097, 3787447.202441505622119 ], [ 396338.453713123104535, 3787449.338758901227266 ], [ 396338.14852492371574, 3787449.338758901227266 ], [ 396337.538148524938151, 3787449.949135300237685 ], [ 396337.232960325549357, 3787449.949135300237685 ], [ 396336.622583926771767, 3787450.559511698782444 ], [ 396336.317395727382973, 3787450.559511698782444 ], [ 396336.012207527994178, 3787450.864699898287654 ], [ 396335.401831129216589, 3787450.864699898287654 ] ] ] } },
{ "type": "Feature", "properties": { "confidence": 0.86735093593597412, "class": 1 }, "geometry": { "type": "Polygon", "coordinates": [ [ [ 396560.325534079340287, 3787459.104781281668693 ], [ 396560.325534079340287, 3787457.273652085568756 ], [ 396560.630722278729081, 3787456.968463886063546 ], [ 396560.630722278729081, 3787456.358087487053126 ], [ 396561.24109867750667, 3787455.747711088508368 ], [ 396561.24109867750667, 3787455.442522889003158 ], [ 396561.85147507628426, 3787454.832146490458399 ], [ 396561.85147507628426, 3787454.526958290953189 ], [ 396562.461851475061849, 3787453.916581891942769 ], [ 396562.461851475061849, 3787453.306205493398011 ], [ 396562.767039674450643, 3787453.001017293892801 ], [ 396562.767039674450643, 3787451.475076296832412 ], [ 396565.818921668338589, 3787451.475076296832412 ], [ 396566.124109867727384, 3787451.169888097792864 ], [ 396566.429298067116179, 3787451.169888097792864 ], [ 396566.734486266504973, 3787451.475076296832412 ], [ 396566.734486266504973, 3787452.695829094387591 ], [ 396566.429298067116179, 3787453.001017293892801 ], [ 396566.429298067116179, 3787453.611393692903221 ], [ 396565.513733468949795, 3787454.526958290953189 ], [ 396565.513733468949795, 3787454.832146490458399 ], [ 396565.208545269561, 3787455.137334689497948 ], [ 396565.208545269561, 3787455.747711088508368 ], [ 396563.987792472005822, 3787456.968463886063546 ], [ 396563.682604272617027, 3787456.968463886063546 ], [ 396563.072227873839438, 3787457.578840285073966 ], [ 396562.767039674450643, 3787457.578840285073966 ], [ 396561.546286876895465, 3787458.799593082629144 ], [ 396561.24109867750667, 3787458.799593082629144 ], [ 396560.935910478117876, 3787459.104781281668693 ], [ 396560.325534079340287, 3787459.104781281668693 ] ] ] } },
{ "type": "Feature", "properties": { "confidence": 0.84693753719329834, "class": 1 }, "geometry": { "type": "Polygon", "coordinates": [ [ [ 396146.490335707028862, 3787377.61953204497695 ], [ 396146.185147507640067, 3787377.31434384547174 ], [ 396144.964394710084889, 3787377.31434384547174 ], [ 396144.659206510696094, 3787377.00915564596653 ], [ 396144.659206510696094, 3787375.483214648906142 ], [ 396144.964394710084889, 3787375.178026449866593 ], [ 396144.964394710084889, 3787374.262461851350963 ], [ 396145.879959308251273, 3787373.346897253300995 ], [ 396146.185147507640067, 3787373.346897253300995 ], [ 396146.490335707028862, 3787373.041709053795785 ], [ 396146.795523906417657, 3787373.041709053795785 ], [ 396147.100712105806451, 3787372.736520854756236 ], [ 396147.405900305195246, 3787372.736520854756236 ], [ 396147.71108850458404, 3787373.041709053795785 ], [ 396148.626653102750424, 3787373.041709053795785 ], [ 396148.626653102750424, 3787373.346897253300995 ], [ 396149.237029501528013, 3787373.957273652311414 ], [ 396149.237029501528013, 3787374.872838250361383 ], [ 396148.931841302139219, 3787375.178026449866593 ], [ 396148.931841302139219, 3787375.483214648906142 ], [ 396147.405900305195246, 3787377.00915564596653 ], [ 396147.405900305195246, 3787377.31434384547174 ], [ 396147.100712105806451, 3787377.31434384547174 ], [ 396146.795523906417657, 3787377.61953204497695 ], [ 396146.490335707028862, 3787377.61953204497695 ] ] ] } },
{ "type": "Feature", "properties": { "confidence": 0.82927906513214111, "class": 1 }, "geometry": { "type": "Polygon", "coordinates": [ [ [ 396381.485249237040989, 3787485.961342827882618 ], [ 396381.485249237040989, 3787485.350966429337859 ], [ 396381.790437436429784, 3787485.045778229832649 ], [ 396381.790437436429784, 3787484.435401831287891 ], [ 396382.095625635818578, 3787484.130213631782681 ], [ 396382.095625635818578, 3787483.825025432277471 ], [ 396382.400813835207373, 3787483.519837232772261 ], [ 396382.706002034596168, 3787483.519837232772261 ], [ 396383.011190233984962, 3787483.214649033732712 ], [ 396383.316378433373757, 3787483.214649033732712 ], [ 396383.926754832151346, 3787482.604272634722292 ], [ 396384.231943031540141, 3787482.604272634722292 ], [ 396384.537131230928935, 3787482.299084435217083 ], [ 396384.84231943031773, 3787482.299084435217083 ], [ 396385.147507629706524, 3787481.993896236177534 ], [ 396385.452695829095319, 3787481.993896236177534 ], [ 396385.757884028484114, 3787481.688708036672324 ], [ 396386.368260427261703, 3787481.688708036672324 ], [ 396386.368260427261703, 3787482.909460834227502 ], [ 396385.757884028484114, 3787483.519837232772261 ], [ 396385.757884028484114, 3787483.825025432277471 ], [ 396384.537131230928935, 3787485.045778229832649 ], [ 396384.231943031540141, 3787485.045778229832649 ], [ 396383.926754832151346, 3787485.350966429337859 ], [ 396383.621566632762551, 3787485.350966429337859 ], [ 396383.316378433373757, 3787485.656154628843069 ], [ 396383.011190233984962, 3787485.656154628843069 ], [ 396382.706002034596168, 3787485.961342827882618 ], [ 396381.485249237040989, 3787485.961342827882618 ] ] ] } },
{ "type": "Feature", "properties": { "confidence": 0.82460403442382812, "class": 1 }, "geometry": { "type": "Polygon", "coordinates": [ [ [ 396075.381485249265097, 3787324.821973550133407 ], [ 396075.076297049876302, 3787324.516785351093858 ], [ 396075.076297049876302, 3787323.906408952083439 ], [ 396074.7711088504293, 3787323.601220752578229 ], [ 396074.7711088504293, 3787321.159715157467872 ], [ 396075.076297049876302, 3787320.854526958428323 ], [ 396075.076297049876302, 3787319.023397761862725 ], [ 396075.381485249265097, 3787318.718209562357515 ], [ 396075.381485249265097, 3787318.413021363317966 ], [ 396076.297049847431481, 3787317.497456764802337 ], [ 396076.90742624620907, 3787317.497456764802337 ], [ 396077.212614445597865, 3787317.192268565762788 ], [ 396077.822990844375454, 3787317.192268565762788 ], [ 396078.128179043764248, 3787316.887080366257578 ], [ 396078.738555442541838, 3787316.887080366257578 ], [ 396079.043743641930632, 3787316.581892166752368 ], [ 396082.095625635818578, 3787316.581892166752368 ], [ 396082.400813835207373, 3787316.887080366257578 ], [ 396082.706002034596168, 3787316.887080366257578 ], [ 396083.011190233984962, 3787317.192268565762788 ], [ 396083.011190233984962, 3787318.718209562357515 ], [ 396082.706002034596168, 3787319.023397761862725 ], [ 396082.706002034596168, 3787319.328585961367935 ], [ 396082.400813835207373, 3787319.633774160873145 ], [ 396082.400813835207373, 3787319.938962359912694 ], [ 396081.485249237040989, 3787320.854526958428323 ], [ 396081.485249237040989, 3787321.159715157467872 ], [ 396081.180061037652194, 3787321.464903356973082 ], [ 396080.8748728382634, 3787321.464903356973082 ], [ 396080.569684638874605, 3787321.770091556478292 ], [ 396080.264496439485811, 3787321.770091556478292 ], [ 396079.959308240097016, 3787322.075279755983502 ], [ 396079.654120040708221, 3787322.075279755983502 ], [ 396079.348931841319427, 3787322.38046795502305 ], [ 396079.348931841319427, 3787322.68565615452826 ], [ 396077.822990844375454, 3787324.211597151588649 ], [ 396077.212614445597865, 3787324.211597151588649 ], [ 396076.602238046820275, 3787324.821973550133407 ], [ 396075.381485249265097, 3787324.821973550133407 ] ] ] } },
{ "type": "Feature", "properties": { "confidence": 0.81010568141937256, "class": 1 }, "geometry": { "type": "Polygon", "coordinates": [ [ [ 396454.425228891137522, 3787464.292980671394616 ], [ 396454.120040691748727, 3787463.987792471889406 ], [ 396453.814852492359933, 3787463.987792471889406 ], [ 396453.509664292971138, 3787463.682604272849858 ], [ 396453.509664292971138, 3787460.630722278729081 ], [ 396453.814852492359933, 3787460.325534079223871 ], [ 396453.814852492359933, 3787460.020345880184323 ], [ 396454.120040691748727, 3787460.020345880184323 ], [ 396454.730417090526316, 3787459.409969481173903 ], [ 396454.730417090526316, 3787459.104781281668693 ], [ 396455.6459816886927, 3787458.189216683618724 ], [ 396456.256358087470289, 3787458.189216683618724 ], [ 396456.561546286859084, 3787458.494404883123934 ], [ 396457.171922685636673, 3787458.494404883123934 ], [ 396458.087487283803057, 3787459.409969481173903 ], [ 396458.087487283803057, 3787459.715157680679113 ], [ 396458.392675483191852, 3787460.020345880184323 ], [ 396458.392675483191852, 3787462.461851475294679 ], [ 396457.477110885025468, 3787463.377416073344648 ], [ 396457.171922685636673, 3787463.377416073344648 ], [ 396456.866734486247879, 3787463.682604272849858 ], [ 396456.561546286859084, 3787463.682604272849858 ], [ 396455.951169888081495, 3787464.292980671394616 ], [ 396454.425228891137522, 3787464.292980671394616 ] ] ] } },
{ "type": "Feature", "properties": { "confidence": 0.8081703782081604, "class": 1 }, "geometry": { "type": "Polygon", "coordinates": [ [ [ 396406.205493387591559, 3787424.008138352073729 ], [ 396405.900305188202765, 3787423.702950152568519 ], [ 396405.900305188202765, 3787422.482197355013341 ], [ 396406.205493387591559, 3787422.177009155508131 ], [ 396406.205493387591559, 3787421.871820956468582 ], [ 396407.121057985757943, 3787420.956256357952952 ], [ 396407.121057985757943, 3787420.651068158913404 ], [ 396407.426246185146738, 3787420.345879959408194 ], [ 396407.426246185146738, 3787420.040691759902984 ], [ 396408.646998982701916, 3787418.819938962347806 ], [ 396409.257375381479505, 3787418.819938962347806 ], [ 396409.5625635808683, 3787418.514750762842596 ], [ 396409.5625635808683, 3787418.209562563803047 ], [ 396412.004069175978657, 3787418.209562563803047 ], [ 396412.309257375367451, 3787418.514750762842596 ], [ 396412.614445574756246, 3787418.514750762842596 ], [ 396412.614445574756246, 3787419.430315361358225 ], [ 396411.088504577812273, 3787420.956256357952952 ], [ 396411.088504577812273, 3787421.261444557458162 ], [ 396410.478128179034684, 3787421.871820956468582 ], [ 396410.172939979645889, 3787421.871820956468582 ], [ 396409.5625635808683, 3787422.482197355013341 ], [ 396408.952187182090711, 3787422.482197355013341 ], [ 396408.646998982701916, 3787422.787385554518551 ], [ 396408.341810783313122, 3787422.787385554518551 ], [ 396408.036622583924327, 3787423.092573754023761 ], [ 396407.731434384535532, 3787423.092573754023761 ], [ 396406.815869786369149, 3787424.008138352073729 ], [ 396406.205493387591559, 3787424.008138352073729 ] ] ] } },
{ "type": "Feature", "properties": { "confidence": 0.75472730398178101, "class": 1 }, "geometry": { "type": "Polygon", "coordinates": [ [ [ 396314.038657171942759, 3787361.444557477254421 ], [ 396313.733468972553965, 3787361.139369277749211 ], [ 396313.123092573776376, 3787361.139369277749211 ], [ 396312.817904374387581, 3787360.834181078244001 ], [ 396312.512716174998786, 3787360.834181078244001 ], [ 396312.207527975609992, 3787360.528992878738791 ], [ 396311.902339776221197, 3787360.528992878738791 ], [ 396311.597151576832402, 3787360.223804679699242 ], [ 396310.376398779219016, 3787360.223804679699242 ], [ 396310.071210579830222, 3787359.918616480194032 ], [ 396309.766022380441427, 3787359.918616480194032 ], [ 396309.155645981663838, 3787359.308240081183612 ], [ 396309.155645981663838, 3787358.697863682638854 ], [ 396310.681586978607811, 3787357.171922685578465 ], [ 396310.986775178054813, 3787357.171922685578465 ], [ 396311.291963377443608, 3787356.866734486073256 ], [ 396311.291963377443608, 3787356.561546287033707 ], [ 396311.902339776221197, 3787356.561546287033707 ], [ 396312.207527975609992, 3787356.256358087528497 ], [ 396314.649033570720349, 3787356.256358087528497 ], [ 396314.954221770109143, 3787356.561546287033707 ], [ 396316.480162767053116, 3787356.561546287033707 ], [ 396316.480162767053116, 3787356.866734486073256 ], [ 396316.785350966441911, 3787357.171922685578465 ], [ 396316.785350966441911, 3787357.477110885083675 ], [ 396317.090539165830705, 3787357.782299084588885 ], [ 396317.090539165830705, 3787358.087487283628434 ], [ 396316.785350966441911, 3787358.392675483133644 ], [ 396316.785350966441911, 3787360.528992878738791 ], [ 396316.174974567664322, 3787361.139369277749211 ], [ 396315.564598168886732, 3787361.139369277749211 ], [ 396315.259409969497938, 3787361.444557477254421 ], [ 396314.038657171942759, 3787361.444557477254421 ] ] ] } },
{ "type": "Feature", "properties": { "confidence": 0.7518308162689209, "class": 1 }, "geometry": { "type": "Polygon", "coordinates": [ [ [ 396069.582909460819792, 3787454.221770091447979 ], [ 396069.277721261430997, 3787453.916581891942769 ], [ 396068.972533062042203, 3787453.916581891942769 ], [ 396068.972533062042203, 3787453.611393692903221 ], [ 396068.667344862653408, 3787453.306205493398011 ], [ 396068.667344862653408, 3787449.033570701722056 ], [ 396069.277721261430997, 3787448.423194303177297 ], [ 396069.277721261430997, 3787448.118006103672087 ], [ 396069.888097660208587, 3787447.507629705127329 ], [ 396070.193285859597381, 3787447.507629705127329 ], [ 396070.498474058986176, 3787447.202441505622119 ], [ 396070.80366225837497, 3787447.202441505622119 ], [ 396071.108850457763765, 3787446.897253306116909 ], [ 396072.024415055930149, 3787446.897253306116909 ], [ 396072.329603255318943, 3787447.202441505622119 ], [ 396072.634791454707738, 3787447.202441505622119 ], [ 396072.939979654096533, 3787447.507629705127329 ], [ 396073.245167853485327, 3787447.507629705127329 ], [ 396073.550356052874122, 3787447.812817904166877 ], [ 396073.855544252262916, 3787447.812817904166877 ], [ 396073.855544252262916, 3787448.423194303177297 ], [ 396074.160732451651711, 3787448.728382502682507 ], [ 396074.160732451651711, 3787449.033570701722056 ], [ 396073.855544252262916, 3787449.338758901227266 ], [ 396073.855544252262916, 3787450.254323499277234 ], [ 396073.245167853485327, 3787450.864699898287654 ], [ 396073.245167853485327, 3787451.169888097792864 ], [ 396072.939979654096533, 3787451.475076296832412 ], [ 396072.939979654096533, 3787451.780264496337622 ], [ 396072.634791454707738, 3787452.085452695842832 ], [ 396072.634791454707738, 3787452.390640895348042 ], [ 396072.329603255318943, 3787452.695829094387591 ], [ 396072.329603255318943, 3787453.001017293892801 ], [ 396071.719226856541354, 3787453.611393692903221 ], [ 396071.41403865715256, 3787453.611393692903221 ], [ 396071.108850457763765, 3787453.916581891942769 ], [ 396070.80366225837497, 3787453.916581891942769 ], [ 396070.498474058986176, 3787454.221770091447979 ], [ 396069.582909460819792, 3787454.221770091447979 ] ] ] } },
{ "type": "Feature", "properties": { "confidence": 0.72900676727294922, "class": 1 }, "geometry": { "type": "Polygon", "coordinates": [ [ [ 396444.3540183113073, 3787455.442522889003158 ], [ 396444.048830111918505, 3787455.137334689497948 ], [ 396443.743641912529711, 3787455.137334689497948 ], [ 396443.743641912529711, 3787453.611393692903221 ], [ 396444.048830111918505, 3787453.611393692903221 ], [ 396444.659206510696094, 3787453.001017293892801 ], [ 396444.659206510696094, 3787450.559511698782444 ], [ 396445.269582909473684, 3787449.949135300237685 ], [ 396445.574771108862478, 3787449.949135300237685 ], [ 396445.879959308251273, 3787449.643947100732476 ], [ 396448.931841302139219, 3787449.643947100732476 ], [ 396449.237029501528013, 3787449.338758901227266 ], [ 396449.542217700916808, 3787449.338758901227266 ], [ 396449.847405900305603, 3787449.033570701722056 ], [ 396450.457782299083192, 3787449.033570701722056 ], [ 396450.762970498471987, 3787449.338758901227266 ], [ 396451.373346897249576, 3787449.338758901227266 ], [ 396451.67853509663837, 3787449.643947100732476 ], [ 396451.67853509663837, 3787449.949135300237685 ], [ 396451.983723296027165, 3787450.254323499277234 ], [ 396451.67853509663837, 3787450.559511698782444 ], [ 396451.67853509663837, 3787450.864699898287654 ], [ 396450.457782299083192, 3787452.085452695842832 ], [ 396450.457782299083192, 3787452.390640895348042 ], [ 396450.152594099694397, 3787452.695829094387591 ], [ 396450.152594099694397, 3787453.306205493398011 ], [ 396449.542217700916808, 3787453.916581891942769 ], [ 396449.542217700916808, 3787454.221770091447979 ], [ 396448.931841302139219, 3787454.832146490458399 ], [ 396448.626653102750424, 3787454.832146490458399 ], [ 396448.32146490336163, 3787455.137334689497948 ], [ 396447.71108850458404, 3787455.137334689497948 ], [ 396447.405900305195246, 3787455.442522889003158 ], [ 396444.3540183113073, 3787455.442522889003158 ] ] ] } },
{ "type": "Feature", "properties": { "confidence": 0.66190886497497559, "class": 1 }, "geometry": { "type": "Polygon", "coordinates": [ [ [ 396066.531027466931846, 3787482.299084435217083 ], [ 396066.225839267543051, 3787481.993896236177534 ], [ 396066.225839267543051, 3787479.857578840106726 ], [ 396066.531027466931846, 3787479.552390641067177 ], [ 396066.531027466931846, 3787479.247202441561967 ], [ 396066.836215666320641, 3787478.942014242056757 ], [ 396066.836215666320641, 3787476.80569684645161 ], [ 396067.141403865709435, 3787476.5005086469464 ], [ 396067.141403865709435, 3787476.19532044744119 ], [ 396067.44659206509823, 3787475.890132248401642 ], [ 396067.751780264487024, 3787475.890132248401642 ], [ 396068.362156663264614, 3787475.279755849391222 ], [ 396068.667344862653408, 3787475.279755849391222 ], [ 396069.582909460819792, 3787474.364191251341254 ], [ 396070.80366225837497, 3787474.364191251341254 ], [ 396070.80366225837497, 3787474.669379450846463 ], [ 396071.108850457763765, 3787474.974567649886012 ], [ 396071.108850457763765, 3787476.19532044744119 ], [ 396071.41403865715256, 3787476.5005086469464 ], [ 396071.41403865715256, 3787480.773143438622355 ], [ 396071.108850457763765, 3787481.078331637661904 ], [ 396071.108850457763765, 3787481.383519837167114 ], [ 396070.80366225837497, 3787481.688708036672324 ], [ 396070.498474058986176, 3787481.688708036672324 ], [ 396070.193285859597381, 3787481.993896236177534 ], [ 396069.277721261430997, 3787481.993896236177534 ], [ 396068.972533062042203, 3787481.688708036672324 ], [ 396068.056968463875819, 3787481.688708036672324 ], [ 396067.751780264487024, 3787481.993896236177534 ], [ 396067.44659206509823, 3787481.993896236177534 ], [ 396067.141403865709435, 3787482.299084435217083 ], [ 396066.531027466931846, 3787482.299084435217083 ] ] ] } },
{ "type": "Feature", "properties": { "confidence": 0.65916013717651367, "class": 1 }, "geometry": { "type": "Polygon", "coordinates": [ [ [ 396037.538148524938151, 3787412.410986775066704 ], [ 396037.232960325549357, 3787412.105798575561494 ], [ 396036.927772126160562, 3787412.105798575561494 ], [ 396036.622583926771767, 3787411.800610376521945 ], [ 396036.317395727382973, 3787411.800610376521945 ], [ 396035.707019328605384, 3787411.190233977511525 ], [ 396035.707019328605384, 3787410.274669379461557 ], [ 396036.012207527994178, 3787410.274669379461557 ], [ 396036.317395727382973, 3787409.969481179956347 ], [ 396036.317395727382973, 3787409.664292980451137 ], [ 396040.590030518826097, 3787409.664292980451137 ], [ 396040.590030518826097, 3787409.969481179956347 ], [ 396040.895218718214892, 3787410.274669379461557 ], [ 396041.505595116992481, 3787410.274669379461557 ], [ 396041.505595116992481, 3787410.579857578966767 ], [ 396041.200406917603686, 3787410.885045778006315 ], [ 396041.200406917603686, 3787411.495422177016735 ], [ 396040.590030518826097, 3787412.105798575561494 ], [ 396038.75890132249333, 3787412.105798575561494 ], [ 396038.453713123104535, 3787412.410986775066704 ], [ 396037.538148524938151, 3787412.410986775066704 ] ] ] } },
{ "type": "Feature", "properties": { "confidence": 0.65370392799377441, "class": 1 }, "geometry": { "type": "Polygon", "coordinates": [ [ [ 396236.826042726344895, 3787411.190233977511525 ], [ 396236.5208545269561, 3787410.885045778006315 ], [ 396236.5208545269561, 3787409.053916581906378 ], [ 396236.826042726344895, 3787408.748728382401168 ], [ 396236.826042726344895, 3787408.443540182895958 ], [ 396237.131230925733689, 3787408.13835198385641 ], [ 396237.131230925733689, 3787407.8331637843512 ], [ 396237.436419125122484, 3787407.52797558484599 ], [ 396237.436419125122484, 3787407.22278738534078 ], [ 396237.741607324511278, 3787406.917599186301231 ], [ 396238.046795523900073, 3787406.917599186301231 ], [ 396238.657171922677662, 3787406.307222787290812 ], [ 396239.877924720232841, 3787406.307222787290812 ], [ 396240.183112919621635, 3787406.612410986796021 ], [ 396240.48830111901043, 3787406.612410986796021 ], [ 396240.793489318399224, 3787406.917599186301231 ], [ 396240.793489318399224, 3787407.52797558484599 ], [ 396240.48830111901043, 3787407.8331637843512 ], [ 396240.48830111901043, 3787408.13835198385641 ], [ 396240.183112919621635, 3787408.13835198385641 ], [ 396239.877924720232841, 3787408.443540182895958 ], [ 396239.877924720232841, 3787408.748728382401168 ], [ 396239.572736520844046, 3787409.053916581906378 ], [ 396239.267548321455251, 3787409.053916581906378 ], [ 396238.351983723288868, 3787409.969481179956347 ], [ 396238.351983723288868, 3787410.274669379461557 ], [ 396237.741607324511278, 3787410.885045778006315 ], [ 396237.436419125122484, 3787410.885045778006315 ], [ 396237.131230925733689, 3787411.190233977511525 ], [ 396236.826042726344895, 3787411.190233977511525 ] ] ] } },
{ "type": "Feature", "properties": { "confidence": 0.64795911312103271, "class": 1 }, "geometry": { "type": "Polygon", "coordinates": [ [ [ 396376.297049847431481, 3787376.093591047916561 ], [ 396375.686673448653892, 3787375.483214648906142 ], [ 396375.686673448653892, 3787374.262461851350963 ], [ 396375.991861648042686, 3787373.957273652311414 ], [ 396375.991861648042686, 3787371.210579857695848 ], [ 396375.686673448653892, 3787370.905391658190638 ], [ 396375.991861648042686, 3787370.600203458685428 ], [ 396375.991861648042686, 3787370.295015259180218 ], [ 396376.297049847431481, 3787370.295015259180218 ], [ 396376.90742624620907, 3787369.684638860635459 ], [ 396377.517802644986659, 3787369.684638860635459 ], [ 396377.822990844375454, 3787369.37945066113025 ], [ 396378.433367243153043, 3787369.37945066113025 ], [ 396379.043743641930632, 3787368.769074262585491 ], [ 396379.348931841319427, 3787368.769074262585491 ], [ 396379.654120040708221, 3787368.463886063080281 ], [ 396379.959308240097016, 3787368.463886063080281 ], [ 396380.264496439485811, 3787368.158697863575071 ], [ 396382.095625635818578, 3787368.158697863575071 ], [ 396382.400813835207373, 3787367.853509664069861 ], [ 396382.706002034596168, 3787367.853509664069861 ], [ 396383.011190233984962, 3787368.158697863575071 ], [ 396383.316378433373757, 3787368.158697863575071 ], [ 396383.316378433373757, 3787371.210579857695848 ], [ 396383.011190233984962, 3787371.515768057201058 ], [ 396383.011190233984962, 3787371.820956256240606 ], [ 396382.706002034596168, 3787372.126144455745816 ], [ 396382.706002034596168, 3787372.431332655251026 ], [ 396382.400813835207373, 3787372.431332655251026 ], [ 396382.095625635818578, 3787372.736520854756236 ], [ 396381.790437436429784, 3787372.736520854756236 ], [ 396381.180061037652194, 3787373.346897253300995 ], [ 396380.8748728382634, 3787373.346897253300995 ], [ 396380.569684638874605, 3787373.652085452806205 ], [ 396380.264496439485811, 3787373.652085452806205 ], [ 396378.128179043764248, 3787375.788402848411351 ], [ 396377.517802644986659, 3787375.788402848411351 ], [ 396377.212614445597865, 3787376.093591047916561 ], [ 396376.297049847431481, 3787376.093591047916561 ] ] ] } },
{ "type": "Feature", "properties": { "confidence": 0.58218514919281006, "class": 1 }, "geometry": { "type": "Polygon", "coordinates": [ [ [ 396094.608341810759157, 3787485.350966429337859 ], [ 396094.608341810759157, 3787484.130213631782681 ], [ 396094.913530010147952, 3787483.825025432277471 ], [ 396094.913530010147952, 3787483.519837232772261 ], [ 396096.439471007150132, 3787481.993896236177534 ], [ 396096.744659206538927, 3787481.993896236177534 ], [ 396097.660223804705311, 3787481.078331637661904 ], [ 396097.660223804705311, 3787480.773143438622355 ], [ 396097.965412004094105, 3787480.467955239117146 ], [ 396097.965412004094105, 3787479.857578840106726 ], [ 396098.2706002034829, 3787479.857578840106726 ], [ 396099.186164801649284, 3787478.942014242056757 ], [ 396099.491353001038078, 3787478.942014242056757 ], [ 396099.796541200426873, 3787478.636826042551547 ], [ 396099.796541200426873, 3787478.331637843511999 ], [ 396101.322482197370846, 3787478.331637843511999 ], [ 396101.62767039675964, 3787478.026449644006789 ], [ 396101.932858596148435, 3787478.026449644006789 ], [ 396102.23804679553723, 3787477.721261444501579 ], [ 396103.153611393703613, 3787477.721261444501579 ], [ 396103.458799593092408, 3787477.416073244996369 ], [ 396103.763987792481203, 3787477.721261444501579 ], [ 396104.069175991869997, 3787477.721261444501579 ], [ 396104.069175991869997, 3787478.026449644006789 ], [ 396103.763987792481203, 3787478.331637843511999 ], [ 396103.763987792481203, 3787478.942014242056757 ], [ 396103.153611393703613, 3787479.552390641067177 ], [ 396103.153611393703613, 3787479.857578840106726 ], [ 396102.543234994926024, 3787480.467955239117146 ], [ 396102.543234994926024, 3787480.773143438622355 ], [ 396100.712105798593257, 3787482.604272634722292 ], [ 396100.712105798593257, 3787482.909460834227502 ], [ 396099.186164801649284, 3787484.435401831287891 ], [ 396098.880976602260489, 3787484.435401831287891 ], [ 396098.575788402871694, 3787484.740590030327439 ], [ 396098.2706002034829, 3787484.740590030327439 ], [ 396097.965412004094105, 3787485.045778229832649 ], [ 396096.744659206538927, 3787485.045778229832649 ], [ 396096.439471007150132, 3787485.350966429337859 ], [ 396094.608341810759157, 3787485.350966429337859 ] ] ] } },
{ "type": "Feature", "properties": { "confidence": 0.56489324569702148, "class": 1 }, "geometry": { "type": "Polygon", "coordinates": [ [ [ 396523.702950152568519, 3787387.690742624457926 ], [ 396523.397761953179725, 3787387.385554425418377 ], [ 396523.09257375379093, 3787387.385554425418377 ], [ 396522.787385554402135, 3787387.080366225913167 ], [ 396522.787385554402135, 3787386.775178026407957 ], [ 396522.482197355013341, 3787386.469989826902747 ], [ 396522.482197355013341, 3787384.02848423179239 ], [ 396522.787385554402135, 3787383.723296032752842 ], [ 396522.787385554402135, 3787381.586978636682034 ], [ 396523.09257375379093, 3787381.281790437642485 ], [ 396523.09257375379093, 3787380.976602238137275 ], [ 396523.397761953179725, 3787380.671414038632065 ], [ 396523.702950152568519, 3787380.671414038632065 ], [ 396525.2288911495707, 3787379.145473041571677 ], [ 396525.2288911495707, 3787378.535096643026918 ], [ 396525.534079348959494, 3787378.229908443521708 ], [ 396525.534079348959494, 3787377.924720244016498 ], [ 396526.144455747737084, 3787377.31434384547174 ], [ 396527.060020345903467, 3787377.31434384547174 ], [ 396527.365208545292262, 3787377.00915564596653 ], [ 396528.58596134284744, 3787377.00915564596653 ], [ 396528.891149542236235, 3787376.70396744646132 ], [ 396530.417090539180208, 3787376.70396744646132 ], [ 396530.722278738569003, 3787377.00915564596653 ], [ 396531.027466937957797, 3787377.00915564596653 ], [ 396531.332655137346592, 3787377.31434384547174 ], [ 396531.637843336735386, 3787377.31434384547174 ], [ 396531.637843336735386, 3787377.61953204497695 ], [ 396532.248219735512976, 3787378.229908443521708 ], [ 396532.248219735512976, 3787379.145473041571677 ], [ 396532.55340793490177, 3787379.450661241076887 ], [ 396532.55340793490177, 3787381.586978636682034 ], [ 396532.248219735512976, 3787381.892166836187243 ], [ 396532.248219735512976, 3787382.807731434237212 ], [ 396531.943031536124181, 3787383.112919633742422 ], [ 396531.943031536124181, 3787383.418107833247632 ], [ 396531.637843336735386, 3787383.418107833247632 ], [ 396531.027466937957797, 3787384.02848423179239 ], [ 396531.027466937957797, 3787384.3336724312976 ], [ 396530.417090539180208, 3787384.94404883030802 ], [ 396530.417090539180208, 3787385.249237029347569 ], [ 396530.111902339791413, 3787385.554425228852779 ], [ 396530.111902339791413, 3787386.469989826902747 ], [ 396529.806714140402619, 3787386.775178026407957 ], [ 396529.501525941013824, 3787386.775178026407957 ], [ 396529.19633774162503, 3787387.080366225913167 ], [ 396528.280773143458646, 3787387.080366225913167 ], [ 396527.975584944069851, 3787387.385554425418377 ], [ 396527.060020345903467, 3787387.385554425418377 ], [ 396526.754832146514673, 3787387.690742624457926 ], [ 396523.702950152568519, 3787387.690742624457926 ] ] ] } },
{ "type": "Feature", "properties": { "confidence": 0.55002272129058838, "class": 1 }, "geometry": { "type": "Polygon", "coordinates": [ [ [ 396261.24109867750667, 3787336.419125127140433 ], [ 396260.935910478117876, 3787336.113936927635223 ], [ 396260.020345879951492, 3787336.113936927635223 ], [ 396259.715157680562697, 3787335.808748728595674 ], [ 396259.409969481173903, 3787335.808748728595674 ], [ 396258.799593082396314, 3787335.198372329585254 ], [ 396258.189216683618724, 3787335.198372329585254 ], [ 396257.88402848422993, 3787334.893184130080044 ], [ 396257.578840284841135, 3787334.893184130080044 ], [ 396257.273652085452341, 3787334.587995931040496 ], [ 396256.968463886063546, 3787334.587995931040496 ], [ 396256.358087487285957, 3787333.977619532030076 ], [ 396256.358087487285957, 3787333.062054933980107 ], [ 396256.052899287897162, 3787332.756866734474897 ], [ 396256.052899287897162, 3787332.146490335930139 ], [ 396255.747711088508368, 3787331.841302136424929 ], [ 396255.747711088508368, 3787329.094608341809362 ], [ 396255.442522889119573, 3787328.789420142304152 ], [ 396255.442522889119573, 3787326.042726347688586 ], [ 396255.747711088508368, 3787325.737538148649037 ], [ 396255.747711088508368, 3787325.432349949143827 ], [ 396256.052899287897162, 3787325.432349949143827 ], [ 396256.358087487285957, 3787325.127161749638617 ], [ 396257.273652085452341, 3787325.127161749638617 ], [ 396257.578840284841135, 3787324.821973550133407 ], [ 396257.88402848422993, 3787325.127161749638617 ], [ 396258.799593082396314, 3787325.127161749638617 ], [ 396258.799593082396314, 3787325.737538148649037 ], [ 396259.104781281785108, 3787326.042726347688586 ], [ 396262.461851475061849, 3787326.042726347688586 ], [ 396262.767039674450643, 3787326.347914547193795 ], [ 396263.072227873839438, 3787326.347914547193795 ], [ 396263.682604272617027, 3787326.958290946204215 ], [ 396263.987792472005822, 3787326.958290946204215 ], [ 396264.903357070172206, 3787327.873855544254184 ], [ 396265.208545269561, 3787327.873855544254184 ], [ 396265.818921668338589, 3787328.484231942798942 ], [ 396265.818921668338589, 3787329.704984740819782 ], [ 396265.513733468949795, 3787330.010172939859331 ], [ 396265.513733468949795, 3787330.62054933886975 ], [ 396265.818921668338589, 3787330.92573753837496 ], [ 396265.818921668338589, 3787331.536113936919719 ], [ 396266.124109867727384, 3787331.841302136424929 ], [ 396266.124109867727384, 3787333.977619532030076 ], [ 396265.818921668338589, 3787334.282807731535286 ], [ 396265.818921668338589, 3787335.198372329585254 ], [ 396264.903357070172206, 3787336.113936927635223 ], [ 396264.598168870783411, 3787336.113936927635223 ], [ 396264.292980671394616, 3787336.419125127140433 ], [ 396261.24109867750667, 3787336.419125127140433 ] ] ] } },
{ "type": "Feature", "properties": { "confidence": 0.48940771818161011, "class": 1 }, "geometry": { "type": "Polygon", "coordinates": [ [ [ 396269.786368260451127, 3787393.184130213689059 ], [ 396269.786368260451127, 3787391.963377416133881 ], [ 396270.091556459839921, 3787391.658189216628671 ], [ 396270.091556459839921, 3787391.047812818083912 ], [ 396271.3123092573951, 3787389.827060020528734 ], [ 396271.617497456783894, 3787389.827060020528734 ], [ 396271.922685656172689, 3787389.521871821023524 ], [ 396272.227873855561484, 3787389.521871821023524 ], [ 396272.533062054950278, 3787389.216683621518314 ], [ 396272.838250254339073, 3787389.216683621518314 ], [ 396273.143438453727867, 3787388.911495422013104 ], [ 396273.753814852505457, 3787388.911495422013104 ], [ 396274.364191251283046, 3787388.301119023468345 ], [ 396275.27975584944943, 3787388.301119023468345 ], [ 396275.890132248227019, 3787388.911495422013104 ], [ 396276.195320447615813, 3787388.911495422013104 ], [ 396276.500508647004608, 3787389.216683621518314 ], [ 396276.805696846393403, 3787389.216683621518314 ], [ 396276.805696846393403, 3787389.827060020528734 ], [ 396276.195320447615813, 3787390.437436419073492 ], [ 396275.890132248227019, 3787390.437436419073492 ], [ 396275.584944048838224, 3787390.742624618578702 ], [ 396275.27975584944943, 3787390.742624618578702 ], [ 396274.974567650060635, 3787391.047812818083912 ], [ 396274.66937945067184, 3787391.047812818083912 ], [ 396274.059003051894251, 3787391.658189216628671 ], [ 396273.753814852505457, 3787391.658189216628671 ], [ 396273.143438453727867, 3787392.268565615639091 ], [ 396272.838250254339073, 3787392.268565615639091 ], [ 396272.533062054950278, 3787392.573753814678639 ], [ 396271.922685656172689, 3787392.573753814678639 ], [ 396271.617497456783894, 3787392.878942014183849 ], [ 396271.3123092573951, 3787392.878942014183849 ], [ 396271.007121058006305, 3787393.184130213689059 ], [ 396269.786368260451127, 3787393.184130213689059 ] ] ] } },
{ "type": "Feature", "properties": { "confidence": 0.46700486540794373, "class": 1 }, "geometry": { "type": "Polygon", "coordinates": [ [ [ 396367.44659206509823, 3787394.710071210749447 ], [ 396367.44659206509823, 3787394.404883011244237 ], [ 396367.141403865709435, 3787394.099694811739028 ], [ 396367.141403865709435, 3787393.794506612233818 ], [ 396366.836215666320641, 3787393.489318413194269 ], [ 396366.836215666320641, 3787393.184130213689059 ], [ 396366.531027466931846, 3787392.878942014183849 ], [ 396366.531027466931846, 3787392.573753814678639 ], [ 396365.615462868765462, 3787391.658189216628671 ], [ 396365.615462868765462, 3787391.353001017123461 ], [ 396365.310274669376668, 3787391.047812818083912 ], [ 396365.310274669376668, 3787390.742624618578702 ], [ 396365.005086469987873, 3787390.437436419073492 ], [ 396365.005086469987873, 3787389.521871821023524 ], [ 396364.699898270599078, 3787389.216683621518314 ], [ 396364.699898270599078, 3787388.911495422013104 ], [ 396364.394710071210284, 3787388.606307222973555 ], [ 396364.394710071210284, 3787387.690742624457926 ], [ 396364.089521871821489, 3787387.385554425418377 ], [ 396364.089521871821489, 3787387.080366225913167 ], [ 396363.784333672432695, 3787386.775178026407957 ], [ 396363.784333672432695, 3787385.859613428357989 ], [ 396363.4791454730439, 3787385.554425228852779 ], [ 396364.089521871821489, 3787384.94404883030802 ], [ 396364.394710071210284, 3787384.94404883030802 ], [ 396364.699898270599078, 3787384.63886063080281 ], [ 396365.310274669376668, 3787384.63886063080281 ], [ 396365.615462868765462, 3787384.3336724312976 ], [ 396365.920651068154257, 3787384.3336724312976 ], [ 396366.225839267543051, 3787384.02848423179239 ], [ 396366.225839267543051, 3787383.723296032752842 ], [ 396366.531027466931846, 3787383.723296032752842 ], [ 396366.836215666320641, 3787383.418107833247632 ], [ 396369.277721261430997, 3787383.418107833247632 ], [ 396369.277721261430997, 3787383.723296032752842 ], [ 396369.582909460819792, 3787384.02848423179239 ], [ 396369.582909460819792, 3787387.385554425418377 ], [ 396369.888097660208587, 3787387.690742624457926 ], [ 396369.888097660208587, 3787387.995930823963135 ], [ 396370.193285859597381, 3787388.301119023468345 ], [ 396370.193285859597381, 3787389.216683621518314 ], [ 396370.498474058986176, 3787389.521871821023524 ], [ 396370.498474058986176, 3787392.268565615639091 ], [ 396370.193285859597381, 3787392.573753814678639 ], [ 396370.193285859597381, 3787393.794506612233818 ], [ 396369.582909460819792, 3787394.404883011244237 ], [ 396369.582909460819792, 3787394.710071210749447 ], [ 396367.44659206509823, 3787394.710071210749447 ] ] ] } },
{ "type": "Feature", "properties": { "confidence": 0.46220636367797852, "class": 1 }, "geometry": { "type": "Polygon", "coordinates": [ [ [ 396353.713123092602473, 3787653.50966429291293 ], [ 396353.102746693766676, 3787652.899287894368172 ], [ 396353.40793489315547, 3787652.594099694862962 ], [ 396353.40793489315547, 3787649.542217700742185 ], [ 396354.018311291991267, 3787648.931841302197427 ], [ 396354.323499491380062, 3787648.931841302197427 ], [ 396355.239064089546446, 3787648.016276704147458 ], [ 396355.54425228893524, 3787648.016276704147458 ], [ 396355.849440488324035, 3787647.711088504642248 ], [ 396355.849440488324035, 3787647.405900305137038 ], [ 396356.459816887101624, 3787646.79552390659228 ], [ 396356.459816887101624, 3787646.49033570708707 ], [ 396356.765005086490419, 3787646.18514750758186 ], [ 396358.596134282823186, 3787646.18514750758186 ], [ 396360.122075279767159, 3787647.711088504642248 ], [ 396360.122075279767159, 3787648.931841302197427 ], [ 396358.596134282823186, 3787650.457782299257815 ], [ 396358.596134282823186, 3787650.762970498297364 ], [ 396357.680569684656803, 3787651.678535096812993 ], [ 396357.375381485268008, 3787651.678535096812993 ], [ 396357.070193285879213, 3787651.983723295852542 ], [ 396356.765005086490419, 3787651.983723295852542 ], [ 396356.459816887101624, 3787652.288911495357752 ], [ 396356.15462868771283, 3787652.288911495357752 ], [ 396355.849440488324035, 3787652.594099694862962 ], [ 396355.54425228893524, 3787652.594099694862962 ], [ 396354.933875890157651, 3787653.20447609340772 ], [ 396354.628687690768857, 3787653.20447609340772 ], [ 396354.323499491380062, 3787653.50966429291293 ], [ 396353.713123092602473, 3787653.50966429291293 ] ] ] } },
{ "type": "Feature", "properties": { "confidence": 0.45716956257820129, "class": 1 }, "geometry": { "type": "Polygon", "coordinates": [ [ [ 396304.883011190220714, 3787323.601220752578229 ], [ 396304.577822990831919, 3787323.29603255353868 ], [ 396304.272634791443124, 3787323.29603255353868 ], [ 396303.662258392665535, 3787322.68565615452826 ], [ 396303.662258392665535, 3787322.075279755983502 ], [ 396303.357070193276741, 3787321.770091556478292 ], [ 396303.357070193276741, 3787320.854526958428323 ], [ 396303.051881993887946, 3787320.549338758923113 ], [ 396303.051881993887946, 3787317.802644964307547 ], [ 396303.357070193276741, 3787317.497456764802337 ], [ 396303.357070193276741, 3787317.192268565762788 ], [ 396303.662258392665535, 3787316.887080366257578 ], [ 396305.493387588998303, 3787316.887080366257578 ], [ 396305.798575788387097, 3787317.192268565762788 ], [ 396307.32451678533107, 3787317.192268565762788 ], [ 396307.93489318410866, 3787317.802644964307547 ], [ 396307.93489318410866, 3787318.107833163812757 ], [ 396308.240081383497454, 3787318.413021363317966 ], [ 396308.240081383497454, 3787318.718209562357515 ], [ 396308.850457782275043, 3787319.328585961367935 ], [ 396308.850457782275043, 3787319.633774160873145 ], [ 396309.155645981663838, 3787319.938962359912694 ], [ 396309.155645981663838, 3787320.549338758923113 ], [ 396309.460834181052633, 3787320.854526958428323 ], [ 396309.460834181052633, 3787322.075279755983502 ], [ 396308.850457782275043, 3787322.68565615452826 ], [ 396308.545269582886249, 3787322.68565615452826 ], [ 396308.240081383497454, 3787322.99084435403347 ], [ 396307.93489318410866, 3787322.99084435403347 ], [ 396307.629704984719865, 3787323.29603255353868 ], [ 396305.798575788387097, 3787323.29603255353868 ], [ 396305.493387588998303, 3787323.601220752578229 ], [ 396304.883011190220714, 3787323.601220752578229 ] ] ] } },
{ "type": "Feature", "properties": { "confidence": 0.44633257389068604, "class": 1 }, "geometry": { "type": "Polygon", "coordinates": [ [ [ 396212.105798575794324, 3787315.6663275687024 ], [ 396211.80061037640553, 3787315.36113936919719 ], [ 396209.969481180072762, 3787315.36113936919719 ], [ 396209.053916581906378, 3787314.445574771147221 ], [ 396209.053916581906378, 3787312.309257375542074 ], [ 396208.443540183128789, 3787311.698880976531655 ], [ 396208.443540183128789, 3787311.393692777026445 ], [ 396208.138351983739994, 3787311.088504577986896 ], [ 396208.138351983739994, 3787310.783316378481686 ], [ 396208.443540183128789, 3787310.478128178976476 ], [ 396208.443540183128789, 3787310.172939979471266 ], [ 396208.748728382517584, 3787310.172939979471266 ], [ 396209.359104781295173, 3787309.562563580926508 ], [ 396209.664292980683967, 3787309.562563580926508 ], [ 396209.969481180072762, 3787309.257375381421298 ], [ 396210.885045778239146, 3787309.257375381421298 ], [ 396211.495422177016735, 3787308.646998982876539 ], [ 396212.105798575794324, 3787309.257375381421298 ], [ 396212.105798575794324, 3787309.562563580926508 ], [ 396214.242115971515886, 3787311.698880976531655 ], [ 396214.242115971515886, 3787312.004069176036865 ], [ 396214.852492370293476, 3787312.614445574581623 ], [ 396214.852492370293476, 3787313.530010173097253 ], [ 396214.547304170904681, 3787313.835198372136801 ], [ 396214.547304170904681, 3787314.750762970652431 ], [ 396214.852492370293476, 3787315.05595116969198 ], [ 396214.547304170904681, 3787315.36113936919719 ], [ 396214.547304170904681, 3787315.6663275687024 ], [ 396212.105798575794324, 3787315.6663275687024 ] ] ] } },
{ "type": "Feature", "properties": { "confidence": 0.43286260962486267, "class": 1 }, "geometry": { "type": "Polygon", "coordinates": [ [ [ 396402.848423194314819, 3787447.202441505622119 ], [ 396402.543234994926024, 3787446.897253306116909 ], [ 396402.543234994926024, 3787446.592065106611699 ], [ 396401.932858596148435, 3787445.98168870806694 ], [ 396401.932858596148435, 3787445.67650050856173 ], [ 396402.543234994926024, 3787445.066124110016972 ], [ 396402.543234994926024, 3787444.760935910511762 ], [ 396404.679552390647586, 3787442.624618514906615 ], [ 396404.984740590036381, 3787442.624618514906615 ], [ 396405.59511698881397, 3787442.014242115896195 ], [ 396406.205493387591559, 3787442.014242115896195 ], [ 396406.510681586980354, 3787441.709053916390985 ], [ 396406.815869786369149, 3787441.709053916390985 ], [ 396407.121057985757943, 3787441.403865717351437 ], [ 396407.426246185146738, 3787441.403865717351437 ], [ 396407.731434384535532, 3787441.098677517846227 ], [ 396408.036622583924327, 3787441.098677517846227 ], [ 396408.341810783313122, 3787440.793489318341017 ], [ 396408.952187182090711, 3787440.793489318341017 ], [ 396409.5625635808683, 3787440.183112919796258 ], [ 396409.867751780257095, 3787440.183112919796258 ], [ 396410.172939979645889, 3787439.877924720291048 ], [ 396410.478128179034684, 3787439.877924720291048 ], [ 396410.783316378423478, 3787439.572736520785838 ], [ 396411.393692777201068, 3787439.572736520785838 ], [ 396411.698880976589862, 3787439.267548321280628 ], [ 396412.614445574756246, 3787439.267548321280628 ], [ 396413.224821973533835, 3787439.877924720291048 ], [ 396413.224821973533835, 3787440.488301118835807 ], [ 396413.53001017292263, 3787440.793489318341017 ], [ 396413.224821973533835, 3787441.098677517846227 ], [ 396413.224821973533835, 3787442.014242115896195 ], [ 396412.919633774145041, 3787442.319430315401405 ], [ 396412.919633774145041, 3787442.624618514906615 ], [ 396412.309257375367451, 3787443.234994913451374 ], [ 396412.309257375367451, 3787443.540183112956583 ], [ 396412.004069175978657, 3787443.540183112956583 ], [ 396411.698880976589862, 3787443.845371312461793 ], [ 396411.698880976589862, 3787444.150559511501342 ], [ 396410.172939979645889, 3787445.67650050856173 ], [ 396409.867751780257095, 3787445.67650050856173 ], [ 396409.5625635808683, 3787445.98168870806694 ], [ 396408.341810783313122, 3787445.98168870806694 ], [ 396408.036622583924327, 3787446.28687690757215 ], [ 396406.815869786369149, 3787446.28687690757215 ], [ 396406.510681586980354, 3787446.592065106611699 ], [ 396405.59511698881397, 3787446.592065106611699 ], [ 396405.289928789425176, 3787446.897253306116909 ], [ 396403.763987792481203, 3787446.897253306116909 ], [ 396403.458799593092408, 3787447.202441505622119 ], [ 396402.848423194314819, 3787447.202441505622119 ] ] ] } },
{ "type": "Feature", "properties": { "confidence": 0.40735843777656555, "class": 1 }, "geometry": { "type": "Polygon", "coordinates": [ [ [ 396269.786368260451127, 3787393.489318413194269 ], [ 396269.175991861673538, 3787392.878942014183849 ], [ 396269.481180061062332, 3787392.573753814678639 ], [ 396269.481180061062332, 3787391.658189216628671 ], [ 396270.396744659228716, 3787390.742624618578702 ], [ 396270.396744659228716, 3787390.437436419073492 ], [ 396271.007121058006305, 3787389.827060020528734 ], [ 396271.007121058006305, 3787389.521871821023524 ], [ 396271.3123092573951, 3787389.521871821023524 ], [ 396271.617497456783894, 3787389.216683621518314 ], [ 396272.533062054950278, 3787389.216683621518314 ], [ 396273.143438453727867, 3787388.606307222973555 ], [ 396273.143438453727867, 3787392.878942014183849 ], [ 396271.617497456783894, 3787392.878942014183849 ], [ 396271.3123092573951, 3787393.184130213689059 ], [ 396271.007121058006305, 3787393.184130213689059 ], [ 396270.701932858617511, 3787393.489318413194269 ], [ 396269.786368260451127, 3787393.489318413194269 ] ] ] } },
{ "type": "Feature", "properties": { "confidence": 0.39474871754646301, "class": 1 }, "geometry": { "type": "Polygon", "coordinates": [ [ [ 396169.684638860635459, 3787413.326551373116672 ], [ 396169.989827060024254, 3787413.021363174077123 ], [ 396169.989827060024254, 3787410.274669379461557 ], [ 396169.684638860635459, 3787409.969481179956347 ], [ 396169.684638860635459, 3787409.664292980451137 ], [ 396175.178026449633762, 3787409.664292980451137 ], [ 396175.178026449633762, 3787409.969481179956347 ], [ 396174.872838250244968, 3787410.274669379461557 ], [ 396174.872838250244968, 3787410.579857578966767 ], [ 396174.262461851467378, 3787410.579857578966767 ], [ 396173.0417090539122, 3787411.800610376521945 ], [ 396172.736520854523405, 3787411.800610376521945 ], [ 396172.431332655134611, 3787412.105798575561494 ], [ 396172.126144455745816, 3787412.105798575561494 ], [ 396170.905391658190638, 3787413.326551373116672 ], [ 396169.684638860635459, 3787413.326551373116672 ] ] ] } },
{ "type": "Feature", "properties": { "confidence": 0.38036432862281799, "class": 1 }, "geometry": { "type": "Polygon", "coordinates": [ [ [ 396373.245167853485327, 3787450.254323499277234 ], [ 396372.939979654096533, 3787449.949135300237685 ], [ 396372.634791454707738, 3787449.949135300237685 ], [ 396372.634791454707738, 3787449.033570701722056 ], [ 396372.329603255318943, 3787448.728382502682507 ], [ 396372.329603255318943, 3787447.812817904166877 ], [ 396372.024415055930149, 3787447.507629705127329 ], [ 396372.024415055930149, 3787446.897253306116909 ], [ 396372.634791454707738, 3787446.28687690757215 ], [ 396372.634791454707738, 3787445.37131230905652 ], [ 396373.245167853485327, 3787444.760935910511762 ], [ 396374.465920651040506, 3787444.760935910511762 ], [ 396375.076297049876302, 3787444.150559511501342 ], [ 396375.381485249265097, 3787444.150559511501342 ], [ 396375.991861648042686, 3787443.540183112956583 ], [ 396376.297049847431481, 3787443.540183112956583 ], [ 396376.602238046820275, 3787443.234994913451374 ], [ 396377.212614445597865, 3787443.234994913451374 ], [ 396377.517802644986659, 3787442.929806713946164 ], [ 396377.822990844375454, 3787442.929806713946164 ], [ 396378.128179043764248, 3787442.624618514906615 ], [ 396378.433367243153043, 3787442.624618514906615 ], [ 396379.654120040708221, 3787441.403865717351437 ], [ 396380.569684638874605, 3787441.403865717351437 ], [ 396380.8748728382634, 3787441.098677517846227 ], [ 396381.180061037652194, 3787441.403865717351437 ], [ 396381.180061037652194, 3787445.37131230905652 ], [ 396380.264496439485811, 3787446.28687690757215 ], [ 396380.264496439485811, 3787446.592065106611699 ], [ 396379.043743641930632, 3787447.812817904166877 ], [ 396379.043743641930632, 3787448.118006103672087 ], [ 396378.738555442541838, 3787448.423194303177297 ], [ 396378.738555442541838, 3787449.033570701722056 ], [ 396378.128179043764248, 3787449.643947100732476 ], [ 396377.822990844375454, 3787449.643947100732476 ], [ 396377.517802644986659, 3787449.949135300237685 ], [ 396376.602238046820275, 3787449.949135300237685 ], [ 396376.297049847431481, 3787450.254323499277234 ], [ 396373.245167853485327, 3787450.254323499277234 ] ] ] } },
{ "type": "Feature", "properties": { "confidence": 0.34632226824760437, "class": 1 }, "geometry": { "type": "Polygon", "coordinates": [ [ [ 396431.841302136308514, 3787413.631739572621882 ], [ 396431.841302136308514, 3787412.410986775066704 ], [ 396431.230925737530924, 3787411.800610376521945 ], [ 396430.92573753814213, 3787411.800610376521945 ], [ 396430.620549338753335, 3787411.495422177016735 ], [ 396430.620549338753335, 3787410.579857578966767 ], [ 396431.230925737530924, 3787409.969481179956347 ], [ 396431.230925737530924, 3787409.664292980451137 ], [ 396436.724313326529227, 3787409.664292980451137 ], [ 396436.724313326529227, 3787410.885045778006315 ], [ 396435.503560528974049, 3787412.105798575561494 ], [ 396435.198372329585254, 3787412.105798575561494 ], [ 396434.89318413019646, 3787412.410986775066704 ], [ 396434.587995930807665, 3787412.410986775066704 ], [ 396433.672431332641281, 3787413.326551373116672 ], [ 396433.672431332641281, 3787413.631739572621882 ], [ 396431.841302136308514, 3787413.631739572621882 ] ] ] } },
{ "type": "Feature", "properties": { "confidence": 0.34066644310951233, "class": 1 }, "geometry": { "type": "Polygon", "coordinates": [ [ [ 396237.131230925733689, 3787398.982706001959741 ], [ 396236.5208545269561, 3787398.372329603414983 ], [ 396236.5208545269561, 3787396.846388606354594 ], [ 396236.826042726344895, 3787396.541200406849384 ], [ 396236.826042726344895, 3787396.236012207344174 ], [ 396237.436419125122484, 3787395.625635808799416 ], [ 396237.741607324511278, 3787395.625635808799416 ], [ 396238.046795523900073, 3787395.320447609294206 ], [ 396238.351983723288868, 3787395.320447609294206 ], [ 396239.267548321455251, 3787394.404883011244237 ], [ 396239.267548321455251, 3787393.794506612233818 ], [ 396239.572736520844046, 3787393.489318413194269 ], [ 396239.572736520844046, 3787392.878942014183849 ], [ 396239.877924720232841, 3787392.573753814678639 ], [ 396239.877924720232841, 3787392.268565615639091 ], [ 396240.183112919621635, 3787392.268565615639091 ], [ 396240.48830111901043, 3787391.963377416133881 ], [ 396242.624618514731992, 3787391.963377416133881 ], [ 396242.624618514731992, 3787392.268565615639091 ], [ 396242.929806714120787, 3787392.573753814678639 ], [ 396242.929806714120787, 3787394.099694811739028 ], [ 396243.234994913509581, 3787394.404883011244237 ], [ 396243.234994913509581, 3787397.761953204404563 ], [ 396242.929806714120787, 3787398.067141403909773 ], [ 396242.929806714120787, 3787398.372329603414983 ], [ 396242.624618514731992, 3787398.677517802454531 ], [ 396239.572736520844046, 3787398.677517802454531 ], [ 396239.267548321455251, 3787398.982706001959741 ], [ 396237.131230925733689, 3787398.982706001959741 ] ] ] } },
{ "type": "Feature", "properties": { "confidence": 0.29768577218055725, "class": 1 }, "geometry": { "type": "Polygon", "coordinates": [ [ [ 396030.518819938937668, 3787314.445574771147221 ], [ 396030.213631739548873, 3787314.140386571642011 ], [ 396029.908443540160079, 3787314.140386571642011 ], [ 396029.603255340771284, 3787313.835198372136801 ], [ 396029.298067141382489, 3787313.835198372136801 ], [ 396028.6876907426049, 3787313.224821973592043 ], [ 396028.6876907426049, 3787312.614445574581623 ], [ 396028.077314343827311, 3787312.004069176036865 ], [ 396028.077314343827311, 3787310.478128178976476 ], [ 396028.6876907426049, 3787310.478128178976476 ], [ 396028.992878941993695, 3787310.172939979471266 ], [ 396032.655137334717438, 3787310.172939979471266 ], [ 396033.265513733495027, 3787310.783316378481686 ], [ 396033.265513733495027, 3787311.088504577986896 ], [ 396033.570701932883821, 3787311.393692777026445 ], [ 396033.570701932883821, 3787313.835198372136801 ], [ 396032.960325534106232, 3787314.445574771147221 ], [ 396030.518819938937668, 3787314.445574771147221 ] ] ] } },
{ "type": "Feature", "properties": { "confidence": 0.29251646995544434, "class": 1 }, "geometry": { "type": "Polygon", "coordinates": [ [ [ 396198.982706002017949, 3787363.886063072364777 ], [ 396198.982706002017949, 3787362.054933875799179 ], [ 396198.677517802629154, 3787361.749745676293969 ], [ 396198.982706002017949, 3787361.444557477254421 ], [ 396198.982706002017949, 3787361.139369277749211 ], [ 396199.898270600184333, 3787360.223804679699242 ], [ 396200.203458799573127, 3787360.223804679699242 ], [ 396200.813835198350716, 3787359.613428280688822 ], [ 396201.119023397739511, 3787359.613428280688822 ], [ 396202.034587995905895, 3787358.697863682638854 ], [ 396202.339776195294689, 3787358.697863682638854 ], [ 396202.950152594072279, 3787358.087487283628434 ], [ 396203.255340793461073, 3787358.087487283628434 ], [ 396203.86571719229687, 3787357.477110885083675 ], [ 396204.170905391685665, 3787357.477110885083675 ], [ 396204.476093591074459, 3787357.171922685578465 ], [ 396205.391658189240843, 3787357.171922685578465 ], [ 396205.696846388629638, 3787356.866734486073256 ], [ 396206.002034588018432, 3787357.171922685578465 ], [ 396206.612410986796021, 3787357.171922685578465 ], [ 396206.917599186184816, 3787357.477110885083675 ], [ 396206.917599186184816, 3787358.697863682638854 ], [ 396206.612410986796021, 3787359.003051882144064 ], [ 396206.612410986796021, 3787359.613428280688822 ], [ 396206.307222787407227, 3787359.918616480194032 ], [ 396206.002034588018432, 3787359.918616480194032 ], [ 396205.696846388629638, 3787360.223804679699242 ], [ 396205.696846388629638, 3787360.528992878738791 ], [ 396205.391658189240843, 3787360.528992878738791 ], [ 396204.476093591074459, 3787361.444557477254421 ], [ 396204.170905391685665, 3787361.444557477254421 ], [ 396202.950152594072279, 3787362.665310274809599 ], [ 396202.339776195294689, 3787362.665310274809599 ], [ 396202.034587995905895, 3787362.970498473849148 ], [ 396201.7293997965171, 3787362.970498473849148 ], [ 396201.424211597128306, 3787363.275686673354357 ], [ 396200.813835198350716, 3787363.275686673354357 ], [ 396200.508646998961922, 3787363.580874872859567 ], [ 396200.203458799573127, 3787363.580874872859567 ], [ 396199.898270600184333, 3787363.886063072364777 ], [ 396198.982706002017949, 3787363.886063072364777 ] ] ] } },
{ "type": "Feature", "properties": { "confidence": 0.27798831462860107, "class": 1 }, "geometry": { "type": "Polygon", "coordinates": [ [ [ 396106.815869786369149, 3787336.113936927635223 ], [ 396106.815869786369149, 3787335.808748728595674 ], [ 396106.205493387591559, 3787335.198372329585254 ], [ 396106.205493387591559, 3787334.893184130080044 ], [ 396105.900305188202765, 3787334.587995931040496 ], [ 396105.900305188202765, 3787333.672431332524866 ], [ 396106.205493387591559, 3787333.367243133485317 ], [ 396106.205493387591559, 3787332.451678534969687 ], [ 396105.900305188202765, 3787332.146490335930139 ], [ 396105.900305188202765, 3787330.92573753837496 ], [ 396105.59511698881397, 3787330.62054933886975 ], [ 396105.59511698881397, 3787330.010172939859331 ], [ 396105.289928789425176, 3787329.704984740819782 ], [ 396105.289928789425176, 3787328.484231942798942 ], [ 396106.205493387591559, 3787327.568667344748974 ], [ 396106.815869786369149, 3787327.568667344748974 ], [ 396107.121057985757943, 3787327.263479145243764 ], [ 396107.426246185146738, 3787327.263479145243764 ], [ 396107.731434384535532, 3787326.958290946204215 ], [ 396108.036622583924327, 3787326.958290946204215 ], [ 396108.646998982701916, 3787326.347914547193795 ], [ 396111.088504577812273, 3787326.347914547193795 ], [ 396111.393692777201068, 3787326.042726347688586 ], [ 396112.309257375367451, 3787326.042726347688586 ], [ 396112.614445574756246, 3787326.347914547193795 ], [ 396113.835198372311424, 3787326.347914547193795 ], [ 396114.140386571700219, 3787326.653102746699005 ], [ 396114.750762970477808, 3787326.653102746699005 ], [ 396114.750762970477808, 3787329.094608341809362 ], [ 396115.055951169866603, 3787329.399796541314572 ], [ 396115.055951169866603, 3787329.704984740819782 ], [ 396115.666327568644192, 3787330.315361139364541 ], [ 396115.666327568644192, 3787331.230925737414509 ], [ 396115.971515768032987, 3787331.536113936919719 ], [ 396115.971515768032987, 3787333.367243133485317 ], [ 396115.666327568644192, 3787333.672431332524866 ], [ 396115.666327568644192, 3787333.977619532030076 ], [ 396115.361139369255397, 3787334.282807731535286 ], [ 396115.055951169866603, 3787334.282807731535286 ], [ 396114.750762970477808, 3787334.587995931040496 ], [ 396114.445574771089014, 3787334.587995931040496 ], [ 396114.140386571700219, 3787334.893184130080044 ], [ 396113.53001017292263, 3787334.893184130080044 ], [ 396113.224821973533835, 3787335.198372329585254 ], [ 396112.309257375367451, 3787335.198372329585254 ], [ 396112.004069175978657, 3787335.503560529090464 ], [ 396110.783316378423478, 3787335.503560529090464 ], [ 396110.478128179034684, 3787335.808748728595674 ], [ 396108.952187182090711, 3787335.808748728595674 ], [ 396108.646998982701916, 3787336.113936927635223 ], [ 396106.815869786369149, 3787336.113936927635223 ] ] ] } },
{ "type": "Feature", "properties": { "confidence": 0.25522294640541077, "class": 1 }, "geometry": { "type": "Polygon", "coordinates": [ [ [ 396070.80366225837497, 3787343.438453712966293 ], [ 396070.80366225837497, 3787338.860630722250789 ], [ 396071.41403865715256, 3787338.250254323706031 ], [ 396071.719226856541354, 3787338.250254323706031 ], [ 396072.329603255318943, 3787337.639877924695611 ], [ 396072.634791454707738, 3787337.639877924695611 ], [ 396072.939979654096533, 3787337.334689725190401 ], [ 396075.076297049876302, 3787337.334689725190401 ], [ 396075.076297049876302, 3787337.639877924695611 ], [ 396075.991861648042686, 3787338.555442522745579 ], [ 396075.991861648042686, 3787341.302136317361146 ], [ 396075.686673448653892, 3787341.607324516866356 ], [ 396075.686673448653892, 3787341.912512716371566 ], [ 396074.465920651040506, 3787343.133265513926744 ], [ 396072.634791454707738, 3787343.133265513926744 ], [ 396072.329603255318943, 3787343.438453712966293 ], [ 396070.80366225837497, 3787343.438453712966293 ] ] ] } }
]
}
