{
"type": "FeatureCollection",
"name": "cell_00168_pre",
"crs": { "type": "name", "properties": { "name": "urn:ogc:def:crs:EPSG::32611" } },
"features": [
{ "type": "Feature", "properties": { "confidence": 0.99669206142425537, "class": 1 }, "geometry": { "type": "Polygon", "coordinates": [ [ [ 356080.773143438447732, 3770938.96236012224108 ], [ 356080.467955239058938, 3770938.65717192273587 ], [ 356080.162767039670143, 3770938.65717192273587 ], [ 356079.857578840281349, 3770938.35198372323066 ], [ 356079.857578840281349, 3770938.04679552372545 ], [ 356079.552390640892554, 3770937.741607324685901 ], [ 356079.552390640892554, 3770935.605289928615093 ], [ 356079.857578840281349, 3770935.300101729575545 ], [ 356079.857578840281349, 3770934.994913530070335 ], [ 356080.162767039670143, 3770934.689725330565125 ], [ 356080.162767039670143, 3770934.384537131059915 ], [ 356080.467955239058938, 3770934.079348932020366 ], [ 356080.467955239058938, 3770933.774160732515156 ], [ 356080.773143438447732, 3770933.468972533009946 ], [ 356080.773143438447732, 3770933.163784333504736 ], [ 356081.383519837225322, 3770932.553407934959978 ], [ 356081.383519837225322, 3770932.248219735454768 ], [ 356081.993896236002911, 3770931.637843336910009 ], [ 356081.993896236002911, 3770930.72227873839438 ], [ 356082.299084435391705, 3770930.417090539354831 ], [ 356082.299084435391705, 3770930.111902339849621 ], [ 356082.6042726347805, 3770929.806714140344411 ], [ 356082.6042726347805, 3770929.501525940839201 ], [ 356083.214649033558089, 3770928.891149542294443 ], [ 356085.045778229890857, 3770928.891149542294443 ], [ 356085.350966429279651, 3770929.196337741799653 ], [ 356085.350966429279651, 3770929.501525940839201 ], [ 356085.656154628668446, 3770929.806714140344411 ], [ 356085.656154628668446, 3770930.72227873839438 ], [ 356085.961342828057241, 3770931.02746693789959 ], [ 356086.266531027446035, 3770931.02746693789959 ], [ 356086.266531027446035, 3770931.637843336910009 ], [ 356086.57171922683483, 3770931.943031535949558 ], [ 356086.57171922683483, 3770933.468972533009946 ], [ 356086.266531027446035, 3770933.774160732515156 ], [ 356086.266531027446035, 3770934.384537131059915 ], [ 356085.961342828057241, 3770934.689725330565125 ], [ 356085.961342828057241, 3770934.994913530070335 ], [ 356085.350966429279651, 3770935.605289928615093 ], [ 356085.350966429279651, 3770935.910478128120303 ], [ 356085.045778229890857, 3770936.215666327625513 ], [ 356085.045778229890857, 3770936.520854527130723 ], [ 356084.435401831113268, 3770937.131230925675482 ], [ 356084.435401831113268, 3770937.436419125180691 ], [ 356084.130213631724473, 3770937.436419125180691 ], [ 356082.909460834169295, 3770938.65717192273587 ], [ 356082.6042726347805, 3770938.65717192273587 ], [ 356082.299084435391705, 3770938.96236012224108 ], [ 356080.773143438447732, 3770938.96236012224108 ] ] ] } },
{ "type": "Feature", "properties": { "confidence": 0.98889458179473877, "class": 1 }, "geometry": { "type": "Polygon", "coordinates": [ [ [ 356151.576805696822703, 3770953.916581891942769 ], [ 356151.576805696822703, 3770946.28687690757215 ], [ 356151.881993896211497, 3770946.28687690757215 ], [ 356152.187182095600292, 3770945.98168870806694 ], [ 356152.187182095600292, 3770945.67650050856173 ], [ 356152.492370294989087, 3770945.37131230905652 ], [ 356152.492370294989087, 3770945.066124110016972 ], [ 356153.102746693766676, 3770944.455747711006552 ], [ 356154.323499491380062, 3770944.455747711006552 ], [ 356154.628687690768857, 3770944.760935910511762 ], [ 356155.54425228893524, 3770944.760935910511762 ], [ 356156.15462868771283, 3770945.37131230905652 ], [ 356156.15462868771283, 3770945.98168870806694 ], [ 356155.849440488324035, 3770946.28687690757215 ], [ 356155.849440488324035, 3770947.202441505622119 ], [ 356155.54425228893524, 3770947.507629705127329 ], [ 356155.54425228893524, 3770949.338758901227266 ], [ 356155.239064089546446, 3770949.643947100732476 ], [ 356155.239064089546446, 3770951.169888097792864 ], [ 356154.933875890157651, 3770951.475076296832412 ], [ 356154.933875890157651, 3770951.780264496337622 ], [ 356154.628687690768857, 3770951.475076296832412 ], [ 356154.018311291991267, 3770951.475076296832412 ], [ 356153.102746693766676, 3770952.390640895348042 ], [ 356153.102746693766676, 3770952.695829094387591 ], [ 356152.492370294989087, 3770953.306205493398011 ], [ 356152.492370294989087, 3770953.611393692903221 ], [ 356152.187182095600292, 3770953.916581891942769 ], [ 356151.576805696822703, 3770953.916581891942769 ] ] ] } },
{ "type": "Feature", "properties": { "confidence": 0.98720014095306396, "class": 1 }, "geometry": { "type": "Polygon", "coordinates": [ [ [ 356099.084435401833616, 3770948.118006103672087 ], [ 356098.168870803667232, 3770947.202441505622119 ], [ 356097.863682604278438, 3770947.202441505622119 ], [ 356097.863682604278438, 3770946.897253306116909 ], [ 356097.253306205500849, 3770946.28687690757215 ], [ 356096.948118006112054, 3770946.28687690757215 ], [ 356096.03255340794567, 3770945.37131230905652 ], [ 356095.727365208556876, 3770945.37131230905652 ], [ 356095.116988809779286, 3770944.760935910511762 ], [ 356094.811800610390492, 3770944.760935910511762 ], [ 356094.506612411001697, 3770944.455747711006552 ], [ 356094.506612411001697, 3770943.845371312461793 ], [ 356094.811800610390492, 3770943.540183112956583 ], [ 356094.811800610390492, 3770943.234994913451374 ], [ 356095.116988809779286, 3770942.929806713946164 ], [ 356095.422177009168081, 3770942.929806713946164 ], [ 356095.727365208556876, 3770942.624618514906615 ], [ 356095.727365208556876, 3770942.319430315401405 ], [ 356096.337741607334465, 3770941.709053916390985 ], [ 356096.337741607334465, 3770941.403865717351437 ], [ 356096.948118006112054, 3770940.793489318341017 ], [ 356096.948118006112054, 3770940.488301118835807 ], [ 356097.558494404889643, 3770939.877924720291048 ], [ 356097.863682604278438, 3770939.877924720291048 ], [ 356098.168870803667232, 3770940.183112919796258 ], [ 356098.779247202444822, 3770940.183112919796258 ], [ 356100.305188199388795, 3770941.709053916390985 ], [ 356100.610376398777589, 3770941.709053916390985 ], [ 356100.915564598166384, 3770942.014242115896195 ], [ 356102.746693794499151, 3770942.014242115896195 ], [ 356103.051881993887946, 3770942.319430315401405 ], [ 356104.272634791443124, 3770942.319430315401405 ], [ 356104.577822990831919, 3770942.014242115896195 ], [ 356105.493387588998303, 3770942.014242115896195 ], [ 356105.798575788387097, 3770942.319430315401405 ], [ 356105.798575788387097, 3770948.118006103672087 ], [ 356105.493387588998303, 3770948.118006103672087 ], [ 356103.96744659205433, 3770946.592065106611699 ], [ 356101.831129196332768, 3770946.592065106611699 ], [ 356101.220752797555178, 3770947.202441505622119 ], [ 356101.220752797555178, 3770947.507629705127329 ], [ 356100.915564598166384, 3770947.507629705127329 ], [ 356100.305188199388795, 3770948.118006103672087 ], [ 356099.084435401833616, 3770948.118006103672087 ] ] ] } },
{ "type": "Feature", "properties": { "confidence": 0.96893441677093506, "class": 1 }, "geometry": { "type": "Polygon", "coordinates": [ [ [ 356114.649033570720349, 3770930.72227873839438 ], [ 356114.343845371331554, 3770930.417090539354831 ], [ 356113.733468972553965, 3770930.417090539354831 ], [ 356113.42828077316517, 3770930.111902339849621 ], [ 356113.123092573776376, 3770930.111902339849621 ], [ 356112.207527975609992, 3770929.196337741799653 ], [ 356111.902339776221197, 3770929.196337741799653 ], [ 356111.597151576832402, 3770928.891149542294443 ], [ 356111.291963377443608, 3770928.891149542294443 ], [ 356110.986775178054813, 3770928.585961342789233 ], [ 356110.681586978607811, 3770928.585961342789233 ], [ 356110.071210579830222, 3770927.975584944244474 ], [ 356109.766022380441427, 3770927.975584944244474 ], [ 356109.766022380441427, 3770927.670396744739264 ], [ 356109.460834181052633, 3770927.365208545234054 ], [ 356109.460834181052633, 3770927.060020345728844 ], [ 356108.850457782275043, 3770926.449643947184086 ], [ 356108.850457782275043, 3770925.534079349134117 ], [ 356108.545269582886249, 3770925.228891149628907 ], [ 356108.545269582886249, 3770924.923702950123698 ], [ 356108.850457782275043, 3770924.618514750618488 ], [ 356108.850457782275043, 3770924.313326551578939 ], [ 356110.071210579830222, 3770924.313326551578939 ], [ 356110.376398779219016, 3770924.008138352073729 ], [ 356110.986775178054813, 3770924.008138352073729 ], [ 356111.597151576832402, 3770923.397761953063309 ], [ 356112.207527975609992, 3770923.397761953063309 ], [ 356112.512716174998786, 3770923.092573754023761 ], [ 356112.817904374387581, 3770923.092573754023761 ], [ 356112.817904374387581, 3770923.397761953063309 ], [ 356113.123092573776376, 3770923.702950152568519 ], [ 356113.123092573776376, 3770924.008138352073729 ], [ 356113.733468972553965, 3770924.618514750618488 ], [ 356116.480162767053116, 3770924.618514750618488 ], [ 356116.785350966441911, 3770924.923702950123698 ], [ 356117.090539165830705, 3770924.923702950123698 ], [ 356117.3957273652195, 3770925.228891149628907 ], [ 356117.700915564608295, 3770925.228891149628907 ], [ 356117.700915564608295, 3770927.060020345728844 ], [ 356117.3957273652195, 3770927.365208545234054 ], [ 356117.3957273652195, 3770927.670396744739264 ], [ 356117.090539165830705, 3770927.975584944244474 ], [ 356117.090539165830705, 3770928.280773143284023 ], [ 356115.869786368275527, 3770929.501525940839201 ], [ 356115.869786368275527, 3770930.417090539354831 ], [ 356115.564598168886732, 3770930.72227873839438 ], [ 356114.649033570720349, 3770930.72227873839438 ] ] ] } },
{ "type": "Feature", "properties": { "confidence": 0.93414479494094849, "class": 1 }, "geometry": { "type": "Polygon", "coordinates": [ [ [ 356144.862665310269222, 3770931.332655137404799 ], [ 356144.557477110880427, 3770931.02746693789959 ], [ 356143.641912512714043, 3770931.02746693789959 ], [ 356143.031536113936454, 3770930.417090539354831 ], [ 356142.726347914547659, 3770930.417090539354831 ], [ 356142.421159715158865, 3770930.111902339849621 ], [ 356142.11597151577007, 3770930.111902339849621 ], [ 356141.505595116992481, 3770929.501525940839201 ], [ 356140.895218718214892, 3770929.501525940839201 ], [ 356140.590030518826097, 3770929.196337741799653 ], [ 356139.979654120048508, 3770929.196337741799653 ], [ 356139.674465920659713, 3770928.891149542294443 ], [ 356139.369277721270919, 3770928.891149542294443 ], [ 356139.369277721270919, 3770928.585961342789233 ], [ 356139.674465920659713, 3770928.280773143284023 ], [ 356139.674465920659713, 3770927.365208545234054 ], [ 356139.979654120048508, 3770927.060020345728844 ], [ 356139.979654120048508, 3770926.144455747678876 ], [ 356140.590030518826097, 3770925.534079349134117 ], [ 356140.590030518826097, 3770925.228891149628907 ], [ 356141.200406917603686, 3770924.618514750618488 ], [ 356141.200406917603686, 3770924.313326551578939 ], [ 356142.421159715158865, 3770923.092573754023761 ], [ 356145.778229908435605, 3770923.092573754023761 ], [ 356146.0834181078244, 3770923.397761953063309 ], [ 356146.0834181078244, 3770923.702950152568519 ], [ 356146.388606307213195, 3770924.008138352073729 ], [ 356146.693794506601989, 3770924.008138352073729 ], [ 356146.998982705990784, 3770924.313326551578939 ], [ 356147.914547304157168, 3770924.313326551578939 ], [ 356148.219735503545962, 3770924.618514750618488 ], [ 356148.219735503545962, 3770924.923702950123698 ], [ 356148.524923702934757, 3770925.228891149628907 ], [ 356148.524923702934757, 3770925.839267548173666 ], [ 356148.219735503545962, 3770926.144455747678876 ], [ 356148.219735503545962, 3770926.754832146689296 ], [ 356147.609359104768373, 3770927.365208545234054 ], [ 356147.304170905379578, 3770927.365208545234054 ], [ 356146.0834181078244, 3770928.585961342789233 ], [ 356146.0834181078244, 3770931.02746693789959 ], [ 356145.778229908435605, 3770931.332655137404799 ], [ 356144.862665310269222, 3770931.332655137404799 ] ] ] } },
{ "type": "Feature", "properties": { "confidence": 0.92921489477157593, "class": 1 }, "geometry": { "type": "Polygon", "coordinates": [ [ [ 356108.850457782275043, 3770935.910478128120303 ], [ 356108.545269582886249, 3770935.605289928615093 ], [ 356108.240081383497454, 3770935.605289928615093 ], [ 356107.93489318410866, 3770935.300101729575545 ], [ 356107.93489318410866, 3770934.994913530070335 ], [ 356107.629704984719865, 3770934.689725330565125 ], [ 356107.629704984719865, 3770934.079348932020366 ], [ 356107.32451678533107, 3770933.774160732515156 ], [ 356107.32451678533107, 3770933.468972533009946 ], [ 356107.019328585942276, 3770933.163784333504736 ], [ 356107.019328585942276, 3770932.858596134465188 ], [ 356107.629704984719865, 3770932.248219735454768 ], [ 356107.93489318410866, 3770932.248219735454768 ], [ 356108.240081383497454, 3770931.943031535949558 ], [ 356108.545269582886249, 3770931.943031535949558 ], [ 356108.850457782275043, 3770931.637843336910009 ], [ 356108.850457782275043, 3770931.332655137404799 ], [ 356109.155645981663838, 3770931.332655137404799 ], [ 356109.460834181052633, 3770931.02746693789959 ], [ 356110.681586978607811, 3770931.02746693789959 ], [ 356111.291963377443608, 3770931.637843336910009 ], [ 356111.291963377443608, 3770931.943031535949558 ], [ 356112.207527975609992, 3770932.858596134465188 ], [ 356112.207527975609992, 3770934.079348932020366 ], [ 356110.376398779219016, 3770935.910478128120303 ], [ 356108.850457782275043, 3770935.910478128120303 ] ] ] } },
{ "type": "Feature", "properties": { "confidence": 0.74543857574462891, "class": 1 }, "geometry": { "type": "Polygon", "coordinates": [ [ [ 356123.194303153606597, 3770902.644964394625276 ], [ 356122.889114954217803, 3770902.339776195120066 ], [ 356121.973550356051419, 3770902.339776195120066 ], [ 356121.668362156662624, 3770902.034587996080518 ], [ 356121.36317395727383, 3770902.034587996080518 ], [ 356121.36317395727383, 3770901.729399796575308 ], [ 356121.057985757885035, 3770901.424211597070098 ], [ 356121.057985757885035, 3770898.982706001959741 ], [ 356120.752797558496241, 3770898.677517802454531 ], [ 356120.752797558496241, 3770896.846388606354594 ], [ 356120.447609359107446, 3770896.541200406849384 ], [ 356120.447609359107446, 3770895.625635808799416 ], [ 356121.057985757885035, 3770895.015259409788996 ], [ 356122.889114954217803, 3770895.015259409788996 ], [ 356123.194303153606597, 3770895.320447609294206 ], [ 356126.246185147494543, 3770895.320447609294206 ], [ 356127.161749745660927, 3770896.236012207344174 ], [ 356127.161749745660927, 3770900.20345879951492 ], [ 356126.856561546272133, 3770900.508646999020129 ], [ 356126.856561546272133, 3770900.813835198525339 ], [ 356126.246185147494543, 3770901.424211597070098 ], [ 356125.940996948105749, 3770901.424211597070098 ], [ 356125.33062054932816, 3770902.034587996080518 ], [ 356125.025432349939365, 3770902.034587996080518 ], [ 356124.72024415055057, 3770902.339776195120066 ], [ 356123.499491352995392, 3770902.339776195120066 ], [ 356123.194303153606597, 3770902.644964394625276 ] ] ] } },
{ "type": "Feature", "properties": { "confidence": 0.72205686569213867, "class": 1 }, "geometry": { "type": "Polygon", "coordinates": [ [ [ 356132.960325534106232, 3770964.598168870899826 ], [ 356132.655137334717438, 3770964.292980671394616 ], [ 356132.349949135328643, 3770964.292980671394616 ], [ 356132.044760935881641, 3770963.987792471889406 ], [ 356131.434384537104052, 3770963.987792471889406 ], [ 356131.129196337715257, 3770963.682604272849858 ], [ 356130.824008138326462, 3770963.682604272849858 ], [ 356130.518819938937668, 3770963.377416073344648 ], [ 356129.908443540160079, 3770963.377416073344648 ], [ 356129.603255340771284, 3770963.072227873839438 ], [ 356129.603255340771284, 3770960.630722278729081 ], [ 356129.298067141382489, 3770960.325534079223871 ], [ 356129.298067141382489, 3770959.715157680679113 ], [ 356129.603255340771284, 3770959.409969481173903 ], [ 356129.603255340771284, 3770959.104781281668693 ], [ 356129.908443540160079, 3770958.799593082629144 ], [ 356131.129196337715257, 3770958.799593082629144 ], [ 356131.434384537104052, 3770958.494404883123934 ], [ 356132.044760935881641, 3770958.494404883123934 ], [ 356132.349949135328643, 3770958.799593082629144 ], [ 356132.960325534106232, 3770958.799593082629144 ], [ 356133.265513733495027, 3770959.104781281668693 ], [ 356133.875890132272616, 3770959.104781281668693 ], [ 356134.181078331661411, 3770959.409969481173903 ], [ 356134.486266531050205, 3770959.409969481173903 ], [ 356134.791454730439, 3770959.715157680679113 ], [ 356135.096642929827794, 3770959.715157680679113 ], [ 356135.401831129216589, 3770960.020345880184323 ], [ 356135.401831129216589, 3770960.325534079223871 ], [ 356135.707019328605384, 3770960.630722278729081 ], [ 356135.401831129216589, 3770960.630722278729081 ], [ 356135.096642929827794, 3770960.935910478234291 ], [ 356135.096642929827794, 3770961.241098677739501 ], [ 356134.791454730439, 3770961.54628687677905 ], [ 356134.791454730439, 3770961.85147507628426 ], [ 356134.486266531050205, 3770962.156663275789469 ], [ 356134.486266531050205, 3770963.377416073344648 ], [ 356134.181078331661411, 3770963.682604272849858 ], [ 356134.181078331661411, 3770964.292980671394616 ], [ 356133.875890132272616, 3770964.598168870899826 ], [ 356132.960325534106232, 3770964.598168870899826 ] ] ] } },
{ "type": "Feature", "properties": { "confidence": 0.70223510265350342, "class": 1 }, "geometry": { "type": "Polygon", "coordinates": [ [ [ 356101.525940996943973, 3770955.442522889003158 ], [ 356100.610376398777589, 3770954.526958290953189 ], [ 356100.610376398777589, 3770953.306205493398011 ], [ 356100.305188199388795, 3770953.001017293892801 ], [ 356100.305188199388795, 3770949.949135300237685 ], [ 356100.610376398777589, 3770949.643947100732476 ], [ 356103.96744659205433, 3770949.643947100732476 ], [ 356104.883011190220714, 3770950.559511698782444 ], [ 356104.883011190220714, 3770950.864699898287654 ], [ 356105.493387588998303, 3770951.475076296832412 ], [ 356105.493387588998303, 3770951.780264496337622 ], [ 356105.798575788387097, 3770952.085452695842832 ], [ 356105.798575788387097, 3770954.221770091447979 ], [ 356105.188199389609508, 3770954.832146490458399 ], [ 356104.577822990831919, 3770954.832146490458399 ], [ 356104.272634791443124, 3770955.137334689497948 ], [ 356103.662258392665535, 3770955.137334689497948 ], [ 356103.357070193276741, 3770955.442522889003158 ], [ 356101.525940996943973, 3770955.442522889003158 ] ] ] } },
{ "type": "Feature", "properties": { "confidence": 0.68494772911071777, "class": 1 }, "geometry": { "type": "Polygon", "coordinates": [ [ [ 356120.447609359107446, 3770915.15768056968227 ], [ 356119.837232960329857, 3770914.547304171137512 ], [ 356119.226856561552268, 3770914.547304171137512 ], [ 356118.616480162774678, 3770913.936927772127092 ], [ 356118.616480162774678, 3770913.631739572621882 ], [ 356118.311291963385884, 3770913.326551373116672 ], [ 356118.311291963385884, 3770913.021363174077123 ], [ 356118.006103763997089, 3770912.716174974571913 ], [ 356118.311291963385884, 3770912.410986775066704 ], [ 356118.311291963385884, 3770911.800610376521945 ], [ 356118.616480162774678, 3770911.495422177016735 ], [ 356118.616480162774678, 3770911.190233977511525 ], [ 356119.532044760941062, 3770910.274669379461557 ], [ 356119.837232960329857, 3770910.274669379461557 ], [ 356120.752797558496241, 3770909.359104781411588 ], [ 356121.668362156662624, 3770909.359104781411588 ], [ 356121.973550356051419, 3770909.664292980451137 ], [ 356122.278738555440214, 3770909.664292980451137 ], [ 356122.889114954217803, 3770910.274669379461557 ], [ 356123.194303153606597, 3770910.274669379461557 ], [ 356123.194303153606597, 3770910.579857578966767 ], [ 356123.499491352995392, 3770910.885045778006315 ], [ 356123.499491352995392, 3770911.495422177016735 ], [ 356123.194303153606597, 3770911.800610376521945 ], [ 356123.194303153606597, 3770912.105798575561494 ], [ 356122.889114954217803, 3770912.410986775066704 ], [ 356122.889114954217803, 3770913.021363174077123 ], [ 356122.583926754829008, 3770913.326551373116672 ], [ 356122.583926754829008, 3770913.631739572621882 ], [ 356122.278738555440214, 3770913.936927772127092 ], [ 356122.278738555440214, 3770914.242115971632302 ], [ 356121.668362156662624, 3770914.85249237017706 ], [ 356121.668362156662624, 3770915.15768056968227 ], [ 356120.447609359107446, 3770915.15768056968227 ] ] ] } },
{ "type": "Feature", "properties": { "confidence": 0.66684132814407349, "class": 1 }, "geometry": { "type": "Polygon", "coordinates": [ [ [ 355948.32146490336163, 3770751.576805696822703 ], [ 355948.016276703972835, 3770751.271617497317493 ], [ 355947.405900305195246, 3770751.271617497317493 ], [ 355947.100712105806451, 3770750.966429298277944 ], [ 355946.795523906417657, 3770750.966429298277944 ], [ 355946.795523906417657, 3770750.661241098772734 ], [ 355946.490335707028862, 3770750.356052899267524 ], [ 355946.185147507640067, 3770750.356052899267524 ], [ 355946.185147507640067, 3770749.135300101712346 ], [ 355945.879959308251273, 3770748.830111902207136 ], [ 355945.879959308251273, 3770745.778229908552021 ], [ 355946.185147507640067, 3770745.473041709046811 ], [ 355946.185147507640067, 3770743.947100711986423 ], [ 355946.490335707028862, 3770743.641912512946874 ], [ 355946.490335707028862, 3770743.336724313441664 ], [ 355947.100712105806451, 3770742.726347914431244 ], [ 355947.405900305195246, 3770742.726347914431244 ], [ 355947.71108850458404, 3770742.421159714926034 ], [ 355948.931841302139219, 3770742.421159714926034 ], [ 355949.237029501528013, 3770742.115971515886486 ], [ 355949.847405900305603, 3770742.115971515886486 ], [ 355950.152594099694397, 3770742.421159714926034 ], [ 355951.983723296027165, 3770742.421159714926034 ], [ 355952.28891149541596, 3770742.726347914431244 ], [ 355952.899287894193549, 3770742.726347914431244 ], [ 355953.509664292971138, 3770743.336724313441664 ], [ 355953.509664292971138, 3770743.641912512946874 ], [ 355953.814852492359933, 3770743.947100711986423 ], [ 355953.814852492359933, 3770746.388606307096779 ], [ 355953.509664292971138, 3770746.693794506601989 ], [ 355953.509664292971138, 3770747.914547304157168 ], [ 355953.204476093582343, 3770748.219735503662378 ], [ 355953.204476093582343, 3770749.135300101712346 ], [ 355952.28891149541596, 3770750.050864699762315 ], [ 355951.983723296027165, 3770750.050864699762315 ], [ 355951.67853509663837, 3770750.356052899267524 ], [ 355951.373346897249576, 3770750.356052899267524 ], [ 355950.762970498471987, 3770750.966429298277944 ], [ 355950.457782299083192, 3770750.966429298277944 ], [ 355949.847405900305603, 3770751.576805696822703 ], [ 355948.32146490336163, 3770751.576805696822703 ] ] ] } },
{ "type": "Feature", "properties": { "confidence": 0.53356772661209106, "class": 1 }, "geometry": { "type": "Polygon", "coordinates": [ [ [ 356177.212614445597865, 3770906.307222787290812 ], [ 356176.297049847431481, 3770905.391658189240843 ], [ 356175.991861648042686, 3770905.391658189240843 ], [ 356175.381485249265097, 3770904.781281790230423 ], [ 356175.076297049876302, 3770904.781281790230423 ], [ 356174.7711088504293, 3770904.476093591190875 ], [ 356174.465920651040506, 3770904.476093591190875 ], [ 356174.160732451651711, 3770904.170905391685665 ], [ 356173.855544252262916, 3770904.170905391685665 ], [ 356173.550356052874122, 3770903.865717192180455 ], [ 356173.245167853485327, 3770903.865717192180455 ], [ 356172.939979654096533, 3770903.560528992675245 ], [ 356172.634791454707738, 3770903.560528992675245 ], [ 356172.329603255318943, 3770903.255340793635696 ], [ 356172.024415055930149, 3770903.255340793635696 ], [ 356171.719226856541354, 3770902.950152594130486 ], [ 356171.719226856541354, 3770902.339776195120066 ], [ 356171.41403865715256, 3770902.034587996080518 ], [ 356171.41403865715256, 3770901.424211597070098 ], [ 356171.719226856541354, 3770901.119023397564888 ], [ 356171.719226856541354, 3770900.508646999020129 ], [ 356172.634791454707738, 3770899.593082400970161 ], [ 356172.939979654096533, 3770899.593082400970161 ], [ 356173.245167853485327, 3770899.287894201464951 ], [ 356174.160732451651711, 3770899.287894201464951 ], [ 356174.465920651040506, 3770899.593082400970161 ], [ 356175.076297049876302, 3770899.593082400970161 ], [ 356175.381485249265097, 3770899.89827060000971 ], [ 356175.686673448653892, 3770899.89827060000971 ], [ 356176.602238046820275, 3770900.813835198525339 ], [ 356176.90742624620907, 3770900.813835198525339 ], [ 356177.517802644986659, 3770901.424211597070098 ], [ 356177.822990844375454, 3770901.424211597070098 ], [ 356178.128179043764248, 3770901.729399796575308 ], [ 356179.043743641930632, 3770901.729399796575308 ], [ 356179.654120040708221, 3770902.339776195120066 ], [ 356179.654120040708221, 3770902.644964394625276 ], [ 356179.959308240097016, 3770902.950152594130486 ], [ 356179.959308240097016, 3770903.865717192180455 ], [ 356180.264496439485811, 3770904.170905391685665 ], [ 356180.264496439485811, 3770904.476093591190875 ], [ 356179.654120040708221, 3770904.476093591190875 ], [ 356179.043743641930632, 3770905.086469989735633 ], [ 356179.043743641930632, 3770905.391658189240843 ], [ 356178.738555442541838, 3770905.391658189240843 ], [ 356178.433367243153043, 3770905.696846388746053 ], [ 356178.128179043764248, 3770905.696846388746053 ], [ 356177.517802644986659, 3770906.307222787290812 ], [ 356177.212614445597865, 3770906.307222787290812 ] ] ] } },
{ "type": "Feature", "properties": { "confidence": 0.45652785897254944, "class": 1 }, "geometry": { "type": "Polygon", "coordinates": [ [ [ 355925.737538148532622, 3770522.075279755983502 ], [ 355925.127161749755032, 3770521.464903356973082 ], [ 355924.821973550366238, 3770521.464903356973082 ], [ 355924.516785350977443, 3770521.159715157467872 ], [ 355924.211597151588649, 3770521.159715157467872 ], [ 355924.211597151588649, 3770519.023397761862725 ], [ 355924.821973550366238, 3770518.413021363317966 ], [ 355925.432349949143827, 3770518.413021363317966 ], [ 355925.737538148532622, 3770518.107833163812757 ], [ 355926.042726347921416, 3770518.107833163812757 ], [ 355926.347914547310211, 3770517.802644964307547 ], [ 355929.094608341809362, 3770517.802644964307547 ], [ 355929.399796541198157, 3770518.107833163812757 ], [ 355929.704984740586951, 3770518.107833163812757 ], [ 355929.704984740586951, 3770519.023397761862725 ], [ 355929.399796541198157, 3770519.328585961367935 ], [ 355929.399796541198157, 3770519.938962359912694 ], [ 355927.873855544254184, 3770521.464903356973082 ], [ 355927.568667344865389, 3770521.464903356973082 ], [ 355926.9582909460878, 3770522.075279755983502 ], [ 355925.737538148532622, 3770522.075279755983502 ] ] ] } },
{ "type": "Feature", "properties": { "confidence": 0.4174731969833374, "class": 1 }, "geometry": { "type": "Polygon", "coordinates": [ [ [ 356005.696846388629638, 3770612.105798575561494 ], [ 356005.086469989852048, 3770611.495422177016735 ], [ 356005.086469989852048, 3770610.579857578966767 ], [ 356005.391658189240843, 3770610.274669379461557 ], [ 356005.391658189240843, 3770609.664292980451137 ], [ 356009.969481180072762, 3770609.664292980451137 ], [ 356009.969481180072762, 3770610.274669379461557 ], [ 356009.664292980683967, 3770610.579857578966767 ], [ 356009.664292980683967, 3770610.885045778006315 ], [ 356009.053916581906378, 3770611.495422177016735 ], [ 356008.748728382517584, 3770611.495422177016735 ], [ 356008.443540183128789, 3770611.800610376521945 ], [ 356007.527975584962405, 3770611.800610376521945 ], [ 356007.222787385573611, 3770612.105798575561494 ], [ 356005.696846388629638, 3770612.105798575561494 ] ] ] } },
{ "type": "Feature", "properties": { "confidence": 0.41576597094535828, "class": 1 }, "geometry": { "type": "Polygon", "coordinates": [ [ [ 355881.485249237040989, 3770971.617497456725687 ], [ 355881.180061037652194, 3770971.312309257220477 ], [ 355878.738555442541838, 3770971.312309257220477 ], [ 355878.433367243153043, 3770971.007121058180928 ], [ 355877.517802644986659, 3770971.007121058180928 ], [ 355876.90742624620907, 3770970.396744659170508 ], [ 355876.90742624620907, 3770969.78636826062575 ], [ 355877.212614445597865, 3770969.48118006112054 ], [ 355877.212614445597865, 3770968.565615463070571 ], [ 355877.517802644986659, 3770968.260427263565361 ], [ 355877.517802644986659, 3770966.124109867960215 ], [ 355877.822990844375454, 3770965.818921668455005 ], [ 355877.822990844375454, 3770965.208545269444585 ], [ 355878.128179043764248, 3770964.903357070405036 ], [ 355878.128179043764248, 3770964.598168870899826 ], [ 355878.433367243153043, 3770964.292980671394616 ], [ 355878.433367243153043, 3770963.987792471889406 ], [ 355878.738555442541838, 3770963.682604272849858 ], [ 355878.738555442541838, 3770963.377416073344648 ], [ 355879.043743641930632, 3770963.072227873839438 ], [ 355879.043743641930632, 3770962.767039674334228 ], [ 355879.348931841319427, 3770962.461851475294679 ], [ 355880.569684638874605, 3770962.461851475294679 ], [ 355880.8748728382634, 3770962.767039674334228 ], [ 355881.485249237040989, 3770962.767039674334228 ], [ 355881.790437436429784, 3770963.072227873839438 ], [ 355883.316378433373757, 3770963.072227873839438 ], [ 355883.621566632762551, 3770962.767039674334228 ], [ 355885.147507629706524, 3770962.767039674334228 ], [ 355885.452695829095319, 3770963.072227873839438 ], [ 355885.452695829095319, 3770963.377416073344648 ], [ 355885.757884028484114, 3770963.682604272849858 ], [ 355885.452695829095319, 3770963.987792471889406 ], [ 355885.452695829095319, 3770964.292980671394616 ], [ 355885.147507629706524, 3770964.598168870899826 ], [ 355885.147507629706524, 3770965.208545269444585 ], [ 355884.84231943031773, 3770965.513733468949795 ], [ 355884.84231943031773, 3770966.429298066999763 ], [ 355884.537131230928935, 3770966.734486266504973 ], [ 355884.537131230928935, 3770968.260427263565361 ], [ 355884.231943031540141, 3770968.565615463070571 ], [ 355884.231943031540141, 3770968.87080366211012 ], [ 355883.926754832151346, 3770969.17599186161533 ], [ 355883.926754832151346, 3770970.091556459665298 ], [ 355883.621566632762551, 3770970.396744659170508 ], [ 355883.621566632762551, 3770971.312309257220477 ], [ 355883.011190233984962, 3770971.312309257220477 ], [ 355882.706002034596168, 3770971.617497456725687 ], [ 355881.485249237040989, 3770971.617497456725687 ] ] ] } },
{ "type": "Feature", "properties": { "confidence": 0.37006932497024536, "class": 1 }, "geometry": { "type": "Polygon", "coordinates": [ [ [ 356063.682604272617027, 3770968.87080366211012 ], [ 356063.072227873839438, 3770968.260427263565361 ], [ 356062.767039674450643, 3770968.260427263565361 ], [ 356062.767039674450643, 3770967.955239064060152 ], [ 356062.156663275673054, 3770967.344862665515393 ], [ 356062.156663275673054, 3770967.039674466010183 ], [ 356061.85147507628426, 3770966.734486266504973 ], [ 356061.85147507628426, 3770966.124109867960215 ], [ 356061.24109867750667, 3770965.513733468949795 ], [ 356061.24109867750667, 3770965.208545269444585 ], [ 356060.325534079340287, 3770964.292980671394616 ], [ 356060.325534079340287, 3770963.987792471889406 ], [ 356059.715157680562697, 3770963.377416073344648 ], [ 356059.715157680562697, 3770962.767039674334228 ], [ 356059.409969481173903, 3770962.461851475294679 ], [ 356059.409969481173903, 3770961.54628687677905 ], [ 356059.104781281785108, 3770961.241098677739501 ], [ 356059.104781281785108, 3770960.020345880184323 ], [ 356059.409969481173903, 3770959.715157680679113 ], [ 356059.409969481173903, 3770958.799593082629144 ], [ 356059.715157680562697, 3770958.494404883123934 ], [ 356059.715157680562697, 3770958.189216683618724 ], [ 356060.325534079340287, 3770957.578840285073966 ], [ 356061.85147507628426, 3770957.578840285073966 ], [ 356062.156663275673054, 3770957.884028484113514 ], [ 356063.072227873839438, 3770957.884028484113514 ], [ 356063.682604272617027, 3770957.273652085568756 ], [ 356065.208545269561, 3770957.273652085568756 ], [ 356065.513733468949795, 3770957.578840285073966 ], [ 356065.513733468949795, 3770957.884028484113514 ], [ 356065.818921668338589, 3770958.189216683618724 ], [ 356065.818921668338589, 3770958.494404883123934 ], [ 356066.124109867727384, 3770958.799593082629144 ], [ 356066.124109867727384, 3770959.409969481173903 ], [ 356066.429298067116179, 3770959.715157680679113 ], [ 356066.429298067116179, 3770960.630722278729081 ], [ 356066.734486266504973, 3770960.935910478234291 ], [ 356066.734486266504973, 3770961.85147507628426 ], [ 356067.039674465893768, 3770962.156663275789469 ], [ 356067.039674465893768, 3770966.734486266504973 ], [ 356066.734486266504973, 3770967.039674466010183 ], [ 356066.734486266504973, 3770967.344862665515393 ], [ 356066.429298067116179, 3770967.650050864554942 ], [ 356066.429298067116179, 3770968.565615463070571 ], [ 356065.818921668338589, 3770968.565615463070571 ], [ 356065.513733468949795, 3770968.87080366211012 ], [ 356063.682604272617027, 3770968.87080366211012 ] ] ] } }
]
}
