{
"type": "FeatureCollection",
"name": "cell_00113_pre",
"crs": { "type": "name", "properties": { "name": "urn:ogc:def:crs:EPSG::32611" } },
"features": [
{ "type": "Feature", "properties": { "confidence": 0.41368865966796875, "class": 1 }, "geometry": { "type": "Polygon", "coordinates": [ [ [ 352897.965412004094105, 3770011.800610376521945 ], [ 352897.660223804705311, 3770011.495422177016735 ], [ 352896.744659206538927, 3770011.495422177016735 ], [ 352896.744659206538927, 3770011.190233977511525 ], [ 352896.439471007150132, 3770010.885045778006315 ], [ 352896.439471007150132, 3770009.664292980451137 ], [ 352901.62767039675964, 3770009.664292980451137 ], [ 352901.62767039675964, 3770010.885045778006315 ], [ 352901.017293997982051, 3770011.495422177016735 ], [ 352900.712105798593257, 3770011.495422177016735 ], [ 352900.406917599204462, 3770011.800610376521945 ], [ 352897.965412004094105, 3770011.800610376521945 ] ] ] } }
]
}
