{
"type": "FeatureCollection",
"name": "cell_00167_pre",
"crs": { "type": "name", "properties": { "name": "urn:ogc:def:crs:EPSG::32611" } },
"features": [
{ "type": "Feature", "properties": { "confidence": 0.41068631410598755, "class": 1 }, "geometry": { "type": "Polygon", "coordinates": [ [ [ 356282.807731434411835, 3770132.655137334484607 ], [ 356281.281790437409654, 3770131.12919633788988 ], [ 356281.281790437409654, 3770130.82400813838467 ], [ 356280.671414038632065, 3770130.21363173937425 ], [ 356280.671414038632065, 3770129.908443540334702 ], [ 356279.755849440465681, 3770128.992878941819072 ], [ 356279.755849440465681, 3770128.687690742779523 ], [ 356279.450661241076887, 3770128.382502543274313 ], [ 356279.450661241076887, 3770128.077314343769103 ], [ 356279.145473041688092, 3770127.772126144263893 ], [ 356279.145473041688092, 3770126.856561546213925 ], [ 356285.859613428299781, 3770126.856561546213925 ], [ 356285.859613428299781, 3770128.687690742779523 ], [ 356285.554425228910986, 3770128.992878941819072 ], [ 356285.554425228910986, 3770129.298067141324282 ], [ 356285.249237029522192, 3770129.603255340829492 ], [ 356285.249237029522192, 3770131.12919633788988 ], [ 356284.944048830133397, 3770131.434384536929429 ], [ 356284.944048830133397, 3770132.044760935939848 ], [ 356284.333672431355808, 3770132.655137334484607 ], [ 356282.807731434411835, 3770132.655137334484607 ] ] ] } }
]
}
