{
"type": "FeatureCollection",
"name": "cell_00073_pre",
"crs": { "type": "name", "properties": { "name": "urn:ogc:def:crs:EPSG::32611" } },
"features": [
{ "type": "Feature", "properties": { "confidence": 0.99586188793182373, "class": 1 }, "geometry": { "type": "Polygon", "coordinates": [ [ [ 350284.028484231967013, 3770849.847405900247395 ], [ 350283.723296032578219, 3770849.542217700742185 ], [ 350283.11291963380063, 3770849.542217700742185 ], [ 350282.807731434411835, 3770849.237029501702636 ], [ 350281.892166836187243, 3770849.237029501702636 ], [ 350281.586978636798449, 3770848.931841302197427 ], [ 350280.061037639854476, 3770848.931841302197427 ], [ 350279.755849440465681, 3770848.626653102692217 ], [ 350279.450661241076887, 3770848.626653102692217 ], [ 350279.145473041688092, 3770848.321464903187007 ], [ 350279.145473041688092, 3770848.016276704147458 ], [ 350279.450661241076887, 3770847.711088504642248 ], [ 350279.450661241076887, 3770847.100712105631828 ], [ 350279.755849440465681, 3770846.79552390659228 ], [ 350279.755849440465681, 3770844.048830111976713 ], [ 350296.541200406907592, 3770844.048830111976713 ], [ 350296.236012207518797, 3770844.354018311481923 ], [ 350296.236012207518797, 3770844.964394710026681 ], [ 350295.930824008130003, 3770845.269582909531891 ], [ 350295.930824008130003, 3770845.87995930807665 ], [ 350295.625635808741208, 3770846.18514750758186 ], [ 350295.320447609352414, 3770846.18514750758186 ], [ 350295.015259409963619, 3770846.49033570708707 ], [ 350294.099694811797235, 3770846.49033570708707 ], [ 350293.794506612408441, 3770846.79552390659228 ], [ 350293.184130213630851, 3770846.79552390659228 ], [ 350292.878942014242057, 3770847.100712105631828 ], [ 350292.573753814853262, 3770847.100712105631828 ], [ 350292.268565615464468, 3770847.405900305137038 ], [ 350291.353001017298084, 3770847.405900305137038 ], [ 350291.047812817909289, 3770847.711088504642248 ], [ 350289.521871820965316, 3770847.711088504642248 ], [ 350289.216683621576522, 3770848.016276704147458 ], [ 350288.606307222798932, 3770848.016276704147458 ], [ 350288.301119023410138, 3770848.321464903187007 ], [ 350287.995930824021343, 3770848.321464903187007 ], [ 350287.690742624632549, 3770848.626653102692217 ], [ 350287.385554425243754, 3770848.626653102692217 ], [ 350286.46998982707737, 3770849.542217700742185 ], [ 350285.554425228910986, 3770849.542217700742185 ], [ 350285.249237029522192, 3770849.847405900247395 ], [ 350284.028484231967013, 3770849.847405900247395 ] ] ] } },
{ "type": "Feature", "properties": { "confidence": 0.6449044942855835, "class": 1 }, "geometry": { "type": "Polygon", "coordinates": [ [ [ 349808.240081383497454, 3770771.108850457705557 ], [ 349807.93489318410866, 3770770.803662258200347 ], [ 349807.629704984719865, 3770770.803662258200347 ], [ 349806.714140386553481, 3770769.888097660150379 ], [ 349806.714140386553481, 3770769.582909460645169 ], [ 349806.408952187164687, 3770769.27772126160562 ], [ 349806.408952187164687, 3770767.751780264545232 ], [ 349806.103763987775892, 3770767.446592065040022 ], [ 349806.103763987775892, 3770765.920651067979634 ], [ 349806.408952187164687, 3770765.615462868940085 ], [ 349806.408952187164687, 3770764.699898270424455 ], [ 349806.714140386553481, 3770764.394710071384907 ], [ 349806.714140386553481, 3770764.089521871879697 ], [ 349807.32451678533107, 3770764.089521871879697 ], [ 349807.629704984719865, 3770763.784333672374487 ], [ 349807.93489318410866, 3770763.784333672374487 ], [ 349808.240081383497454, 3770763.479145472869277 ], [ 349808.240081383497454, 3770763.173957273829728 ], [ 349808.545269582886249, 3770763.173957273829728 ], [ 349809.155645981663838, 3770762.563580874819309 ], [ 349809.460834181052633, 3770762.563580874819309 ], [ 349810.071210579830222, 3770761.95320447627455 ], [ 349810.681586978607811, 3770761.95320447627455 ], [ 349810.986775178054813, 3770761.64801627676934 ], [ 349811.291963377443608, 3770761.64801627676934 ], [ 349811.597151576832402, 3770761.34282807726413 ], [ 349813.733468972553965, 3770761.34282807726413 ], [ 349813.733468972553965, 3770761.64801627676934 ], [ 349814.038657171942759, 3770761.95320447627455 ], [ 349814.038657171942759, 3770762.258392675314099 ], [ 349814.343845371331554, 3770762.563580874819309 ], [ 349814.649033570720349, 3770762.563580874819309 ], [ 349814.649033570720349, 3770763.173957273829728 ], [ 349814.954221770109143, 3770763.479145472869277 ], [ 349814.954221770109143, 3770764.089521871879697 ], [ 349815.259409969497938, 3770764.394710071384907 ], [ 349815.259409969497938, 3770766.531027466990054 ], [ 349814.954221770109143, 3770766.836215666495264 ], [ 349814.954221770109143, 3770767.446592065040022 ], [ 349814.649033570720349, 3770767.751780264545232 ], [ 349814.649033570720349, 3770768.056968464050442 ], [ 349814.343845371331554, 3770768.362156663089991 ], [ 349814.343845371331554, 3770768.667344862595201 ], [ 349812.817904374387581, 3770770.193285859655589 ], [ 349812.512716174998786, 3770770.193285859655589 ], [ 349812.207527975609992, 3770770.498474059160799 ], [ 349811.597151576832402, 3770770.498474059160799 ], [ 349811.291963377443608, 3770770.803662258200347 ], [ 349810.071210579830222, 3770770.803662258200347 ], [ 349809.766022380441427, 3770771.108850457705557 ], [ 349808.240081383497454, 3770771.108850457705557 ] ] ] } },
{ "type": "Feature", "properties": { "confidence": 0.47994789481163025, "class": 1 }, "geometry": { "type": "Polygon", "coordinates": [ [ [ 350268.769074262469076, 3770829.399796541314572 ], [ 350268.769074262469076, 3770813.530010173097253 ], [ 350269.07426246185787, 3770813.530010173097253 ], [ 350269.379450661246665, 3770813.224821973592043 ], [ 350271.210579857579432, 3770813.224821973592043 ], [ 350271.515768056968227, 3770812.919633774086833 ], [ 350272.126144455745816, 3770812.919633774086833 ], [ 350272.431332655134611, 3770813.224821973592043 ], [ 350272.431332655134611, 3770815.6663275687024 ], [ 350272.126144455745816, 3770815.97151576820761 ], [ 350272.126144455745816, 3770818.413021363317966 ], [ 350271.820956256357022, 3770818.718209562357515 ], [ 350271.820956256357022, 3770820.854526958428323 ], [ 350272.126144455745816, 3770821.159715157467872 ], [ 350272.126144455745816, 3770822.075279755983502 ], [ 350272.431332655134611, 3770822.38046795502305 ], [ 350272.431332655134611, 3770824.211597151588649 ], [ 350272.126144455745816, 3770824.516785351093858 ], [ 350272.126144455745816, 3770825.737538148649037 ], [ 350272.431332655134611, 3770826.042726347688586 ], [ 350272.431332655134611, 3770828.789420142304152 ], [ 350272.126144455745816, 3770828.789420142304152 ], [ 350271.820956256357022, 3770829.094608341809362 ], [ 350271.210579857579432, 3770829.094608341809362 ], [ 350270.905391658190638, 3770829.399796541314572 ], [ 350268.769074262469076, 3770829.399796541314572 ] ] ] } },
{ "type": "Feature", "properties": { "confidence": 0.3933626115322113, "class": 1 }, "geometry": { "type": "Polygon", "coordinates": [ [ [ 349821.668362156662624, 3770472.634791454765946 ], [ 349821.36317395727383, 3770472.329603255260736 ], [ 349821.057985757885035, 3770472.329603255260736 ], [ 349820.752797558496241, 3770472.024415055755526 ], [ 349820.447609359107446, 3770472.024415055755526 ], [ 349820.142421159718651, 3770471.719226856715977 ], [ 349819.837232960329857, 3770471.719226856715977 ], [ 349819.226856561552268, 3770471.108850457705557 ], [ 349818.921668362163473, 3770471.108850457705557 ], [ 349818.921668362163473, 3770470.498474059160799 ], [ 349818.616480162774678, 3770470.193285859655589 ], [ 349818.616480162774678, 3770469.582909460645169 ], [ 349817.3957273652195, 3770468.362156663089991 ], [ 349817.3957273652195, 3770466.225839267484844 ], [ 349817.700915564608295, 3770465.920651067979634 ], [ 349817.700915564608295, 3770465.310274669434875 ], [ 349818.006103763997089, 3770465.310274669434875 ], [ 349818.311291963385884, 3770465.005086469929665 ], [ 349818.311291963385884, 3770464.699898270424455 ], [ 349819.837232960329857, 3770464.699898270424455 ], [ 349819.837232960329857, 3770465.920651067979634 ], [ 349821.057985757885035, 3770467.141403865534812 ], [ 349821.36317395727383, 3770467.141403865534812 ], [ 349821.668362156662624, 3770467.446592065040022 ], [ 349822.278738555440214, 3770467.446592065040022 ], [ 349822.889114954217803, 3770468.056968464050442 ], [ 349822.889114954217803, 3770468.362156663089991 ], [ 349823.194303153606597, 3770468.667344862595201 ], [ 349823.194303153606597, 3770469.27772126160562 ], [ 349823.499491352995392, 3770469.582909460645169 ], [ 349823.499491352995392, 3770470.803662258200347 ], [ 349823.804679552384187, 3770471.108850457705557 ], [ 349823.499491352995392, 3770471.414038657210767 ], [ 349823.499491352995392, 3770472.024415055755526 ], [ 349823.194303153606597, 3770472.329603255260736 ], [ 349823.194303153606597, 3770472.634791454765946 ], [ 349821.668362156662624, 3770472.634791454765946 ] ] ] } },
{ "type": "Feature", "properties": { "confidence": 0.35581207275390625, "class": 1 }, "geometry": { "type": "Polygon", "coordinates": [ [ [ 349955.340793489303906, 3770885.554425228852779 ], [ 349955.035605289915111, 3770885.249237029347569 ], [ 349954.425228891137522, 3770885.249237029347569 ], [ 349953.509664292971138, 3770884.3336724312976 ], [ 349953.509664292971138, 3770884.02848423179239 ], [ 349952.899287894193549, 3770883.418107833247632 ], [ 349952.594099694804754, 3770883.418107833247632 ], [ 349951.983723296027165, 3770882.807731434237212 ], [ 349951.983723296027165, 3770880.976602238137275 ], [ 349955.951169888081495, 3770880.976602238137275 ], [ 349955.951169888081495, 3770885.554425228852779 ], [ 349955.340793489303906, 3770885.554425228852779 ] ] ] } },
{ "type": "Feature", "properties": { "confidence": 0.30181542038917542, "class": 1 }, "geometry": { "type": "Polygon", "coordinates": [ [ [ 350287.995930824021343, 3770842.522889114916325 ], [ 350287.690742624632549, 3770842.217700915411115 ], [ 350287.690742624632549, 3770841.302136317361146 ], [ 350288.301119023410138, 3770840.691759918816388 ], [ 350288.301119023410138, 3770840.386571719311178 ], [ 350288.911495422187727, 3770839.776195320300758 ], [ 350289.521871820965316, 3770839.776195320300758 ], [ 350290.132248219742905, 3770839.165818921755999 ], [ 350290.4374364191317, 3770839.165818921755999 ], [ 350290.742624618520495, 3770838.860630722250789 ], [ 350291.047812817909289, 3770838.860630722250789 ], [ 350291.658189216686878, 3770838.250254323706031 ], [ 350291.963377416075673, 3770838.250254323706031 ], [ 350292.268565615464468, 3770837.945066124200821 ], [ 350298.067141403851565, 3770837.945066124200821 ], [ 350298.067141403851565, 3770838.860630722250789 ], [ 350297.76195320446277, 3770839.165818921755999 ], [ 350297.76195320446277, 3770840.996948117855936 ], [ 350297.456765005073976, 3770841.302136317361146 ], [ 350297.456765005073976, 3770842.217700915411115 ], [ 350297.151576805685181, 3770842.217700915411115 ], [ 350296.846388606296387, 3770842.522889114916325 ], [ 350287.995930824021343, 3770842.522889114916325 ] ] ] } }
]
}
