{
"type": "FeatureCollection",
"name": "cell_00445_pre",
"crs": { "type": "name", "properties": { "name": "urn:ogc:def:crs:EPSG::32611" } },
"features": [
{ "type": "Feature", "properties": { "confidence": 0.9893876314163208, "class": 1 }, "geometry": { "type": "Polygon", "coordinates": [ [ [ 400092.573753814853262, 3783299.38962360098958 ], [ 400091.963377416075673, 3783298.779247202444822 ], [ 400091.963377416075673, 3783295.422177009284496 ], [ 400091.658189216686878, 3783295.116988809779286 ], [ 400091.658189216686878, 3783294.506612410768867 ], [ 400091.353001017298084, 3783294.201424211729318 ], [ 400091.658189216686878, 3783293.896236012224108 ], [ 400091.658189216686878, 3783292.980671414174139 ], [ 400091.963377416075673, 3783292.67548321466893 ], [ 400091.963377416075673, 3783292.37029501516372 ], [ 400092.268565615464468, 3783292.06510681565851 ], [ 400092.268565615464468, 3783291.759918616618961 ], [ 400092.573753814853262, 3783291.454730417113751 ], [ 400092.573753814853262, 3783291.149542217608541 ], [ 400092.878942014242057, 3783290.844354018103331 ], [ 400092.878942014242057, 3783290.539165819063783 ], [ 400094.099694811797235, 3783289.318413021508604 ], [ 400094.710071210574824, 3783289.318413021508604 ], [ 400095.015259409963619, 3783289.013224822003394 ], [ 400095.320447609352414, 3783289.013224822003394 ], [ 400095.930824008130003, 3783288.402848422992975 ], [ 400096.846388606296387, 3783288.402848422992975 ], [ 400097.151576805685181, 3783288.097660223953426 ], [ 400097.456765005073976, 3783288.402848422992975 ], [ 400098.067141403851565, 3783288.402848422992975 ], [ 400098.37232960324036, 3783288.708036622498184 ], [ 400098.677517802629154, 3783288.708036622498184 ], [ 400098.677517802629154, 3783289.013224822003394 ], [ 400098.982706002017949, 3783289.318413021508604 ], [ 400098.982706002017949, 3783290.233977619558573 ], [ 400099.287894201406743, 3783290.539165819063783 ], [ 400099.287894201406743, 3783290.844354018103331 ], [ 400099.593082400795538, 3783291.149542217608541 ], [ 400100.203458799573127, 3783291.149542217608541 ], [ 400100.203458799573127, 3783291.454730417113751 ], [ 400100.813835198350716, 3783292.06510681565851 ], [ 400100.813835198350716, 3783293.285859613213688 ], [ 400100.203458799573127, 3783293.896236012224108 ], [ 400100.203458799573127, 3783294.201424211729318 ], [ 400099.898270600184333, 3783294.201424211729318 ], [ 400097.76195320446277, 3783296.337741607334465 ], [ 400097.456765005073976, 3783296.337741607334465 ], [ 400096.846388606296387, 3783296.948118005879223 ], [ 400096.846388606296387, 3783297.253306205384433 ], [ 400095.015259409963619, 3783299.084435401950032 ], [ 400094.710071210574824, 3783299.084435401950032 ], [ 400094.40488301118603, 3783299.38962360098958 ], [ 400092.573753814853262, 3783299.38962360098958 ] ] ] } },
{ "type": "Feature", "properties": { "confidence": 0.9829636812210083, "class": 1 }, "geometry": { "type": "Polygon", "coordinates": [ [ [ 399663.173957273655105, 3783054.62868769094348 ], [ 399662.868769074266311, 3783054.32349949143827 ], [ 399659.816887080378365, 3783054.32349949143827 ], [ 399659.51169888098957, 3783054.01831129193306 ], [ 399654.628687690768857, 3783054.01831129193306 ], [ 399654.323499491380062, 3783053.71312309242785 ], [ 399650.356052899267524, 3783053.71312309242785 ], [ 399650.05086469987873, 3783053.407934893388301 ], [ 399650.05086469987873, 3783050.356052899267524 ], [ 399664.394710071210284, 3783050.356052899267524 ], [ 399664.699898270599078, 3783050.661241098772734 ], [ 399665.310274669376668, 3783050.661241098772734 ], [ 399665.615462868765462, 3783050.966429298277944 ], [ 399665.615462868765462, 3783054.32349949143827 ], [ 399665.005086469987873, 3783054.32349949143827 ], [ 399664.699898270599078, 3783054.62868769094348 ], [ 399663.173957273655105, 3783054.62868769094348 ] ] ] } },
{ "type": "Feature", "properties": { "confidence": 0.97774040699005127, "class": 1 }, "geometry": { "type": "Polygon", "coordinates": [ [ [ 399786.164801627688576, 3783037.538148524705321 ], [ 399785.859613428299781, 3783037.232960325665772 ], [ 399785.859613428299781, 3783036.317395727150142 ], [ 399785.554425228910986, 3783036.012207528110594 ], [ 399785.554425228910986, 3783034.791454730555415 ], [ 399785.859613428299781, 3783034.486266531050205 ], [ 399787.080366225854959, 3783034.486266531050205 ], [ 399787.385554425243754, 3783034.181078331544995 ], [ 399788.606307222798932, 3783034.181078331544995 ], [ 399788.911495422187727, 3783033.875890132039785 ], [ 399790.4374364191317, 3783033.875890132039785 ], [ 399790.742624618520495, 3783033.570701933000237 ], [ 399791.353001017298084, 3783033.570701933000237 ], [ 399791.658189216686878, 3783033.265513733495027 ], [ 399792.878942014242057, 3783033.265513733495027 ], [ 399793.184130213630851, 3783032.960325533989817 ], [ 399795.015259409963619, 3783032.960325533989817 ], [ 399795.320447609352414, 3783033.265513733495027 ], [ 399795.320447609352414, 3783033.570701933000237 ], [ 399796.846388606296387, 3783035.096642929594964 ], [ 399796.541200406907592, 3783035.401831129100174 ], [ 399796.541200406907592, 3783035.707019328605384 ], [ 399796.236012207518797, 3783035.707019328605384 ], [ 399795.930824008130003, 3783036.012207528110594 ], [ 399794.710071210574824, 3783036.012207528110594 ], [ 399794.40488301118603, 3783036.317395727150142 ], [ 399793.489318413019646, 3783036.317395727150142 ], [ 399793.184130213630851, 3783036.622583926655352 ], [ 399792.878942014242057, 3783036.622583926655352 ], [ 399792.573753814853262, 3783036.927772126160562 ], [ 399791.353001017298084, 3783036.927772126160562 ], [ 399791.047812817909289, 3783037.232960325665772 ], [ 399789.827060020354111, 3783037.232960325665772 ], [ 399789.521871820965316, 3783037.538148524705321 ], [ 399786.164801627688576, 3783037.538148524705321 ] ] ] } },
{ "type": "Feature", "properties": { "confidence": 0.97750318050384521, "class": 1 }, "geometry": { "type": "Polygon", "coordinates": [ [ [ 400132.858596134290565, 3783330.21363173937425 ], [ 400132.55340793490177, 3783329.908443540334702 ], [ 400132.248219735512976, 3783329.908443540334702 ], [ 400131.027466937957797, 3783328.687690742779523 ], [ 400131.027466937957797, 3783328.077314343769103 ], [ 400130.722278738569003, 3783327.772126144263893 ], [ 400130.722278738569003, 3783326.856561546213925 ], [ 400138.657171922677662, 3783326.856561546213925 ], [ 400138.657171922677662, 3783327.466937945224345 ], [ 400138.351983723288868, 3783327.772126144263893 ], [ 400138.351983723288868, 3783328.077314343769103 ], [ 400138.046795523900073, 3783328.382502543274313 ], [ 400138.046795523900073, 3783328.687690742779523 ], [ 400137.131230925733689, 3783329.603255340829492 ], [ 400137.131230925733689, 3783329.908443540334702 ], [ 400136.826042726344895, 3783330.21363173937425 ], [ 400132.858596134290565, 3783330.21363173937425 ] ] ] } },
{ "type": "Feature", "properties": { "confidence": 0.97097247838973999, "class": 1 }, "geometry": { "type": "Polygon", "coordinates": [ [ [ 400045.879959308251273, 3783299.69481180049479 ], [ 400045.574771108862478, 3783299.38962360098958 ], [ 400043.133265513752121, 3783299.38962360098958 ], [ 400042.217700915585738, 3783298.474059002939612 ], [ 400042.217700915585738, 3783296.642929806839675 ], [ 400042.522889114974532, 3783296.337741607334465 ], [ 400042.522889114974532, 3783295.727365208324045 ], [ 400043.133265513752121, 3783295.116988809779286 ], [ 400043.133265513752121, 3783294.811800610274076 ], [ 400044.048830111918505, 3783293.896236012224108 ], [ 400044.048830111918505, 3783293.591047812718898 ], [ 400044.659206510696094, 3783292.980671414174139 ], [ 400044.659206510696094, 3783292.67548321466893 ], [ 400046.795523906417657, 3783290.539165819063783 ], [ 400047.100712105806451, 3783290.539165819063783 ], [ 400048.016276703972835, 3783289.623601220548153 ], [ 400048.626653102750424, 3783289.623601220548153 ], [ 400048.931841302139219, 3783289.318413021508604 ], [ 400049.847405900305603, 3783289.318413021508604 ], [ 400050.152594099694397, 3783289.013224822003394 ], [ 400052.28891149541596, 3783289.013224822003394 ], [ 400052.594099694804754, 3783289.318413021508604 ], [ 400052.594099694804754, 3783291.759918616618961 ], [ 400052.28891149541596, 3783292.06510681565851 ], [ 400052.28891149541596, 3783292.67548321466893 ], [ 400051.983723296027165, 3783292.980671414174139 ], [ 400051.983723296027165, 3783293.285859613213688 ], [ 400051.373346897249576, 3783293.896236012224108 ], [ 400051.373346897249576, 3783296.032553407829255 ], [ 400050.457782299083192, 3783296.948118005879223 ], [ 400050.152594099694397, 3783296.948118005879223 ], [ 400049.542217700916808, 3783297.558494404889643 ], [ 400049.237029501528013, 3783297.558494404889643 ], [ 400048.626653102750424, 3783298.168870803434402 ], [ 400048.32146490336163, 3783298.168870803434402 ], [ 400048.016276703972835, 3783298.474059002939612 ], [ 400048.016276703972835, 3783299.084435401950032 ], [ 400047.71108850458404, 3783299.084435401950032 ], [ 400047.405900305195246, 3783299.38962360098958 ], [ 400046.490335707028862, 3783299.38962360098958 ], [ 400046.185147507640067, 3783299.69481180049479 ], [ 400045.879959308251273, 3783299.69481180049479 ] ] ] } },
{ "type": "Feature", "properties": { "confidence": 0.96809166669845581, "class": 1 }, "geometry": { "type": "Polygon", "coordinates": [ [ [ 399610.681586978607811, 3783213.631739572621882 ], [ 399610.681586978607811, 3783213.326551373116672 ], [ 399610.376398779219016, 3783213.021363174077123 ], [ 399610.376398779219016, 3783210.885045778006315 ], [ 399610.071210579830222, 3783210.579857578966767 ], [ 399610.071210579830222, 3783209.664292980451137 ], [ 399616.174974567664322, 3783209.664292980451137 ], [ 399616.174974567664322, 3783210.274669379461557 ], [ 399615.564598168886732, 3783210.885045778006315 ], [ 399615.564598168886732, 3783211.190233977511525 ], [ 399615.259409969497938, 3783211.190233977511525 ], [ 399614.649033570720349, 3783211.800610376521945 ], [ 399614.343845371331554, 3783211.800610376521945 ], [ 399614.038657171942759, 3783212.105798575561494 ], [ 399613.733468972553965, 3783212.105798575561494 ], [ 399613.42828077316517, 3783212.410986775066704 ], [ 399613.123092573776376, 3783212.410986775066704 ], [ 399612.207527975609992, 3783213.326551373116672 ], [ 399611.902339776221197, 3783213.326551373116672 ], [ 399611.597151576832402, 3783213.631739572621882 ], [ 399610.681586978607811, 3783213.631739572621882 ] ] ] } },
{ "type": "Feature", "properties": { "confidence": 0.95826834440231323, "class": 1 }, "geometry": { "type": "Polygon", "coordinates": [ [ [ 399729.399796541198157, 3783212.410986775066704 ], [ 399729.094608341809362, 3783212.105798575561494 ], [ 399728.484231943031773, 3783212.105798575561494 ], [ 399728.179043743642978, 3783211.800610376521945 ], [ 399727.568667344865389, 3783211.800610376521945 ], [ 399727.263479145476595, 3783211.495422177016735 ], [ 399726.653102746699005, 3783211.495422177016735 ], [ 399726.042726347921416, 3783210.885045778006315 ], [ 399726.042726347921416, 3783210.579857578966767 ], [ 399725.737538148532622, 3783210.274669379461557 ], [ 399725.737538148532622, 3783209.664292980451137 ], [ 399730.620549338753335, 3783209.664292980451137 ], [ 399730.620549338753335, 3783212.105798575561494 ], [ 399730.315361139364541, 3783212.410986775066704 ], [ 399729.399796541198157, 3783212.410986775066704 ] ] ] } },
{ "type": "Feature", "properties": { "confidence": 0.94273322820663452, "class": 1 }, "geometry": { "type": "Polygon", "coordinates": [ [ [ 399629.603255340771284, 3783052.492370294872671 ], [ 399629.298067141382489, 3783052.187182095833123 ], [ 399628.992878941993695, 3783052.187182095833123 ], [ 399628.992878941993695, 3783051.881993896327913 ], [ 399628.382502543216106, 3783051.271617497317493 ], [ 399627.466937945049722, 3783051.271617497317493 ], [ 399627.161749745660927, 3783050.966429298277944 ], [ 399627.161749745660927, 3783048.830111902207136 ], [ 399627.466937945049722, 3783048.524923703167588 ], [ 399627.772126144438516, 3783048.524923703167588 ], [ 399628.077314343827311, 3783048.219735503662378 ], [ 399628.992878941993695, 3783048.219735503662378 ], [ 399629.298067141382489, 3783047.914547304157168 ], [ 399629.908443540160079, 3783047.914547304157168 ], [ 399630.213631739548873, 3783047.609359104651958 ], [ 399631.129196337715257, 3783047.609359104651958 ], [ 399631.434384537104052, 3783047.304170905612409 ], [ 399632.044760935881641, 3783047.304170905612409 ], [ 399632.349949135328643, 3783046.998982706107199 ], [ 399633.265513733495027, 3783046.998982706107199 ], [ 399633.570701932883821, 3783046.693794506601989 ], [ 399635.096642929827794, 3783046.693794506601989 ], [ 399635.401831129216589, 3783046.388606307096779 ], [ 399636.622583926771767, 3783046.388606307096779 ], [ 399636.927772126160562, 3783046.693794506601989 ], [ 399637.232960325549357, 3783046.693794506601989 ], [ 399637.232960325549357, 3783047.914547304157168 ], [ 399637.843336724326946, 3783048.524923703167588 ], [ 399637.538148524938151, 3783048.830111902207136 ], [ 399636.927772126160562, 3783048.830111902207136 ], [ 399636.622583926771767, 3783049.135300101712346 ], [ 399636.012207527994178, 3783049.135300101712346 ], [ 399635.707019328605384, 3783049.440488301217556 ], [ 399635.096642929827794, 3783049.440488301217556 ], [ 399634.791454730439, 3783049.745676500722766 ], [ 399634.181078331661411, 3783049.745676500722766 ], [ 399633.875890132272616, 3783050.050864699762315 ], [ 399633.265513733495027, 3783050.050864699762315 ], [ 399632.960325534106232, 3783050.356052899267524 ], [ 399632.044760935881641, 3783050.356052899267524 ], [ 399631.739572736492846, 3783050.661241098772734 ], [ 399631.434384537104052, 3783050.661241098772734 ], [ 399630.824008138326462, 3783051.271617497317493 ], [ 399630.824008138326462, 3783052.187182095833123 ], [ 399630.518819938937668, 3783052.492370294872671 ], [ 399629.603255340771284, 3783052.492370294872671 ] ] ] } },
{ "type": "Feature", "properties": { "confidence": 0.91649681329727173, "class": 1 }, "geometry": { "type": "Polygon", "coordinates": [ [ [ 399981.180061037652194, 3783156.256358087528497 ], [ 399981.180061037652194, 3783155.951169888023287 ], [ 399980.8748728382634, 3783155.645981688518077 ], [ 399980.569684638874605, 3783155.645981688518077 ], [ 399980.264496439485811, 3783155.340793489478528 ], [ 399980.264496439485811, 3783155.035605289973319 ], [ 399979.959308240097016, 3783154.730417090468109 ], [ 399979.654120040708221, 3783154.730417090468109 ], [ 399979.654120040708221, 3783154.12004069192335 ], [ 399979.348931841319427, 3783153.81485249241814 ], [ 399979.348931841319427, 3783153.50966429291293 ], [ 399979.043743641930632, 3783153.20447609340772 ], [ 399979.043743641930632, 3783152.899287894368172 ], [ 399979.348931841319427, 3783152.594099694862962 ], [ 399979.348931841319427, 3783151.678535096812993 ], [ 399979.654120040708221, 3783151.373346897307783 ], [ 399979.654120040708221, 3783150.762970498297364 ], [ 399980.264496439485811, 3783150.152594099752605 ], [ 399983.011190233984962, 3783150.152594099752605 ], [ 399983.316378433373757, 3783150.457782299257815 ], [ 399983.926754832151346, 3783150.457782299257815 ], [ 399984.231943031540141, 3783150.762970498297364 ], [ 399984.537131230928935, 3783150.762970498297364 ], [ 399984.84231943031773, 3783151.068158697802573 ], [ 399986.063072227872908, 3783151.068158697802573 ], [ 399986.368260427261703, 3783151.373346897307783 ], [ 399987.589013224816881, 3783151.373346897307783 ], [ 399987.894201424205676, 3783151.678535096812993 ], [ 399989.420142421149649, 3783151.678535096812993 ], [ 399989.725330620538443, 3783151.983723295852542 ], [ 399990.030518819927238, 3783151.983723295852542 ], [ 399990.335707019316033, 3783152.288911495357752 ], [ 399990.640895218704827, 3783152.288911495357752 ], [ 399990.946083418093622, 3783152.594099694862962 ], [ 399990.946083418093622, 3783152.899287894368172 ], [ 399991.251271617482416, 3783153.20447609340772 ], [ 399991.251271617482416, 3783153.81485249241814 ], [ 399990.946083418093622, 3783154.12004069192335 ], [ 399990.946083418093622, 3783154.730417090468109 ], [ 399990.030518819927238, 3783155.645981688518077 ], [ 399988.504577822983265, 3783155.645981688518077 ], [ 399988.19938962359447, 3783155.951169888023287 ], [ 399988.19938962359447, 3783156.256358087528497 ], [ 399981.180061037652194, 3783156.256358087528497 ] ] ] } },
{ "type": "Feature", "properties": { "confidence": 0.91571730375289917, "class": 1 }, "geometry": { "type": "Polygon", "coordinates": [ [ [ 399985.147507629706524, 3783215.76805696869269 ], [ 399984.84231943031773, 3783215.46286876918748 ], [ 399983.926754832151346, 3783215.46286876918748 ], [ 399983.621566632762551, 3783215.15768056968227 ], [ 399983.316378433373757, 3783215.15768056968227 ], [ 399983.011190233984962, 3783214.85249237017706 ], [ 399982.706002034596168, 3783214.85249237017706 ], [ 399981.790437436429784, 3783213.936927772127092 ], [ 399981.790437436429784, 3783213.631739572621882 ], [ 399981.485249237040989, 3783213.326551373116672 ], [ 399981.485249237040989, 3783212.716174974571913 ], [ 399981.180061037652194, 3783212.410986775066704 ], [ 399981.180061037652194, 3783211.495422177016735 ], [ 399980.8748728382634, 3783211.190233977511525 ], [ 399980.8748728382634, 3783209.664292980451137 ], [ 399988.19938962359447, 3783209.664292980451137 ], [ 399988.19938962359447, 3783209.969481179956347 ], [ 399988.504577822983265, 3783210.274669379461557 ], [ 399988.504577822983265, 3783210.885045778006315 ], [ 399988.80976602237206, 3783211.190233977511525 ], [ 399988.80976602237206, 3783213.631739572621882 ], [ 399989.114954221760854, 3783213.936927772127092 ], [ 399989.114954221760854, 3783214.547304171137512 ], [ 399988.80976602237206, 3783214.85249237017706 ], [ 399988.80976602237206, 3783215.15768056968227 ], [ 399988.504577822983265, 3783215.15768056968227 ], [ 399988.19938962359447, 3783215.46286876918748 ], [ 399986.978636826039292, 3783215.46286876918748 ], [ 399986.673448626650497, 3783215.76805696869269 ], [ 399985.147507629706524, 3783215.76805696869269 ] ] ] } },
{ "type": "Feature", "properties": { "confidence": 0.88510233163833618, "class": 1 }, "geometry": { "type": "Polygon", "coordinates": [ [ [ 399631.129196337715257, 3783217.599186164792627 ], [ 399630.824008138326462, 3783217.293997965287417 ], [ 399630.518819938937668, 3783217.293997965287417 ], [ 399630.518819938937668, 3783216.988809766247869 ], [ 399630.213631739548873, 3783216.683621566742659 ], [ 399630.518819938937668, 3783216.378433367237449 ], [ 399630.518819938937668, 3783214.242115971632302 ], [ 399630.213631739548873, 3783213.936927772127092 ], [ 399629.908443540160079, 3783213.936927772127092 ], [ 399629.908443540160079, 3783213.631739572621882 ], [ 399629.603255340771284, 3783213.326551373116672 ], [ 399629.298067141382489, 3783213.326551373116672 ], [ 399629.298067141382489, 3783213.021363174077123 ], [ 399628.992878941993695, 3783212.716174974571913 ], [ 399628.992878941993695, 3783212.410986775066704 ], [ 399628.6876907426049, 3783212.105798575561494 ], [ 399628.6876907426049, 3783211.800610376521945 ], [ 399628.382502543216106, 3783211.495422177016735 ], [ 399628.382502543216106, 3783209.664292980451137 ], [ 399637.538148524938151, 3783209.664292980451137 ], [ 399637.538148524938151, 3783210.274669379461557 ], [ 399637.232960325549357, 3783210.579857578966767 ], [ 399637.232960325549357, 3783211.190233977511525 ], [ 399636.622583926771767, 3783211.800610376521945 ], [ 399636.622583926771767, 3783212.105798575561494 ], [ 399636.012207527994178, 3783212.716174974571913 ], [ 399636.012207527994178, 3783213.021363174077123 ], [ 399635.707019328605384, 3783213.326551373116672 ], [ 399635.707019328605384, 3783213.631739572621882 ], [ 399635.401831129216589, 3783213.936927772127092 ], [ 399635.401831129216589, 3783214.85249237017706 ], [ 399635.096642929827794, 3783215.15768056968227 ], [ 399635.096642929827794, 3783215.46286876918748 ], [ 399634.486266531050205, 3783216.073245167732239 ], [ 399634.486266531050205, 3783216.378433367237449 ], [ 399634.181078331661411, 3783216.378433367237449 ], [ 399633.875890132272616, 3783216.683621566742659 ], [ 399633.570701932883821, 3783216.683621566742659 ], [ 399633.265513733495027, 3783216.988809766247869 ], [ 399632.655137334717438, 3783216.988809766247869 ], [ 399632.349949135328643, 3783217.293997965287417 ], [ 399631.434384537104052, 3783217.293997965287417 ], [ 399631.129196337715257, 3783217.599186164792627 ] ] ] } },
{ "type": "Feature", "properties": { "confidence": 0.82935851812362671, "class": 1 }, "geometry": { "type": "Polygon", "coordinates": [ [ [ 399705.59511698881397, 3783233.774160732515156 ], [ 399705.289928789425176, 3783233.468972533009946 ], [ 399704.984740590036381, 3783233.468972533009946 ], [ 399704.679552390647586, 3783233.163784333504736 ], [ 399704.679552390647586, 3783232.858596134465188 ], [ 399704.069175991869997, 3783232.248219735454768 ], [ 399704.069175991869997, 3783227.365208545234054 ], [ 399704.374364191258792, 3783227.060020345728844 ], [ 399704.374364191258792, 3783226.754832146689296 ], [ 399704.984740590036381, 3783226.144455747678876 ], [ 399705.289928789425176, 3783226.144455747678876 ], [ 399705.900305188202765, 3783225.534079349134117 ], [ 399706.205493387591559, 3783225.534079349134117 ], [ 399707.121057985757943, 3783224.618514750618488 ], [ 399707.121057985757943, 3783224.313326551578939 ], [ 399708.036622583924327, 3783223.397761953063309 ], [ 399710.172939979645889, 3783223.397761953063309 ], [ 399710.478128179034684, 3783223.702950152568519 ], [ 399710.478128179034684, 3783227.060020345728844 ], [ 399710.172939979645889, 3783227.365208545234054 ], [ 399710.172939979645889, 3783231.02746693789959 ], [ 399709.867751780257095, 3783231.332655137404799 ], [ 399709.867751780257095, 3783231.637843336910009 ], [ 399709.5625635808683, 3783231.943031535949558 ], [ 399709.5625635808683, 3783232.248219735454768 ], [ 399709.257375381479505, 3783232.553407934959978 ], [ 399709.257375381479505, 3783232.858596134465188 ], [ 399708.952187182090711, 3783233.163784333504736 ], [ 399708.341810783313122, 3783233.163784333504736 ], [ 399708.036622583924327, 3783233.468972533009946 ], [ 399707.731434384535532, 3783233.468972533009946 ], [ 399707.426246185146738, 3783233.774160732515156 ], [ 399705.59511698881397, 3783233.774160732515156 ] ] ] } },
{ "type": "Feature", "properties": { "confidence": 0.81645774841308594, "class": 1 }, "geometry": { "type": "Polygon", "coordinates": [ [ [ 400091.658189216686878, 3783257.578840285073966 ], [ 400091.353001017298084, 3783257.273652085568756 ], [ 400090.4374364191317, 3783257.273652085568756 ], [ 400090.132248219742905, 3783256.968463886063546 ], [ 400089.827060020354111, 3783256.968463886063546 ], [ 400089.827060020354111, 3783256.052899288013577 ], [ 400089.521871820965316, 3783255.747711088508368 ], [ 400089.521871820965316, 3783254.221770091447979 ], [ 400089.216683621576522, 3783253.916581891942769 ], [ 400089.216683621576522, 3783253.306205493398011 ], [ 400089.521871820965316, 3783253.001017293892801 ], [ 400089.521871820965316, 3783252.390640895348042 ], [ 400089.827060020354111, 3783252.390640895348042 ], [ 400090.132248219742905, 3783252.085452695842832 ], [ 400090.132248219742905, 3783251.780264496337622 ], [ 400090.4374364191317, 3783251.780264496337622 ], [ 400090.742624618520495, 3783251.475076296832412 ], [ 400090.742624618520495, 3783251.169888097792864 ], [ 400091.353001017298084, 3783250.559511698782444 ], [ 400091.658189216686878, 3783250.559511698782444 ], [ 400091.963377416075673, 3783250.254323499277234 ], [ 400091.963377416075673, 3783249.949135300237685 ], [ 400092.268565615464468, 3783249.949135300237685 ], [ 400093.794506612408441, 3783248.423194303177297 ], [ 400094.099694811797235, 3783248.423194303177297 ], [ 400094.40488301118603, 3783248.118006103672087 ], [ 400096.236012207518797, 3783248.118006103672087 ], [ 400096.541200406907592, 3783248.423194303177297 ], [ 400096.846388606296387, 3783248.423194303177297 ], [ 400096.846388606296387, 3783248.728382502682507 ], [ 400097.151576805685181, 3783249.033570701722056 ], [ 400097.456765005073976, 3783249.033570701722056 ], [ 400098.37232960324036, 3783249.949135300237685 ], [ 400098.37232960324036, 3783256.358087487053126 ], [ 400097.76195320446277, 3783256.968463886063546 ], [ 400097.151576805685181, 3783256.968463886063546 ], [ 400096.846388606296387, 3783257.273652085568756 ], [ 400095.930824008130003, 3783257.273652085568756 ], [ 400095.625635808741208, 3783257.578840285073966 ], [ 400091.658189216686878, 3783257.578840285073966 ] ] ] } },
{ "type": "Feature", "properties": { "confidence": 0.7344089150428772, "class": 1 }, "geometry": { "type": "Polygon", "coordinates": [ [ [ 399902.746693794499151, 3783101.017293998040259 ], [ 399902.441505595110357, 3783100.712105798535049 ], [ 399902.136317395721562, 3783100.712105798535049 ], [ 399901.525940996943973, 3783100.10172939999029 ], [ 399901.220752797555178, 3783100.10172939999029 ], [ 399900.305188199388795, 3783099.186164801474661 ], [ 399900.305188199388795, 3783097.660223804879934 ], [ 399900.0, 3783097.355035605374724 ], [ 399900.0, 3783097.049847405869514 ], [ 399898.474059003056027, 3783095.523906408809125 ], [ 399898.168870803667232, 3783095.523906408809125 ], [ 399897.863682604278438, 3783095.218718209769577 ], [ 399897.558494404889643, 3783095.218718209769577 ], [ 399897.558494404889643, 3783094.913530010264367 ], [ 399897.253306205500849, 3783094.608341810759157 ], [ 399897.253306205500849, 3783093.082400813698769 ], [ 399901.525940996943973, 3783093.082400813698769 ], [ 399901.831129196332768, 3783092.77721261465922 ], [ 399901.831129196332768, 3783092.47202441515401 ], [ 399906.408952187164687, 3783092.47202441515401 ], [ 399906.408952187164687, 3783092.77721261465922 ], [ 399906.714140386553481, 3783093.082400813698769 ], [ 399907.019328585942276, 3783093.082400813698769 ], [ 399907.019328585942276, 3783093.692777212709188 ], [ 399907.32451678533107, 3783093.997965412214398 ], [ 399907.32451678533107, 3783097.049847405869514 ], [ 399907.019328585942276, 3783097.355035605374724 ], [ 399907.019328585942276, 3783099.186164801474661 ], [ 399906.714140386553481, 3783099.491353000979871 ], [ 399906.714140386553481, 3783099.79654120048508 ], [ 399905.493387588998303, 3783101.017293998040259 ], [ 399902.746693794499151, 3783101.017293998040259 ] ] ] } },
{ "type": "Feature", "properties": { "confidence": 0.64676183462142944, "class": 1 }, "geometry": { "type": "Polygon", "coordinates": [ [ [ 399629.603255340771284, 3783041.810783316381276 ], [ 399628.992878941993695, 3783041.200406917370856 ], [ 399628.992878941993695, 3783040.590030518826097 ], [ 399628.6876907426049, 3783040.284842319320887 ], [ 399628.6876907426049, 3783038.758901322260499 ], [ 399629.298067141382489, 3783038.14852492371574 ], [ 399629.603255340771284, 3783038.14852492371574 ], [ 399629.908443540160079, 3783037.843336724210531 ], [ 399630.518819938937668, 3783037.843336724210531 ], [ 399630.824008138326462, 3783037.538148524705321 ], [ 399631.129196337715257, 3783037.538148524705321 ], [ 399631.739572736492846, 3783036.927772126160562 ], [ 399632.044760935881641, 3783036.927772126160562 ], [ 399632.349949135328643, 3783036.622583926655352 ], [ 399632.655137334717438, 3783036.622583926655352 ], [ 399633.265513733495027, 3783036.012207528110594 ], [ 399633.570701932883821, 3783036.012207528110594 ], [ 399633.875890132272616, 3783035.707019328605384 ], [ 399635.401831129216589, 3783035.707019328605384 ], [ 399636.012207527994178, 3783036.317395727150142 ], [ 399636.012207527994178, 3783037.232960325665772 ], [ 399635.707019328605384, 3783037.538148524705321 ], [ 399635.707019328605384, 3783037.843336724210531 ], [ 399635.401831129216589, 3783038.14852492371574 ], [ 399635.096642929827794, 3783038.14852492371574 ], [ 399634.791454730439, 3783038.45371312322095 ], [ 399634.486266531050205, 3783038.45371312322095 ], [ 399633.875890132272616, 3783039.064089521765709 ], [ 399633.570701932883821, 3783039.064089521765709 ], [ 399633.265513733495027, 3783039.369277721270919 ], [ 399632.960325534106232, 3783039.369277721270919 ], [ 399631.434384537104052, 3783040.895218718331307 ], [ 399631.434384537104052, 3783041.200406917370856 ], [ 399630.824008138326462, 3783041.810783316381276 ], [ 399629.603255340771284, 3783041.810783316381276 ] ] ] } },
{ "type": "Feature", "properties": { "confidence": 0.60406994819641113, "class": 1 }, "geometry": { "type": "Polygon", "coordinates": [ [ [ 400117.904374364181422, 3783448.321464903187007 ], [ 400117.599186164792627, 3783448.016276704147458 ], [ 400117.599186164792627, 3783447.711088504642248 ], [ 400117.904374364181422, 3783447.405900305137038 ], [ 400117.904374364181422, 3783446.18514750758186 ], [ 400117.599186164792627, 3783445.87995930807665 ], [ 400117.599186164792627, 3783445.574771109037101 ], [ 400117.293997965403832, 3783445.269582909531891 ], [ 400117.293997965403832, 3783444.659206510521472 ], [ 400123.702950152568519, 3783444.659206510521472 ], [ 400124.008138351957314, 3783444.964394710026681 ], [ 400124.008138351957314, 3783445.87995930807665 ], [ 400124.313326551346108, 3783446.18514750758186 ], [ 400124.008138351957314, 3783446.49033570708707 ], [ 400124.008138351957314, 3783446.79552390659228 ], [ 400123.702950152568519, 3783446.79552390659228 ], [ 400123.397761953179725, 3783447.100712105631828 ], [ 400123.09257375379093, 3783447.100712105631828 ], [ 400122.787385554402135, 3783447.405900305137038 ], [ 400122.177009155624546, 3783447.405900305137038 ], [ 400121.871820956235752, 3783447.711088504642248 ], [ 400120.956256358069368, 3783447.711088504642248 ], [ 400120.651068158680573, 3783448.016276704147458 ], [ 400119.735503560514189, 3783448.016276704147458 ], [ 400119.430315361125395, 3783448.321464903187007 ], [ 400117.904374364181422, 3783448.321464903187007 ] ] ] } },
{ "type": "Feature", "properties": { "confidence": 0.60096365213394165, "class": 1 }, "geometry": { "type": "Polygon", "coordinates": [ [ [ 399829.501525941013824, 3783362.563580874819309 ], [ 399829.19633774162503, 3783362.258392675314099 ], [ 399828.891149542236235, 3783362.258392675314099 ], [ 399828.891149542236235, 3783360.427263479214162 ], [ 399829.19633774162503, 3783360.427263479214162 ], [ 399829.501525941013824, 3783360.122075279708952 ], [ 399833.163784333679359, 3783360.122075279708952 ], [ 399833.468972533068154, 3783360.427263479214162 ], [ 399833.468972533068154, 3783361.34282807726413 ], [ 399833.163784333679359, 3783361.64801627676934 ], [ 399833.163784333679359, 3783361.95320447627455 ], [ 399832.858596134290565, 3783362.258392675314099 ], [ 399832.55340793490177, 3783362.258392675314099 ], [ 399832.248219735512976, 3783362.563580874819309 ], [ 399829.501525941013824, 3783362.563580874819309 ] ] ] } },
{ "type": "Feature", "properties": { "confidence": 0.5923188328742981, "class": 1 }, "geometry": { "type": "Polygon", "coordinates": [ [ [ 400014.750762970477808, 3783247.202441505622119 ], [ 400014.445574771089014, 3783246.897253306116909 ], [ 400013.224821973533835, 3783246.897253306116909 ], [ 400012.919633774145041, 3783246.592065106611699 ], [ 400012.614445574756246, 3783246.592065106611699 ], [ 400012.309257375367451, 3783246.28687690757215 ], [ 400012.309257375367451, 3783241.709053916390985 ], [ 400013.224821973533835, 3783240.793489318341017 ], [ 400013.53001017292263, 3783240.793489318341017 ], [ 400013.835198372311424, 3783240.488301118835807 ], [ 400013.835198372311424, 3783240.183112919796258 ], [ 400014.140386571700219, 3783239.877924720291048 ], [ 400014.140386571700219, 3783238.35198372323066 ], [ 400013.835198372311424, 3783238.04679552372545 ], [ 400013.835198372311424, 3783237.741607324685901 ], [ 400014.140386571700219, 3783237.436419125180691 ], [ 400014.140386571700219, 3783237.131230925675482 ], [ 400014.445574771089014, 3783236.826042726170272 ], [ 400016.88708036619937, 3783236.826042726170272 ], [ 400017.49745676497696, 3783237.436419125180691 ], [ 400018.107833163812757, 3783237.436419125180691 ], [ 400018.718209562590346, 3783238.04679552372545 ], [ 400018.718209562590346, 3783240.793489318341017 ], [ 400018.413021363201551, 3783241.098677517846227 ], [ 400018.413021363201551, 3783241.709053916390985 ], [ 400017.49745676497696, 3783242.624618514906615 ], [ 400017.49745676497696, 3783243.234994913451374 ], [ 400017.192268565588165, 3783243.540183112956583 ], [ 400017.192268565588165, 3783245.066124110016972 ], [ 400016.88708036619937, 3783245.37131230905652 ], [ 400016.88708036619937, 3783246.592065106611699 ], [ 400016.581892166810576, 3783246.897253306116909 ], [ 400016.581892166810576, 3783247.202441505622119 ], [ 400014.750762970477808, 3783247.202441505622119 ] ] ] } },
{ "type": "Feature", "properties": { "confidence": 0.55498147010803223, "class": 1 }, "geometry": { "type": "Polygon", "coordinates": [ [ [ 399699.796541200426873, 3783447.711088504642248 ], [ 399699.491353001038078, 3783447.405900305137038 ], [ 399698.575788402871694, 3783447.405900305137038 ], [ 399697.965412004094105, 3783446.79552390659228 ], [ 399697.660223804705311, 3783446.79552390659228 ], [ 399697.049847405927721, 3783446.18514750758186 ], [ 399696.744659206538927, 3783446.18514750758186 ], [ 399696.439471007150132, 3783445.87995930807665 ], [ 399696.13428280770313, 3783445.87995930807665 ], [ 399695.829094608314335, 3783445.574771109037101 ], [ 399695.523906408925541, 3783445.574771109037101 ], [ 399694.608341810759157, 3783444.659206510521472 ], [ 399694.608341810759157, 3783444.048830111976713 ], [ 399703.458799593092408, 3783444.048830111976713 ], [ 399703.458799593092408, 3783444.659206510521472 ], [ 399703.153611393703613, 3783444.964394710026681 ], [ 399703.153611393703613, 3783445.269582909531891 ], [ 399702.848423194314819, 3783445.269582909531891 ], [ 399701.932858596148435, 3783446.18514750758186 ], [ 399701.932858596148435, 3783446.49033570708707 ], [ 399701.017293997982051, 3783447.405900305137038 ], [ 399700.712105798593257, 3783447.405900305137038 ], [ 399700.406917599204462, 3783447.711088504642248 ], [ 399699.796541200426873, 3783447.711088504642248 ] ] ] } },
{ "type": "Feature", "properties": { "confidence": 0.54263663291931152, "class": 1 }, "geometry": { "type": "Polygon", "coordinates": [ [ [ 400078.535096642910503, 3783298.779247202444822 ], [ 400077.619532044744119, 3783297.863682604394853 ], [ 400077.619532044744119, 3783294.811800610274076 ], [ 400077.924720244132914, 3783294.506612410768867 ], [ 400077.924720244132914, 3783289.318413021508604 ], [ 400078.229908443521708, 3783289.013224822003394 ], [ 400078.229908443521708, 3783288.708036622498184 ], [ 400080.061037639854476, 3783286.876907426398247 ], [ 400080.36622583924327, 3783286.876907426398247 ], [ 400082.197355035634246, 3783285.045778229832649 ], [ 400082.50254323502304, 3783285.045778229832649 ], [ 400082.807731434411835, 3783284.740590030327439 ], [ 400084.028484231967013, 3783284.740590030327439 ], [ 400084.028484231967013, 3783285.045778229832649 ], [ 400084.333672431355808, 3783285.350966429337859 ], [ 400084.333672431355808, 3783286.571719226893038 ], [ 400084.028484231967013, 3783286.876907426398247 ], [ 400084.028484231967013, 3783288.708036622498184 ], [ 400083.723296032578219, 3783289.013224822003394 ], [ 400083.723296032578219, 3783289.623601220548153 ], [ 400083.418107833189424, 3783289.928789420053363 ], [ 400083.418107833189424, 3783290.233977619558573 ], [ 400083.11291963380063, 3783290.539165819063783 ], [ 400083.11291963380063, 3783291.149542217608541 ], [ 400082.807731434411835, 3783291.454730417113751 ], [ 400082.807731434411835, 3783292.06510681565851 ], [ 400082.50254323502304, 3783292.37029501516372 ], [ 400082.50254323502304, 3783294.201424211729318 ], [ 400082.807731434411835, 3783294.506612410768867 ], [ 400082.807731434411835, 3783294.811800610274076 ], [ 400083.11291963380063, 3783295.116988809779286 ], [ 400083.11291963380063, 3783296.642929806839675 ], [ 400082.197355035634246, 3783297.558494404889643 ], [ 400081.892166836187243, 3783297.558494404889643 ], [ 400081.586978636798449, 3783297.863682604394853 ], [ 400081.281790437409654, 3783297.863682604394853 ], [ 400080.671414038632065, 3783298.474059002939612 ], [ 400080.061037639854476, 3783298.474059002939612 ], [ 400079.755849440465681, 3783298.779247202444822 ], [ 400078.535096642910503, 3783298.779247202444822 ] ] ] } },
{ "type": "Feature", "properties": { "confidence": 0.54169416427612305, "class": 1 }, "geometry": { "type": "Polygon", "coordinates": [ [ [ 399840.183112919621635, 3783390.946083418093622 ], [ 399839.877924720232841, 3783390.640895218588412 ], [ 399839.877924720232841, 3783390.335707019548863 ], [ 399839.572736520844046, 3783390.030518820043653 ], [ 399839.572736520844046, 3783389.114954221993685 ], [ 399839.267548321455251, 3783388.809766022488475 ], [ 399839.267548321455251, 3783388.199389623478055 ], [ 399838.962360122066457, 3783387.894201424438506 ], [ 399838.962360122066457, 3783387.283825025428087 ], [ 399839.267548321455251, 3783386.978636825922877 ], [ 399839.267548321455251, 3783386.368260427378118 ], [ 399839.877924720232841, 3783385.757884028367698 ], [ 399839.877924720232841, 3783385.452695828862488 ], [ 399840.48830111901043, 3783384.84231943031773 ], [ 399840.793489318399224, 3783384.84231943031773 ], [ 399842.014242115954403, 3783383.621566632762551 ], [ 399842.624618514731992, 3783383.621566632762551 ], [ 399842.929806714120787, 3783383.316378433257341 ], [ 399843.84537131228717, 3783383.316378433257341 ], [ 399844.150559511675965, 3783383.621566632762551 ], [ 399844.150559511675965, 3783383.926754832267761 ], [ 399844.760935910453554, 3783384.53713123081252 ], [ 399844.760935910453554, 3783384.84231943031773 ], [ 399845.371312309231143, 3783385.452695828862488 ], [ 399845.371312309231143, 3783385.757884028367698 ], [ 399845.676500508619938, 3783386.063072227872908 ], [ 399845.676500508619938, 3783387.589013224933296 ], [ 399845.371312309231143, 3783387.894201424438506 ], [ 399845.371312309231143, 3783388.199389623478055 ], [ 399845.066124109842349, 3783388.504577822983265 ], [ 399845.066124109842349, 3783388.809766022488475 ], [ 399844.760935910453554, 3783389.114954221993685 ], [ 399844.760935910453554, 3783389.420142421033233 ], [ 399843.84537131228717, 3783390.335707019548863 ], [ 399842.624618514731992, 3783390.335707019548863 ], [ 399842.319430315343197, 3783390.640895218588412 ], [ 399841.403865717176814, 3783390.640895218588412 ], [ 399841.098677517788019, 3783390.946083418093622 ], [ 399840.183112919621635, 3783390.946083418093622 ] ] ] } },
{ "type": "Feature", "properties": { "confidence": 0.53613060712814331, "class": 1 }, "geometry": { "type": "Polygon", "coordinates": [ [ [ 399795.625635808741208, 3783133.062054933980107 ], [ 399795.320447609352414, 3783132.756866734474897 ], [ 399794.40488301118603, 3783132.756866734474897 ], [ 399794.099694811797235, 3783132.451678534969687 ], [ 399793.489318413019646, 3783132.451678534969687 ], [ 399793.184130213630851, 3783132.146490335930139 ], [ 399792.878942014242057, 3783132.146490335930139 ], [ 399792.573753814853262, 3783131.841302136424929 ], [ 399792.268565615464468, 3783131.841302136424929 ], [ 399791.963377416075673, 3783131.536113936919719 ], [ 399791.353001017298084, 3783131.536113936919719 ], [ 399790.132248219742905, 3783130.315361139364541 ], [ 399790.132248219742905, 3783129.704984740819782 ], [ 399789.827060020354111, 3783129.399796541314572 ], [ 399789.827060020354111, 3783128.789420142304152 ], [ 399789.521871820965316, 3783128.484231942798942 ], [ 399789.521871820965316, 3783127.873855544254184 ], [ 399789.827060020354111, 3783127.568667344748974 ], [ 399789.827060020354111, 3783125.737538148649037 ], [ 399790.132248219742905, 3783125.432349949143827 ], [ 399790.132248219742905, 3783124.516785351093858 ], [ 399790.4374364191317, 3783124.211597151588649 ], [ 399793.184130213630851, 3783124.211597151588649 ], [ 399793.794506612408441, 3783124.821973550133407 ], [ 399794.099694811797235, 3783124.821973550133407 ], [ 399794.40488301118603, 3783125.127161749638617 ], [ 399794.710071210574824, 3783125.127161749638617 ], [ 399795.015259409963619, 3783125.432349949143827 ], [ 399795.320447609352414, 3783125.432349949143827 ], [ 399795.625635808741208, 3783125.737538148649037 ], [ 399796.236012207518797, 3783125.737538148649037 ], [ 399796.541200406907592, 3783126.042726347688586 ], [ 399796.846388606296387, 3783126.042726347688586 ], [ 399797.151576805685181, 3783126.347914547193795 ], [ 399797.456765005073976, 3783126.347914547193795 ], [ 399797.76195320446277, 3783126.653102746699005 ], [ 399798.37232960324036, 3783126.653102746699005 ], [ 399798.982706002017949, 3783127.263479145243764 ], [ 399798.982706002017949, 3783130.010172939859331 ], [ 399798.677517802629154, 3783130.315361139364541 ], [ 399798.677517802629154, 3783131.536113936919719 ], [ 399798.37232960324036, 3783131.841302136424929 ], [ 399798.37232960324036, 3783132.146490335930139 ], [ 399798.067141403851565, 3783132.451678534969687 ], [ 399798.067141403851565, 3783132.756866734474897 ], [ 399797.76195320446277, 3783133.062054933980107 ], [ 399795.625635808741208, 3783133.062054933980107 ] ] ] } },
{ "type": "Feature", "properties": { "confidence": 0.5264742374420166, "class": 1 }, "geometry": { "type": "Polygon", "coordinates": [ [ [ 399985.452695829095319, 3783095.829094608314335 ], [ 399985.147507629706524, 3783095.523906408809125 ], [ 399985.147507629706524, 3783095.218718209769577 ], [ 399984.84231943031773, 3783094.913530010264367 ], [ 399984.84231943031773, 3783094.608341810759157 ], [ 399984.537131230928935, 3783094.303153611253947 ], [ 399984.537131230928935, 3783093.997965412214398 ], [ 399983.621566632762551, 3783093.082400813698769 ], [ 399983.621566632762551, 3783092.47202441515401 ], [ 399988.19938962359447, 3783092.47202441515401 ], [ 399988.19938962359447, 3783093.997965412214398 ], [ 399986.978636826039292, 3783095.218718209769577 ], [ 399986.673448626650497, 3783095.218718209769577 ], [ 399986.368260427261703, 3783095.523906408809125 ], [ 399986.063072227872908, 3783095.523906408809125 ], [ 399985.757884028484114, 3783095.829094608314335 ], [ 399985.452695829095319, 3783095.829094608314335 ] ] ] } },
{ "type": "Feature", "properties": { "confidence": 0.48240441083908081, "class": 1 }, "geometry": { "type": "Polygon", "coordinates": [ [ [ 400133.468972533068154, 3783330.51881993887946 ], [ 400133.163784333679359, 3783330.21363173937425 ], [ 400132.248219735512976, 3783330.21363173937425 ], [ 400131.943031536124181, 3783329.908443540334702 ], [ 400131.943031536124181, 3783327.772126144263893 ], [ 400132.248219735512976, 3783327.466937945224345 ], [ 400132.248219735512976, 3783326.856561546213925 ], [ 400132.858596134290565, 3783326.246185147669166 ], [ 400132.858596134290565, 3783325.635808748658746 ], [ 400133.163784333679359, 3783325.330620549153537 ], [ 400133.163784333679359, 3783325.025432350113988 ], [ 400133.468972533068154, 3783324.720244150608778 ], [ 400133.468972533068154, 3783324.109867751598358 ], [ 400134.079348931845743, 3783323.4994913530536 ], [ 400135.910478128178511, 3783323.4994913530536 ], [ 400136.215666327567305, 3783323.80467955255881 ], [ 400136.5208545269561, 3783323.80467955255881 ], [ 400136.826042726344895, 3783324.109867751598358 ], [ 400137.436419125122484, 3783324.109867751598358 ], [ 400137.436419125122484, 3783324.415055951103568 ], [ 400137.741607324511278, 3783324.720244150608778 ], [ 400138.351983723288868, 3783324.720244150608778 ], [ 400138.962360122066457, 3783325.330620549153537 ], [ 400138.962360122066457, 3783327.466937945224345 ], [ 400138.657171922677662, 3783327.772126144263893 ], [ 400138.657171922677662, 3783328.382502543274313 ], [ 400138.351983723288868, 3783328.687690742779523 ], [ 400138.351983723288868, 3783328.992878941819072 ], [ 400137.436419125122484, 3783329.908443540334702 ], [ 400137.436419125122484, 3783330.21363173937425 ], [ 400136.826042726344895, 3783330.21363173937425 ], [ 400136.5208545269561, 3783330.51881993887946 ], [ 400133.468972533068154, 3783330.51881993887946 ] ] ] } },
{ "type": "Feature", "properties": { "confidence": 0.48164200782775879, "class": 1 }, "geometry": { "type": "Polygon", "coordinates": [ [ [ 400051.373346897249576, 3783506.002034587785602 ], [ 400051.068158697860781, 3783505.696846388746053 ], [ 400050.762970498471987, 3783505.696846388746053 ], [ 400049.847405900305603, 3783504.781281790230423 ], [ 400049.847405900305603, 3783504.476093591190875 ], [ 400049.542217700916808, 3783504.170905391685665 ], [ 400049.542217700916808, 3783501.729399796575308 ], [ 400049.847405900305603, 3783501.424211597070098 ], [ 400049.847405900305603, 3783499.593082400970161 ], [ 400050.152594099694397, 3783499.287894201464951 ], [ 400050.152594099694397, 3783498.677517802454531 ], [ 400050.457782299083192, 3783498.372329603414983 ], [ 400050.457782299083192, 3783498.067141403909773 ], [ 400050.762970498471987, 3783498.067141403909773 ], [ 400051.373346897249576, 3783497.456765004899353 ], [ 400051.67853509663837, 3783497.456765004899353 ], [ 400051.983723296027165, 3783497.151576805859804 ], [ 400055.6459816886927, 3783497.151576805859804 ], [ 400055.951169888081495, 3783497.456765004899353 ], [ 400056.256358087470289, 3783497.456765004899353 ], [ 400056.256358087470289, 3783497.761953204404563 ], [ 400056.866734486247879, 3783498.372329603414983 ], [ 400056.866734486247879, 3783498.677517802454531 ], [ 400057.171922685636673, 3783498.982706001959741 ], [ 400057.171922685636673, 3783501.729399796575308 ], [ 400056.866734486247879, 3783502.034587996080518 ], [ 400056.866734486247879, 3783502.644964394625276 ], [ 400056.561546286859084, 3783502.950152594130486 ], [ 400056.561546286859084, 3783503.255340793635696 ], [ 400056.256358087470289, 3783503.560528992675245 ], [ 400056.256358087470289, 3783503.865717192180455 ], [ 400055.951169888081495, 3783504.170905391685665 ], [ 400055.951169888081495, 3783504.476093591190875 ], [ 400055.6459816886927, 3783504.781281790230423 ], [ 400055.6459816886927, 3783505.086469989735633 ], [ 400055.035605289915111, 3783505.696846388746053 ], [ 400054.730417090526316, 3783505.696846388746053 ], [ 400054.425228891137522, 3783506.002034587785602 ], [ 400051.373346897249576, 3783506.002034587785602 ] ] ] } },
{ "type": "Feature", "properties": { "confidence": 0.46243807673454285, "class": 1 }, "geometry": { "type": "Polygon", "coordinates": [ [ [ 399722.075279755867086, 3783447.100712105631828 ], [ 399721.770091556478292, 3783446.79552390659228 ], [ 399721.159715157700703, 3783446.79552390659228 ], [ 399720.549338758923113, 3783446.18514750758186 ], [ 399720.549338758923113, 3783444.659206510521472 ], [ 399720.244150559534319, 3783444.354018311481923 ], [ 399720.244150559534319, 3783444.048830111976713 ], [ 399727.873855544254184, 3783444.048830111976713 ], [ 399727.873855544254184, 3783444.964394710026681 ], [ 399727.568667344865389, 3783445.269582909531891 ], [ 399727.568667344865389, 3783445.574771109037101 ], [ 399727.263479145476595, 3783445.87995930807665 ], [ 399726.347914547310211, 3783445.87995930807665 ], [ 399726.042726347921416, 3783446.18514750758186 ], [ 399725.432349949143827, 3783446.18514750758186 ], [ 399725.127161749755032, 3783446.49033570708707 ], [ 399723.601220752811059, 3783446.49033570708707 ], [ 399723.296032553422265, 3783446.79552390659228 ], [ 399722.380467955255881, 3783446.79552390659228 ], [ 399722.075279755867086, 3783447.100712105631828 ] ] ] } },
{ "type": "Feature", "properties": { "confidence": 0.44629186391830444, "class": 1 }, "geometry": { "type": "Polygon", "coordinates": [ [ [ 400033.367243133252487, 3783295.116988809779286 ], [ 400032.756866734474897, 3783294.506612410768867 ], [ 400032.756866734474897, 3783293.285859613213688 ], [ 400032.451678535086103, 3783292.980671414174139 ], [ 400032.451678535086103, 3783290.233977619558573 ], [ 400032.146490335697308, 3783289.928789420053363 ], [ 400032.146490335697308, 3783285.045778229832649 ], [ 400032.451678535086103, 3783284.740590030327439 ], [ 400032.451678535086103, 3783284.435401831287891 ], [ 400032.756866734474897, 3783284.130213631782681 ], [ 400033.062054933863692, 3783284.130213631782681 ], [ 400033.367243133252487, 3783283.825025432277471 ], [ 400033.672431332641281, 3783283.825025432277471 ], [ 400034.28280773141887, 3783283.214649033732712 ], [ 400034.587995930807665, 3783283.214649033732712 ], [ 400034.89318413019646, 3783282.909460834227502 ], [ 400035.198372329585254, 3783282.909460834227502 ], [ 400035.503560528974049, 3783282.604272634722292 ], [ 400035.808748728362843, 3783282.909460834227502 ], [ 400036.419125127140433, 3783282.909460834227502 ], [ 400036.724313326529227, 3783283.214649033732712 ], [ 400036.724313326529227, 3783283.519837232772261 ], [ 400037.029501525918022, 3783283.825025432277471 ], [ 400037.029501525918022, 3783284.130213631782681 ], [ 400037.334689725306816, 3783284.435401831287891 ], [ 400037.334689725306816, 3783285.656154628843069 ], [ 400038.2502543234732, 3783286.571719226893038 ], [ 400038.2502543234732, 3783286.876907426398247 ], [ 400039.471007121086586, 3783288.097660223953426 ], [ 400039.471007121086586, 3783288.402848422992975 ], [ 400040.081383519864175, 3783289.013224822003394 ], [ 400039.776195320475381, 3783289.318413021508604 ], [ 400039.776195320475381, 3783289.928789420053363 ], [ 400039.471007121086586, 3783290.233977619558573 ], [ 400039.165818921639584, 3783290.233977619558573 ], [ 400038.860630722250789, 3783290.539165819063783 ], [ 400038.860630722250789, 3783291.149542217608541 ], [ 400038.2502543234732, 3783291.759918616618961 ], [ 400038.2502543234732, 3783292.06510681565851 ], [ 400037.945066124084406, 3783292.37029501516372 ], [ 400037.945066124084406, 3783292.980671414174139 ], [ 400037.639877924695611, 3783293.285859613213688 ], [ 400037.639877924695611, 3783294.201424211729318 ], [ 400037.334689725306816, 3783294.506612410768867 ], [ 400037.029501525918022, 3783294.506612410768867 ], [ 400036.724313326529227, 3783294.811800610274076 ], [ 400035.503560528974049, 3783294.811800610274076 ], [ 400035.198372329585254, 3783295.116988809779286 ], [ 400033.367243133252487, 3783295.116988809779286 ] ] ] } },
{ "type": "Feature", "properties": { "confidence": 0.39181554317474365, "class": 1 }, "geometry": { "type": "Polygon", "coordinates": [ [ [ 400127.975584944069851, 3783448.016276704147458 ], [ 400127.670396744681057, 3783447.711088504642248 ], [ 400127.670396744681057, 3783447.100712105631828 ], [ 400127.365208545292262, 3783446.79552390659228 ], [ 400127.365208545292262, 3783446.49033570708707 ], [ 400127.060020345903467, 3783446.18514750758186 ], [ 400127.060020345903467, 3783445.87995930807665 ], [ 400126.754832146514673, 3783445.574771109037101 ], [ 400126.754832146514673, 3783444.048830111976713 ], [ 400131.943031536124181, 3783444.048830111976713 ], [ 400131.943031536124181, 3783445.574771109037101 ], [ 400131.637843336735386, 3783445.87995930807665 ], [ 400131.332655137346592, 3783445.87995930807665 ], [ 400131.027466937957797, 3783446.18514750758186 ], [ 400130.722278738569003, 3783446.18514750758186 ], [ 400128.891149542236235, 3783448.016276704147458 ], [ 400127.975584944069851, 3783448.016276704147458 ] ] ] } },
{ "type": "Feature", "properties": { "confidence": 0.38392594456672668, "class": 1 }, "geometry": { "type": "Polygon", "coordinates": [ [ [ 399952.492370294989087, 3783075.991861647926271 ], [ 399952.492370294989087, 3783075.381485249381512 ], [ 399952.187182095600292, 3783075.076297049876302 ], [ 399952.187182095600292, 3783074.771108850371093 ], [ 399952.492370294989087, 3783074.465920650865883 ], [ 399952.492370294989087, 3783062.258392675314099 ], [ 399952.797558494377881, 3783061.95320447627455 ], [ 399952.797558494377881, 3783061.03763987775892 ], [ 399952.492370294989087, 3783060.732451678719372 ], [ 399953.102746693766676, 3783060.122075279708952 ], [ 399953.102746693766676, 3783059.511698881164193 ], [ 399952.797558494377881, 3783059.206510681658983 ], [ 399953.102746693766676, 3783058.901322482153773 ], [ 399953.102746693766676, 3783058.290946083609015 ], [ 399953.40793489315547, 3783057.985757884103805 ], [ 399953.40793489315547, 3783057.680569684598595 ], [ 399953.713123092602473, 3783057.375381485093385 ], [ 399954.323499491380062, 3783057.375381485093385 ], [ 399954.628687690768857, 3783057.680569684598595 ], [ 399954.933875890157651, 3783057.680569684598595 ], [ 399954.933875890157651, 3783057.985757884103805 ], [ 399955.54425228893524, 3783058.596134282648563 ], [ 399955.54425228893524, 3783058.901322482153773 ], [ 399955.849440488324035, 3783059.206510681658983 ], [ 399956.15462868771283, 3783059.206510681658983 ], [ 399956.765005086490419, 3783059.816887080203742 ], [ 399957.070193285879213, 3783059.816887080203742 ], [ 399958.290946083434392, 3783061.03763987775892 ], [ 399958.290946083434392, 3783062.258392675314099 ], [ 399958.596134282823186, 3783062.563580874819309 ], [ 399958.596134282823186, 3783072.024415055755526 ], [ 399958.290946083434392, 3783072.329603255260736 ], [ 399958.290946083434392, 3783072.634791454765946 ], [ 399957.680569684656803, 3783073.245167853310704 ], [ 399957.680569684656803, 3783073.550356052815914 ], [ 399957.375381485268008, 3783073.855544252321124 ], [ 399957.375381485268008, 3783074.160732451826334 ], [ 399955.849440488324035, 3783075.686673448421061 ], [ 399955.239064089546446, 3783075.686673448421061 ], [ 399954.933875890157651, 3783075.991861647926271 ], [ 399952.492370294989087, 3783075.991861647926271 ] ] ] } },
{ "type": "Feature", "properties": { "confidence": 0.34411224722862244, "class": 1 }, "geometry": { "type": "Polygon", "coordinates": [ [ [ 399645.778229908435605, 3783040.895218718331307 ], [ 399645.473041709046811, 3783040.590030518826097 ], [ 399645.167853509658016, 3783040.590030518826097 ], [ 399644.862665310269222, 3783040.284842319320887 ], [ 399644.862665310269222, 3783039.674465920776129 ], [ 399644.557477110880427, 3783039.369277721270919 ], [ 399644.557477110880427, 3783039.064089521765709 ], [ 399644.252288911491632, 3783038.758901322260499 ], [ 399644.252288911491632, 3783038.45371312322095 ], [ 399644.557477110880427, 3783038.14852492371574 ], [ 399644.557477110880427, 3783036.012207528110594 ], [ 399644.252288911491632, 3783035.707019328605384 ], [ 399644.252288911491632, 3783035.401831129100174 ], [ 399644.557477110880427, 3783035.096642929594964 ], [ 399644.557477110880427, 3783034.486266531050205 ], [ 399644.862665310269222, 3783034.181078331544995 ], [ 399644.862665310269222, 3783033.875890132039785 ], [ 399645.167853509658016, 3783033.570701933000237 ], [ 399645.167853509658016, 3783032.960325533989817 ], [ 399645.473041709046811, 3783032.960325533989817 ], [ 399646.0834181078244, 3783032.349949135445058 ], [ 399646.998982705990784, 3783032.349949135445058 ], [ 399647.304170905379578, 3783032.044760935939848 ], [ 399647.304170905379578, 3783030.82400813838467 ], [ 399649.135300101712346, 3783030.82400813838467 ], [ 399649.440488301101141, 3783031.12919633788988 ], [ 399649.440488301101141, 3783031.739572736434639 ], [ 399649.745676500489935, 3783032.044760935939848 ], [ 399649.745676500489935, 3783032.349949135445058 ], [ 399650.05086469987873, 3783032.655137334484607 ], [ 399650.05086469987873, 3783033.265513733495027 ], [ 399650.356052899267524, 3783033.570701933000237 ], [ 399650.356052899267524, 3783034.486266531050205 ], [ 399650.661241098656319, 3783034.791454730555415 ], [ 399650.661241098656319, 3783035.707019328605384 ], [ 399651.576805696822703, 3783036.622583926655352 ], [ 399651.576805696822703, 3783036.927772126160562 ], [ 399650.966429298045114, 3783037.538148524705321 ], [ 399650.661241098656319, 3783037.538148524705321 ], [ 399650.356052899267524, 3783037.843336724210531 ], [ 399649.745676500489935, 3783037.843336724210531 ], [ 399648.524923702934757, 3783039.064089521765709 ], [ 399648.524923702934757, 3783039.369277721270919 ], [ 399648.219735503545962, 3783039.674465920776129 ], [ 399648.219735503545962, 3783040.284842319320887 ], [ 399647.914547304157168, 3783040.590030518826097 ], [ 399647.609359104768373, 3783040.590030518826097 ], [ 399647.304170905379578, 3783040.895218718331307 ], [ 399645.778229908435605, 3783040.895218718331307 ] ] ] } },
{ "type": "Feature", "properties": { "confidence": 0.31439131498336792, "class": 1 }, "geometry": { "type": "Polygon", "coordinates": [ [ [ 399717.802644964365754, 3783113.224821973592043 ], [ 399717.49745676497696, 3783112.919633774086833 ], [ 399717.192268565588165, 3783112.919633774086833 ], [ 399717.192268565588165, 3783112.309257375542074 ], [ 399717.49745676497696, 3783112.309257375542074 ], [ 399718.413021363201551, 3783111.393692777026445 ], [ 399718.413021363201551, 3783110.478128178976476 ], [ 399718.718209562590346, 3783110.172939979471266 ], [ 399718.718209562590346, 3783109.562563580926508 ], [ 399718.413021363201551, 3783109.257375381421298 ], [ 399718.718209562590346, 3783109.257375381421298 ], [ 399719.02339776197914, 3783108.952187181916088 ], [ 399719.938962360145524, 3783108.952187181916088 ], [ 399720.854526958311908, 3783109.867751780431718 ], [ 399721.159715157700703, 3783109.867751780431718 ], [ 399721.464903357089497, 3783110.172939979471266 ], [ 399721.464903357089497, 3783112.309257375542074 ], [ 399720.854526958311908, 3783112.919633774086833 ], [ 399720.549338758923113, 3783112.919633774086833 ], [ 399720.244150559534319, 3783113.224821973592043 ], [ 399717.802644964365754, 3783113.224821973592043 ] ] ] } },
{ "type": "Feature", "properties": { "confidence": 0.30889394879341125, "class": 1 }, "geometry": { "type": "Polygon", "coordinates": [ [ [ 399982.095625635818578, 3783079.043743642047048 ], [ 399981.790437436429784, 3783078.738555442541838 ], [ 399981.485249237040989, 3783078.738555442541838 ], [ 399981.485249237040989, 3783078.433367243036628 ], [ 399980.8748728382634, 3783077.822990844491869 ], [ 399980.8748728382634, 3783077.212614445481449 ], [ 399980.569684638874605, 3783076.907426245976239 ], [ 399980.569684638874605, 3783074.771108850371093 ], [ 399980.8748728382634, 3783074.465920650865883 ], [ 399981.180061037652194, 3783074.465920650865883 ], [ 399981.485249237040989, 3783074.160732451826334 ], [ 399982.095625635818578, 3783074.160732451826334 ], [ 399982.400813835207373, 3783073.855544252321124 ], [ 399984.84231943031773, 3783073.855544252321124 ], [ 399985.147507629706524, 3783074.160732451826334 ], [ 399985.452695829095319, 3783074.160732451826334 ], [ 399985.452695829095319, 3783074.465920650865883 ], [ 399985.757884028484114, 3783074.771108850371093 ], [ 399986.063072227872908, 3783074.771108850371093 ], [ 399986.063072227872908, 3783075.381485249381512 ], [ 399986.673448626650497, 3783075.991861647926271 ], [ 399986.673448626650497, 3783077.822990844491869 ], [ 399986.368260427261703, 3783078.128179043531418 ], [ 399986.368260427261703, 3783078.433367243036628 ], [ 399986.063072227872908, 3783078.433367243036628 ], [ 399985.757884028484114, 3783078.738555442541838 ], [ 399985.452695829095319, 3783078.738555442541838 ], [ 399985.147507629706524, 3783079.043743642047048 ], [ 399982.095625635818578, 3783079.043743642047048 ] ] ] } },
{ "type": "Feature", "properties": { "confidence": 0.29435589909553528, "class": 1 }, "geometry": { "type": "Polygon", "coordinates": [ [ [ 399939.674465920659713, 3783094.913530010264367 ], [ 399939.369277721270919, 3783094.608341810759157 ], [ 399937.232960325549357, 3783094.608341810759157 ], [ 399937.232960325549357, 3783094.303153611253947 ], [ 399936.927772126160562, 3783093.997965412214398 ], [ 399936.622583926771767, 3783093.997965412214398 ], [ 399936.622583926771767, 3783093.082400813698769 ], [ 399936.317395727382973, 3783092.77721261465922 ], [ 399936.317395727382973, 3783092.47202441515401 ], [ 399943.641912512714043, 3783092.47202441515401 ], [ 399943.641912512714043, 3783093.997965412214398 ], [ 399943.031536113936454, 3783094.608341810759157 ], [ 399941.505595116992481, 3783094.608341810759157 ], [ 399941.200406917603686, 3783094.913530010264367 ], [ 399939.674465920659713, 3783094.913530010264367 ] ] ] } }
]
}
