{
"type": "FeatureCollection",
"name": "cell_00498_pre",
"crs": { "type": "name", "properties": { "name": "urn:ogc:def:crs:EPSG::32611" } },
"features": [
{ "type": "Feature", "properties": { "confidence": 0.9607653021812439, "class": 1 }, "geometry": { "type": "Polygon", "coordinates": [ [ [ 402487.690742624632549, 3783219.125127161853015 ], [ 402487.385554425243754, 3783218.819938962347806 ], [ 402486.164801627688576, 3783218.819938962347806 ], [ 402485.859613428299781, 3783218.514750762842596 ], [ 402485.859613428299781, 3783217.293997965287417 ], [ 402486.164801627688576, 3783216.988809766247869 ], [ 402486.164801627688576, 3783216.683621566742659 ], [ 402487.385554425243754, 3783215.46286876918748 ], [ 402487.690742624632549, 3783215.46286876918748 ], [ 402488.301119023410138, 3783214.85249237017706 ], [ 402488.911495422187727, 3783214.85249237017706 ], [ 402489.521871820965316, 3783214.242115971632302 ], [ 402492.268565615464468, 3783214.242115971632302 ], [ 402492.573753814853262, 3783214.547304171137512 ], [ 402493.489318413019646, 3783214.547304171137512 ], [ 402493.489318413019646, 3783214.85249237017706 ], [ 402493.794506612408441, 3783215.15768056968227 ], [ 402493.794506612408441, 3783215.76805696869269 ], [ 402493.489318413019646, 3783216.073245167732239 ], [ 402493.489318413019646, 3783216.378433367237449 ], [ 402491.963377416075673, 3783217.904374364297837 ], [ 402491.658189216686878, 3783217.904374364297837 ], [ 402491.353001017298084, 3783218.209562563803047 ], [ 402491.047812817909289, 3783218.209562563803047 ], [ 402490.742624618520495, 3783218.514750762842596 ], [ 402490.132248219742905, 3783218.514750762842596 ], [ 402489.827060020354111, 3783218.819938962347806 ], [ 402489.216683621576522, 3783218.819938962347806 ], [ 402488.911495422187727, 3783219.125127161853015 ], [ 402487.690742624632549, 3783219.125127161853015 ] ] ] } },
{ "type": "Feature", "properties": { "confidence": 0.89572882652282715, "class": 1 }, "geometry": { "type": "Polygon", "coordinates": [ [ [ 402366.836215666320641, 3783488.911495422013104 ], [ 402366.531027466931846, 3783488.606307222973555 ], [ 402366.225839267543051, 3783488.606307222973555 ], [ 402365.005086469987873, 3783487.385554425418377 ], [ 402365.005086469987873, 3783482.807731434237212 ], [ 402364.699898270599078, 3783482.502543235197663 ], [ 402364.699898270599078, 3783481.586978636682034 ], [ 402364.394710071210284, 3783481.281790437642485 ], [ 402364.394710071210284, 3783480.976602238137275 ], [ 402364.699898270599078, 3783480.671414038632065 ], [ 402364.699898270599078, 3783480.366225839126855 ], [ 402365.615462868765462, 3783479.450661241076887 ], [ 402366.531027466931846, 3783479.450661241076887 ], [ 402366.836215666320641, 3783479.145473041571677 ], [ 402368.667344862653408, 3783479.145473041571677 ], [ 402368.972533062042203, 3783478.840284842532128 ], [ 402370.80366225837497, 3783478.840284842532128 ], [ 402371.108850457763765, 3783478.535096643026918 ], [ 402374.465920651040506, 3783478.535096643026918 ], [ 402374.7711088504293, 3783478.840284842532128 ], [ 402375.076297049876302, 3783478.840284842532128 ], [ 402374.7711088504293, 3783479.145473041571677 ], [ 402374.7711088504293, 3783482.502543235197663 ], [ 402374.465920651040506, 3783482.807731434237212 ], [ 402374.465920651040506, 3783483.418107833247632 ], [ 402373.855544252262916, 3783484.02848423179239 ], [ 402373.855544252262916, 3783484.3336724312976 ], [ 402373.550356052874122, 3783484.63886063080281 ], [ 402373.550356052874122, 3783484.94404883030802 ], [ 402373.245167853485327, 3783485.249237029347569 ], [ 402373.245167853485327, 3783486.164801627863199 ], [ 402372.939979654096533, 3783486.469989826902747 ], [ 402372.939979654096533, 3783486.775178026407957 ], [ 402372.634791454707738, 3783487.080366225913167 ], [ 402372.329603255318943, 3783487.080366225913167 ], [ 402372.024415055930149, 3783487.385554425418377 ], [ 402371.41403865715256, 3783487.385554425418377 ], [ 402371.108850457763765, 3783487.690742624457926 ], [ 402370.80366225837497, 3783487.690742624457926 ], [ 402370.498474058986176, 3783487.995930823963135 ], [ 402370.193285859597381, 3783487.995930823963135 ], [ 402369.582909460819792, 3783488.606307222973555 ], [ 402369.277721261430997, 3783488.606307222973555 ], [ 402368.972533062042203, 3783488.911495422013104 ], [ 402366.836215666320641, 3783488.911495422013104 ] ] ] } },
{ "type": "Feature", "properties": { "confidence": 0.84769272804260254, "class": 1 }, "geometry": { "type": "Polygon", "coordinates": [ [ [ 402560.020345879951492, 3783280.467955239117146 ], [ 402559.409969481173903, 3783279.857578840106726 ], [ 402559.409969481173903, 3783278.331637843511999 ], [ 402560.935910478117876, 3783276.80569684645161 ], [ 402561.546286876895465, 3783276.80569684645161 ], [ 402561.85147507628426, 3783276.5005086469464 ], [ 402563.987792472005822, 3783276.5005086469464 ], [ 402563.987792472005822, 3783278.026449644006789 ], [ 402563.682604272617027, 3783278.331637843511999 ], [ 402563.682604272617027, 3783278.636826042551547 ], [ 402563.377416073228233, 3783278.636826042551547 ], [ 402563.072227873839438, 3783278.942014242056757 ], [ 402563.072227873839438, 3783279.247202441561967 ], [ 402561.85147507628426, 3783280.467955239117146 ], [ 402560.020345879951492, 3783280.467955239117146 ] ] ] } },
{ "type": "Feature", "properties": { "confidence": 0.82131922245025635, "class": 1 }, "geometry": { "type": "Polygon", "coordinates": [ [ [ 402379.959308240097016, 3783132.146490335930139 ], [ 402379.654120040708221, 3783131.841302136424929 ], [ 402379.043743641930632, 3783131.841302136424929 ], [ 402378.128179043764248, 3783130.92573753837496 ], [ 402378.128179043764248, 3783130.315361139364541 ], [ 402377.822990844375454, 3783130.010172939859331 ], [ 402378.433367243153043, 3783129.399796541314572 ], [ 402383.621566632762551, 3783129.399796541314572 ], [ 402383.926754832151346, 3783129.704984740819782 ], [ 402384.231943031540141, 3783129.704984740819782 ], [ 402384.537131230928935, 3783130.010172939859331 ], [ 402384.84231943031773, 3783130.010172939859331 ], [ 402384.84231943031773, 3783130.315361139364541 ], [ 402385.452695829095319, 3783130.92573753837496 ], [ 402385.452695829095319, 3783131.230925737414509 ], [ 402385.147507629706524, 3783131.230925737414509 ], [ 402384.84231943031773, 3783131.536113936919719 ], [ 402384.231943031540141, 3783131.536113936919719 ], [ 402383.926754832151346, 3783131.841302136424929 ], [ 402383.011190233984962, 3783131.841302136424929 ], [ 402382.706002034596168, 3783132.146490335930139 ], [ 402379.959308240097016, 3783132.146490335930139 ] ] ] } },
{ "type": "Feature", "properties": { "confidence": 0.8078845739364624, "class": 1 }, "geometry": { "type": "Polygon", "coordinates": [ [ [ 402581.688708036614116, 3783250.864699898287654 ], [ 402581.383519837225322, 3783250.559511698782444 ], [ 402581.383519837225322, 3783249.949135300237685 ], [ 402580.773143438447732, 3783249.338758901227266 ], [ 402580.773143438447732, 3783248.728382502682507 ], [ 402580.467955239058938, 3783248.423194303177297 ], [ 402580.467955239058938, 3783246.897253306116909 ], [ 402581.078331637836527, 3783246.28687690757215 ], [ 402581.688708036614116, 3783246.28687690757215 ], [ 402581.993896236002911, 3783245.98168870806694 ], [ 402585.045778229890857, 3783245.98168870806694 ], [ 402585.656154628668446, 3783246.592065106611699 ], [ 402585.656154628668446, 3783249.033570701722056 ], [ 402585.350966429279651, 3783249.338758901227266 ], [ 402585.350966429279651, 3783249.643947100732476 ], [ 402585.045778229890857, 3783249.643947100732476 ], [ 402584.740590030502062, 3783249.949135300237685 ], [ 402584.435401831113268, 3783249.949135300237685 ], [ 402584.130213631724473, 3783250.254323499277234 ], [ 402583.519837232946884, 3783250.254323499277234 ], [ 402582.909460834169295, 3783250.864699898287654 ], [ 402581.688708036614116, 3783250.864699898287654 ] ] ] } },
{ "type": "Feature", "properties": { "confidence": 0.76754313707351685, "class": 1 }, "geometry": { "type": "Polygon", "coordinates": [ [ [ 402017.3957273652195, 3783446.79552390659228 ], [ 402016.785350966441911, 3783446.18514750758186 ], [ 402016.480162767053116, 3783446.18514750758186 ], [ 402015.564598168886732, 3783445.269582909531891 ], [ 402015.564598168886732, 3783444.964394710026681 ], [ 402014.954221770109143, 3783444.354018311481923 ], [ 402014.954221770109143, 3783444.048830111976713 ], [ 402022.889114954217803, 3783444.048830111976713 ], [ 402022.889114954217803, 3783444.354018311481923 ], [ 402021.668362156662624, 3783445.574771109037101 ], [ 402021.36317395727383, 3783445.574771109037101 ], [ 402020.752797558496241, 3783446.18514750758186 ], [ 402020.447609359107446, 3783446.18514750758186 ], [ 402020.142421159718651, 3783446.49033570708707 ], [ 402019.532044760941062, 3783446.49033570708707 ], [ 402019.226856561552268, 3783446.79552390659228 ], [ 402017.3957273652195, 3783446.79552390659228 ] ] ] } },
{ "type": "Feature", "properties": { "confidence": 0.69043934345245361, "class": 1 }, "geometry": { "type": "Polygon", "coordinates": [ [ [ 402015.259409969497938, 3783213.326551373116672 ], [ 402014.954221770109143, 3783213.021363174077123 ], [ 402014.649033570720349, 3783213.021363174077123 ], [ 402014.343845371331554, 3783212.716174974571913 ], [ 402014.343845371331554, 3783212.410986775066704 ], [ 402014.038657171942759, 3783212.105798575561494 ], [ 402014.038657171942759, 3783211.800610376521945 ], [ 402012.512716174998786, 3783210.274669379461557 ], [ 402012.207527975609992, 3783210.274669379461557 ], [ 402012.207527975609992, 3783209.664292980451137 ], [ 402019.226856561552268, 3783209.664292980451137 ], [ 402019.226856561552268, 3783210.885045778006315 ], [ 402018.921668362163473, 3783211.190233977511525 ], [ 402018.921668362163473, 3783211.495422177016735 ], [ 402018.616480162774678, 3783211.800610376521945 ], [ 402018.311291963385884, 3783211.800610376521945 ], [ 402017.090539165830705, 3783213.021363174077123 ], [ 402015.564598168886732, 3783213.021363174077123 ], [ 402015.259409969497938, 3783213.326551373116672 ] ] ] } },
{ "type": "Feature", "properties": { "confidence": 0.60938054323196411, "class": 1 }, "geometry": { "type": "Polygon", "coordinates": [ [ [ 402362.563580874877516, 3783296.337741607334465 ], [ 402362.258392675488722, 3783296.032553407829255 ], [ 402359.51169888098957, 3783296.032553407829255 ], [ 402359.206510681600776, 3783295.727365208324045 ], [ 402358.901322482211981, 3783295.727365208324045 ], [ 402358.596134282823186, 3783295.422177009284496 ], [ 402358.290946083434392, 3783295.422177009284496 ], [ 402357.680569684656803, 3783294.811800610274076 ], [ 402357.680569684656803, 3783294.506612410768867 ], [ 402357.070193285879213, 3783293.896236012224108 ], [ 402356.765005086490419, 3783293.896236012224108 ], [ 402356.15462868771283, 3783293.285859613213688 ], [ 402356.15462868771283, 3783292.980671414174139 ], [ 402355.849440488324035, 3783292.67548321466893 ], [ 402355.849440488324035, 3783292.37029501516372 ], [ 402355.54425228893524, 3783292.06510681565851 ], [ 402355.54425228893524, 3783291.759918616618961 ], [ 402355.239064089546446, 3783291.454730417113751 ], [ 402355.239064089546446, 3783290.233977619558573 ], [ 402355.54425228893524, 3783289.928789420053363 ], [ 402356.15462868771283, 3783289.928789420053363 ], [ 402356.459816887101624, 3783289.623601220548153 ], [ 402356.765005086490419, 3783289.623601220548153 ], [ 402357.070193285879213, 3783289.318413021508604 ], [ 402360.427263479155954, 3783289.318413021508604 ], [ 402360.732451678544749, 3783289.623601220548153 ], [ 402361.037639877933543, 3783289.623601220548153 ], [ 402361.342828077322338, 3783289.928789420053363 ], [ 402362.258392675488722, 3783289.928789420053363 ], [ 402362.563580874877516, 3783290.233977619558573 ], [ 402362.563580874877516, 3783291.149542217608541 ], [ 402363.173957273655105, 3783291.759918616618961 ], [ 402363.173957273655105, 3783292.06510681565851 ], [ 402363.4791454730439, 3783292.37029501516372 ], [ 402363.784333672432695, 3783292.37029501516372 ], [ 402364.089521871821489, 3783292.67548321466893 ], [ 402364.089521871821489, 3783292.980671414174139 ], [ 402364.394710071210284, 3783293.285859613213688 ], [ 402364.394710071210284, 3783295.422177009284496 ], [ 402363.784333672432695, 3783296.032553407829255 ], [ 402363.4791454730439, 3783296.032553407829255 ], [ 402363.173957273655105, 3783296.337741607334465 ], [ 402362.563580874877516, 3783296.337741607334465 ] ] ] } },
{ "type": "Feature", "properties": { "confidence": 0.58683323860168457, "class": 1 }, "geometry": { "type": "Polygon", "coordinates": [ [ [ 402592.980671414057724, 3783339.369277721270919 ], [ 402592.980671414057724, 3783339.064089521765709 ], [ 402592.370295015280135, 3783338.45371312322095 ], [ 402591.759918616502546, 3783338.45371312322095 ], [ 402591.759918616502546, 3783337.843336724210531 ], [ 402591.454730417113751, 3783337.538148524705321 ], [ 402591.149542217724957, 3783337.538148524705321 ], [ 402591.149542217724957, 3783337.232960325665772 ], [ 402590.844354018336162, 3783336.927772126160562 ], [ 402590.844354018336162, 3783336.317395727150142 ], [ 402590.539165818947367, 3783336.012207528110594 ], [ 402590.539165818947367, 3783334.791454730555415 ], [ 402589.928789420169778, 3783334.181078331544995 ], [ 402589.928789420169778, 3783333.265513733495027 ], [ 402590.233977619558573, 3783332.960325533989817 ], [ 402590.233977619558573, 3783332.655137334484607 ], [ 402590.539165818947367, 3783332.655137334484607 ], [ 402590.844354018336162, 3783332.349949135445058 ], [ 402590.844354018336162, 3783332.044760935939848 ], [ 402591.149542217724957, 3783332.044760935939848 ], [ 402591.759918616502546, 3783331.434384536929429 ], [ 402591.759918616502546, 3783331.12919633788988 ], [ 402592.370295015280135, 3783330.51881993887946 ], [ 402592.980671414057724, 3783330.51881993887946 ], [ 402593.285859613446519, 3783330.21363173937425 ], [ 402596.337741607334465, 3783330.21363173937425 ], [ 402596.642929806723259, 3783330.51881993887946 ], [ 402596.642929806723259, 3783332.044760935939848 ], [ 402596.337741607334465, 3783332.349949135445058 ], [ 402596.337741607334465, 3783334.486266531050205 ], [ 402596.642929806723259, 3783334.791454730555415 ], [ 402596.642929806723259, 3783335.096642929594964 ], [ 402596.948118006112054, 3783335.401831129100174 ], [ 402596.948118006112054, 3783337.232960325665772 ], [ 402596.337741607334465, 3783337.843336724210531 ], [ 402596.337741607334465, 3783338.45371312322095 ], [ 402594.506612411001697, 3783338.45371312322095 ], [ 402593.591047812835313, 3783339.369277721270919 ], [ 402592.980671414057724, 3783339.369277721270919 ] ] ] } },
{ "type": "Feature", "properties": { "confidence": 0.58424568176269531, "class": 1 }, "geometry": { "type": "Polygon", "coordinates": [ [ [ 402361.342828077322338, 3783520.040691759902984 ], [ 402361.037639877933543, 3783519.735503560397774 ], [ 402359.816887080378365, 3783519.735503560397774 ], [ 402358.901322482211981, 3783518.819938962347806 ], [ 402358.901322482211981, 3783516.073245167732239 ], [ 402359.206510681600776, 3783515.76805696869269 ], [ 402359.206510681600776, 3783515.46286876918748 ], [ 402359.816887080378365, 3783514.85249237017706 ], [ 402360.122075279767159, 3783514.85249237017706 ], [ 402361.037639877933543, 3783513.936927772127092 ], [ 402361.648016276711132, 3783513.936927772127092 ], [ 402362.258392675488722, 3783513.326551373116672 ], [ 402362.868769074266311, 3783513.326551373116672 ], [ 402363.173957273655105, 3783513.021363174077123 ], [ 402363.784333672432695, 3783513.021363174077123 ], [ 402364.089521871821489, 3783512.716174974571913 ], [ 402365.005086469987873, 3783512.716174974571913 ], [ 402365.310274669376668, 3783513.021363174077123 ], [ 402366.836215666320641, 3783513.021363174077123 ], [ 402367.141403865709435, 3783513.326551373116672 ], [ 402367.44659206509823, 3783513.326551373116672 ], [ 402367.44659206509823, 3783513.631739572621882 ], [ 402367.751780264487024, 3783513.936927772127092 ], [ 402367.751780264487024, 3783515.76805696869269 ], [ 402367.44659206509823, 3783516.073245167732239 ], [ 402367.44659206509823, 3783516.378433367237449 ], [ 402367.141403865709435, 3783516.683621566742659 ], [ 402367.141403865709435, 3783516.988809766247869 ], [ 402366.836215666320641, 3783517.293997965287417 ], [ 402366.836215666320641, 3783517.599186164792627 ], [ 402366.531027466931846, 3783517.904374364297837 ], [ 402365.920651068154257, 3783517.904374364297837 ], [ 402365.310274669376668, 3783518.514750762842596 ], [ 402365.005086469987873, 3783518.514750762842596 ], [ 402364.699898270599078, 3783518.819938962347806 ], [ 402364.394710071210284, 3783518.819938962347806 ], [ 402363.784333672432695, 3783519.430315361358225 ], [ 402363.173957273655105, 3783519.430315361358225 ], [ 402362.868769074266311, 3783519.735503560397774 ], [ 402362.258392675488722, 3783519.735503560397774 ], [ 402361.953204476099927, 3783520.040691759902984 ], [ 402361.342828077322338, 3783520.040691759902984 ] ] ] } },
{ "type": "Feature", "properties": { "confidence": 0.57399433851242065, "class": 1 }, "geometry": { "type": "Polygon", "coordinates": [ [ [ 402507.527975584962405, 3783020.142421159893274 ], [ 402506.917599186184816, 3783019.532044760882854 ], [ 402505.696846388629638, 3783019.532044760882854 ], [ 402505.391658189240843, 3783019.226856561377645 ], [ 402505.391658189240843, 3783016.480162767227739 ], [ 402505.696846388629638, 3783016.174974567722529 ], [ 402505.696846388629638, 3783015.564598168712109 ], [ 402506.612410986796021, 3783014.649033570662141 ], [ 402507.527975584962405, 3783014.649033570662141 ], [ 402507.527975584962405, 3783020.142421159893274 ] ] ] } },
{ "type": "Feature", "properties": { "confidence": 0.5534893274307251, "class": 1 }, "geometry": { "type": "Polygon", "coordinates": [ [ [ 402294.201424211612903, 3783309.460834180936217 ], [ 402292.67548321466893, 3783307.93489318434149 ], [ 402292.67548321466893, 3783307.62970498483628 ], [ 402292.370295015280135, 3783307.32451678533107 ], [ 402292.370295015280135, 3783306.103763987775892 ], [ 402292.06510681589134, 3783305.798575788270682 ], [ 402292.06510681589134, 3783305.493387589231133 ], [ 402292.370295015280135, 3783305.188199389725924 ], [ 402292.370295015280135, 3783304.883011190220714 ], [ 402292.67548321466893, 3783304.883011190220714 ], [ 402293.285859613446519, 3783304.272634791675955 ], [ 402293.591047812835313, 3783304.272634791675955 ], [ 402294.201424211612903, 3783303.662258392665535 ], [ 402294.506612411001697, 3783303.662258392665535 ], [ 402294.811800610390492, 3783303.357070193160325 ], [ 402295.727365208556876, 3783303.357070193160325 ], [ 402296.03255340794567, 3783303.051881994120777 ], [ 402296.642929806723259, 3783303.051881994120777 ], [ 402296.948118006112054, 3783302.746693794615567 ], [ 402297.253306205500849, 3783303.051881994120777 ], [ 402297.558494404889643, 3783303.051881994120777 ], [ 402297.558494404889643, 3783303.662258392665535 ], [ 402297.863682604278438, 3783303.967446592170745 ], [ 402297.863682604278438, 3783304.272634791675955 ], [ 402298.168870803667232, 3783304.577822990715504 ], [ 402298.474059003056027, 3783304.577822990715504 ], [ 402299.084435401833616, 3783305.188199389725924 ], [ 402299.084435401833616, 3783307.62970498483628 ], [ 402298.168870803667232, 3783308.545269582886249 ], [ 402297.863682604278438, 3783308.545269582886249 ], [ 402297.558494404889643, 3783308.850457782391459 ], [ 402297.253306205500849, 3783308.850457782391459 ], [ 402296.948118006112054, 3783309.155645981896669 ], [ 402296.337741607334465, 3783309.155645981896669 ], [ 402296.03255340794567, 3783309.460834180936217 ], [ 402294.201424211612903, 3783309.460834180936217 ] ] ] } },
{ "type": "Feature", "properties": { "confidence": 0.46206805109977722, "class": 1 }, "geometry": { "type": "Polygon", "coordinates": [ [ [ 402311.902339776221197, 3783110.172939979471266 ], [ 402311.597151576832402, 3783109.867751780431718 ], [ 402310.986775178054813, 3783109.867751780431718 ], [ 402308.850457782275043, 3783107.731434384360909 ], [ 402308.850457782275043, 3783106.510681586805731 ], [ 402308.545269582886249, 3783106.205493387766182 ], [ 402308.545269582886249, 3783104.679552390705794 ], [ 402308.850457782275043, 3783104.374364191200584 ], [ 402308.850457782275043, 3783104.069175991695374 ], [ 402309.155645981663838, 3783104.069175991695374 ], [ 402309.460834181052633, 3783103.763987792655826 ], [ 402309.766022380441427, 3783103.763987792655826 ], [ 402310.071210579830222, 3783103.458799593150616 ], [ 402310.681586978607811, 3783103.458799593150616 ], [ 402310.986775178054813, 3783103.153611393645406 ], [ 402313.123092573776376, 3783103.153611393645406 ], [ 402313.42828077316517, 3783102.848423194140196 ], [ 402313.733468972553965, 3783102.848423194140196 ], [ 402314.038657171942759, 3783102.543234995100647 ], [ 402314.343845371331554, 3783102.848423194140196 ], [ 402314.343845371331554, 3783103.763987792655826 ], [ 402314.649033570720349, 3783104.069175991695374 ], [ 402314.343845371331554, 3783104.374364191200584 ], [ 402314.343845371331554, 3783106.815869786310941 ], [ 402314.649033570720349, 3783107.121057985816151 ], [ 402314.649033570720349, 3783107.731434384360909 ], [ 402314.343845371331554, 3783108.036622583866119 ], [ 402314.343845371331554, 3783108.952187181916088 ], [ 402314.038657171942759, 3783109.257375381421298 ], [ 402314.038657171942759, 3783109.562563580926508 ], [ 402313.733468972553965, 3783109.562563580926508 ], [ 402313.123092573776376, 3783110.172939979471266 ], [ 402311.902339776221197, 3783110.172939979471266 ] ] ] } },
{ "type": "Feature", "properties": { "confidence": 0.41049495339393616, "class": 1 }, "geometry": { "type": "Polygon", "coordinates": [ [ [ 402581.383519837225322, 3783258.494404883123934 ], [ 402580.773143438447732, 3783257.884028484113514 ], [ 402580.773143438447732, 3783256.663275686558336 ], [ 402581.993896236002911, 3783255.442522889003158 ], [ 402582.299084435391705, 3783255.442522889003158 ], [ 402582.6042726347805, 3783255.137334689497948 ], [ 402582.909460834169295, 3783255.137334689497948 ], [ 402583.214649033558089, 3783254.832146490458399 ], [ 402583.519837232946884, 3783254.832146490458399 ], [ 402583.825025432335678, 3783254.526958290953189 ], [ 402584.130213631724473, 3783254.526958290953189 ], [ 402584.435401831113268, 3783254.221770091447979 ], [ 402584.435401831113268, 3783253.916581891942769 ], [ 402584.740590030502062, 3783253.916581891942769 ], [ 402585.045778229890857, 3783253.611393692903221 ], [ 402587.487283825001214, 3783253.611393692903221 ], [ 402587.792472024390008, 3783253.916581891942769 ], [ 402587.792472024390008, 3783254.832146490458399 ], [ 402588.097660223778803, 3783255.137334689497948 ], [ 402588.097660223778803, 3783256.052899288013577 ], [ 402587.182095625612419, 3783256.968463886063546 ], [ 402586.876907426223624, 3783256.968463886063546 ], [ 402585.656154628668446, 3783258.189216683618724 ], [ 402583.519837232946884, 3783258.189216683618724 ], [ 402583.214649033558089, 3783258.494404883123934 ], [ 402581.383519837225322, 3783258.494404883123934 ] ] ] } },
{ "type": "Feature", "properties": { "confidence": 0.39963060617446899, "class": 1 }, "geometry": { "type": "Polygon", "coordinates": [ [ [ 402456.866734486247879, 3783202.034587996080518 ], [ 402456.256358087470289, 3783201.424211597070098 ], [ 402456.561546286859084, 3783201.119023397564888 ], [ 402456.561546286859084, 3783199.89827060000971 ], [ 402456.866734486247879, 3783199.593082400970161 ], [ 402456.866734486247879, 3783199.287894201464951 ], [ 402457.477110885025468, 3783198.677517802454531 ], [ 402457.782299084414262, 3783198.677517802454531 ], [ 402458.087487283803057, 3783198.372329603414983 ], [ 402458.697863682580646, 3783198.372329603414983 ], [ 402459.003051881969441, 3783198.067141403909773 ], [ 402459.308240081358235, 3783198.067141403909773 ], [ 402459.61342828074703, 3783197.761953204404563 ], [ 402459.918616480135825, 3783197.761953204404563 ], [ 402460.223804679524619, 3783197.456765004899353 ], [ 402460.528992878913414, 3783197.456765004899353 ], [ 402461.139369277749211, 3783196.846388606354594 ], [ 402462.665310274693184, 3783196.846388606354594 ], [ 402462.665310274693184, 3783198.677517802454531 ], [ 402462.360122075304389, 3783198.982706001959741 ], [ 402462.360122075304389, 3783199.593082400970161 ], [ 402461.444557477138005, 3783200.508646999020129 ], [ 402461.139369277749211, 3783200.508646999020129 ], [ 402460.528992878913414, 3783201.119023397564888 ], [ 402459.918616480135825, 3783201.119023397564888 ], [ 402459.61342828074703, 3783201.424211597070098 ], [ 402459.003051881969441, 3783201.424211597070098 ], [ 402458.697863682580646, 3783201.729399796575308 ], [ 402457.782299084414262, 3783201.729399796575308 ], [ 402457.477110885025468, 3783202.034587996080518 ], [ 402456.866734486247879, 3783202.034587996080518 ] ] ] } },
{ "type": "Feature", "properties": { "confidence": 0.38970303535461426, "class": 1 }, "geometry": { "type": "Polygon", "coordinates": [ [ [ 402415.666327568644192, 3783157.782299084588885 ], [ 402414.750762970477808, 3783156.866734486073256 ], [ 402414.750762970477808, 3783156.561546287033707 ], [ 402414.445574771089014, 3783156.256358087528497 ], [ 402414.445574771089014, 3783155.035605289973319 ], [ 402414.140386571700219, 3783154.730417090468109 ], [ 402414.140386571700219, 3783154.12004069192335 ], [ 402413.835198372311424, 3783153.81485249241814 ], [ 402413.835198372311424, 3783151.678535096812993 ], [ 402414.445574771089014, 3783151.068158697802573 ], [ 402415.055951169866603, 3783151.068158697802573 ], [ 402415.361139369255397, 3783150.762970498297364 ], [ 402415.666327568644192, 3783150.762970498297364 ], [ 402415.971515768032987, 3783150.457782299257815 ], [ 402416.581892166810576, 3783150.457782299257815 ], [ 402416.88708036619937, 3783150.152594099752605 ], [ 402419.328585961367935, 3783150.152594099752605 ], [ 402419.63377416075673, 3783150.457782299257815 ], [ 402419.938962360145524, 3783150.457782299257815 ], [ 402419.938962360145524, 3783151.678535096812993 ], [ 402420.244150559534319, 3783151.983723295852542 ], [ 402420.854526958311908, 3783151.983723295852542 ], [ 402420.854526958311908, 3783152.288911495357752 ], [ 402421.464903357089497, 3783152.899287894368172 ], [ 402421.464903357089497, 3783154.12004069192335 ], [ 402421.770091556478292, 3783154.425228890962899 ], [ 402421.770091556478292, 3783155.340793489478528 ], [ 402421.464903357089497, 3783155.645981688518077 ], [ 402421.464903357089497, 3783155.951169888023287 ], [ 402420.549338758923113, 3783155.951169888023287 ], [ 402420.244150559534319, 3783156.256358087528497 ], [ 402419.938962360145524, 3783156.256358087528497 ], [ 402419.63377416075673, 3783156.561546287033707 ], [ 402419.328585961367935, 3783156.561546287033707 ], [ 402419.02339776197914, 3783156.866734486073256 ], [ 402418.718209562590346, 3783156.866734486073256 ], [ 402418.413021363201551, 3783157.171922685578465 ], [ 402418.107833163812757, 3783157.171922685578465 ], [ 402417.802644964365754, 3783157.477110885083675 ], [ 402417.49745676497696, 3783157.477110885083675 ], [ 402417.192268565588165, 3783157.782299084588885 ], [ 402415.666327568644192, 3783157.782299084588885 ] ] ] } },
{ "type": "Feature", "properties": { "confidence": 0.38410758972167969, "class": 1 }, "geometry": { "type": "Polygon", "coordinates": [ [ [ 402361.037639877933543, 3783330.21363173937425 ], [ 402360.732451678544749, 3783329.908443540334702 ], [ 402360.732451678544749, 3783329.603255340829492 ], [ 402359.206510681600776, 3783328.077314343769103 ], [ 402359.206510681600776, 3783327.772126144263893 ], [ 402359.51169888098957, 3783327.772126144263893 ], [ 402359.816887080378365, 3783327.466937945224345 ], [ 402361.648016276711132, 3783327.466937945224345 ], [ 402361.953204476099927, 3783327.161749745719135 ], [ 402361.953204476099927, 3783326.856561546213925 ], [ 402365.005086469987873, 3783326.856561546213925 ], [ 402365.005086469987873, 3783327.161749745719135 ], [ 402365.310274669376668, 3783327.466937945224345 ], [ 402365.920651068154257, 3783327.466937945224345 ], [ 402365.920651068154257, 3783327.772126144263893 ], [ 402364.089521871821489, 3783329.603255340829492 ], [ 402363.784333672432695, 3783329.603255340829492 ], [ 402363.4791454730439, 3783329.908443540334702 ], [ 402363.173957273655105, 3783329.908443540334702 ], [ 402362.868769074266311, 3783330.21363173937425 ], [ 402361.037639877933543, 3783330.21363173937425 ] ] ] } },
{ "type": "Feature", "properties": { "confidence": 0.38293251395225525, "class": 1 }, "geometry": { "type": "Polygon", "coordinates": [ [ [ 402272.533062054950278, 3783275.279755849391222 ], [ 402272.227873855561484, 3783274.974567649886012 ], [ 402271.922685656172689, 3783274.974567649886012 ], [ 402271.617497456783894, 3783274.669379450846463 ], [ 402271.3123092573951, 3783274.669379450846463 ], [ 402271.007121058006305, 3783274.364191251341254 ], [ 402271.007121058006305, 3783274.059003051836044 ], [ 402270.701932858617511, 3783273.753814852330834 ], [ 402270.701932858617511, 3783273.143438453786075 ], [ 402270.396744659228716, 3783272.838250254280865 ], [ 402270.396744659228716, 3783266.124109867960215 ], [ 402270.701932858617511, 3783265.818921668455005 ], [ 402270.701932858617511, 3783265.513733468949795 ], [ 402271.007121058006305, 3783265.208545269444585 ], [ 402271.3123092573951, 3783265.208545269444585 ], [ 402271.617497456783894, 3783264.903357070405036 ], [ 402271.922685656172689, 3783264.903357070405036 ], [ 402272.227873855561484, 3783264.598168870899826 ], [ 402273.143438453727867, 3783264.598168870899826 ], [ 402273.143438453727867, 3783275.279755849391222 ], [ 402272.533062054950278, 3783275.279755849391222 ] ] ] } },
{ "type": "Feature", "properties": { "confidence": 0.38016399741172791, "class": 1 }, "geometry": { "type": "Polygon", "coordinates": [ [ [ 402439.471007121086586, 3783139.776195320300758 ], [ 402439.165818921639584, 3783139.471007121261209 ], [ 402438.860630722250789, 3783139.471007121261209 ], [ 402438.860630722250789, 3783139.165818921755999 ], [ 402438.555442522861995, 3783138.860630722250789 ], [ 402438.555442522861995, 3783136.724313326645643 ], [ 402438.860630722250789, 3783136.419125127140433 ], [ 402438.860630722250789, 3783135.808748728595674 ], [ 402439.165818921639584, 3783135.808748728595674 ], [ 402439.471007121086586, 3783135.503560529090464 ], [ 402440.081383519864175, 3783135.503560529090464 ], [ 402440.38657171925297, 3783135.808748728595674 ], [ 402440.691759918641765, 3783135.808748728595674 ], [ 402440.996948118030559, 3783136.113936927635223 ], [ 402441.302136317419354, 3783136.113936927635223 ], [ 402441.912512716196943, 3783136.724313326645643 ], [ 402442.522889114974532, 3783136.724313326645643 ], [ 402442.828077314363327, 3783137.029501526150852 ], [ 402442.828077314363327, 3783138.250254323706031 ], [ 402442.522889114974532, 3783138.555442522745579 ], [ 402442.522889114974532, 3783138.860630722250789 ], [ 402441.912512716196943, 3783139.471007121261209 ], [ 402440.691759918641765, 3783139.471007121261209 ], [ 402440.38657171925297, 3783139.776195320300758 ], [ 402439.471007121086586, 3783139.776195320300758 ] ] ] } },
{ "type": "Feature", "properties": { "confidence": 0.37700235843658447, "class": 1 }, "geometry": { "type": "Polygon", "coordinates": [ [ [ 402525.2288911495707, 3783238.65717192273587 ], [ 402524.923702950123698, 3783238.35198372323066 ], [ 402524.618514750734903, 3783238.35198372323066 ], [ 402524.008138351957314, 3783237.741607324685901 ], [ 402524.008138351957314, 3783237.131230925675482 ], [ 402523.702950152568519, 3783236.826042726170272 ], [ 402523.702950152568519, 3783235.910478128120303 ], [ 402524.008138351957314, 3783235.605289928615093 ], [ 402524.008138351957314, 3783235.300101729575545 ], [ 402524.313326551346108, 3783234.994913530070335 ], [ 402524.313326551346108, 3783234.689725330565125 ], [ 402524.618514750734903, 3783234.384537131059915 ], [ 402524.618514750734903, 3783234.079348932020366 ], [ 402524.923702950123698, 3783233.774160732515156 ], [ 402527.670396744681057, 3783233.774160732515156 ], [ 402527.975584944069851, 3783233.468972533009946 ], [ 402528.280773143458646, 3783233.468972533009946 ], [ 402528.58596134284744, 3783233.163784333504736 ], [ 402528.891149542236235, 3783233.163784333504736 ], [ 402529.19633774162503, 3783232.858596134465188 ], [ 402529.806714140402619, 3783232.858596134465188 ], [ 402530.111902339791413, 3783232.553407934959978 ], [ 402530.111902339791413, 3783232.248219735454768 ], [ 402530.417090539180208, 3783231.943031535949558 ], [ 402532.248219735512976, 3783231.943031535949558 ], [ 402532.55340793490177, 3783232.248219735454768 ], [ 402532.55340793490177, 3783232.553407934959978 ], [ 402532.858596134290565, 3783232.858596134465188 ], [ 402532.858596134290565, 3783235.300101729575545 ], [ 402531.637843336735386, 3783236.520854527130723 ], [ 402531.332655137346592, 3783236.520854527130723 ], [ 402530.722278738569003, 3783237.131230925675482 ], [ 402530.417090539180208, 3783237.131230925675482 ], [ 402530.111902339791413, 3783237.436419125180691 ], [ 402529.19633774162503, 3783237.436419125180691 ], [ 402528.891149542236235, 3783237.741607324685901 ], [ 402528.58596134284744, 3783237.741607324685901 ], [ 402528.280773143458646, 3783238.04679552372545 ], [ 402527.975584944069851, 3783238.04679552372545 ], [ 402527.365208545292262, 3783238.65717192273587 ], [ 402525.2288911495707, 3783238.65717192273587 ] ] ] } },
{ "type": "Feature", "properties": { "confidence": 0.3648255467414856, "class": 1 }, "geometry": { "type": "Polygon", "coordinates": [ [ [ 402499.898270600184333, 3783336.012207528110594 ], [ 402499.593082400795538, 3783335.707019328605384 ], [ 402498.982706002017949, 3783335.707019328605384 ], [ 402498.067141403851565, 3783334.791454730555415 ], [ 402497.76195320446277, 3783334.791454730555415 ], [ 402497.76195320446277, 3783332.960325533989817 ], [ 402497.456765005073976, 3783332.655137334484607 ], [ 402497.456765005073976, 3783332.349949135445058 ], [ 402497.151576805685181, 3783332.044760935939848 ], [ 402497.151576805685181, 3783331.434384536929429 ], [ 402497.76195320446277, 3783330.82400813838467 ], [ 402497.76195320446277, 3783330.21363173937425 ], [ 402498.067141403851565, 3783329.908443540334702 ], [ 402498.067141403851565, 3783329.603255340829492 ], [ 402498.37232960324036, 3783329.298067141324282 ], [ 402498.677517802629154, 3783329.298067141324282 ], [ 402498.982706002017949, 3783328.992878941819072 ], [ 402498.982706002017949, 3783328.687690742779523 ], [ 402499.593082400795538, 3783328.687690742779523 ], [ 402499.898270600184333, 3783328.382502543274313 ], [ 402500.203458799573127, 3783328.687690742779523 ], [ 402500.508646998961922, 3783328.687690742779523 ], [ 402501.119023397739511, 3783329.298067141324282 ], [ 402502.339776195294689, 3783329.298067141324282 ], [ 402502.644964394683484, 3783329.603255340829492 ], [ 402503.86571719229687, 3783329.603255340829492 ], [ 402504.476093591074459, 3783330.21363173937425 ], [ 402504.476093591074459, 3783330.51881993887946 ], [ 402504.781281790463254, 3783330.82400813838467 ], [ 402504.781281790463254, 3783331.434384536929429 ], [ 402505.086469989852048, 3783331.739572736434639 ], [ 402505.086469989852048, 3783334.181078331544995 ], [ 402504.781281790463254, 3783334.486266531050205 ], [ 402504.781281790463254, 3783335.096642929594964 ], [ 402504.476093591074459, 3783335.401831129100174 ], [ 402504.476093591074459, 3783335.707019328605384 ], [ 402503.86571719229687, 3783335.707019328605384 ], [ 402503.560528992908075, 3783336.012207528110594 ], [ 402499.898270600184333, 3783336.012207528110594 ] ] ] } },
{ "type": "Feature", "properties": { "confidence": 0.34742587804794312, "class": 1 }, "geometry": { "type": "Polygon", "coordinates": [ [ [ 402372.634791454707738, 3783129.399796541314572 ], [ 402372.024415055930149, 3783128.789420142304152 ], [ 402372.024415055930149, 3783128.484231942798942 ], [ 402371.719226856541354, 3783128.179043743759394 ], [ 402371.719226856541354, 3783127.873855544254184 ], [ 402371.108850457763765, 3783127.263479145243764 ], [ 402371.108850457763765, 3783126.958290946204215 ], [ 402370.80366225837497, 3783126.653102746699005 ], [ 402370.80366225837497, 3783122.38046795502305 ], [ 402371.41403865715256, 3783121.770091556478292 ], [ 402371.41403865715256, 3783121.464903356973082 ], [ 402372.024415055930149, 3783121.464903356973082 ], [ 402372.329603255318943, 3783121.159715157467872 ], [ 402372.634791454707738, 3783121.159715157467872 ], [ 402372.939979654096533, 3783120.854526958428323 ], [ 402376.297049847431481, 3783120.854526958428323 ], [ 402376.90742624620907, 3783121.464903356973082 ], [ 402376.90742624620907, 3783125.127161749638617 ], [ 402376.602238046820275, 3783125.432349949143827 ], [ 402376.602238046820275, 3783126.347914547193795 ], [ 402376.297049847431481, 3783126.347914547193795 ], [ 402375.991861648042686, 3783126.653102746699005 ], [ 402375.991861648042686, 3783126.958290946204215 ], [ 402375.381485249265097, 3783127.568667344748974 ], [ 402375.381485249265097, 3783127.873855544254184 ], [ 402375.076297049876302, 3783128.179043743759394 ], [ 402375.076297049876302, 3783128.789420142304152 ], [ 402374.465920651040506, 3783129.399796541314572 ], [ 402372.634791454707738, 3783129.399796541314572 ] ] ] } },
{ "type": "Feature", "properties": { "confidence": 0.34420853853225708, "class": 1 }, "geometry": { "type": "Polygon", "coordinates": [ [ [ 402588.097660223778803, 3783156.256358087528497 ], [ 402587.792472024390008, 3783155.951169888023287 ], [ 402587.182095625612419, 3783155.951169888023287 ], [ 402586.876907426223624, 3783155.645981688518077 ], [ 402586.57171922683483, 3783155.645981688518077 ], [ 402585.961342828057241, 3783155.035605289973319 ], [ 402585.656154628668446, 3783155.035605289973319 ], [ 402585.656154628668446, 3783154.425228890962899 ], [ 402585.961342828057241, 3783154.425228890962899 ], [ 402586.266531027446035, 3783154.12004069192335 ], [ 402586.266531027446035, 3783153.20447609340772 ], [ 402585.961342828057241, 3783152.899287894368172 ], [ 402585.961342828057241, 3783151.983723295852542 ], [ 402585.656154628668446, 3783151.678535096812993 ], [ 402585.656154628668446, 3783149.542217700742185 ], [ 402585.961342828057241, 3783149.237029501702636 ], [ 402588.402848423167598, 3783149.237029501702636 ], [ 402588.402848423167598, 3783149.542217700742185 ], [ 402589.013224821945187, 3783150.152594099752605 ], [ 402589.318413021392189, 3783150.152594099752605 ], [ 402590.233977619558573, 3783151.068158697802573 ], [ 402590.233977619558573, 3783151.373346897307783 ], [ 402590.539165818947367, 3783151.678535096812993 ], [ 402590.233977619558573, 3783151.983723295852542 ], [ 402590.233977619558573, 3783153.81485249241814 ], [ 402590.539165818947367, 3783154.12004069192335 ], [ 402590.539165818947367, 3783154.730417090468109 ], [ 402590.844354018336162, 3783155.035605289973319 ], [ 402590.844354018336162, 3783155.645981688518077 ], [ 402590.539165818947367, 3783155.951169888023287 ], [ 402589.623601220780984, 3783155.951169888023287 ], [ 402589.318413021392189, 3783156.256358087528497 ], [ 402588.097660223778803, 3783156.256358087528497 ] ] ] } },
{ "type": "Feature", "properties": { "confidence": 0.32763329148292542, "class": 1 }, "geometry": { "type": "Polygon", "coordinates": [ [ [ 402011.597151576832402, 3783518.209562563803047 ], [ 402011.291963377443608, 3783517.904374364297837 ], [ 402010.986775178054813, 3783517.904374364297837 ], [ 402010.681586978607811, 3783517.599186164792627 ], [ 402010.376398779219016, 3783517.599186164792627 ], [ 402009.766022380441427, 3783516.988809766247869 ], [ 402009.766022380441427, 3783516.683621566742659 ], [ 402009.460834181052633, 3783516.378433367237449 ], [ 402009.460834181052633, 3783513.936927772127092 ], [ 402009.155645981663838, 3783513.631739572621882 ], [ 402009.155645981663838, 3783513.326551373116672 ], [ 402008.850457782275043, 3783513.021363174077123 ], [ 402008.850457782275043, 3783510.885045778006315 ], [ 402009.155645981663838, 3783510.579857578966767 ], [ 402009.460834181052633, 3783510.579857578966767 ], [ 402009.766022380441427, 3783510.274669379461557 ], [ 402012.512716174998786, 3783510.274669379461557 ], [ 402012.817904374387581, 3783510.579857578966767 ], [ 402013.42828077316517, 3783510.579857578966767 ], [ 402013.733468972553965, 3783510.885045778006315 ], [ 402014.343845371331554, 3783510.885045778006315 ], [ 402014.649033570720349, 3783511.190233977511525 ], [ 402014.954221770109143, 3783511.190233977511525 ], [ 402014.954221770109143, 3783511.495422177016735 ], [ 402015.259409969497938, 3783511.800610376521945 ], [ 402015.259409969497938, 3783516.683621566742659 ], [ 402014.954221770109143, 3783516.988809766247869 ], [ 402014.954221770109143, 3783517.293997965287417 ], [ 402014.649033570720349, 3783517.599186164792627 ], [ 402014.649033570720349, 3783517.904374364297837 ], [ 402014.343845371331554, 3783517.904374364297837 ], [ 402014.038657171942759, 3783518.209562563803047 ], [ 402011.597151576832402, 3783518.209562563803047 ] ] ] } },
{ "type": "Feature", "properties": { "confidence": 0.31789946556091309, "class": 1 }, "geometry": { "type": "Polygon", "coordinates": [ [ [ 402412.919633774145041, 3783130.010172939859331 ], [ 402412.614445574756246, 3783129.704984740819782 ], [ 402412.309257375367451, 3783129.704984740819782 ], [ 402411.698880976589862, 3783129.094608341809362 ], [ 402411.393692777201068, 3783129.094608341809362 ], [ 402410.783316378423478, 3783128.484231942798942 ], [ 402410.783316378423478, 3783127.568667344748974 ], [ 402411.088504577812273, 3783127.263479145243764 ], [ 402411.088504577812273, 3783126.958290946204215 ], [ 402411.393692777201068, 3783126.653102746699005 ], [ 402411.393692777201068, 3783126.347914547193795 ], [ 402411.698880976589862, 3783126.042726347688586 ], [ 402411.698880976589862, 3783125.737538148649037 ], [ 402412.309257375367451, 3783125.127161749638617 ], [ 402414.140386571700219, 3783125.127161749638617 ], [ 402414.445574771089014, 3783124.821973550133407 ], [ 402414.750762970477808, 3783125.127161749638617 ], [ 402417.802644964365754, 3783125.127161749638617 ], [ 402418.107833163812757, 3783125.432349949143827 ], [ 402418.413021363201551, 3783125.432349949143827 ], [ 402418.413021363201551, 3783127.568667344748974 ], [ 402418.107833163812757, 3783127.568667344748974 ], [ 402417.802644964365754, 3783127.873855544254184 ], [ 402417.49745676497696, 3783127.873855544254184 ], [ 402417.192268565588165, 3783128.179043743759394 ], [ 402416.88708036619937, 3783128.179043743759394 ], [ 402416.276703967421781, 3783128.789420142304152 ], [ 402415.971515768032987, 3783128.789420142304152 ], [ 402415.055951169866603, 3783129.704984740819782 ], [ 402414.750762970477808, 3783129.704984740819782 ], [ 402414.445574771089014, 3783130.010172939859331 ], [ 402412.919633774145041, 3783130.010172939859331 ] ] ] } },
{ "type": "Feature", "properties": { "confidence": 0.29936066269874573, "class": 1 }, "geometry": { "type": "Polygon", "coordinates": [ [ [ 402177.00915564596653, 3783156.256358087528497 ], [ 402176.703967446577735, 3783155.951169888023287 ], [ 402176.093591047800146, 3783155.951169888023287 ], [ 402175.483214649022557, 3783155.340793489478528 ], [ 402175.483214649022557, 3783153.50966429291293 ], [ 402175.788402848411351, 3783153.20447609340772 ], [ 402176.093591047800146, 3783153.20447609340772 ], [ 402176.703967446577735, 3783152.594099694862962 ], [ 402177.00915564596653, 3783152.594099694862962 ], [ 402177.619532044744119, 3783151.983723295852542 ], [ 402178.535096642910503, 3783151.983723295852542 ], [ 402178.535096642910503, 3783152.594099694862962 ], [ 402179.145473041688092, 3783153.20447609340772 ], [ 402179.145473041688092, 3783153.50966429291293 ], [ 402179.450661241076887, 3783153.81485249241814 ], [ 402179.450661241076887, 3783155.645981688518077 ], [ 402178.840284842299297, 3783156.256358087528497 ], [ 402177.00915564596653, 3783156.256358087528497 ] ] ] } },
{ "type": "Feature", "properties": { "confidence": 0.26689484715461731, "class": 1 }, "geometry": { "type": "Polygon", "coordinates": [ [ [ 402502.644964394683484, 3783057.375381485093385 ], [ 402502.339776195294689, 3783057.070193286053836 ], [ 402501.7293997965171, 3783057.070193286053836 ], [ 402501.424211597128306, 3783056.765005086548626 ], [ 402501.119023397739511, 3783056.765005086548626 ], [ 402500.508646998961922, 3783056.154628687538207 ], [ 402500.203458799573127, 3783056.154628687538207 ], [ 402500.203458799573127, 3783055.849440488498658 ], [ 402498.677517802629154, 3783054.32349949143827 ], [ 402498.677517802629154, 3783053.102746693883091 ], [ 402498.37232960324036, 3783052.797558494377881 ], [ 402498.37232960324036, 3783051.576805696822703 ], [ 402498.982706002017949, 3783050.966429298277944 ], [ 402500.203458799573127, 3783050.966429298277944 ], [ 402500.508646998961922, 3783050.661241098772734 ], [ 402500.813835198350716, 3783050.661241098772734 ], [ 402501.119023397739511, 3783050.966429298277944 ], [ 402501.424211597128306, 3783050.966429298277944 ], [ 402502.034587995905895, 3783051.576805696822703 ], [ 402502.339776195294689, 3783051.576805696822703 ], [ 402503.255340793461073, 3783052.492370294872671 ], [ 402503.255340793461073, 3783053.102746693883091 ], [ 402503.560528992908075, 3783053.407934893388301 ], [ 402503.560528992908075, 3783054.01831129193306 ], [ 402503.86571719229687, 3783054.32349949143827 ], [ 402503.86571719229687, 3783056.154628687538207 ], [ 402503.560528992908075, 3783056.459816887043417 ], [ 402503.560528992908075, 3783056.765005086548626 ], [ 402503.255340793461073, 3783056.765005086548626 ], [ 402502.950152594072279, 3783057.070193286053836 ], [ 402502.950152594072279, 3783057.375381485093385 ], [ 402502.644964394683484, 3783057.375381485093385 ] ] ] } }
]
}
