{
"type": "FeatureCollection",
"name": "cell_00370_pre",
"crs": { "type": "name", "properties": { "name": "urn:ogc:def:crs:EPSG::32611" } },
"features": [
{ "type": "Feature", "properties": { "confidence": 0.82703119516372681, "class": 1 }, "geometry": { "type": "Polygon", "coordinates": [ [ [ 395843.743641912529711, 3786331.739572736434639 ], [ 395843.743641912529711, 3786326.856561546213925 ], [ 395847.405900305195246, 3786326.856561546213925 ], [ 395847.405900305195246, 3786328.992878941819072 ], [ 395847.100712105806451, 3786329.298067141324282 ], [ 395847.100712105806451, 3786329.603255340829492 ], [ 395846.795523906417657, 3786329.908443540334702 ], [ 395846.795523906417657, 3786330.21363173937425 ], [ 395846.490335707028862, 3786330.51881993887946 ], [ 395846.185147507640067, 3786330.51881993887946 ], [ 395845.269582909473684, 3786331.434384536929429 ], [ 395845.269582909473684, 3786331.739572736434639 ], [ 395843.743641912529711, 3786331.739572736434639 ] ] ] } },
{ "type": "Feature", "properties": { "confidence": 0.82387268543243408, "class": 1 }, "geometry": { "type": "Polygon", "coordinates": [ [ [ 395746.998982705990784, 3786331.12919633788988 ], [ 395746.693794506601989, 3786330.82400813838467 ], [ 395746.693794506601989, 3786329.908443540334702 ], [ 395746.388606307213195, 3786329.603255340829492 ], [ 395746.388606307213195, 3786328.382502543274313 ], [ 395746.0834181078244, 3786328.077314343769103 ], [ 395746.0834181078244, 3786326.856561546213925 ], [ 395755.239064089546446, 3786326.856561546213925 ], [ 395755.239064089546446, 3786327.161749745719135 ], [ 395754.933875890157651, 3786327.466937945224345 ], [ 395754.933875890157651, 3786327.772126144263893 ], [ 395754.628687690768857, 3786328.077314343769103 ], [ 395754.628687690768857, 3786328.382502543274313 ], [ 395754.323499491380062, 3786328.687690742779523 ], [ 395754.323499491380062, 3786328.992878941819072 ], [ 395753.40793489315547, 3786328.992878941819072 ], [ 395753.102746693766676, 3786329.298067141324282 ], [ 395752.492370294989087, 3786329.298067141324282 ], [ 395752.187182095600292, 3786329.603255340829492 ], [ 395751.881993896211497, 3786329.603255340829492 ], [ 395751.576805696822703, 3786329.908443540334702 ], [ 395750.966429298045114, 3786329.908443540334702 ], [ 395750.661241098656319, 3786330.21363173937425 ], [ 395750.356052899267524, 3786330.21363173937425 ], [ 395750.05086469987873, 3786330.51881993887946 ], [ 395749.745676500489935, 3786330.51881993887946 ], [ 395749.440488301101141, 3786330.82400813838467 ], [ 395748.830111902323551, 3786330.82400813838467 ], [ 395748.524923702934757, 3786331.12919633788988 ], [ 395746.998982705990784, 3786331.12919633788988 ] ] ] } },
{ "type": "Feature", "properties": { "confidence": 0.76600360870361328, "class": 1 }, "geometry": { "type": "Polygon", "coordinates": [ [ [ 395884.028484231967013, 3786451.983723295852542 ], [ 395883.723296032578219, 3786451.678535096812993 ], [ 395883.418107833189424, 3786451.678535096812993 ], [ 395882.807731434411835, 3786451.068158697802573 ], [ 395882.807731434411835, 3786450.762970498297364 ], [ 395882.197355035634246, 3786450.152594099752605 ], [ 395882.197355035634246, 3786449.847405900247395 ], [ 395881.892166836187243, 3786449.542217700742185 ], [ 395881.892166836187243, 3786448.626653102692217 ], [ 395881.586978636798449, 3786448.321464903187007 ], [ 395881.586978636798449, 3786447.405900305137038 ], [ 395881.281790437409654, 3786447.100712105631828 ], [ 395881.281790437409654, 3786446.79552390659228 ], [ 395880.97660223802086, 3786446.49033570708707 ], [ 395880.97660223802086, 3786444.048830111976713 ], [ 395895.015259409963619, 3786444.048830111976713 ], [ 395895.015259409963619, 3786444.354018311481923 ], [ 395895.320447609352414, 3786444.659206510521472 ], [ 395895.930824008130003, 3786444.659206510521472 ], [ 395895.625635808741208, 3786444.964394710026681 ], [ 395895.625635808741208, 3786445.87995930807665 ], [ 395895.320447609352414, 3786446.18514750758186 ], [ 395895.320447609352414, 3786447.100712105631828 ], [ 395895.015259409963619, 3786447.405900305137038 ], [ 395895.015259409963619, 3786447.711088504642248 ], [ 395894.710071210574824, 3786448.016276704147458 ], [ 395894.710071210574824, 3786448.321464903187007 ], [ 395894.40488301118603, 3786448.321464903187007 ], [ 395893.794506612408441, 3786448.931841302197427 ], [ 395893.794506612408441, 3786449.237029501702636 ], [ 395893.489318413019646, 3786449.542217700742185 ], [ 395893.184130213630851, 3786449.542217700742185 ], [ 395892.573753814853262, 3786450.152594099752605 ], [ 395891.963377416075673, 3786450.152594099752605 ], [ 395891.658189216686878, 3786450.457782299257815 ], [ 395890.4374364191317, 3786450.457782299257815 ], [ 395890.132248219742905, 3786450.762970498297364 ], [ 395888.606307222798932, 3786450.762970498297364 ], [ 395888.301119023410138, 3786451.068158697802573 ], [ 395887.385554425243754, 3786451.068158697802573 ], [ 395886.775178026466165, 3786451.678535096812993 ], [ 395885.859613428299781, 3786451.678535096812993 ], [ 395885.554425228910986, 3786451.983723295852542 ], [ 395884.028484231967013, 3786451.983723295852542 ] ] ] } },
{ "type": "Feature", "properties": { "confidence": 0.75248271226882935, "class": 1 }, "geometry": { "type": "Polygon", "coordinates": [ [ [ 395581.892166836187243, 3786217.293997965287417 ], [ 395581.586978636798449, 3786216.988809766247869 ], [ 395581.586978636798449, 3786216.073245167732239 ], [ 395581.892166836187243, 3786215.76805696869269 ], [ 395581.892166836187243, 3786214.85249237017706 ], [ 395582.197355035634246, 3786214.547304171137512 ], [ 395582.197355035634246, 3786213.021363174077123 ], [ 395584.028484231967013, 3786211.190233977511525 ], [ 395584.333672431355808, 3786211.190233977511525 ], [ 395584.638860630744603, 3786210.885045778006315 ], [ 395585.249237029522192, 3786210.885045778006315 ], [ 395585.554425228910986, 3786211.190233977511525 ], [ 395586.164801627688576, 3786211.190233977511525 ], [ 395586.775178026466165, 3786211.800610376521945 ], [ 395587.080366225854959, 3786211.800610376521945 ], [ 395587.080366225854959, 3786212.105798575561494 ], [ 395587.690742624632549, 3786212.716174974571913 ], [ 395587.690742624632549, 3786213.936927772127092 ], [ 395587.995930824021343, 3786214.242115971632302 ], [ 395587.995930824021343, 3786215.76805696869269 ], [ 395587.080366225854959, 3786216.683621566742659 ], [ 395586.775178026466165, 3786216.683621566742659 ], [ 395586.46998982707737, 3786216.988809766247869 ], [ 395585.859613428299781, 3786216.988809766247869 ], [ 395585.554425228910986, 3786217.293997965287417 ], [ 395581.892166836187243, 3786217.293997965287417 ] ] ] } },
{ "type": "Feature", "properties": { "confidence": 0.73480081558227539, "class": 1 }, "geometry": { "type": "Polygon", "coordinates": [ [ [ 395536.724313326529227, 3786174.567650050856173 ], [ 395536.419125127140433, 3786174.262461851350963 ], [ 395536.419125127140433, 3786173.957273652311414 ], [ 395536.113936927751638, 3786173.652085452806205 ], [ 395536.113936927751638, 3786173.346897253300995 ], [ 395535.808748728362843, 3786173.041709053795785 ], [ 395535.808748728362843, 3786172.736520854756236 ], [ 395535.503560528974049, 3786172.431332655251026 ], [ 395535.503560528974049, 3786172.126144455745816 ], [ 395535.198372329585254, 3786171.820956256240606 ], [ 395535.198372329585254, 3786171.515768057201058 ], [ 395534.89318413019646, 3786171.210579857695848 ], [ 395534.587995930807665, 3786171.210579857695848 ], [ 395533.977619532030076, 3786170.600203458685428 ], [ 395533.977619532030076, 3786168.769074262585491 ], [ 395533.672431332641281, 3786168.463886063080281 ], [ 395533.672431332641281, 3786168.158697863575071 ], [ 395533.367243133252487, 3786167.853509664069861 ], [ 395533.367243133252487, 3786166.937945066019893 ], [ 395533.977619532030076, 3786166.327568667475134 ], [ 395534.587995930807665, 3786166.327568667475134 ], [ 395534.89318413019646, 3786166.022380467969924 ], [ 395535.503560528974049, 3786166.022380467969924 ], [ 395535.808748728362843, 3786166.327568667475134 ], [ 395536.419125127140433, 3786166.327568667475134 ], [ 395536.724313326529227, 3786166.022380467969924 ], [ 395537.334689725306816, 3786166.022380467969924 ], [ 395537.639877924695611, 3786165.717192268464714 ], [ 395539.776195320475381, 3786165.717192268464714 ], [ 395540.38657171925297, 3786166.327568667475134 ], [ 395540.38657171925297, 3786167.548321465030313 ], [ 395540.691759918641765, 3786167.853509664069861 ], [ 395540.691759918641765, 3786168.463886063080281 ], [ 395540.996948118030559, 3786168.769074262585491 ], [ 395540.996948118030559, 3786173.041709053795785 ], [ 395540.691759918641765, 3786173.346897253300995 ], [ 395540.081383519864175, 3786173.346897253300995 ], [ 395539.776195320475381, 3786173.652085452806205 ], [ 395539.471007121086586, 3786173.652085452806205 ], [ 395539.165818921639584, 3786173.957273652311414 ], [ 395538.860630722250789, 3786173.957273652311414 ], [ 395538.2502543234732, 3786174.567650050856173 ], [ 395536.724313326529227, 3786174.567650050856173 ] ] ] } },
{ "type": "Feature", "properties": { "confidence": 0.67196124792098999, "class": 1 }, "geometry": { "type": "Polygon", "coordinates": [ [ [ 395489.725330620538443, 3786214.85249237017706 ], [ 395489.725330620538443, 3786214.547304171137512 ], [ 395489.420142421149649, 3786214.242115971632302 ], [ 395488.80976602237206, 3786214.242115971632302 ], [ 395488.504577822983265, 3786213.936927772127092 ], [ 395486.673448626650497, 3786213.936927772127092 ], [ 395485.757884028484114, 3786213.021363174077123 ], [ 395485.757884028484114, 3786210.885045778006315 ], [ 395485.452695829095319, 3786210.579857578966767 ], [ 395485.452695829095319, 3786209.664292980451137 ], [ 395493.082400813815184, 3786209.664292980451137 ], [ 395493.082400813815184, 3786210.274669379461557 ], [ 395493.692777212592773, 3786210.885045778006315 ], [ 395493.692777212592773, 3786211.495422177016735 ], [ 395493.997965411981568, 3786211.800610376521945 ], [ 395493.997965411981568, 3786212.105798575561494 ], [ 395494.608341810759157, 3786212.716174974571913 ], [ 395494.608341810759157, 3786213.021363174077123 ], [ 395494.303153611370362, 3786213.326551373116672 ], [ 395494.303153611370362, 3786213.631739572621882 ], [ 395493.692777212592773, 3786213.631739572621882 ], [ 395493.082400813815184, 3786214.242115971632302 ], [ 395492.777212614426389, 3786214.242115971632302 ], [ 395492.1668362156488, 3786214.85249237017706 ], [ 395489.725330620538443, 3786214.85249237017706 ] ] ] } },
{ "type": "Feature", "properties": { "confidence": 0.65610158443450928, "class": 1 }, "geometry": { "type": "Polygon", "coordinates": [ [ [ 395838.555442522861995, 3786096.134282807819545 ], [ 395838.2502543234732, 3786095.829094608314335 ], [ 395837.945066124084406, 3786095.829094608314335 ], [ 395837.639877924695611, 3786095.523906408809125 ], [ 395837.334689725306816, 3786095.523906408809125 ], [ 395837.029501525918022, 3786095.218718209769577 ], [ 395834.587995930807665, 3786095.218718209769577 ], [ 395834.28280773141887, 3786094.913530010264367 ], [ 395834.28280773141887, 3786093.997965412214398 ], [ 395833.977619532030076, 3786093.692777212709188 ], [ 395833.977619532030076, 3786093.082400813698769 ], [ 395833.672431332641281, 3786092.77721261465922 ], [ 395833.672431332641281, 3786092.47202441515401 ], [ 395841.607324516808148, 3786092.47202441515401 ], [ 395841.607324516808148, 3786093.997965412214398 ], [ 395841.302136317419354, 3786094.303153611253947 ], [ 395841.302136317419354, 3786094.608341810759157 ], [ 395840.996948118030559, 3786094.913530010264367 ], [ 395840.996948118030559, 3786095.523906408809125 ], [ 395840.691759918641765, 3786095.829094608314335 ], [ 395840.081383519864175, 3786095.829094608314335 ], [ 395839.776195320475381, 3786096.134282807819545 ], [ 395838.555442522861995, 3786096.134282807819545 ] ] ] } },
{ "type": "Feature", "properties": { "confidence": 0.60683912038803101, "class": 1 }, "geometry": { "type": "Polygon", "coordinates": [ [ [ 395849.542217700916808, 3786097.049847405869514 ], [ 395849.237029501528013, 3786096.744659206364304 ], [ 395848.931841302139219, 3786096.744659206364304 ], [ 395848.931841302139219, 3786095.829094608314335 ], [ 395849.237029501528013, 3786095.523906408809125 ], [ 395849.237029501528013, 3786095.218718209769577 ], [ 395849.542217700916808, 3786094.913530010264367 ], [ 395849.542217700916808, 3786094.608341810759157 ], [ 395849.847405900305603, 3786094.303153611253947 ], [ 395850.152594099694397, 3786094.303153611253947 ], [ 395850.457782299083192, 3786093.997965412214398 ], [ 395850.457782299083192, 3786093.692777212709188 ], [ 395850.762970498471987, 3786093.387589013203979 ], [ 395853.814852492359933, 3786093.387589013203979 ], [ 395853.814852492359933, 3786095.218718209769577 ], [ 395852.28891149541596, 3786096.744659206364304 ], [ 395851.068158697860781, 3786096.744659206364304 ], [ 395850.762970498471987, 3786097.049847405869514 ], [ 395849.542217700916808, 3786097.049847405869514 ] ] ] } },
{ "type": "Feature", "properties": { "confidence": 0.52519512176513672, "class": 1 }, "geometry": { "type": "Polygon", "coordinates": [ [ [ 395482.095625635818578, 3786257.884028484113514 ], [ 395481.790437436429784, 3786257.578840285073966 ], [ 395480.8748728382634, 3786257.578840285073966 ], [ 395480.569684638874605, 3786257.273652085568756 ], [ 395480.264496439485811, 3786257.273652085568756 ], [ 395479.654120040708221, 3786256.663275686558336 ], [ 395479.654120040708221, 3786255.747711088508368 ], [ 395479.959308240097016, 3786255.442522889003158 ], [ 395479.959308240097016, 3786254.221770091447979 ], [ 395480.264496439485811, 3786253.916581891942769 ], [ 395480.264496439485811, 3786252.695829094387591 ], [ 395480.569684638874605, 3786252.390640895348042 ], [ 395480.569684638874605, 3786252.085452695842832 ], [ 395480.8748728382634, 3786251.780264496337622 ], [ 395480.8748728382634, 3786251.169888097792864 ], [ 395481.790437436429784, 3786250.254323499277234 ], [ 395482.400813835207373, 3786250.254323499277234 ], [ 395482.400813835207373, 3786250.559511698782444 ], [ 395482.706002034596168, 3786250.864699898287654 ], [ 395483.011190233984962, 3786250.864699898287654 ], [ 395483.316378433373757, 3786251.169888097792864 ], [ 395483.621566632762551, 3786251.169888097792864 ], [ 395483.621566632762551, 3786251.475076296832412 ], [ 395483.926754832151346, 3786251.780264496337622 ], [ 395484.231943031540141, 3786251.780264496337622 ], [ 395484.537131230928935, 3786252.085452695842832 ], [ 395485.452695829095319, 3786252.085452695842832 ], [ 395486.063072227872908, 3786252.695829094387591 ], [ 395486.368260427261703, 3786252.695829094387591 ], [ 395486.673448626650497, 3786253.001017293892801 ], [ 395486.673448626650497, 3786254.526958290953189 ], [ 395486.368260427261703, 3786254.832146490458399 ], [ 395486.368260427261703, 3786255.137334689497948 ], [ 395485.452695829095319, 3786256.052899288013577 ], [ 395485.452695829095319, 3786256.358087487053126 ], [ 395484.537131230928935, 3786257.273652085568756 ], [ 395483.926754832151346, 3786257.273652085568756 ], [ 395483.621566632762551, 3786257.578840285073966 ], [ 395483.011190233984962, 3786257.578840285073966 ], [ 395482.706002034596168, 3786257.884028484113514 ], [ 395482.095625635818578, 3786257.884028484113514 ] ] ] } },
{ "type": "Feature", "properties": { "confidence": 0.5192374587059021, "class": 1 }, "geometry": { "type": "Polygon", "coordinates": [ [ [ 395469.582909460819792, 3786213.021363174077123 ], [ 395468.972533062042203, 3786212.410986775066704 ], [ 395468.972533062042203, 3786211.495422177016735 ], [ 395468.667344862653408, 3786211.190233977511525 ], [ 395468.667344862653408, 3786210.274669379461557 ], [ 395469.888097660208587, 3786210.274669379461557 ], [ 395470.193285859597381, 3786209.969481179956347 ], [ 395470.193285859597381, 3786209.664292980451137 ], [ 395472.634791454707738, 3786209.664292980451137 ], [ 395472.634791454707738, 3786209.969481179956347 ], [ 395472.939979654096533, 3786210.274669379461557 ], [ 395472.939979654096533, 3786211.190233977511525 ], [ 395471.719226856541354, 3786212.410986775066704 ], [ 395471.41403865715256, 3786212.410986775066704 ], [ 395471.108850457763765, 3786212.716174974571913 ], [ 395469.888097660208587, 3786212.716174974571913 ], [ 395469.582909460819792, 3786213.021363174077123 ] ] ] } },
{ "type": "Feature", "properties": { "confidence": 0.4485379159450531, "class": 1 }, "geometry": { "type": "Polygon", "coordinates": [ [ [ 395539.776195320475381, 3786132.756866734474897 ], [ 395539.471007121086586, 3786132.451678534969687 ], [ 395538.555442522861995, 3786132.451678534969687 ], [ 395538.2502543234732, 3786132.146490335930139 ], [ 395537.945066124084406, 3786132.146490335930139 ], [ 395537.639877924695611, 3786131.841302136424929 ], [ 395537.334689725306816, 3786131.841302136424929 ], [ 395537.029501525918022, 3786131.536113936919719 ], [ 395537.029501525918022, 3786130.92573753837496 ], [ 395536.724313326529227, 3786130.62054933886975 ], [ 395536.724313326529227, 3786130.315361139364541 ], [ 395537.029501525918022, 3786130.010172939859331 ], [ 395537.029501525918022, 3786129.704984740819782 ], [ 395537.334689725306816, 3786129.399796541314572 ], [ 395538.555442522861995, 3786129.399796541314572 ], [ 395538.860630722250789, 3786129.094608341809362 ], [ 395539.165818921639584, 3786129.094608341809362 ], [ 395539.776195320475381, 3786128.484231942798942 ], [ 395542.217700915585738, 3786128.484231942798942 ], [ 395542.522889114974532, 3786128.789420142304152 ], [ 395542.522889114974532, 3786129.094608341809362 ], [ 395542.828077314363327, 3786129.399796541314572 ], [ 395542.828077314363327, 3786132.146490335930139 ], [ 395542.217700915585738, 3786132.756866734474897 ], [ 395539.776195320475381, 3786132.756866734474897 ] ] ] } },
{ "type": "Feature", "properties": { "confidence": 0.43912342190742493, "class": 1 }, "geometry": { "type": "Polygon", "coordinates": [ [ [ 395411.597151576832402, 3786213.631739572621882 ], [ 395410.986775178054813, 3786213.021363174077123 ], [ 395410.986775178054813, 3786212.716174974571913 ], [ 395410.681586978607811, 3786212.410986775066704 ], [ 395410.681586978607811, 3786211.800610376521945 ], [ 395410.376398779219016, 3786211.495422177016735 ], [ 395410.376398779219016, 3786211.190233977511525 ], [ 395410.681586978607811, 3786210.885045778006315 ], [ 395410.681586978607811, 3786210.274669379461557 ], [ 395414.954221770109143, 3786210.274669379461557 ], [ 395414.954221770109143, 3786212.716174974571913 ], [ 395414.343845371331554, 3786213.326551373116672 ], [ 395414.038657171942759, 3786213.326551373116672 ], [ 395413.733468972553965, 3786213.631739572621882 ], [ 395411.597151576832402, 3786213.631739572621882 ] ] ] } },
{ "type": "Feature", "properties": { "confidence": 0.4313596785068512, "class": 1 }, "geometry": { "type": "Polygon", "coordinates": [ [ [ 395726.246185147494543, 3786593.591047812718898 ], [ 395725.940996948105749, 3786593.285859613213688 ], [ 395725.635808748716954, 3786593.285859613213688 ], [ 395725.635808748716954, 3786592.67548321466893 ], [ 395725.33062054932816, 3786592.37029501516372 ], [ 395725.33062054932816, 3786591.149542217608541 ], [ 395725.025432349939365, 3786590.844354018103331 ], [ 395725.33062054932816, 3786590.539165819063783 ], [ 395725.33062054932816, 3786589.623601220548153 ], [ 395725.025432349939365, 3786589.318413021508604 ], [ 395725.025432349939365, 3786588.708036622498184 ], [ 395725.940996948105749, 3786587.792472024448216 ], [ 395726.246185147494543, 3786587.792472024448216 ], [ 395726.856561546272133, 3786587.182095625437796 ], [ 395727.161749745660927, 3786587.182095625437796 ], [ 395729.298067141382489, 3786585.045778229832649 ], [ 395730.824008138326462, 3786585.045778229832649 ], [ 395731.129196337715257, 3786585.350966429337859 ], [ 395731.434384537104052, 3786585.350966429337859 ], [ 395732.655137334717438, 3786586.571719226893038 ], [ 395732.655137334717438, 3786588.097660223953426 ], [ 395732.349949135328643, 3786588.402848422992975 ], [ 395732.349949135328643, 3786589.013224822003394 ], [ 395730.518819938937668, 3786590.844354018103331 ], [ 395730.518819938937668, 3786591.454730417113751 ], [ 395730.213631739548873, 3786591.759918616618961 ], [ 395730.213631739548873, 3786592.980671414174139 ], [ 395729.603255340771284, 3786593.591047812718898 ], [ 395726.246185147494543, 3786593.591047812718898 ] ] ] } },
{ "type": "Feature", "properties": { "confidence": 0.38569706678390503, "class": 1 }, "geometry": { "type": "Polygon", "coordinates": [ [ [ 395446.0834181078244, 3786256.358087487053126 ], [ 395445.778229908435605, 3786256.052899288013577 ], [ 395445.167853509658016, 3786256.052899288013577 ], [ 395444.862665310269222, 3786255.747711088508368 ], [ 395444.557477110880427, 3786255.747711088508368 ], [ 395444.557477110880427, 3786255.442522889003158 ], [ 395444.252288911491632, 3786255.137334689497948 ], [ 395444.252288911491632, 3786253.916581891942769 ], [ 395443.947100712102838, 3786253.611393692903221 ], [ 395443.947100712102838, 3786253.001017293892801 ], [ 395443.031536113936454, 3786252.085452695842832 ], [ 395443.031536113936454, 3786251.780264496337622 ], [ 395442.421159715158865, 3786251.169888097792864 ], [ 395442.421159715158865, 3786249.949135300237685 ], [ 395442.726347914547659, 3786249.949135300237685 ], [ 395443.947100712102838, 3786248.728382502682507 ], [ 395446.0834181078244, 3786248.728382502682507 ], [ 395446.0834181078244, 3786250.254323499277234 ], [ 395446.388606307213195, 3786250.559511698782444 ], [ 395446.388606307213195, 3786250.864699898287654 ], [ 395447.304170905379578, 3786251.780264496337622 ], [ 395447.609359104768373, 3786251.780264496337622 ], [ 395448.219735503545962, 3786252.390640895348042 ], [ 395448.219735503545962, 3786255.747711088508368 ], [ 395447.914547304157168, 3786256.052899288013577 ], [ 395447.609359104768373, 3786256.052899288013577 ], [ 395447.304170905379578, 3786256.358087487053126 ], [ 395446.0834181078244, 3786256.358087487053126 ] ] ] } },
{ "type": "Feature", "properties": { "confidence": 0.31920033693313599, "class": 1 }, "geometry": { "type": "Polygon", "coordinates": [ [ [ 395886.164801627688576, 3786097.049847405869514 ], [ 395886.164801627688576, 3786095.829094608314335 ], [ 395885.859613428299781, 3786095.523906408809125 ], [ 395885.859613428299781, 3786095.218718209769577 ], [ 395885.554425228910986, 3786094.913530010264367 ], [ 395885.554425228910986, 3786094.608341810759157 ], [ 395884.944048830133397, 3786093.997965412214398 ], [ 395884.944048830133397, 3786093.692777212709188 ], [ 395884.638860630744603, 3786093.387589013203979 ], [ 395884.638860630744603, 3786092.47202441515401 ], [ 395889.827060020354111, 3786092.47202441515401 ], [ 395889.827060020354111, 3786093.692777212709188 ], [ 395889.216683621576522, 3786094.303153611253947 ], [ 395889.216683621576522, 3786094.608341810759157 ], [ 395888.301119023410138, 3786095.523906408809125 ], [ 395888.301119023410138, 3786095.829094608314335 ], [ 395887.995930824021343, 3786096.134282807819545 ], [ 395887.690742624632549, 3786096.134282807819545 ], [ 395887.080366225854959, 3786096.744659206364304 ], [ 395886.46998982707737, 3786096.744659206364304 ], [ 395886.164801627688576, 3786097.049847405869514 ] ] ] } },
{ "type": "Feature", "properties": { "confidence": 0.27911835908889771, "class": 1 }, "geometry": { "type": "Polygon", "coordinates": [ [ [ 395542.217700915585738, 3786234.079348932020366 ], [ 395541.912512716196943, 3786233.774160732515156 ], [ 395541.912512716196943, 3786232.553407934959978 ], [ 395542.828077314363327, 3786231.637843336910009 ], [ 395543.133265513752121, 3786231.637843336910009 ], [ 395544.048830111918505, 3786230.72227873839438 ], [ 395545.574771108862478, 3786230.72227873839438 ], [ 395546.490335707028862, 3786231.637843336910009 ], [ 395546.795523906417657, 3786231.637843336910009 ], [ 395546.795523906417657, 3786231.943031535949558 ], [ 395547.100712105806451, 3786232.248219735454768 ], [ 395547.100712105806451, 3786233.163784333504736 ], [ 395546.795523906417657, 3786233.468972533009946 ], [ 395546.490335707028862, 3786233.468972533009946 ], [ 395546.185147507640067, 3786233.774160732515156 ], [ 395545.269582909473684, 3786233.774160732515156 ], [ 395544.964394710084889, 3786234.079348932020366 ], [ 395542.217700915585738, 3786234.079348932020366 ] ] ] } }
]
}
