{
"type": "FeatureCollection",
"name": "cell_00159_pre",
"crs": { "type": "name", "properties": { "name": "urn:ogc:def:crs:EPSG::32611" } },
"features": [
{ "type": "Feature", "properties": { "confidence": 0.77504771947860718, "class": 1 }, "geometry": { "type": "Polygon", "coordinates": [ [ [ 355442.014242115954403, 3772296.439471007324755 ], [ 355441.709053916565608, 3772296.134282807819545 ], [ 355440.48830111901043, 3772296.134282807819545 ], [ 355440.183112919621635, 3772295.829094608314335 ], [ 355439.877924720232841, 3772295.829094608314335 ], [ 355438.657171922677662, 3772294.608341810759157 ], [ 355438.657171922677662, 3772293.997965412214398 ], [ 355438.351983723288868, 3772293.692777212709188 ], [ 355438.351983723288868, 3772292.47202441515401 ], [ 355445.981688708008733, 3772292.47202441515401 ], [ 355445.981688708008733, 3772293.387589013203979 ], [ 355445.676500508619938, 3772293.692777212709188 ], [ 355445.676500508619938, 3772293.997965412214398 ], [ 355444.45574771106476, 3772295.218718209769577 ], [ 355444.45574771106476, 3772295.523906408809125 ], [ 355444.150559511675965, 3772295.829094608314335 ], [ 355444.150559511675965, 3772296.134282807819545 ], [ 355443.84537131228717, 3772296.134282807819545 ], [ 355443.540183112898376, 3772296.439471007324755 ], [ 355442.014242115954403, 3772296.439471007324755 ] ] ] } },
{ "type": "Feature", "properties": { "confidence": 0.56318026781082153, "class": 1 }, "geometry": { "type": "Polygon", "coordinates": [ [ [ 355319.328585961367935, 3772488.402848422992975 ], [ 355319.02339776197914, 3772488.097660223953426 ], [ 355318.718209562590346, 3772488.097660223953426 ], [ 355318.718209562590346, 3772487.792472024448216 ], [ 355318.413021363201551, 3772487.487283824943006 ], [ 355318.413021363201551, 3772484.740590030327439 ], [ 355318.718209562590346, 3772484.435401831287891 ], [ 355318.718209562590346, 3772483.519837232772261 ], [ 355318.413021363201551, 3772483.214649033732712 ], [ 355318.413021363201551, 3772482.604272634722292 ], [ 355318.718209562590346, 3772482.299084435217083 ], [ 355318.718209562590346, 3772480.162767039611936 ], [ 355319.02339776197914, 3772479.857578840106726 ], [ 355319.02339776197914, 3772479.552390641067177 ], [ 355321.159715157700703, 3772479.552390641067177 ], [ 355321.159715157700703, 3772479.857578840106726 ], [ 355321.464903357089497, 3772480.162767039611936 ], [ 355321.770091556478292, 3772480.162767039611936 ], [ 355322.075279755867086, 3772480.467955239117146 ], [ 355322.380467955255881, 3772480.467955239117146 ], [ 355322.685656154644676, 3772480.773143438622355 ], [ 355323.296032553422265, 3772480.773143438622355 ], [ 355323.601220752811059, 3772481.078331637661904 ], [ 355323.906408952199854, 3772481.078331637661904 ], [ 355324.516785350977443, 3772481.688708036672324 ], [ 355324.516785350977443, 3772482.604272634722292 ], [ 355324.211597151588649, 3772482.909460834227502 ], [ 355324.211597151588649, 3772484.130213631782681 ], [ 355323.906408952199854, 3772484.435401831287891 ], [ 355323.906408952199854, 3772484.740590030327439 ], [ 355323.601220752811059, 3772485.045778229832649 ], [ 355323.601220752811059, 3772486.876907426398247 ], [ 355323.296032553422265, 3772487.182095625437796 ], [ 355323.296032553422265, 3772487.487283824943006 ], [ 355322.380467955255881, 3772487.487283824943006 ], [ 355322.075279755867086, 3772487.792472024448216 ], [ 355321.159715157700703, 3772487.792472024448216 ], [ 355320.854526958311908, 3772488.097660223953426 ], [ 355319.938962360145524, 3772488.097660223953426 ], [ 355319.63377416075673, 3772488.402848422992975 ], [ 355319.328585961367935, 3772488.402848422992975 ] ] ] } },
{ "type": "Feature", "properties": { "confidence": 0.4395938515663147, "class": 1 }, "geometry": { "type": "Polygon", "coordinates": [ [ [ 355472.533062054950278, 3772268.362156663089991 ], [ 355472.227873855561484, 3772268.056968464050442 ], [ 355471.617497456783894, 3772268.056968464050442 ], [ 355471.617497456783894, 3772267.751780264545232 ], [ 355471.3123092573951, 3772267.446592065040022 ], [ 355471.3123092573951, 3772261.95320447627455 ], [ 355471.617497456783894, 3772261.64801627676934 ], [ 355471.617497456783894, 3772261.03763987775892 ], [ 355471.922685656172689, 3772260.732451678719372 ], [ 355473.143438453727867, 3772260.732451678719372 ], [ 355473.143438453727867, 3772268.362156663089991 ], [ 355472.533062054950278, 3772268.362156663089991 ] ] ] } },
{ "type": "Feature", "properties": { "confidence": 0.32381746172904968, "class": 1 }, "geometry": { "type": "Polygon", "coordinates": [ [ [ 355235.707019328605384, 3772654.12004069192335 ], [ 355235.401831129216589, 3772653.81485249241814 ], [ 355235.096642929827794, 3772653.81485249241814 ], [ 355234.791454730439, 3772653.50966429291293 ], [ 355234.486266531050205, 3772653.50966429291293 ], [ 355234.486266531050205, 3772653.20447609340772 ], [ 355234.181078331661411, 3772652.899287894368172 ], [ 355233.875890132272616, 3772652.899287894368172 ], [ 355233.875890132272616, 3772652.594099694862962 ], [ 355233.265513733495027, 3772651.983723295852542 ], [ 355232.960325534106232, 3772651.983723295852542 ], [ 355232.044760935881641, 3772651.068158697802573 ], [ 355232.044760935881641, 3772650.762970498297364 ], [ 355231.739572736492846, 3772650.457782299257815 ], [ 355231.739572736492846, 3772649.542217700742185 ], [ 355231.434384537104052, 3772649.237029501702636 ], [ 355231.434384537104052, 3772648.321464903187007 ], [ 355231.739572736492846, 3772648.016276704147458 ], [ 355231.739572736492846, 3772647.405900305137038 ], [ 355232.349949135328643, 3772646.79552390659228 ], [ 355232.960325534106232, 3772646.79552390659228 ], [ 355233.265513733495027, 3772646.49033570708707 ], [ 355235.707019328605384, 3772646.49033570708707 ], [ 355236.012207527994178, 3772646.79552390659228 ], [ 355236.927772126160562, 3772646.79552390659228 ], [ 355237.538148524938151, 3772647.405900305137038 ], [ 355237.538148524938151, 3772647.711088504642248 ], [ 355238.453713123104535, 3772648.626653102692217 ], [ 355238.453713123104535, 3772648.931841302197427 ], [ 355239.674465920659713, 3772650.152594099752605 ], [ 355239.979654120048508, 3772650.152594099752605 ], [ 355239.979654120048508, 3772650.457782299257815 ], [ 355240.284842319437303, 3772650.762970498297364 ], [ 355240.284842319437303, 3772651.068158697802573 ], [ 355240.590030518826097, 3772651.373346897307783 ], [ 355240.590030518826097, 3772653.50966429291293 ], [ 355240.284842319437303, 3772653.50966429291293 ], [ 355239.979654120048508, 3772653.81485249241814 ], [ 355237.843336724326946, 3772653.81485249241814 ], [ 355237.538148524938151, 3772654.12004069192335 ], [ 355235.707019328605384, 3772654.12004069192335 ] ] ] } },
{ "type": "Feature", "properties": { "confidence": 0.29295724630355835, "class": 1 }, "geometry": { "type": "Polygon", "coordinates": [ [ [ 355693.184130213630851, 3772223.4994913530536 ], [ 355692.573753814853262, 3772222.88911495404318 ], [ 355692.268565615464468, 3772222.88911495404318 ], [ 355692.268565615464468, 3772222.583926755003631 ], [ 355691.658189216686878, 3772221.973550355993211 ], [ 355691.658189216686878, 3772221.668362156488001 ], [ 355691.353001017298084, 3772221.363173957448453 ], [ 355691.353001017298084, 3772221.057985757943243 ], [ 355690.742624618520495, 3772220.447609358932823 ], [ 355690.742624618520495, 3772220.142421159893274 ], [ 355690.132248219742905, 3772219.532044760882854 ], [ 355690.132248219742905, 3772219.226856561377645 ], [ 355689.827060020354111, 3772218.921668362338096 ], [ 355689.827060020354111, 3772216.785350966267288 ], [ 355690.132248219742905, 3772216.480162767227739 ], [ 355690.132248219742905, 3772216.174974567722529 ], [ 355690.4374364191317, 3772216.174974567722529 ], [ 355690.742624618520495, 3772215.869786368217319 ], [ 355692.268565615464468, 3772215.869786368217319 ], [ 355692.573753814853262, 3772216.174974567722529 ], [ 355692.878942014242057, 3772216.174974567722529 ], [ 355692.878942014242057, 3772216.480162767227739 ], [ 355695.625635808741208, 3772219.226856561377645 ], [ 355695.625635808741208, 3772219.532044760882854 ], [ 355695.930824008130003, 3772219.837232960388064 ], [ 355695.930824008130003, 3772222.278738555498421 ], [ 355696.236012207518797, 3772222.583926755003631 ], [ 355696.236012207518797, 3772222.88911495404318 ], [ 355695.930824008130003, 3772223.19430315354839 ], [ 355695.930824008130003, 3772223.4994913530536 ], [ 355693.184130213630851, 3772223.4994913530536 ] ] ] } },
{ "type": "Feature", "properties": { "confidence": 0.28773847222328186, "class": 1 }, "geometry": { "type": "Polygon", "coordinates": [ [ [ 355707.527975584962405, 3772296.744659206364304 ], [ 355706.917599186184816, 3772296.134282807819545 ], [ 355706.002034588018432, 3772296.134282807819545 ], [ 355706.002034588018432, 3772295.829094608314335 ], [ 355705.696846388629638, 3772295.523906408809125 ], [ 355705.086469989852048, 3772295.523906408809125 ], [ 355704.781281790463254, 3772295.829094608314335 ], [ 355704.781281790463254, 3772296.134282807819545 ], [ 355704.170905391685665, 3772296.134282807819545 ], [ 355704.170905391685665, 3772294.303153611253947 ], [ 355703.86571719229687, 3772293.997965412214398 ], [ 355703.86571719229687, 3772293.387589013203979 ], [ 355703.255340793461073, 3772292.77721261465922 ], [ 355703.255340793461073, 3772292.47202441515401 ], [ 355707.527975584962405, 3772292.47202441515401 ], [ 355707.527975584962405, 3772296.744659206364304 ] ] ] } },
{ "type": "Feature", "properties": { "confidence": 0.27865734696388245, "class": 1 }, "geometry": { "type": "Polygon", "coordinates": [ [ [ 355383.723296032578219, 3772500.915564598049968 ], [ 355383.11291963380063, 3772500.30518819950521 ], [ 355382.807731434411835, 3772500.30518819950521 ], [ 355382.50254323502304, 3772500.0 ], [ 355382.50254323502304, 3772498.779247202444822 ], [ 355385.554425228910986, 3772495.727365208324045 ], [ 355385.859613428299781, 3772495.727365208324045 ], [ 355386.46998982707737, 3772495.116988809779286 ], [ 355386.775178026466165, 3772495.116988809779286 ], [ 355387.385554425243754, 3772494.506612410768867 ], [ 355388.606307222798932, 3772494.506612410768867 ], [ 355388.911495422187727, 3772494.201424211729318 ], [ 355391.047812817909289, 3772494.201424211729318 ], [ 355391.353001017298084, 3772494.506612410768867 ], [ 355391.658189216686878, 3772494.506612410768867 ], [ 355391.963377416075673, 3772494.811800610274076 ], [ 355392.268565615464468, 3772494.811800610274076 ], [ 355392.268565615464468, 3772495.116988809779286 ], [ 355392.573753814853262, 3772495.422177009284496 ], [ 355392.573753814853262, 3772497.863682604394853 ], [ 355391.353001017298084, 3772499.084435401950032 ], [ 355391.047812817909289, 3772499.084435401950032 ], [ 355390.4374364191317, 3772499.69481180049479 ], [ 355389.827060020354111, 3772499.69481180049479 ], [ 355389.521871820965316, 3772500.0 ], [ 355388.606307222798932, 3772500.0 ], [ 355388.301119023410138, 3772500.30518819950521 ], [ 355386.775178026466165, 3772500.30518819950521 ], [ 355386.46998982707737, 3772500.61037639901042 ], [ 355385.554425228910986, 3772500.61037639901042 ], [ 355385.249237029522192, 3772500.915564598049968 ], [ 355383.723296032578219, 3772500.915564598049968 ] ] ] } }
]
}
