{
"type": "FeatureCollection",
"name": "cell_00352_pre",
"crs": { "type": "name", "properties": { "name": "urn:ogc:def:crs:EPSG::32611" } },
"features": [
{ "type": "Feature", "properties": { "confidence": 0.84241628646850586, "class": 1 }, "geometry": { "type": "Polygon", "coordinates": [ [ [ 394653.509664292971138, 3786813.936927772127092 ], [ 394653.509664292971138, 3786812.410986775066704 ], [ 394652.594099694804754, 3786811.495422177016735 ], [ 394652.594099694804754, 3786811.190233977511525 ], [ 394651.983723296027165, 3786810.579857578966767 ], [ 394651.983723296027165, 3786809.664292980451137 ], [ 394659.003051881969441, 3786809.664292980451137 ], [ 394659.003051881969441, 3786809.969481179956347 ], [ 394658.697863682580646, 3786810.274669379461557 ], [ 394658.697863682580646, 3786811.495422177016735 ], [ 394658.392675483191852, 3786811.800610376521945 ], [ 394658.392675483191852, 3786812.105798575561494 ], [ 394656.866734486247879, 3786813.631739572621882 ], [ 394656.561546286859084, 3786813.631739572621882 ], [ 394656.256358087470289, 3786813.936927772127092 ], [ 394653.509664292971138, 3786813.936927772127092 ] ] ] } },
{ "type": "Feature", "properties": { "confidence": 0.83268058300018311, "class": 1 }, "geometry": { "type": "Polygon", "coordinates": [ [ [ 394654.730417090526316, 3786813.631739572621882 ], [ 394654.120040691748727, 3786813.021363174077123 ], [ 394653.509664292971138, 3786813.021363174077123 ], [ 394653.204476093582343, 3786812.716174974571913 ], [ 394653.204476093582343, 3786812.410986775066704 ], [ 394652.899287894193549, 3786812.105798575561494 ], [ 394652.899287894193549, 3786809.969481179956347 ], [ 394652.594099694804754, 3786809.664292980451137 ], [ 394652.594099694804754, 3786808.13835198385641 ], [ 394653.204476093582343, 3786807.52797558484599 ], [ 394653.509664292971138, 3786807.52797558484599 ], [ 394653.814852492359933, 3786807.22278738534078 ], [ 394654.730417090526316, 3786807.22278738534078 ], [ 394655.340793489303906, 3786806.612410986796021 ], [ 394657.477110885025468, 3786806.612410986796021 ], [ 394657.782299084414262, 3786806.917599186301231 ], [ 394658.087487283803057, 3786806.917599186301231 ], [ 394658.392675483191852, 3786807.22278738534078 ], [ 394658.392675483191852, 3786809.359104781411588 ], [ 394658.087487283803057, 3786809.664292980451137 ], [ 394658.087487283803057, 3786810.579857578966767 ], [ 394657.782299084414262, 3786810.885045778006315 ], [ 394657.782299084414262, 3786812.410986775066704 ], [ 394657.477110885025468, 3786812.716174974571913 ], [ 394657.477110885025468, 3786813.021363174077123 ], [ 394657.171922685636673, 3786813.021363174077123 ], [ 394656.561546286859084, 3786813.631739572621882 ], [ 394654.730417090526316, 3786813.631739572621882 ] ] ] } },
{ "type": "Feature", "properties": { "confidence": 0.80653911828994751, "class": 1 }, "geometry": { "type": "Polygon", "coordinates": [ [ [ 394705.391658189240843, 3786779.755849440582097 ], [ 394705.086469989852048, 3786779.450661241076887 ], [ 394704.170905391685665, 3786779.450661241076887 ], [ 394703.86571719229687, 3786779.145473041571677 ], [ 394703.560528992908075, 3786779.145473041571677 ], [ 394703.255340793461073, 3786778.840284842532128 ], [ 394702.950152594072279, 3786778.840284842532128 ], [ 394702.950152594072279, 3786778.535096643026918 ], [ 394702.644964394683484, 3786778.229908443521708 ], [ 394702.339776195294689, 3786778.229908443521708 ], [ 394701.424211597128306, 3786777.31434384547174 ], [ 394701.119023397739511, 3786777.31434384547174 ], [ 394701.119023397739511, 3786777.00915564596653 ], [ 394700.508646998961922, 3786776.398779247421771 ], [ 394700.508646998961922, 3786776.093591047916561 ], [ 394700.203458799573127, 3786775.788402848411351 ], [ 394700.203458799573127, 3786775.178026449866593 ], [ 394699.898270600184333, 3786774.872838250361383 ], [ 394699.898270600184333, 3786772.736520854756236 ], [ 394700.203458799573127, 3786772.431332655251026 ], [ 394700.203458799573127, 3786772.126144455745816 ], [ 394700.508646998961922, 3786771.820956256240606 ], [ 394700.813835198350716, 3786771.820956256240606 ], [ 394701.119023397739511, 3786771.515768057201058 ], [ 394701.424211597128306, 3786771.515768057201058 ], [ 394702.034587995905895, 3786770.905391658190638 ], [ 394702.644964394683484, 3786770.905391658190638 ], [ 394702.950152594072279, 3786770.600203458685428 ], [ 394707.222787385573611, 3786770.600203458685428 ], [ 394707.527975584962405, 3786770.905391658190638 ], [ 394707.527975584962405, 3786771.210579857695848 ], [ 394707.8331637843512, 3786771.515768057201058 ], [ 394707.8331637843512, 3786772.736520854756236 ], [ 394709.053916581906378, 3786773.957273652311414 ], [ 394709.359104781295173, 3786773.957273652311414 ], [ 394709.664292980683967, 3786774.262461851350963 ], [ 394709.664292980683967, 3786774.567650050856173 ], [ 394709.969481180072762, 3786774.872838250361383 ], [ 394709.969481180072762, 3786776.398779247421771 ], [ 394706.917599186184816, 3786779.450661241076887 ], [ 394705.696846388629638, 3786779.450661241076887 ], [ 394705.391658189240843, 3786779.755849440582097 ] ] ] } },
{ "type": "Feature", "properties": { "confidence": 0.6331489086151123, "class": 1 }, "geometry": { "type": "Polygon", "coordinates": [ [ [ 394734.384537131234538, 3786911.291963377501816 ], [ 394734.079348931845743, 3786910.986775177996606 ], [ 394733.468972533068154, 3786910.986775177996606 ], [ 394732.858596134290565, 3786910.376398779451847 ], [ 394732.858596134290565, 3786910.071210579946637 ], [ 394732.55340793490177, 3786909.766022380441427 ], [ 394732.55340793490177, 3786909.460834180936217 ], [ 394732.858596134290565, 3786909.155645981896669 ], [ 394732.858596134290565, 3786906.408952187281102 ], [ 394733.163784333679359, 3786906.103763987775892 ], [ 394733.163784333679359, 3786904.577822990715504 ], [ 394732.858596134290565, 3786904.272634791675955 ], [ 394732.858596134290565, 3786903.357070193160325 ], [ 394733.163784333679359, 3786903.051881994120777 ], [ 394733.163784333679359, 3786902.746693794615567 ], [ 394733.468972533068154, 3786902.441505595110357 ], [ 394733.774160732456949, 3786902.441505595110357 ], [ 394734.689725330623332, 3786901.525940997060388 ], [ 394735.300101729400922, 3786901.525940997060388 ], [ 394735.605289928789716, 3786901.220752797555178 ], [ 394735.910478128178511, 3786901.220752797555178 ], [ 394736.5208545269561, 3786900.61037639901042 ], [ 394736.826042726344895, 3786900.61037639901042 ], [ 394737.131230925733689, 3786900.30518819950521 ], [ 394738.962360122066457, 3786900.30518819950521 ], [ 394739.267548321455251, 3786900.61037639901042 ], [ 394739.572736520844046, 3786900.61037639901042 ], [ 394739.572736520844046, 3786900.915564598049968 ], [ 394740.183112919621635, 3786901.525940997060388 ], [ 394740.183112919621635, 3786901.831129196565598 ], [ 394740.48830111901043, 3786902.136317395605147 ], [ 394740.48830111901043, 3786902.746693794615567 ], [ 394740.793489318399224, 3786903.051881994120777 ], [ 394740.793489318399224, 3786904.272634791675955 ], [ 394740.48830111901043, 3786904.577822990715504 ], [ 394740.48830111901043, 3786906.103763987775892 ], [ 394740.183112919621635, 3786906.408952187281102 ], [ 394740.183112919621635, 3786907.93489318434149 ], [ 394739.877924720232841, 3786908.240081383381039 ], [ 394739.877924720232841, 3786908.850457782391459 ], [ 394739.267548321455251, 3786909.460834180936217 ], [ 394737.436419125122484, 3786909.460834180936217 ], [ 394737.131230925733689, 3786909.766022380441427 ], [ 394736.5208545269561, 3786909.766022380441427 ], [ 394736.215666327567305, 3786910.071210579946637 ], [ 394736.215666327567305, 3786910.376398779451847 ], [ 394735.910478128178511, 3786910.681586978491396 ], [ 394735.605289928789716, 3786910.681586978491396 ], [ 394734.994913530012127, 3786911.291963377501816 ], [ 394734.384537131234538, 3786911.291963377501816 ] ] ] } },
{ "type": "Feature", "properties": { "confidence": 0.63186508417129517, "class": 1 }, "geometry": { "type": "Polygon", "coordinates": [ [ [ 394771.922685656172689, 3786813.936927772127092 ], [ 394771.617497456783894, 3786813.631739572621882 ], [ 394771.007121058006305, 3786813.631739572621882 ], [ 394770.396744659228716, 3786813.021363174077123 ], [ 394770.396744659228716, 3786812.410986775066704 ], [ 394770.091556459839921, 3786812.105798575561494 ], [ 394770.091556459839921, 3786811.190233977511525 ], [ 394769.786368260451127, 3786810.885045778006315 ], [ 394769.481180061062332, 3786810.885045778006315 ], [ 394769.481180061062332, 3786809.664292980451137 ], [ 394779.857578840281349, 3786809.664292980451137 ], [ 394779.857578840281349, 3786809.969481179956347 ], [ 394780.162767039670143, 3786810.274669379461557 ], [ 394779.857578840281349, 3786810.579857578966767 ], [ 394779.857578840281349, 3786811.190233977511525 ], [ 394779.552390640892554, 3786811.495422177016735 ], [ 394779.247202441503759, 3786811.495422177016735 ], [ 394778.942014242114965, 3786811.800610376521945 ], [ 394778.331637843337376, 3786811.800610376521945 ], [ 394778.026449643948581, 3786812.105798575561494 ], [ 394777.416073245170992, 3786812.105798575561494 ], [ 394777.110885045782197, 3786812.410986775066704 ], [ 394776.500508647004608, 3786812.410986775066704 ], [ 394776.195320447615813, 3786812.716174974571913 ], [ 394775.890132248227019, 3786812.716174974571913 ], [ 394775.584944048838224, 3786813.021363174077123 ], [ 394775.27975584944943, 3786813.021363174077123 ], [ 394774.66937945067184, 3786813.631739572621882 ], [ 394774.059003051894251, 3786813.631739572621882 ], [ 394773.753814852505457, 3786813.936927772127092 ], [ 394771.922685656172689, 3786813.936927772127092 ] ] ] } },
{ "type": "Feature", "properties": { "confidence": 0.63179808855056763, "class": 1 }, "geometry": { "type": "Polygon", "coordinates": [ [ [ 394700.203458799573127, 3786956.765005086548626 ], [ 394699.898270600184333, 3786956.459816887043417 ], [ 394699.593082400795538, 3786956.459816887043417 ], [ 394698.067141403851565, 3786954.933875889983028 ], [ 394698.067141403851565, 3786954.62868769094348 ], [ 394697.456765005073976, 3786954.01831129193306 ], [ 394697.456765005073976, 3786952.492370294872671 ], [ 394697.151576805685181, 3786952.187182095833123 ], [ 394697.151576805685181, 3786951.576805696822703 ], [ 394696.846388606296387, 3786951.271617497317493 ], [ 394696.846388606296387, 3786950.050864699762315 ], [ 394697.151576805685181, 3786949.745676500722766 ], [ 394697.151576805685181, 3786949.440488301217556 ], [ 394697.456765005073976, 3786949.135300101712346 ], [ 394697.456765005073976, 3786948.830111902207136 ], [ 394697.76195320446277, 3786948.524923703167588 ], [ 394697.76195320446277, 3786947.914547304157168 ], [ 394697.456765005073976, 3786947.609359104651958 ], [ 394697.456765005073976, 3786946.693794506601989 ], [ 394697.76195320446277, 3786946.388606307096779 ], [ 394697.76195320446277, 3786946.083418108057231 ], [ 394698.067141403851565, 3786945.778229908552021 ], [ 394701.424211597128306, 3786945.778229908552021 ], [ 394701.7293997965171, 3786946.083418108057231 ], [ 394702.034587995905895, 3786946.083418108057231 ], [ 394702.950152594072279, 3786946.998982706107199 ], [ 394703.255340793461073, 3786946.998982706107199 ], [ 394703.255340793461073, 3786947.304170905612409 ], [ 394703.86571719229687, 3786947.914547304157168 ], [ 394704.170905391685665, 3786947.914547304157168 ], [ 394704.781281790463254, 3786948.524923703167588 ], [ 394705.086469989852048, 3786948.524923703167588 ], [ 394705.086469989852048, 3786948.830111902207136 ], [ 394705.391658189240843, 3786949.135300101712346 ], [ 394705.696846388629638, 3786949.135300101712346 ], [ 394706.307222787407227, 3786949.745676500722766 ], [ 394706.307222787407227, 3786950.356052899267524 ], [ 394706.612410986796021, 3786950.661241098772734 ], [ 394706.612410986796021, 3786955.544252288993448 ], [ 394706.307222787407227, 3786955.849440488498658 ], [ 394706.307222787407227, 3786956.459816887043417 ], [ 394702.339776195294689, 3786956.459816887043417 ], [ 394702.034587995905895, 3786956.765005086548626 ], [ 394700.203458799573127, 3786956.765005086548626 ] ] ] } },
{ "type": "Feature", "properties": { "confidence": 0.3632599413394928, "class": 1 }, "geometry": { "type": "Polygon", "coordinates": [ [ [ 394728.58596134284744, 3787023.29603255353868 ], [ 394728.280773143458646, 3787022.99084435403347 ], [ 394727.975584944069851, 3787022.99084435403347 ], [ 394727.975584944069851, 3787022.38046795502305 ], [ 394727.670396744681057, 3787022.075279755983502 ], [ 394727.670396744681057, 3787021.770091556478292 ], [ 394727.975584944069851, 3787021.464903356973082 ], [ 394727.975584944069851, 3787018.718209562357515 ], [ 394728.58596134284744, 3787018.107833163812757 ], [ 394728.58596134284744, 3787017.802644964307547 ], [ 394728.891149542236235, 3787017.497456764802337 ], [ 394728.891149542236235, 3787016.887080366257578 ], [ 394729.19633774162503, 3787016.581892166752368 ], [ 394729.19633774162503, 3787015.97151576820761 ], [ 394729.806714140402619, 3787015.36113936919719 ], [ 394730.111902339791413, 3787015.36113936919719 ], [ 394730.417090539180208, 3787015.05595116969198 ], [ 394734.689725330623332, 3787015.05595116969198 ], [ 394735.300101729400922, 3787015.6663275687024 ], [ 394735.300101729400922, 3787018.107833163812757 ], [ 394734.994913530012127, 3787018.413021363317966 ], [ 394734.994913530012127, 3787019.328585961367935 ], [ 394734.689725330623332, 3787019.633774160873145 ], [ 394734.689725330623332, 3787019.938962359912694 ], [ 394733.774160732456949, 3787020.854526958428323 ], [ 394733.774160732456949, 3787021.464903356973082 ], [ 394732.858596134290565, 3787022.38046795502305 ], [ 394732.55340793490177, 3787022.38046795502305 ], [ 394732.248219735512976, 3787022.68565615452826 ], [ 394731.637843336735386, 3787022.68565615452826 ], [ 394731.332655137346592, 3787022.99084435403347 ], [ 394730.111902339791413, 3787022.99084435403347 ], [ 394729.806714140402619, 3787023.29603255353868 ], [ 394728.58596134284744, 3787023.29603255353868 ] ] ] } }
]
}
