{
"type": "FeatureCollection",
"name": "cell_00522_pre",
"crs": { "type": "name", "properties": { "name": "urn:ogc:def:crs:EPSG::32611" } },
"features": [
{ "type": "Feature", "properties": { "confidence": 0.95776480436325073, "class": 1 }, "geometry": { "type": "Polygon", "coordinates": [ [ [ 403735.300101729400922, 3785247.100712105631828 ], [ 403734.384537131234538, 3785246.18514750758186 ], [ 403734.384537131234538, 3785245.87995930807665 ], [ 403734.079348931845743, 3785245.574771109037101 ], [ 403734.079348931845743, 3785244.354018311481923 ], [ 403733.774160732456949, 3785244.048830111976713 ], [ 403740.183112919621635, 3785244.048830111976713 ], [ 403739.877924720232841, 3785244.354018311481923 ], [ 403739.877924720232841, 3785244.659206510521472 ], [ 403739.572736520844046, 3785244.964394710026681 ], [ 403739.572736520844046, 3785245.269582909531891 ], [ 403738.351983723288868, 3785246.49033570708707 ], [ 403737.741607324511278, 3785246.49033570708707 ], [ 403737.436419125122484, 3785246.79552390659228 ], [ 403737.131230925733689, 3785246.79552390659228 ], [ 403736.826042726344895, 3785247.100712105631828 ], [ 403735.300101729400922, 3785247.100712105631828 ] ] ] } },
{ "type": "Feature", "properties": { "confidence": 0.94604772329330444, "class": 1 }, "geometry": { "type": "Polygon", "coordinates": [ [ [ 403469.481180061062332, 3784906.510681586805731 ], [ 403469.175991861673538, 3784906.205493387766182 ], [ 403469.175991861673538, 3784904.679552390705794 ], [ 403468.870803662284743, 3784904.374364191200584 ], [ 403468.870803662284743, 3784904.069175991695374 ], [ 403468.565615462895948, 3784903.763987792655826 ], [ 403468.565615462895948, 3784899.79654120048508 ], [ 403469.481180061062332, 3784898.880976602435112 ], [ 403470.091556459839921, 3784898.880976602435112 ], [ 403470.396744659228716, 3784898.575788402929902 ], [ 403471.617497456783894, 3784898.575788402929902 ], [ 403471.922685656172689, 3784898.270600203424692 ], [ 403473.143438453727867, 3784898.270600203424692 ], [ 403473.143438453727867, 3784906.510681586805731 ], [ 403469.481180061062332, 3784906.510681586805731 ] ] ] } },
{ "type": "Feature", "properties": { "confidence": 0.92302572727203369, "class": 1 }, "geometry": { "type": "Polygon", "coordinates": [ [ [ 403628.179043743642978, 3784888.199389623478055 ], [ 403627.568667344865389, 3784887.589013224933296 ], [ 403627.263479145476595, 3784887.589013224933296 ], [ 403626.9582909460878, 3784887.283825025428087 ], [ 403626.9582909460878, 3784886.063072227872908 ], [ 403626.653102746699005, 3784885.757884028367698 ], [ 403626.653102746699005, 3784883.316378433257341 ], [ 403626.347914547310211, 3784883.011190233752131 ], [ 403626.653102746699005, 3784882.706002034712583 ], [ 403626.653102746699005, 3784882.400813835207373 ], [ 403626.9582909460878, 3784882.095625635702163 ], [ 403626.9582909460878, 3784881.790437436196953 ], [ 403627.263479145476595, 3784881.485249237157404 ], [ 403627.568667344865389, 3784881.485249237157404 ], [ 403628.179043743642978, 3784880.874872838146985 ], [ 403628.484231943031773, 3784880.874872838146985 ], [ 403629.094608341809362, 3784880.264496439602226 ], [ 403629.704984740586951, 3784880.264496439602226 ], [ 403630.92573753814213, 3784879.043743642047048 ], [ 403631.536113936919719, 3784879.043743642047048 ], [ 403631.841302136308514, 3784878.738555442541838 ], [ 403633.977619532030076, 3784878.738555442541838 ], [ 403634.28280773141887, 3784879.043743642047048 ], [ 403634.89318413019646, 3784879.043743642047048 ], [ 403635.198372329585254, 3784879.348931841086596 ], [ 403635.808748728362843, 3784879.348931841086596 ], [ 403636.113936927751638, 3784879.654120040591806 ], [ 403636.419125127140433, 3784879.654120040591806 ], [ 403636.419125127140433, 3784882.400813835207373 ], [ 403636.113936927751638, 3784882.706002034712583 ], [ 403636.113936927751638, 3784883.926754832267761 ], [ 403635.808748728362843, 3784884.23194303130731 ], [ 403635.808748728362843, 3784884.53713123081252 ], [ 403635.198372329585254, 3784885.14750762982294 ], [ 403635.198372329585254, 3784885.452695828862488 ], [ 403634.587995930807665, 3784886.063072227872908 ], [ 403634.587995930807665, 3784886.368260427378118 ], [ 403634.28280773141887, 3784886.673448626883328 ], [ 403633.977619532030076, 3784886.673448626883328 ], [ 403633.672431332641281, 3784886.978636825922877 ], [ 403633.367243133252487, 3784886.978636825922877 ], [ 403633.062054933863692, 3784887.283825025428087 ], [ 403631.230925737530924, 3784887.283825025428087 ], [ 403630.92573753814213, 3784887.589013224933296 ], [ 403630.620549338753335, 3784887.589013224933296 ], [ 403630.010172939975746, 3784888.199389623478055 ], [ 403628.179043743642978, 3784888.199389623478055 ] ] ] } },
{ "type": "Feature", "properties": { "confidence": 0.88341999053955078, "class": 1 }, "geometry": { "type": "Polygon", "coordinates": [ [ [ 403436.215666327567305, 3784980.671414038632065 ], [ 403435.910478128178511, 3784980.366225839126855 ], [ 403435.300101729400922, 3784980.366225839126855 ], [ 403435.300101729400922, 3784980.061037640087306 ], [ 403434.994913530012127, 3784979.755849440582097 ], [ 403434.994913530012127, 3784979.145473041571677 ], [ 403435.300101729400922, 3784978.840284842532128 ], [ 403435.300101729400922, 3784973.346897253300995 ], [ 403435.605289928789716, 3784973.346897253300995 ], [ 403435.910478128178511, 3784973.041709053795785 ], [ 403439.267548321455251, 3784973.041709053795785 ], [ 403439.572736520844046, 3784973.346897253300995 ], [ 403439.572736520844046, 3784975.178026449866593 ], [ 403439.877924720232841, 3784975.483214648906142 ], [ 403439.877924720232841, 3784975.788402848411351 ], [ 403440.183112919621635, 3784976.093591047916561 ], [ 403440.183112919621635, 3784976.70396744646132 ], [ 403440.48830111901043, 3784977.00915564596653 ], [ 403440.48830111901043, 3784977.61953204497695 ], [ 403440.793489318399224, 3784977.924720244016498 ], [ 403440.793489318399224, 3784979.450661241076887 ], [ 403440.48830111901043, 3784979.755849440582097 ], [ 403440.48830111901043, 3784980.061037640087306 ], [ 403440.183112919621635, 3784980.366225839126855 ], [ 403439.572736520844046, 3784980.366225839126855 ], [ 403439.267548321455251, 3784980.671414038632065 ], [ 403436.215666327567305, 3784980.671414038632065 ] ] ] } },
{ "type": "Feature", "properties": { "confidence": 0.87564855813980103, "class": 1 }, "geometry": { "type": "Polygon", "coordinates": [ [ [ 403581.790437436429784, 3784886.063072227872908 ], [ 403581.180061037652194, 3784885.452695828862488 ], [ 403580.8748728382634, 3784885.452695828862488 ], [ 403580.569684638874605, 3784885.14750762982294 ], [ 403580.264496439485811, 3784885.14750762982294 ], [ 403579.348931841319427, 3784884.23194303130731 ], [ 403579.348931841319427, 3784883.621566632762551 ], [ 403579.043743641930632, 3784883.316378433257341 ], [ 403579.043743641930632, 3784883.011190233752131 ], [ 403578.738555442541838, 3784882.706002034712583 ], [ 403578.738555442541838, 3784882.095625635702163 ], [ 403578.433367243153043, 3784881.790437436196953 ], [ 403578.433367243153043, 3784879.959308240097016 ], [ 403578.738555442541838, 3784879.654120040591806 ], [ 403578.738555442541838, 3784879.348931841086596 ], [ 403579.043743641930632, 3784879.348931841086596 ], [ 403580.264496439485811, 3784878.128179043531418 ], [ 403580.569684638874605, 3784878.128179043531418 ], [ 403580.8748728382634, 3784877.822990844491869 ], [ 403581.180061037652194, 3784877.822990844491869 ], [ 403581.485249237040989, 3784877.517802644986659 ], [ 403583.316378433373757, 3784877.517802644986659 ], [ 403583.621566632762551, 3784877.822990844491869 ], [ 403583.926754832151346, 3784877.822990844491869 ], [ 403584.231943031540141, 3784878.128179043531418 ], [ 403584.231943031540141, 3784879.043743642047048 ], [ 403584.537131230928935, 3784879.348931841086596 ], [ 403584.537131230928935, 3784879.959308240097016 ], [ 403585.147507629706524, 3784880.569684638641775 ], [ 403585.147507629706524, 3784880.874872838146985 ], [ 403585.757884028484114, 3784881.485249237157404 ], [ 403585.757884028484114, 3784883.316378433257341 ], [ 403584.231943031540141, 3784884.84231943031773 ], [ 403584.231943031540141, 3784885.14750762982294 ], [ 403583.926754832151346, 3784885.452695828862488 ], [ 403583.926754832151346, 3784885.757884028367698 ], [ 403583.316378433373757, 3784885.757884028367698 ], [ 403583.011190233984962, 3784886.063072227872908 ], [ 403581.790437436429784, 3784886.063072227872908 ] ] ] } },
{ "type": "Feature", "properties": { "confidence": 0.81066638231277466, "class": 1 }, "geometry": { "type": "Polygon", "coordinates": [ [ [ 403663.275686673470773, 3785281.281790437642485 ], [ 403662.665310274693184, 3785280.671414038632065 ], [ 403662.665310274693184, 3785280.061037640087306 ], [ 403662.970498474081978, 3785279.755849440582097 ], [ 403662.970498474081978, 3785279.145473041571677 ], [ 403663.275686673470773, 3785278.840284842532128 ], [ 403663.275686673470773, 3785277.924720244016498 ], [ 403664.191251271637157, 3785277.00915564596653 ], [ 403664.801627670414746, 3785277.00915564596653 ], [ 403665.10681586980354, 3785276.70396744646132 ], [ 403665.412004069192335, 3785276.70396744646132 ], [ 403665.71719226858113, 3785276.398779247421771 ], [ 403666.022380467969924, 3785276.398779247421771 ], [ 403667.243133265525103, 3785275.178026449866593 ], [ 403667.548321464913897, 3785275.178026449866593 ], [ 403667.853509664302692, 3785275.483214648906142 ], [ 403669.379450661246665, 3785275.483214648906142 ], [ 403669.684638860635459, 3785275.788402848411351 ], [ 403669.989827060024254, 3785275.788402848411351 ], [ 403670.295015259413049, 3785276.093591047916561 ], [ 403670.295015259413049, 3785276.70396744646132 ], [ 403669.989827060024254, 3785277.00915564596653 ], [ 403669.989827060024254, 3785277.61953204497695 ], [ 403667.548321464913897, 3785280.061037640087306 ], [ 403667.243133265525103, 3785280.061037640087306 ], [ 403666.632756866747513, 3785280.671414038632065 ], [ 403665.71719226858113, 3785280.671414038632065 ], [ 403665.412004069192335, 3785280.976602238137275 ], [ 403664.801627670414746, 3785280.976602238137275 ], [ 403664.496439471025951, 3785281.281790437642485 ], [ 403663.275686673470773, 3785281.281790437642485 ] ] ] } },
{ "type": "Feature", "properties": { "confidence": 0.78605973720550537, "class": 1 }, "geometry": { "type": "Polygon", "coordinates": [ [ [ 403395.015259409963619, 3784810.681586978491396 ], [ 403393.794506612408441, 3784809.460834180936217 ], [ 403393.489318413019646, 3784809.460834180936217 ], [ 403393.489318413019646, 3784809.155645981896669 ], [ 403392.878942014242057, 3784808.545269582886249 ], [ 403392.878942014242057, 3784807.62970498483628 ], [ 403393.184130213630851, 3784807.32451678533107 ], [ 403393.184130213630851, 3784807.019328585825861 ], [ 403394.099694811797235, 3784806.103763987775892 ], [ 403394.40488301118603, 3784806.103763987775892 ], [ 403394.710071210574824, 3784805.798575788270682 ], [ 403395.015259409963619, 3784805.798575788270682 ], [ 403395.320447609352414, 3784805.493387589231133 ], [ 403396.236012207518797, 3784805.493387589231133 ], [ 403396.541200406907592, 3784805.188199389725924 ], [ 403400.203458799573127, 3784805.188199389725924 ], [ 403400.508646998961922, 3784805.493387589231133 ], [ 403400.813835198350716, 3784805.493387589231133 ], [ 403400.813835198350716, 3784805.798575788270682 ], [ 403401.119023397739511, 3784806.103763987775892 ], [ 403401.119023397739511, 3784806.714140386786312 ], [ 403400.813835198350716, 3784807.019328585825861 ], [ 403400.813835198350716, 3784807.62970498483628 ], [ 403400.508646998961922, 3784807.93489318434149 ], [ 403400.508646998961922, 3784808.240081383381039 ], [ 403400.203458799573127, 3784808.545269582886249 ], [ 403400.203458799573127, 3784809.155645981896669 ], [ 403399.593082400795538, 3784809.766022380441427 ], [ 403399.287894201406743, 3784809.766022380441427 ], [ 403398.677517802629154, 3784810.376398779451847 ], [ 403398.37232960324036, 3784810.376398779451847 ], [ 403398.067141403851565, 3784810.681586978491396 ], [ 403395.015259409963619, 3784810.681586978491396 ] ] ] } },
{ "type": "Feature", "properties": { "confidence": 0.75881826877593994, "class": 1 }, "geometry": { "type": "Polygon", "coordinates": [ [ [ 403749.94913530012127, 3785246.18514750758186 ], [ 403749.338758901343681, 3785245.574771109037101 ], [ 403749.033570701954886, 3785245.574771109037101 ], [ 403747.812817904399708, 3785244.354018311481923 ], [ 403747.812817904399708, 3785244.048830111976713 ], [ 403747.507629705010913, 3785243.743641912471503 ], [ 403747.507629705010913, 3785243.438453712966293 ], [ 403747.202441505622119, 3785243.133265513926744 ], [ 403747.202441505622119, 3785242.828077314421535 ], [ 403746.897253306233324, 3785242.522889114916325 ], [ 403746.897253306233324, 3785242.217700915411115 ], [ 403746.59206510684453, 3785241.912512716371566 ], [ 403746.59206510684453, 3785240.691759918816388 ], [ 403748.118006103788503, 3785239.165818921755999 ], [ 403749.338758901343681, 3785239.165818921755999 ], [ 403749.643947100732476, 3785238.860630722250789 ], [ 403751.475076297065243, 3785238.860630722250789 ], [ 403751.780264496454038, 3785239.165818921755999 ], [ 403752.085452695842832, 3785239.165818921755999 ], [ 403752.390640895231627, 3785239.471007121261209 ], [ 403752.390640895231627, 3785240.386571719311178 ], [ 403752.695829094620422, 3785240.691759918816388 ], [ 403752.695829094620422, 3785241.302136317361146 ], [ 403753.001017294009216, 3785241.607324516866356 ], [ 403753.001017294009216, 3785243.438453712966293 ], [ 403752.695829094620422, 3785243.743641912471503 ], [ 403752.695829094620422, 3785244.354018311481923 ], [ 403751.169888097676449, 3785245.87995930807665 ], [ 403751.169888097676449, 3785246.18514750758186 ], [ 403749.94913530012127, 3785246.18514750758186 ] ] ] } },
{ "type": "Feature", "properties": { "confidence": 0.71329551935195923, "class": 1 }, "geometry": { "type": "Polygon", "coordinates": [ [ [ 403771.922685656172689, 3785247.405900305137038 ], [ 403771.007121058006305, 3785246.49033570708707 ], [ 403770.701932858617511, 3785246.49033570708707 ], [ 403770.091556459839921, 3785245.87995930807665 ], [ 403770.091556459839921, 3785245.574771109037101 ], [ 403769.786368260451127, 3785245.269582909531891 ], [ 403769.786368260451127, 3785244.048830111976713 ], [ 403774.974567650060635, 3785244.048830111976713 ], [ 403774.974567650060635, 3785244.354018311481923 ], [ 403775.27975584944943, 3785244.659206510521472 ], [ 403774.974567650060635, 3785244.964394710026681 ], [ 403774.974567650060635, 3785245.269582909531891 ], [ 403774.66937945067184, 3785245.574771109037101 ], [ 403774.66937945067184, 3785245.87995930807665 ], [ 403774.059003051894251, 3785246.49033570708707 ], [ 403774.059003051894251, 3785246.79552390659228 ], [ 403773.448626653116662, 3785247.405900305137038 ], [ 403771.922685656172689, 3785247.405900305137038 ] ] ] } },
{ "type": "Feature", "properties": { "confidence": 0.70269471406936646, "class": 1 }, "geometry": { "type": "Polygon", "coordinates": [ [ [ 403538.14852492371574, 3785399.38962360098958 ], [ 403537.538148524938151, 3785398.779247202444822 ], [ 403537.538148524938151, 3785398.168870803434402 ], [ 403537.232960325549357, 3785397.863682604394853 ], [ 403537.232960325549357, 3785396.337741607334465 ], [ 403537.538148524938151, 3785396.032553407829255 ], [ 403537.538148524938151, 3785393.285859613213688 ], [ 403537.843336724326946, 3785392.980671414174139 ], [ 403537.843336724326946, 3785388.402848422992975 ], [ 403538.14852492371574, 3785388.097660223953426 ], [ 403538.453713123104535, 3785388.097660223953426 ], [ 403538.75890132249333, 3785387.792472024448216 ], [ 403540.590030518826097, 3785387.792472024448216 ], [ 403540.895218718214892, 3785387.487283824943006 ], [ 403543.336724313325249, 3785387.487283824943006 ], [ 403543.641912512714043, 3785387.792472024448216 ], [ 403543.641912512714043, 3785389.318413021508604 ], [ 403543.336724313325249, 3785389.623601220548153 ], [ 403543.336724313325249, 3785390.539165819063783 ], [ 403543.031536113936454, 3785390.844354018103331 ], [ 403543.031536113936454, 3785391.149542217608541 ], [ 403542.726347914547659, 3785391.454730417113751 ], [ 403542.726347914547659, 3785392.06510681565851 ], [ 403542.421159715158865, 3785392.37029501516372 ], [ 403542.421159715158865, 3785392.980671414174139 ], [ 403542.11597151577007, 3785393.285859613213688 ], [ 403542.11597151577007, 3785394.811800610274076 ], [ 403541.810783316381276, 3785395.116988809779286 ], [ 403541.810783316381276, 3785396.948118005879223 ], [ 403541.505595116992481, 3785397.253306205384433 ], [ 403541.505595116992481, 3785397.863682604394853 ], [ 403540.895218718214892, 3785398.474059002939612 ], [ 403540.895218718214892, 3785398.779247202444822 ], [ 403539.979654120048508, 3785398.779247202444822 ], [ 403539.674465920659713, 3785399.084435401950032 ], [ 403539.064089521882124, 3785399.084435401950032 ], [ 403538.75890132249333, 3785399.38962360098958 ], [ 403538.14852492371574, 3785399.38962360098958 ] ] ] } },
{ "type": "Feature", "properties": { "confidence": 0.68827301263809204, "class": 1 }, "geometry": { "type": "Polygon", "coordinates": [ [ [ 403552.187182095600292, 3784927.568667344748974 ], [ 403551.881993896211497, 3784927.263479145243764 ], [ 403551.271617497433908, 3784927.263479145243764 ], [ 403550.966429298045114, 3784926.958290946204215 ], [ 403549.440488301101141, 3784926.958290946204215 ], [ 403548.830111902323551, 3784926.347914547193795 ], [ 403548.524923702934757, 3784926.347914547193795 ], [ 403546.998982705990784, 3784924.821973550133407 ], [ 403546.998982705990784, 3784923.906408952083439 ], [ 403546.693794506601989, 3784923.601220752578229 ], [ 403546.693794506601989, 3784922.68565615452826 ], [ 403546.388606307213195, 3784922.38046795502305 ], [ 403546.388606307213195, 3784921.770091556478292 ], [ 403546.0834181078244, 3784921.464903356973082 ], [ 403546.0834181078244, 3784919.938962359912694 ], [ 403545.778229908435605, 3784919.633774160873145 ], [ 403545.778229908435605, 3784917.497456764802337 ], [ 403546.388606307213195, 3784916.887080366257578 ], [ 403546.693794506601989, 3784916.887080366257578 ], [ 403546.998982705990784, 3784916.581892166752368 ], [ 403551.576805696822703, 3784916.581892166752368 ], [ 403551.881993896211497, 3784916.887080366257578 ], [ 403552.187182095600292, 3784916.887080366257578 ], [ 403552.187182095600292, 3784918.413021363317966 ], [ 403552.797558494377881, 3784919.023397761862725 ], [ 403552.797558494377881, 3784919.328585961367935 ], [ 403553.40793489315547, 3784919.938962359912694 ], [ 403553.40793489315547, 3784921.159715157467872 ], [ 403553.713123092602473, 3784921.464903356973082 ], [ 403553.713123092602473, 3784923.29603255353868 ], [ 403553.40793489315547, 3784923.601220752578229 ], [ 403553.40793489315547, 3784925.127161749638617 ], [ 403553.713123092602473, 3784925.432349949143827 ], [ 403553.713123092602473, 3784926.042726347688586 ], [ 403554.018311291991267, 3784926.347914547193795 ], [ 403554.018311291991267, 3784927.263479145243764 ], [ 403553.713123092602473, 3784927.263479145243764 ], [ 403553.40793489315547, 3784927.568667344748974 ], [ 403552.187182095600292, 3784927.568667344748974 ] ] ] } },
{ "type": "Feature", "properties": { "confidence": 0.62734740972518921, "class": 1 }, "geometry": { "type": "Polygon", "coordinates": [ [ [ 403271.108850457763765, 3784897.965412003919482 ], [ 403270.80366225837497, 3784897.660223804879934 ], [ 403270.193285859597381, 3784897.660223804879934 ], [ 403269.582909460819792, 3784897.049847405869514 ], [ 403269.277721261430997, 3784897.049847405869514 ], [ 403268.667344862653408, 3784896.439471007324755 ], [ 403268.667344862653408, 3784896.134282807819545 ], [ 403267.751780264487024, 3784895.218718209769577 ], [ 403267.141403865709435, 3784895.218718209769577 ], [ 403266.836215666320641, 3784894.913530010264367 ], [ 403266.836215666320641, 3784894.608341810759157 ], [ 403266.531027466931846, 3784894.303153611253947 ], [ 403265.920651068154257, 3784894.303153611253947 ], [ 403265.005086469987873, 3784893.387589013203979 ], [ 403265.005086469987873, 3784892.47202441515401 ], [ 403278.433367243153043, 3784892.47202441515401 ], [ 403278.433367243153043, 3784893.387589013203979 ], [ 403278.128179043764248, 3784893.692777212709188 ], [ 403278.128179043764248, 3784893.997965412214398 ], [ 403277.822990844375454, 3784894.303153611253947 ], [ 403277.212614445597865, 3784894.303153611253947 ], [ 403276.90742624620907, 3784894.608341810759157 ], [ 403276.297049847431481, 3784894.608341810759157 ], [ 403275.991861648042686, 3784894.913530010264367 ], [ 403275.686673448653892, 3784894.913530010264367 ], [ 403275.381485249265097, 3784895.218718209769577 ], [ 403275.076297049876302, 3784895.218718209769577 ], [ 403274.7711088504293, 3784895.523906408809125 ], [ 403274.7711088504293, 3784895.829094608314335 ], [ 403274.465920651040506, 3784896.134282807819545 ], [ 403274.465920651040506, 3784896.439471007324755 ], [ 403273.550356052874122, 3784897.355035605374724 ], [ 403273.245167853485327, 3784897.355035605374724 ], [ 403272.939979654096533, 3784897.660223804879934 ], [ 403272.634791454707738, 3784897.660223804879934 ], [ 403272.329603255318943, 3784897.965412003919482 ], [ 403271.108850457763765, 3784897.965412003919482 ] ] ] } },
{ "type": "Feature", "properties": { "confidence": 0.54141807556152344, "class": 1 }, "geometry": { "type": "Polygon", "coordinates": [ [ [ 403643.743641912529711, 3785253.20447609340772 ], [ 403643.743641912529711, 3785248.321464903187007 ], [ 403645.574771108862478, 3785248.321464903187007 ], [ 403645.879959308251273, 3785248.626653102692217 ], [ 403646.185147507640067, 3785248.626653102692217 ], [ 403646.185147507640067, 3785248.931841302197427 ], [ 403646.490335707028862, 3785249.237029501702636 ], [ 403646.490335707028862, 3785251.068158697802573 ], [ 403646.185147507640067, 3785251.373346897307783 ], [ 403646.185147507640067, 3785251.678535096812993 ], [ 403644.964394710084889, 3785252.899287894368172 ], [ 403644.659206510696094, 3785252.899287894368172 ], [ 403644.3540183113073, 3785253.20447609340772 ], [ 403643.743641912529711, 3785253.20447609340772 ] ] ] } },
{ "type": "Feature", "properties": { "confidence": 0.53639137744903564, "class": 1 }, "geometry": { "type": "Polygon", "coordinates": [ [ [ 403710.274669379461557, 3785320.040691759902984 ], [ 403709.359104781295173, 3785319.125127161853015 ], [ 403709.359104781295173, 3785318.514750762842596 ], [ 403709.053916581906378, 3785318.209562563803047 ], [ 403709.053916581906378, 3785317.904374364297837 ], [ 403708.748728382517584, 3785317.599186164792627 ], [ 403708.748728382517584, 3785316.988809766247869 ], [ 403708.443540183128789, 3785316.683621566742659 ], [ 403708.443540183128789, 3785314.85249237017706 ], [ 403708.138351983739994, 3785314.547304171137512 ], [ 403708.138351983739994, 3785313.936927772127092 ], [ 403708.443540183128789, 3785313.631739572621882 ], [ 403708.443540183128789, 3785313.021363174077123 ], [ 403708.748728382517584, 3785312.716174974571913 ], [ 403708.748728382517584, 3785312.410986775066704 ], [ 403709.664292980683967, 3785311.495422177016735 ], [ 403709.969481180072762, 3785311.495422177016735 ], [ 403710.274669379461557, 3785311.190233977511525 ], [ 403710.579857578850351, 3785311.190233977511525 ], [ 403710.885045778239146, 3785310.885045778006315 ], [ 403711.80061037640553, 3785310.885045778006315 ], [ 403712.105798575794324, 3785311.190233977511525 ], [ 403712.410986775183119, 3785311.190233977511525 ], [ 403713.936927772127092, 3785312.716174974571913 ], [ 403713.936927772127092, 3785313.021363174077123 ], [ 403714.242115971515886, 3785313.326551373116672 ], [ 403714.547304170904681, 3785313.326551373116672 ], [ 403714.547304170904681, 3785313.631739572621882 ], [ 403714.852492370293476, 3785313.936927772127092 ], [ 403715.15768056968227, 3785313.936927772127092 ], [ 403715.15768056968227, 3785314.547304171137512 ], [ 403715.462868769071065, 3785314.85249237017706 ], [ 403715.462868769071065, 3785315.76805696869269 ], [ 403715.768056968459859, 3785316.073245167732239 ], [ 403715.768056968459859, 3785318.209562563803047 ], [ 403715.462868769071065, 3785318.514750762842596 ], [ 403715.462868769071065, 3785319.125127161853015 ], [ 403715.15768056968227, 3785319.125127161853015 ], [ 403714.852492370293476, 3785319.430315361358225 ], [ 403714.242115971515886, 3785319.430315361358225 ], [ 403713.936927772127092, 3785319.735503560397774 ], [ 403713.021363173960708, 3785319.735503560397774 ], [ 403712.716174974571913, 3785320.040691759902984 ], [ 403710.274669379461557, 3785320.040691759902984 ] ] ] } },
{ "type": "Feature", "properties": { "confidence": 0.52824348211288452, "class": 1 }, "geometry": { "type": "Polygon", "coordinates": [ [ [ 403556.459816887101624, 3785136.927772126160562 ], [ 403556.15462868771283, 3785136.622583926655352 ], [ 403555.54425228893524, 3785136.622583926655352 ], [ 403555.239064089546446, 3785136.317395727150142 ], [ 403554.933875890157651, 3785136.317395727150142 ], [ 403554.323499491380062, 3785135.707019328605384 ], [ 403554.323499491380062, 3785135.401831129100174 ], [ 403554.018311291991267, 3785135.096642929594964 ], [ 403554.018311291991267, 3785134.486266531050205 ], [ 403553.713123092602473, 3785134.181078331544995 ], [ 403553.713123092602473, 3785130.51881993887946 ], [ 403554.323499491380062, 3785129.908443540334702 ], [ 403554.323499491380062, 3785129.298067141324282 ], [ 403554.628687690768857, 3785129.298067141324282 ], [ 403555.239064089546446, 3785128.687690742779523 ], [ 403555.54425228893524, 3785128.687690742779523 ], [ 403555.849440488324035, 3785128.382502543274313 ], [ 403556.15462868771283, 3785128.382502543274313 ], [ 403556.459816887101624, 3785128.077314343769103 ], [ 403558.290946083434392, 3785128.077314343769103 ], [ 403558.596134282823186, 3785127.772126144263893 ], [ 403558.901322482211981, 3785128.077314343769103 ], [ 403559.51169888098957, 3785128.077314343769103 ], [ 403559.51169888098957, 3785128.382502543274313 ], [ 403560.427263479155954, 3785129.298067141324282 ], [ 403560.427263479155954, 3785129.908443540334702 ], [ 403561.037639877933543, 3785130.51881993887946 ], [ 403561.037639877933543, 3785130.82400813838467 ], [ 403561.342828077322338, 3785131.12919633788988 ], [ 403561.342828077322338, 3785131.434384536929429 ], [ 403561.648016276711132, 3785131.739572736434639 ], [ 403561.648016276711132, 3785133.875890132039785 ], [ 403561.342828077322338, 3785134.181078331544995 ], [ 403561.342828077322338, 3785134.486266531050205 ], [ 403560.732451678544749, 3785135.096642929594964 ], [ 403560.732451678544749, 3785135.401831129100174 ], [ 403560.427263479155954, 3785135.707019328605384 ], [ 403560.427263479155954, 3785136.012207528110594 ], [ 403560.122075279767159, 3785136.317395727150142 ], [ 403559.816887080378365, 3785136.317395727150142 ], [ 403559.51169888098957, 3785136.622583926655352 ], [ 403559.206510681600776, 3785136.622583926655352 ], [ 403558.901322482211981, 3785136.927772126160562 ], [ 403556.459816887101624, 3785136.927772126160562 ] ] ] } },
{ "type": "Feature", "properties": { "confidence": 0.49923178553581238, "class": 1 }, "geometry": { "type": "Polygon", "coordinates": [ [ [ 403759.409969481173903, 3785323.397761953063309 ], [ 403759.104781281785108, 3785323.092573754023761 ], [ 403759.104781281785108, 3785322.787385554518551 ], [ 403758.799593082396314, 3785322.482197355013341 ], [ 403758.799593082396314, 3785318.514750762842596 ], [ 403759.104781281785108, 3785318.209562563803047 ], [ 403759.104781281785108, 3785317.293997965287417 ], [ 403759.409969481173903, 3785316.988809766247869 ], [ 403760.325534079340287, 3785316.988809766247869 ], [ 403760.630722278729081, 3785316.683621566742659 ], [ 403760.935910478117876, 3785316.683621566742659 ], [ 403761.24109867750667, 3785316.378433367237449 ], [ 403761.546286876895465, 3785316.378433367237449 ], [ 403761.85147507628426, 3785316.683621566742659 ], [ 403763.072227873839438, 3785316.683621566742659 ], [ 403763.377416073228233, 3785316.988809766247869 ], [ 403763.377416073228233, 3785322.177009155508131 ], [ 403763.072227873839438, 3785322.482197355013341 ], [ 403763.072227873839438, 3785322.787385554518551 ], [ 403762.767039674450643, 3785322.787385554518551 ], [ 403762.461851475061849, 3785323.092573754023761 ], [ 403761.85147507628426, 3785323.092573754023761 ], [ 403761.546286876895465, 3785323.397761953063309 ], [ 403759.409969481173903, 3785323.397761953063309 ] ] ] } },
{ "type": "Feature", "properties": { "confidence": 0.48303130269050598, "class": 1 }, "geometry": { "type": "Polygon", "coordinates": [ [ [ 403681.892166836187243, 3785299.89827060000971 ], [ 403681.281790437409654, 3785299.287894201464951 ], [ 403681.281790437409654, 3785298.982706001959741 ], [ 403680.97660223802086, 3785298.677517802454531 ], [ 403680.97660223802086, 3785296.846388606354594 ], [ 403681.586978636798449, 3785296.236012207344174 ], [ 403684.028484231967013, 3785296.236012207344174 ], [ 403684.333672431355808, 3785295.930824008304626 ], [ 403684.638860630744603, 3785296.236012207344174 ], [ 403685.249237029522192, 3785296.236012207344174 ], [ 403685.859613428299781, 3785296.846388606354594 ], [ 403685.859613428299781, 3785297.456765004899353 ], [ 403686.164801627688576, 3785297.761953204404563 ], [ 403686.164801627688576, 3785298.677517802454531 ], [ 403685.859613428299781, 3785298.982706001959741 ], [ 403684.944048830133397, 3785298.982706001959741 ], [ 403684.638860630744603, 3785299.287894201464951 ], [ 403684.028484231967013, 3785299.287894201464951 ], [ 403683.723296032578219, 3785299.593082400970161 ], [ 403683.418107833189424, 3785299.593082400970161 ], [ 403683.11291963380063, 3785299.89827060000971 ], [ 403681.892166836187243, 3785299.89827060000971 ] ] ] } },
{ "type": "Feature", "properties": { "confidence": 0.47769269347190857, "class": 1 }, "geometry": { "type": "Polygon", "coordinates": [ [ [ 403442.929806714120787, 3784896.439471007324755 ], [ 403442.929806714120787, 3784892.47202441515401 ], [ 403448.423194303177297, 3784892.47202441515401 ], [ 403448.423194303177297, 3784892.77721261465922 ], [ 403448.118006103788503, 3784893.082400813698769 ], [ 403448.118006103788503, 3784894.608341810759157 ], [ 403447.812817904399708, 3784894.913530010264367 ], [ 403447.812817904399708, 3784895.218718209769577 ], [ 403447.507629705010913, 3784895.218718209769577 ], [ 403447.202441505622119, 3784895.523906408809125 ], [ 403446.59206510684453, 3784895.523906408809125 ], [ 403446.286876907397527, 3784895.829094608314335 ], [ 403445.676500508619938, 3784895.829094608314335 ], [ 403445.371312309231143, 3784896.134282807819545 ], [ 403444.760935910453554, 3784896.134282807819545 ], [ 403444.45574771106476, 3784896.439471007324755 ], [ 403442.929806714120787, 3784896.439471007324755 ] ] ] } },
{ "type": "Feature", "properties": { "confidence": 0.47137942910194397, "class": 1 }, "geometry": { "type": "Polygon", "coordinates": [ [ [ 403555.849440488324035, 3784868.97253306210041 ], [ 403555.54425228893524, 3784868.667344862595201 ], [ 403555.54425228893524, 3784864.699898270424455 ], [ 403555.849440488324035, 3784864.699898270424455 ], [ 403556.459816887101624, 3784864.089521871879697 ], [ 403557.375381485268008, 3784864.089521871879697 ], [ 403557.680569684656803, 3784863.784333672374487 ], [ 403558.596134282823186, 3784863.784333672374487 ], [ 403558.901322482211981, 3784863.479145472869277 ], [ 403559.816887080378365, 3784863.479145472869277 ], [ 403560.122075279767159, 3784863.784333672374487 ], [ 403560.122075279767159, 3784865.920651067979634 ], [ 403559.816887080378365, 3784866.225839267484844 ], [ 403559.816887080378365, 3784867.446592065040022 ], [ 403559.51169888098957, 3784867.751780264545232 ], [ 403559.206510681600776, 3784867.751780264545232 ], [ 403558.901322482211981, 3784868.056968464050442 ], [ 403558.596134282823186, 3784868.056968464050442 ], [ 403558.290946083434392, 3784868.362156663089991 ], [ 403557.680569684656803, 3784868.362156663089991 ], [ 403557.375381485268008, 3784868.667344862595201 ], [ 403557.070193285879213, 3784868.667344862595201 ], [ 403556.765005086490419, 3784868.97253306210041 ], [ 403555.849440488324035, 3784868.97253306210041 ] ] ] } },
{ "type": "Feature", "properties": { "confidence": 0.46297821402549744, "class": 1 }, "geometry": { "type": "Polygon", "coordinates": [ [ [ 403245.778229908435605, 3784874.465920650865883 ], [ 403245.778229908435605, 3784871.719226856715977 ], [ 403246.388606307213195, 3784871.108850457705557 ], [ 403246.388606307213195, 3784870.803662258200347 ], [ 403246.998982705990784, 3784870.193285859655589 ], [ 403246.998982705990784, 3784869.888097660150379 ], [ 403247.609359104768373, 3784869.27772126160562 ], [ 403247.914547304157168, 3784869.27772126160562 ], [ 403248.219735503545962, 3784868.97253306210041 ], [ 403250.966429298045114, 3784868.97253306210041 ], [ 403251.271617497433908, 3784869.27772126160562 ], [ 403252.187182095600292, 3784869.27772126160562 ], [ 403252.492370294989087, 3784869.582909460645169 ], [ 403252.797558494377881, 3784869.582909460645169 ], [ 403252.797558494377881, 3784869.888097660150379 ], [ 403253.102746693766676, 3784870.193285859655589 ], [ 403253.102746693766676, 3784870.803662258200347 ], [ 403251.271617497433908, 3784872.634791454765946 ], [ 403250.966429298045114, 3784872.634791454765946 ], [ 403250.356052899267524, 3784873.245167853310704 ], [ 403250.05086469987873, 3784873.245167853310704 ], [ 403249.745676500489935, 3784873.550356052815914 ], [ 403249.440488301101141, 3784873.550356052815914 ], [ 403249.135300101712346, 3784873.855544252321124 ], [ 403248.830111902323551, 3784873.855544252321124 ], [ 403248.524923702934757, 3784874.160732451826334 ], [ 403247.304170905379578, 3784874.160732451826334 ], [ 403246.998982705990784, 3784874.465920650865883 ], [ 403245.778229908435605, 3784874.465920650865883 ] ] ] } },
{ "type": "Feature", "properties": { "confidence": 0.45970726013183594, "class": 1 }, "geometry": { "type": "Polygon", "coordinates": [ [ [ 403374.872838250244968, 3785328.280773143284023 ], [ 403374.567650050856173, 3785327.975584944244474 ], [ 403373.957273652078584, 3785327.975584944244474 ], [ 403373.346897253300995, 3785327.365208545234054 ], [ 403373.0417090539122, 3785327.365208545234054 ], [ 403372.736520854523405, 3785327.060020345728844 ], [ 403372.736520854523405, 3785326.754832146689296 ], [ 403371.820956256357022, 3785325.839267548173666 ], [ 403371.820956256357022, 3785325.228891149628907 ], [ 403371.515768056968227, 3785324.923702950123698 ], [ 403371.515768056968227, 3785323.397761953063309 ], [ 403372.431332655134611, 3785322.482197355013341 ], [ 403372.736520854523405, 3785322.482197355013341 ], [ 403373.652085452689789, 3785321.566632756963372 ], [ 403373.957273652078584, 3785321.566632756963372 ], [ 403375.178026449633762, 3785320.345879959408194 ], [ 403375.483214649022557, 3785320.345879959408194 ], [ 403375.788402848411351, 3785320.040691759902984 ], [ 403377.314343845355324, 3785320.040691759902984 ], [ 403377.619532044744119, 3785320.345879959408194 ], [ 403378.229908443521708, 3785320.345879959408194 ], [ 403378.535096642910503, 3785320.651068158913404 ], [ 403378.840284842299297, 3785320.651068158913404 ], [ 403379.450661241076887, 3785321.261444557458162 ], [ 403379.755849440465681, 3785321.261444557458162 ], [ 403380.671414038632065, 3785322.177009155508131 ], [ 403380.97660223802086, 3785322.177009155508131 ], [ 403381.586978636798449, 3785322.787385554518551 ], [ 403381.892166836187243, 3785322.787385554518551 ], [ 403381.892166836187243, 3785325.534079349134117 ], [ 403381.586978636798449, 3785325.839267548173666 ], [ 403381.586978636798449, 3785326.144455747678876 ], [ 403380.671414038632065, 3785327.060020345728844 ], [ 403380.36622583924327, 3785327.060020345728844 ], [ 403379.755849440465681, 3785327.670396744739264 ], [ 403379.145473041688092, 3785327.670396744739264 ], [ 403378.840284842299297, 3785327.975584944244474 ], [ 403376.703967446577735, 3785327.975584944244474 ], [ 403376.398779247188941, 3785328.280773143284023 ], [ 403374.872838250244968, 3785328.280773143284023 ] ] ] } },
{ "type": "Feature", "properties": { "confidence": 0.45091709494590759, "class": 1 }, "geometry": { "type": "Polygon", "coordinates": [ [ [ 403718.514750762959011, 3785278.229908443521708 ], [ 403718.514750762959011, 3785277.924720244016498 ], [ 403717.904374364181422, 3785277.31434384547174 ], [ 403717.904374364181422, 3785277.00915564596653 ], [ 403717.599186164792627, 3785276.70396744646132 ], [ 403717.599186164792627, 3785276.398779247421771 ], [ 403716.988809766015038, 3785275.788402848411351 ], [ 403716.988809766015038, 3785275.483214648906142 ], [ 403716.073245167848654, 3785274.567650050856173 ], [ 403716.073245167848654, 3785273.346897253300995 ], [ 403716.378433367237449, 3785273.041709053795785 ], [ 403716.378433367237449, 3785272.736520854756236 ], [ 403716.988809766015038, 3785272.736520854756236 ], [ 403717.293997965403832, 3785272.431332655251026 ], [ 403717.599186164792627, 3785272.431332655251026 ], [ 403717.904374364181422, 3785272.126144455745816 ], [ 403718.209562563570216, 3785272.126144455745816 ], [ 403718.514750762959011, 3785271.820956256240606 ], [ 403720.040691759902984, 3785271.820956256240606 ], [ 403720.345879959291779, 3785272.126144455745816 ], [ 403720.651068158680573, 3785272.126144455745816 ], [ 403720.956256358069368, 3785272.431332655251026 ], [ 403721.566632756846957, 3785272.431332655251026 ], [ 403721.871820956235752, 3785272.736520854756236 ], [ 403722.787385554402135, 3785272.736520854756236 ], [ 403722.787385554402135, 3785274.567650050856173 ], [ 403723.09257375379093, 3785274.872838250361383 ], [ 403723.09257375379093, 3785276.093591047916561 ], [ 403722.482197355013341, 3785276.70396744646132 ], [ 403722.482197355013341, 3785277.31434384547174 ], [ 403722.177009155624546, 3785277.61953204497695 ], [ 403721.871820956235752, 3785277.61953204497695 ], [ 403721.566632756846957, 3785277.924720244016498 ], [ 403720.651068158680573, 3785277.924720244016498 ], [ 403720.345879959291779, 3785278.229908443521708 ], [ 403718.514750762959011, 3785278.229908443521708 ] ] ] } },
{ "type": "Feature", "properties": { "confidence": 0.44491901993751526, "class": 1 }, "geometry": { "type": "Polygon", "coordinates": [ [ [ 403782.6042726347805, 3785132.044760935939848 ], [ 403782.299084435391705, 3785131.739572736434639 ], [ 403781.688708036614116, 3785131.739572736434639 ], [ 403781.688708036614116, 3785131.434384536929429 ], [ 403781.383519837225322, 3785131.12919633788988 ], [ 403781.383519837225322, 3785130.51881993887946 ], [ 403781.078331637836527, 3785130.21363173937425 ], [ 403781.078331637836527, 3785129.908443540334702 ], [ 403780.773143438447732, 3785129.603255340829492 ], [ 403780.773143438447732, 3785129.298067141324282 ], [ 403780.467955239058938, 3785128.992878941819072 ], [ 403780.467955239058938, 3785128.687690742779523 ], [ 403780.162767039670143, 3785128.382502543274313 ], [ 403780.162767039670143, 3785126.856561546213925 ], [ 403786.876907426223624, 3785126.856561546213925 ], [ 403786.876907426223624, 3785127.161749745719135 ], [ 403787.182095625612419, 3785127.466937945224345 ], [ 403787.487283825001214, 3785127.466937945224345 ], [ 403788.097660223778803, 3785128.077314343769103 ], [ 403788.708036622556392, 3785128.077314343769103 ], [ 403789.013224821945187, 3785128.382502543274313 ], [ 403789.013224821945187, 3785128.992878941819072 ], [ 403788.402848423167598, 3785129.603255340829492 ], [ 403788.097660223778803, 3785129.603255340829492 ], [ 403786.876907426223624, 3785130.82400813838467 ], [ 403786.876907426223624, 3785131.12919633788988 ], [ 403786.57171922683483, 3785131.434384536929429 ], [ 403786.266531027446035, 3785131.434384536929429 ], [ 403785.961342828057241, 3785131.739572736434639 ], [ 403785.656154628668446, 3785131.739572736434639 ], [ 403785.350966429279651, 3785132.044760935939848 ], [ 403782.6042726347805, 3785132.044760935939848 ] ] ] } },
{ "type": "Feature", "properties": { "confidence": 0.43550872802734375, "class": 1 }, "geometry": { "type": "Polygon", "coordinates": [ [ [ 403780.162767039670143, 3784937.029501526150852 ], [ 403780.162767039670143, 3784935.808748728595674 ], [ 403779.857578840281349, 3784935.503560529090464 ], [ 403779.857578840281349, 3784934.587995931040496 ], [ 403779.552390640892554, 3784934.282807731535286 ], [ 403779.552390640892554, 3784933.977619532030076 ], [ 403779.247202441503759, 3784933.672431332524866 ], [ 403779.247202441503759, 3784933.367243133485317 ], [ 403778.63682604272617, 3784932.756866734474897 ], [ 403778.63682604272617, 3784932.451678534969687 ], [ 403778.331637843337376, 3784932.146490335930139 ], [ 403778.331637843337376, 3784930.010172939859331 ], [ 403778.942014242114965, 3784929.399796541314572 ], [ 403780.773143438447732, 3784929.399796541314572 ], [ 403781.078331637836527, 3784929.094608341809362 ], [ 403782.909460834169295, 3784929.094608341809362 ], [ 403782.909460834169295, 3784929.399796541314572 ], [ 403783.214649033558089, 3784929.704984740819782 ], [ 403783.214649033558089, 3784930.315361139364541 ], [ 403783.825025432335678, 3784930.92573753837496 ], [ 403784.130213631724473, 3784930.92573753837496 ], [ 403784.130213631724473, 3784931.230925737414509 ], [ 403784.435401831113268, 3784931.536113936919719 ], [ 403784.435401831113268, 3784933.062054933980107 ], [ 403782.909460834169295, 3784934.587995931040496 ], [ 403782.909460834169295, 3784936.724313326645643 ], [ 403782.6042726347805, 3784937.029501526150852 ], [ 403780.162767039670143, 3784937.029501526150852 ] ] ] } },
{ "type": "Feature", "properties": { "confidence": 0.41687014698982239, "class": 1 }, "geometry": { "type": "Polygon", "coordinates": [ [ [ 403760.935910478117876, 3785254.12004069192335 ], [ 403760.630722278729081, 3785253.81485249241814 ], [ 403760.020345879951492, 3785253.81485249241814 ], [ 403759.715157680562697, 3785253.50966429291293 ], [ 403759.409969481173903, 3785253.50966429291293 ], [ 403759.104781281785108, 3785253.20447609340772 ], [ 403758.494404883007519, 3785253.20447609340772 ], [ 403758.494404883007519, 3785252.899287894368172 ], [ 403758.189216683618724, 3785252.594099694862962 ], [ 403757.88402848422993, 3785252.594099694862962 ], [ 403757.578840284841135, 3785252.288911495357752 ], [ 403757.578840284841135, 3785251.983723295852542 ], [ 403757.273652085452341, 3785251.678535096812993 ], [ 403757.273652085452341, 3785251.373346897307783 ], [ 403756.968463886063546, 3785251.068158697802573 ], [ 403756.663275686674751, 3785251.068158697802573 ], [ 403756.663275686674751, 3785249.237029501702636 ], [ 403756.968463886063546, 3785248.931841302197427 ], [ 403756.968463886063546, 3785246.79552390659228 ], [ 403757.273652085452341, 3785246.49033570708707 ], [ 403757.273652085452341, 3785246.18514750758186 ], [ 403757.578840284841135, 3785246.18514750758186 ], [ 403757.88402848422993, 3785245.87995930807665 ], [ 403758.189216683618724, 3785245.87995930807665 ], [ 403758.494404883007519, 3785245.574771109037101 ], [ 403760.935910478117876, 3785245.574771109037101 ], [ 403761.24109867750667, 3785245.87995930807665 ], [ 403761.546286876895465, 3785245.87995930807665 ], [ 403761.546286876895465, 3785246.18514750758186 ], [ 403761.24109867750667, 3785246.18514750758186 ], [ 403760.935910478117876, 3785246.49033570708707 ], [ 403760.935910478117876, 3785248.321464903187007 ], [ 403761.24109867750667, 3785248.626653102692217 ], [ 403761.24109867750667, 3785248.931841302197427 ], [ 403761.85147507628426, 3785249.542217700742185 ], [ 403763.072227873839438, 3785249.542217700742185 ], [ 403763.377416073228233, 3785249.237029501702636 ], [ 403763.377416073228233, 3785249.542217700742185 ], [ 403763.987792472005822, 3785250.152594099752605 ], [ 403763.987792472005822, 3785251.068158697802573 ], [ 403763.682604272617027, 3785251.373346897307783 ], [ 403763.682604272617027, 3785253.50966429291293 ], [ 403763.072227873839438, 3785254.12004069192335 ], [ 403760.935910478117876, 3785254.12004069192335 ] ] ] } },
{ "type": "Feature", "properties": { "confidence": 0.39767229557037354, "class": 1 }, "geometry": { "type": "Polygon", "coordinates": [ [ [ 403630.620549338753335, 3785276.398779247421771 ], [ 403630.315361139364541, 3785276.093591047916561 ], [ 403630.010172939975746, 3785276.093591047916561 ], [ 403629.704984740586951, 3785275.788402848411351 ], [ 403629.399796541198157, 3785275.788402848411351 ], [ 403629.094608341809362, 3785275.483214648906142 ], [ 403628.789420142420568, 3785275.483214648906142 ], [ 403628.179043743642978, 3785274.872838250361383 ], [ 403628.179043743642978, 3785274.262461851350963 ], [ 403627.873855544254184, 3785273.957273652311414 ], [ 403627.873855544254184, 3785273.652085452806205 ], [ 403628.179043743642978, 3785273.346897253300995 ], [ 403628.179043743642978, 3785272.736520854756236 ], [ 403628.484231943031773, 3785272.431332655251026 ], [ 403628.484231943031773, 3785272.126144455745816 ], [ 403628.789420142420568, 3785271.820956256240606 ], [ 403629.094608341809362, 3785271.820956256240606 ], [ 403629.399796541198157, 3785271.515768057201058 ], [ 403630.92573753814213, 3785271.515768057201058 ], [ 403631.841302136308514, 3785272.431332655251026 ], [ 403632.146490335697308, 3785272.431332655251026 ], [ 403632.451678535086103, 3785272.736520854756236 ], [ 403633.062054933863692, 3785272.736520854756236 ], [ 403633.367243133252487, 3785273.041709053795785 ], [ 403633.672431332641281, 3785273.041709053795785 ], [ 403633.977619532030076, 3785273.346897253300995 ], [ 403634.28280773141887, 3785273.346897253300995 ], [ 403634.28280773141887, 3785273.957273652311414 ], [ 403634.587995930807665, 3785274.262461851350963 ], [ 403634.587995930807665, 3785274.567650050856173 ], [ 403633.977619532030076, 3785275.178026449866593 ], [ 403633.672431332641281, 3785275.178026449866593 ], [ 403633.367243133252487, 3785275.483214648906142 ], [ 403633.367243133252487, 3785275.788402848411351 ], [ 403633.062054933863692, 3785275.788402848411351 ], [ 403632.451678535086103, 3785276.398779247421771 ], [ 403630.620549338753335, 3785276.398779247421771 ] ] ] } },
{ "type": "Feature", "properties": { "confidence": 0.38371738791465759, "class": 1 }, "geometry": { "type": "Polygon", "coordinates": [ [ [ 403712.105798575794324, 3785267.243133265525103 ], [ 403711.80061037640553, 3785266.937945066019893 ], [ 403710.885045778239146, 3785266.937945066019893 ], [ 403710.579857578850351, 3785266.632756866514683 ], [ 403710.579857578850351, 3785264.801627670414746 ], [ 403710.885045778239146, 3785264.496439470909536 ], [ 403710.885045778239146, 3785264.191251271404326 ], [ 403711.19023397762794, 3785263.886063072364777 ], [ 403711.495422177016735, 3785263.886063072364777 ], [ 403711.80061037640553, 3785263.580874872859567 ], [ 403712.105798575794324, 3785263.580874872859567 ], [ 403712.716174974571913, 3785262.970498473849148 ], [ 403713.021363173960708, 3785262.970498473849148 ], [ 403713.326551373349503, 3785262.665310274809599 ], [ 403713.631739572738297, 3785262.665310274809599 ], [ 403713.936927772127092, 3785262.360122075304389 ], [ 403715.768056968459859, 3785262.360122075304389 ], [ 403716.073245167848654, 3785262.665310274809599 ], [ 403716.378433367237449, 3785262.665310274809599 ], [ 403716.683621566626243, 3785262.970498473849148 ], [ 403716.683621566626243, 3785263.275686673354357 ], [ 403716.988809766015038, 3785263.580874872859567 ], [ 403717.293997965403832, 3785263.580874872859567 ], [ 403717.599186164792627, 3785263.886063072364777 ], [ 403717.599186164792627, 3785265.412004068959504 ], [ 403717.293997965403832, 3785265.717192268464714 ], [ 403717.293997965403832, 3785266.022380467969924 ], [ 403716.988809766015038, 3785266.327568667475134 ], [ 403716.988809766015038, 3785266.632756866514683 ], [ 403716.378433367237449, 3785267.243133265525103 ], [ 403712.105798575794324, 3785267.243133265525103 ] ] ] } },
{ "type": "Feature", "properties": { "confidence": 0.38087031245231628, "class": 1 }, "geometry": { "type": "Polygon", "coordinates": [ [ [ 403322.380467955255881, 3784841.505595116876066 ], [ 403322.380467955255881, 3784840.284842319320887 ], [ 403322.685656154644676, 3784839.979654119815677 ], [ 403322.685656154644676, 3784839.674465920776129 ], [ 403322.99084435403347, 3784839.369277721270919 ], [ 403322.99084435403347, 3784839.064089521765709 ], [ 403323.601220752811059, 3784838.45371312322095 ], [ 403323.601220752811059, 3784838.14852492371574 ], [ 403324.211597151588649, 3784837.538148524705321 ], [ 403324.211597151588649, 3784837.232960325665772 ], [ 403325.432349949143827, 3784836.012207528110594 ], [ 403325.737538148532622, 3784836.012207528110594 ], [ 403326.042726347921416, 3784835.707019328605384 ], [ 403326.9582909460878, 3784835.707019328605384 ], [ 403326.9582909460878, 3784836.927772126160562 ], [ 403326.653102746699005, 3784837.232960325665772 ], [ 403326.653102746699005, 3784837.538148524705321 ], [ 403326.347914547310211, 3784837.843336724210531 ], [ 403326.347914547310211, 3784838.14852492371574 ], [ 403326.042726347921416, 3784838.45371312322095 ], [ 403326.042726347921416, 3784838.758901322260499 ], [ 403325.737538148532622, 3784839.064089521765709 ], [ 403325.737538148532622, 3784839.369277721270919 ], [ 403325.432349949143827, 3784839.674465920776129 ], [ 403325.432349949143827, 3784839.979654119815677 ], [ 403324.821973550366238, 3784840.590030518826097 ], [ 403324.821973550366238, 3784840.895218718331307 ], [ 403324.516785350977443, 3784840.895218718331307 ], [ 403323.906408952199854, 3784841.505595116876066 ], [ 403322.380467955255881, 3784841.505595116876066 ] ] ] } },
{ "type": "Feature", "properties": { "confidence": 0.3726905882358551, "class": 1 }, "geometry": { "type": "Polygon", "coordinates": [ [ [ 403786.57171922683483, 3784833.570701933000237 ], [ 403786.266531027446035, 3784833.265513733495027 ], [ 403783.214649033558089, 3784833.265513733495027 ], [ 403782.299084435391705, 3784832.349949135445058 ], [ 403782.299084435391705, 3784832.044760935939848 ], [ 403781.688708036614116, 3784831.434384536929429 ], [ 403781.688708036614116, 3784829.908443540334702 ], [ 403781.383519837225322, 3784829.603255340829492 ], [ 403781.383519837225322, 3784829.298067141324282 ], [ 403781.078331637836527, 3784828.992878941819072 ], [ 403781.078331637836527, 3784828.382502543274313 ], [ 403780.773143438447732, 3784828.077314343769103 ], [ 403780.773143438447732, 3784826.551373346708715 ], [ 403781.078331637836527, 3784826.246185147669166 ], [ 403781.078331637836527, 3784825.940996948163956 ], [ 403781.993896236002911, 3784825.025432350113988 ], [ 403782.299084435391705, 3784825.025432350113988 ], [ 403782.6042726347805, 3784824.720244150608778 ], [ 403782.909460834169295, 3784824.720244150608778 ], [ 403784.435401831113268, 3784823.19430315354839 ], [ 403784.740590030502062, 3784823.19430315354839 ], [ 403785.045778229890857, 3784822.88911495404318 ], [ 403785.656154628668446, 3784822.88911495404318 ], [ 403785.961342828057241, 3784822.583926755003631 ], [ 403788.402848423167598, 3784822.583926755003631 ], [ 403788.708036622556392, 3784822.88911495404318 ], [ 403789.013224821945187, 3784822.88911495404318 ], [ 403789.318413021392189, 3784823.19430315354839 ], [ 403789.928789420169778, 3784823.19430315354839 ], [ 403790.539165818947367, 3784823.80467955255881 ], [ 403790.844354018336162, 3784823.80467955255881 ], [ 403790.844354018336162, 3784826.551373346708715 ], [ 403791.149542217724957, 3784826.856561546213925 ], [ 403791.149542217724957, 3784828.382502543274313 ], [ 403791.454730417113751, 3784828.687690742779523 ], [ 403791.454730417113751, 3784831.12919633788988 ], [ 403791.149542217724957, 3784831.434384536929429 ], [ 403791.149542217724957, 3784832.044760935939848 ], [ 403790.539165818947367, 3784832.655137334484607 ], [ 403790.539165818947367, 3784832.960325533989817 ], [ 403790.233977619558573, 3784833.265513733495027 ], [ 403789.318413021392189, 3784833.265513733495027 ], [ 403789.013224821945187, 3784833.570701933000237 ], [ 403786.57171922683483, 3784833.570701933000237 ] ] ] } },
{ "type": "Feature", "properties": { "confidence": 0.35923841595649719, "class": 1 }, "geometry": { "type": "Polygon", "coordinates": [ [ [ 403720.345879959291779, 3785287.385554425418377 ], [ 403720.040691759902984, 3785287.080366225913167 ], [ 403718.209562563570216, 3785287.080366225913167 ], [ 403717.904374364181422, 3785286.775178026407957 ], [ 403717.904374364181422, 3785285.554425228852779 ], [ 403718.209562563570216, 3785285.249237029347569 ], [ 403718.209562563570216, 3785284.94404883030802 ], [ 403718.514750762959011, 3785284.63886063080281 ], [ 403718.819938962347806, 3785284.63886063080281 ], [ 403719.735503560514189, 3785283.723296032752842 ], [ 403720.651068158680573, 3785283.723296032752842 ], [ 403720.956256358069368, 3785283.418107833247632 ], [ 403721.871820956235752, 3785283.418107833247632 ], [ 403722.177009155624546, 3785283.723296032752842 ], [ 403722.177009155624546, 3785284.3336724312976 ], [ 403722.482197355013341, 3785284.63886063080281 ], [ 403722.482197355013341, 3785284.94404883030802 ], [ 403722.177009155624546, 3785285.249237029347569 ], [ 403722.177009155624546, 3785286.775178026407957 ], [ 403721.871820956235752, 3785287.080366225913167 ], [ 403720.956256358069368, 3785287.080366225913167 ], [ 403720.651068158680573, 3785287.385554425418377 ], [ 403720.345879959291779, 3785287.385554425418377 ] ] ] } },
{ "type": "Feature", "properties": { "confidence": 0.34747856855392456, "class": 1 }, "geometry": { "type": "Polygon", "coordinates": [ [ [ 403338.860630722250789, 3784815.564598168712109 ], [ 403338.555442522861995, 3784815.259409969672561 ], [ 403337.945066124084406, 3784815.259409969672561 ], [ 403337.334689725306816, 3784814.649033570662141 ], [ 403337.029501525918022, 3784814.649033570662141 ], [ 403336.724313326529227, 3784814.343845371156931 ], [ 403336.419125127140433, 3784814.343845371156931 ], [ 403335.808748728362843, 3784813.733468972612172 ], [ 403335.808748728362843, 3784810.071210579946637 ], [ 403336.113936927751638, 3784809.766022380441427 ], [ 403336.113936927751638, 3784809.460834180936217 ], [ 403336.419125127140433, 3784809.155645981896669 ], [ 403336.419125127140433, 3784808.850457782391459 ], [ 403337.029501525918022, 3784808.240081383381039 ], [ 403337.029501525918022, 3784807.93489318434149 ], [ 403337.334689725306816, 3784807.62970498483628 ], [ 403337.639877924695611, 3784807.62970498483628 ], [ 403338.2502543234732, 3784807.019328585825861 ], [ 403338.555442522861995, 3784807.019328585825861 ], [ 403339.776195320475381, 3784805.798575788270682 ], [ 403340.081383519864175, 3784805.798575788270682 ], [ 403340.38657171925297, 3784805.493387589231133 ], [ 403340.691759918641765, 3784805.493387589231133 ], [ 403341.302136317419354, 3784804.883011190220714 ], [ 403341.607324516808148, 3784804.883011190220714 ], [ 403341.912512716196943, 3784804.577822990715504 ], [ 403342.217700915585738, 3784804.577822990715504 ], [ 403342.522889114974532, 3784804.883011190220714 ], [ 403342.828077314363327, 3784804.883011190220714 ], [ 403343.133265513752121, 3784805.188199389725924 ], [ 403343.133265513752121, 3784809.766022380441427 ], [ 403343.438453713140916, 3784810.071210579946637 ], [ 403343.438453713140916, 3784811.902339776046574 ], [ 403343.133265513752121, 3784812.207527975551784 ], [ 403343.133265513752121, 3784812.512716175056994 ], [ 403342.828077314363327, 3784812.512716175056994 ], [ 403342.217700915585738, 3784813.123092573601753 ], [ 403342.217700915585738, 3784813.733468972612172 ], [ 403341.912512716196943, 3784813.733468972612172 ], [ 403341.607324516808148, 3784814.038657172117382 ], [ 403341.607324516808148, 3784815.564598168712109 ], [ 403338.860630722250789, 3784815.564598168712109 ] ] ] } },
{ "type": "Feature", "properties": { "confidence": 0.34272563457489014, "class": 1 }, "geometry": { "type": "Polygon", "coordinates": [ [ [ 403353.509664292971138, 3784906.205493387766182 ], [ 403352.899287894193549, 3784905.595116988755763 ], [ 403352.899287894193549, 3784902.543234995100647 ], [ 403353.204476093582343, 3784902.238046795595437 ], [ 403353.204476093582343, 3784899.79654120048508 ], [ 403352.899287894193549, 3784899.491353000979871 ], [ 403352.899287894193549, 3784898.270600203424692 ], [ 403352.594099694804754, 3784897.965412003919482 ], [ 403352.594099694804754, 3784896.439471007324755 ], [ 403352.28891149541596, 3784896.134282807819545 ], [ 403352.28891149541596, 3784892.47202441515401 ], [ 403352.899287894193549, 3784891.86164801614359 ], [ 403353.204476093582343, 3784891.86164801614359 ], [ 403354.120040691748727, 3784890.946083418093622 ], [ 403355.951169888081495, 3784890.946083418093622 ], [ 403355.951169888081495, 3784905.900305188260972 ], [ 403355.035605289915111, 3784905.900305188260972 ], [ 403354.730417090526316, 3784906.205493387766182 ], [ 403353.509664292971138, 3784906.205493387766182 ] ] ] } },
{ "type": "Feature", "properties": { "confidence": 0.32681417465209961, "class": 1 }, "geometry": { "type": "Polygon", "coordinates": [ [ [ 403475.890132248227019, 3784955.645981688518077 ], [ 403475.584944048838224, 3784955.340793489478528 ], [ 403474.974567650060635, 3784955.340793489478528 ], [ 403474.66937945067184, 3784955.035605289973319 ], [ 403474.364191251283046, 3784955.035605289973319 ], [ 403474.364191251283046, 3784953.20447609340772 ], [ 403474.66937945067184, 3784953.20447609340772 ], [ 403474.974567650060635, 3784952.899287894368172 ], [ 403475.27975584944943, 3784952.899287894368172 ], [ 403475.584944048838224, 3784952.594099694862962 ], [ 403475.890132248227019, 3784952.594099694862962 ], [ 403476.805696846393403, 3784951.678535096812993 ], [ 403477.110885045782197, 3784951.678535096812993 ], [ 403477.416073245170992, 3784951.373346897307783 ], [ 403478.331637843337376, 3784951.373346897307783 ], [ 403478.63682604272617, 3784951.678535096812993 ], [ 403478.63682604272617, 3784952.288911495357752 ], [ 403478.942014242114965, 3784952.594099694862962 ], [ 403478.942014242114965, 3784952.899287894368172 ], [ 403479.247202441503759, 3784953.20447609340772 ], [ 403479.552390640892554, 3784953.20447609340772 ], [ 403480.467955239058938, 3784954.12004069192335 ], [ 403480.467955239058938, 3784954.730417090468109 ], [ 403480.162767039670143, 3784954.730417090468109 ], [ 403479.857578840281349, 3784955.035605289973319 ], [ 403479.552390640892554, 3784955.035605289973319 ], [ 403479.247202441503759, 3784955.340793489478528 ], [ 403476.195320447615813, 3784955.340793489478528 ], [ 403475.890132248227019, 3784955.645981688518077 ] ] ] } },
{ "type": "Feature", "properties": { "confidence": 0.32079535722732544, "class": 1 }, "geometry": { "type": "Polygon", "coordinates": [ [ [ 403714.242115971515886, 3784818.616480162832886 ], [ 403713.936927772127092, 3784818.311291963327676 ], [ 403713.021363173960708, 3784818.311291963327676 ], [ 403713.021363173960708, 3784817.700915564782917 ], [ 403712.716174974571913, 3784817.395727365277708 ], [ 403713.021363173960708, 3784817.090539165772498 ], [ 403713.021363173960708, 3784816.785350966267288 ], [ 403714.547304170904681, 3784815.259409969672561 ], [ 403714.852492370293476, 3784815.259409969672561 ], [ 403715.462868769071065, 3784814.649033570662141 ], [ 403715.768056968459859, 3784814.649033570662141 ], [ 403716.073245167848654, 3784814.343845371156931 ], [ 403717.599186164792627, 3784814.343845371156931 ], [ 403717.904374364181422, 3784814.649033570662141 ], [ 403717.904374364181422, 3784814.954221770167351 ], [ 403718.209562563570216, 3784815.259409969672561 ], [ 403718.209562563570216, 3784815.564598168712109 ], [ 403718.514750762959011, 3784815.869786368217319 ], [ 403718.514750762959011, 3784816.174974567722529 ], [ 403717.904374364181422, 3784816.785350966267288 ], [ 403717.599186164792627, 3784816.785350966267288 ], [ 403716.988809766015038, 3784817.395727365277708 ], [ 403716.988809766015038, 3784817.700915564782917 ], [ 403716.683621566626243, 3784817.700915564782917 ], [ 403716.378433367237449, 3784818.006103763822466 ], [ 403716.073245167848654, 3784818.006103763822466 ], [ 403715.768056968459859, 3784818.311291963327676 ], [ 403714.852492370293476, 3784818.311291963327676 ], [ 403714.547304170904681, 3784818.616480162832886 ], [ 403714.242115971515886, 3784818.616480162832886 ] ] ] } },
{ "type": "Feature", "properties": { "confidence": 0.27430814504623413, "class": 1 }, "geometry": { "type": "Polygon", "coordinates": [ [ [ 403688.911495422187727, 3785247.100712105631828 ], [ 403688.606307222798932, 3785246.79552390659228 ], [ 403688.606307222798932, 3785246.49033570708707 ], [ 403688.301119023410138, 3785246.18514750758186 ], [ 403688.301119023410138, 3785245.87995930807665 ], [ 403687.995930824021343, 3785245.574771109037101 ], [ 403687.995930824021343, 3785244.659206510521472 ], [ 403688.301119023410138, 3785244.354018311481923 ], [ 403688.301119023410138, 3785244.048830111976713 ], [ 403695.625635808741208, 3785244.048830111976713 ], [ 403695.625635808741208, 3785244.354018311481923 ], [ 403695.930824008130003, 3785244.659206510521472 ], [ 403695.625635808741208, 3785244.964394710026681 ], [ 403695.625635808741208, 3785245.574771109037101 ], [ 403694.40488301118603, 3785246.79552390659228 ], [ 403693.794506612408441, 3785246.79552390659228 ], [ 403693.489318413019646, 3785247.100712105631828 ], [ 403693.184130213630851, 3785247.100712105631828 ], [ 403692.878942014242057, 3785246.79552390659228 ], [ 403690.742624618520495, 3785246.79552390659228 ], [ 403690.4374364191317, 3785247.100712105631828 ], [ 403688.911495422187727, 3785247.100712105631828 ] ] ] } },
{ "type": "Feature", "properties": { "confidence": 0.25534355640411377, "class": 1 }, "geometry": { "type": "Polygon", "coordinates": [ [ [ 403460.020345879951492, 3785390.233977619558573 ], [ 403459.715157680562697, 3785389.928789420053363 ], [ 403459.715157680562697, 3785387.792472024448216 ], [ 403460.325534079340287, 3785387.182095625437796 ], [ 403460.630722278729081, 3785387.182095625437796 ], [ 403460.935910478117876, 3785386.876907426398247 ], [ 403461.24109867750667, 3785386.876907426398247 ], [ 403461.546286876895465, 3785386.571719226893038 ], [ 403463.682604272617027, 3785386.571719226893038 ], [ 403463.987792472005822, 3785386.266531027387828 ], [ 403465.513733468949795, 3785386.266531027387828 ], [ 403465.818921668338589, 3785386.571719226893038 ], [ 403465.818921668338589, 3785387.182095625437796 ], [ 403465.208545269561, 3785387.792472024448216 ], [ 403465.208545269561, 3785388.097660223953426 ], [ 403464.903357070172206, 3785388.097660223953426 ], [ 403464.598168870783411, 3785388.402848422992975 ], [ 403464.292980671394616, 3785388.402848422992975 ], [ 403463.072227873839438, 3785389.623601220548153 ], [ 403462.767039674450643, 3785389.623601220548153 ], [ 403462.461851475061849, 3785389.928789420053363 ], [ 403461.85147507628426, 3785389.928789420053363 ], [ 403461.546286876895465, 3785390.233977619558573 ], [ 403460.020345879951492, 3785390.233977619558573 ] ] ] } }
]
}
