{
"type": "FeatureCollection",
"name": "cell_00054_pre",
"crs": { "type": "name", "properties": { "name": "urn:ogc:def:crs:EPSG::32611" } },
"features": [
{ "type": "Feature", "properties": { "confidence": 0.99508863687515259, "class": 1, "regularized": "rectangle" }, "geometry": { "type": "Polygon", "coordinates": [ [ [ 348865.25, 3769892.5 ], [ 348882.0, 3769892.5 ], [ 348882.0, 3769901.5 ], [ 348865.25, 3769901.5 ], [ 348865.25, 3769892.5 ] ] ] } },
{ "type": "Feature", "properties": { "confidence": 0.99391418695449829, "class": 1, "regularized": null }, "geometry": { "type": "Polygon", "coordinates": [ [ [ 348753.204476093582343, 3770052.695829094387591 ], [ 348753.204476093582343, 3770051.780264496337622 ], [ 348752.594099694804754, 3770051.169888097792864 ], [ 348752.594099694804754, 3770050.864699898287654 ], [ 348752.28891149541596, 3770050.559511698782444 ], [ 348751.67853509663837, 3770050.559511698782444 ], [ 348751.373346897249576, 3770050.254323499277234 ], [ 348751.068158697860781, 3770050.254323499277234 ], [ 348750.762970498471987, 3770049.949135300237685 ], [ 348750.457782299083192, 3770049.949135300237685 ], [ 348750.457782299083192, 3770049.338758901227266 ], [ 348750.152594099694397, 3770049.033570701722056 ], [ 348750.152594099694397, 3770048.118006103672087 ], [ 348750.457782299083192, 3770047.812817904166877 ], [ 348750.457782299083192, 3770047.202441505622119 ], [ 348750.762970498471987, 3770046.897253306116909 ], [ 348750.762970498471987, 3770046.592065106611699 ], [ 348751.67853509663837, 3770045.67650050856173 ], [ 348751.983723296027165, 3770045.67650050856173 ], [ 348753.814852492359933, 3770043.845371312461793 ], [ 348753.814852492359933, 3770043.540183112956583 ], [ 348754.120040691748727, 3770043.234994913451374 ], [ 348754.120040691748727, 3770040.793489318341017 ], [ 348754.425228891137522, 3770040.488301118835807 ], [ 348755.951169888081495, 3770040.488301118835807 ], [ 348755.951169888081495, 3770048.118006103672087 ], [ 348755.6459816886927, 3770048.118006103672087 ], [ 348755.340793489303906, 3770048.423194303177297 ], [ 348755.340793489303906, 3770049.033570701722056 ], [ 348755.035605289915111, 3770049.338758901227266 ], [ 348755.035605289915111, 3770050.254323499277234 ], [ 348754.730417090526316, 3770050.559511698782444 ], [ 348754.730417090526316, 3770051.169888097792864 ], [ 348754.425228891137522, 3770051.475076296832412 ], [ 348754.425228891137522, 3770052.085452695842832 ], [ 348754.120040691748727, 3770052.390640895348042 ], [ 348753.509664292971138, 3770052.390640895348042 ], [ 348753.204476093582343, 3770052.695829094387591 ] ] ] } },
{ "type": "Feature", "properties": { "confidence": 0.98653906583786011, "class": 1, "regularized": null }, "geometry": { "type": "Polygon", "coordinates": [ [ [ 348871.617497456783894, 3769917.802644964307547 ], [ 348871.3123092573951, 3769917.497456764802337 ], [ 348871.007121058006305, 3769917.497456764802337 ], [ 348870.701932858617511, 3769917.192268565762788 ], [ 348870.396744659228716, 3769917.192268565762788 ], [ 348870.091556459839921, 3769916.887080366257578 ], [ 348870.091556459839921, 3769916.581892166752368 ], [ 348869.175991861673538, 3769915.6663275687024 ], [ 348868.870803662284743, 3769915.6663275687024 ], [ 348868.565615462895948, 3769915.36113936919719 ], [ 348868.260427263507154, 3769915.36113936919719 ], [ 348867.955239064118359, 3769915.05595116969198 ], [ 348867.344862665282562, 3769915.05595116969198 ], [ 348867.039674465893768, 3769914.750762970652431 ], [ 348867.039674465893768, 3769914.445574771147221 ], [ 348866.734486266504973, 3769914.140386571642011 ], [ 348866.734486266504973, 3769912.614445574581623 ], [ 348866.429298067116179, 3769912.309257375542074 ], [ 348866.429298067116179, 3769906.815869786310941 ], [ 348866.124109867727384, 3769906.510681586805731 ], [ 348866.124109867727384, 3769904.984740590211004 ], [ 348867.039674465893768, 3769904.069175991695374 ], [ 348867.955239064118359, 3769904.069175991695374 ], [ 348868.260427263507154, 3769903.763987792655826 ], [ 348871.617497456783894, 3769903.763987792655826 ], [ 348871.922685656172689, 3769903.458799593150616 ], [ 348872.533062054950278, 3769903.458799593150616 ], [ 348872.838250254339073, 3769903.763987792655826 ], [ 348873.143438453727867, 3769903.763987792655826 ], [ 348873.143438453727867, 3769917.192268565762788 ], [ 348872.838250254339073, 3769917.192268565762788 ], [ 348872.227873855561484, 3769917.802644964307547 ], [ 348871.617497456783894, 3769917.802644964307547 ] ] ] } },
{ "type": "Feature", "properties": { "confidence": 0.97507393360137939, "class": 1, "regularized": null }, "geometry": { "type": "Polygon", "coordinates": [ [ [ 348828.891149542236235, 3769903.458799593150616 ], [ 348828.58596134284744, 3769903.153611393645406 ], [ 348828.58596134284744, 3769902.848423194140196 ], [ 348828.891149542236235, 3769902.543234995100647 ], [ 348828.891149542236235, 3769899.491353000979871 ], [ 348829.19633774162503, 3769899.186164801474661 ], [ 348829.19633774162503, 3769898.880976602435112 ], [ 348829.501525941013824, 3769898.575788402929902 ], [ 348829.501525941013824, 3769898.270600203424692 ], [ 348830.111902339791413, 3769897.660223804879934 ], [ 348830.417090539180208, 3769897.660223804879934 ], [ 348830.722278738569003, 3769897.355035605374724 ], [ 348833.163784333679359, 3769897.355035605374724 ], [ 348833.468972533068154, 3769897.660223804879934 ], [ 348833.468972533068154, 3769898.575788402929902 ], [ 348834.079348931845743, 3769899.186164801474661 ], [ 348834.079348931845743, 3769902.848423194140196 ], [ 348833.468972533068154, 3769903.458799593150616 ], [ 348828.891149542236235, 3769903.458799593150616 ] ] ] } },
{ "type": "Feature", "properties": { "confidence": 0.97210025787353516, "class": 1, "regularized": null }, "geometry": { "type": "Polygon", "coordinates": [ [ [ 349167.344862665282562, 3770155.849440488498658 ], [ 349167.344862665282562, 3770155.544252288993448 ], [ 349167.039674465893768, 3770155.239064089488238 ], [ 349167.039674465893768, 3770153.407934893388301 ], [ 349166.734486266504973, 3770153.102746693883091 ], [ 349166.734486266504973, 3770148.830111902207136 ], [ 349167.039674465893768, 3770148.524923703167588 ], [ 349167.039674465893768, 3770148.219735503662378 ], [ 349167.344862665282562, 3770148.219735503662378 ], [ 349167.650050864671357, 3770147.914547304157168 ], [ 349171.007121058006305, 3770147.914547304157168 ], [ 349171.3123092573951, 3770148.219735503662378 ], [ 349172.533062054950278, 3770148.219735503662378 ], [ 349172.533062054950278, 3770148.524923703167588 ], [ 349172.838250254339073, 3770148.830111902207136 ], [ 349172.838250254339073, 3770154.32349949143827 ], [ 349171.617497456783894, 3770155.544252288993448 ], [ 349171.3123092573951, 3770155.544252288993448 ], [ 349171.007121058006305, 3770155.849440488498658 ], [ 349167.344862665282562, 3770155.849440488498658 ] ] ] } },
{ "type": "Feature", "properties": { "confidence": 0.97186952829360962, "class": 1, "regularized": null }, "geometry": { "type": "Polygon", "coordinates": [ [ [ 348827.975584944069851, 3769911.698880976531655 ], [ 348827.670396744681057, 3769911.393692777026445 ], [ 348827.365208545292262, 3769911.393692777026445 ], [ 348827.365208545292262, 3769910.783316378481686 ], [ 348826.449643947125878, 3769909.867751780431718 ], [ 348824.923702950123698, 3769909.867751780431718 ], [ 348824.313326551346108, 3769909.257375381421298 ], [ 348824.313326551346108, 3769908.646998982876539 ], [ 348824.618514750734903, 3769908.341810783371329 ], [ 348824.618514750734903, 3769907.731434384360909 ], [ 348824.923702950123698, 3769907.426246185321361 ], [ 348824.923702950123698, 3769907.121057985816151 ], [ 348825.2288911495707, 3769906.815869786310941 ], [ 348825.534079348959494, 3769906.815869786310941 ], [ 348826.144455747737084, 3769906.205493387766182 ], [ 348826.754832146514673, 3769906.205493387766182 ], [ 348827.365208545292262, 3769905.595116988755763 ], [ 348827.670396744681057, 3769905.595116988755763 ], [ 348827.975584944069851, 3769905.289928789250553 ], [ 348829.19633774162503, 3769905.289928789250553 ], [ 348829.501525941013824, 3769904.984740590211004 ], [ 348831.027466937957797, 3769904.984740590211004 ], [ 348831.332655137346592, 3769904.679552390705794 ], [ 348832.55340793490177, 3769904.679552390705794 ], [ 348832.858596134290565, 3769904.984740590211004 ], [ 348833.774160732456949, 3769904.984740590211004 ], [ 348834.689725330623332, 3769905.900305188260972 ], [ 348834.994913530012127, 3769905.900305188260972 ], [ 348837.131230925733689, 3769908.036622583866119 ], [ 348837.131230925733689, 3769908.341810783371329 ], [ 348837.436419125122484, 3769908.646998982876539 ], [ 348837.436419125122484, 3769910.172939979471266 ], [ 348837.131230925733689, 3769910.172939979471266 ], [ 348836.826042726344895, 3769910.478128178976476 ], [ 348835.910478128178511, 3769910.478128178976476 ], [ 348834.994913530012127, 3769911.393692777026445 ], [ 348834.079348931845743, 3769911.393692777026445 ], [ 348833.774160732456949, 3769911.698880976531655 ], [ 348827.975584944069851, 3769911.698880976531655 ] ] ] } },
{ "type": "Feature", "properties": { "confidence": 0.93863415718078613, "class": 1, "regularized": null }, "geometry": { "type": "Polygon", "coordinates": [ [ [ 348729.399796541198157, 3770033.774160732515156 ], [ 348729.094608341809362, 3770033.468972533009946 ], [ 348729.094608341809362, 3770031.943031535949558 ], [ 348728.789420142420568, 3770031.637843336910009 ], [ 348728.789420142420568, 3770029.501525940839201 ], [ 348728.484231943031773, 3770029.196337741799653 ], [ 348728.484231943031773, 3770027.670396744739264 ], [ 348728.179043743642978, 3770027.365208545234054 ], [ 348728.179043743642978, 3770026.449643947184086 ], [ 348727.873855544254184, 3770026.144455747678876 ], [ 348727.873855544254184, 3770025.534079349134117 ], [ 348727.568667344865389, 3770025.228891149628907 ], [ 348727.568667344865389, 3770023.397761953063309 ], [ 348727.873855544254184, 3770023.092573754023761 ], [ 348728.484231943031773, 3770023.092573754023761 ], [ 348728.789420142420568, 3770022.787385554518551 ], [ 348730.010172939975746, 3770022.787385554518551 ], [ 348730.315361139364541, 3770023.092573754023761 ], [ 348730.315361139364541, 3770023.397761953063309 ], [ 348730.620549338753335, 3770023.702950152568519 ], [ 348730.620549338753335, 3770024.008138352073729 ], [ 348731.230925737530924, 3770024.618514750618488 ], [ 348731.230925737530924, 3770025.534079349134117 ], [ 348731.536113936919719, 3770025.839267548173666 ], [ 348731.536113936919719, 3770026.449643947184086 ], [ 348731.841302136308514, 3770026.754832146689296 ], [ 348731.841302136308514, 3770027.060020345728844 ], [ 348732.451678535086103, 3770027.670396744739264 ], [ 348732.451678535086103, 3770028.280773143284023 ], [ 348732.756866734474897, 3770028.585961342789233 ], [ 348732.756866734474897, 3770029.196337741799653 ], [ 348733.062054933863692, 3770029.501525940839201 ], [ 348733.062054933863692, 3770029.806714140344411 ], [ 348733.367243133252487, 3770030.111902339849621 ], [ 348733.367243133252487, 3770030.417090539354831 ], [ 348733.672431332641281, 3770030.72227873839438 ], [ 348733.672431332641281, 3770033.468972533009946 ], [ 348732.756866734474897, 3770033.468972533009946 ], [ 348732.451678535086103, 3770033.774160732515156 ], [ 348729.399796541198157, 3770033.774160732515156 ] ] ] } },
{ "type": "Feature", "properties": { "confidence": 0.89054578542709351, "class": 1, "regularized": null }, "geometry": { "type": "Polygon", "coordinates": [ [ [ 348772.736520854523405, 3770037.436419125180691 ], [ 348772.736520854523405, 3770034.689725330565125 ], [ 348773.0417090539122, 3770034.384537131059915 ], [ 348773.0417090539122, 3770033.468972533009946 ], [ 348773.346897253300995, 3770033.163784333504736 ], [ 348773.346897253300995, 3770032.858596134465188 ], [ 348773.652085452689789, 3770032.553407934959978 ], [ 348773.652085452689789, 3770032.248219735454768 ], [ 348773.957273652078584, 3770032.248219735454768 ], [ 348774.262461851467378, 3770031.943031535949558 ], [ 348775.788402848411351, 3770031.943031535949558 ], [ 348776.398779247188941, 3770032.553407934959978 ], [ 348776.398779247188941, 3770033.774160732515156 ], [ 348776.093591047800146, 3770034.079348932020366 ], [ 348776.093591047800146, 3770034.384537131059915 ], [ 348775.788402848411351, 3770034.689725330565125 ], [ 348775.788402848411351, 3770036.826042726170272 ], [ 348775.483214649022557, 3770037.131230925675482 ], [ 348775.178026449633762, 3770037.131230925675482 ], [ 348774.872838250244968, 3770037.436419125180691 ], [ 348772.736520854523405, 3770037.436419125180691 ] ] ] } },
{ "type": "Feature", "properties": { "confidence": 0.85593628883361816, "class": 1, "regularized": null }, "geometry": { "type": "Polygon", "coordinates": [ [ [ 348812.716174974571913, 3769931.230925737414509 ], [ 348812.716174974571913, 3769930.92573753837496 ], [ 348812.105798575794324, 3769930.315361139364541 ], [ 348811.80061037640553, 3769930.315361139364541 ], [ 348811.495422177016735, 3769930.010172939859331 ], [ 348811.495422177016735, 3769929.704984740819782 ], [ 348810.885045778239146, 3769929.094608341809362 ], [ 348810.885045778239146, 3769928.789420142304152 ], [ 348811.495422177016735, 3769928.789420142304152 ], [ 348811.80061037640553, 3769928.484231942798942 ], [ 348812.716174974571913, 3769928.484231942798942 ], [ 348813.021363173960708, 3769928.179043743759394 ], [ 348814.852492370293476, 3769928.179043743759394 ], [ 348815.15768056968227, 3769927.873855544254184 ], [ 348816.073245167848654, 3769927.873855544254184 ], [ 348816.378433367237449, 3769927.568667344748974 ], [ 348818.209562563570216, 3769927.568667344748974 ], [ 348818.514750762959011, 3769927.263479145243764 ], [ 348820.040691759902984, 3769927.263479145243764 ], [ 348820.345879959291779, 3769926.958290946204215 ], [ 348823.397761953179725, 3769926.958290946204215 ], [ 348824.008138351957314, 3769927.568667344748974 ], [ 348824.008138351957314, 3769927.873855544254184 ], [ 348824.313326551346108, 3769928.179043743759394 ], [ 348824.313326551346108, 3769930.010172939859331 ], [ 348823.702950152568519, 3769930.62054933886975 ], [ 348823.702950152568519, 3769931.230925737414509 ], [ 348812.716174974571913, 3769931.230925737414509 ] ] ] } },
{ "type": "Feature", "properties": { "confidence": 0.84323298931121826, "class": 1, "regularized": null }, "geometry": { "type": "Polygon", "coordinates": [ [ [ 348740.38657171925297, 3770041.709053916390985 ], [ 348740.38657171925297, 3770041.098677517846227 ], [ 348740.081383519864175, 3770040.793489318341017 ], [ 348740.081383519864175, 3770040.488301118835807 ], [ 348740.38657171925297, 3770040.183112919796258 ], [ 348740.38657171925297, 3770039.267548321280628 ], [ 348740.081383519864175, 3770038.96236012224108 ], [ 348740.081383519864175, 3770035.910478128120303 ], [ 348740.691759918641765, 3770035.300101729575545 ], [ 348742.828077314363327, 3770035.300101729575545 ], [ 348743.133265513752121, 3770035.605289928615093 ], [ 348743.743641912529711, 3770035.605289928615093 ], [ 348744.048830111918505, 3770035.910478128120303 ], [ 348744.048830111918505, 3770036.215666327625513 ], [ 348744.3540183113073, 3770036.520854527130723 ], [ 348744.3540183113073, 3770036.826042726170272 ], [ 348744.964394710084889, 3770037.436419125180691 ], [ 348744.964394710084889, 3770037.741607324685901 ], [ 348745.269582909473684, 3770038.04679552372545 ], [ 348745.269582909473684, 3770039.267548321280628 ], [ 348744.964394710084889, 3770039.572736520785838 ], [ 348744.964394710084889, 3770039.877924720291048 ], [ 348744.3540183113073, 3770040.488301118835807 ], [ 348744.3540183113073, 3770040.793489318341017 ], [ 348743.743641912529711, 3770041.403865717351437 ], [ 348743.133265513752121, 3770041.403865717351437 ], [ 348742.828077314363327, 3770041.709053916390985 ], [ 348740.38657171925297, 3770041.709053916390985 ] ] ] } },
{ "type": "Feature", "properties": { "confidence": 0.80773055553436279, "class": 1, "regularized": null }, "geometry": { "type": "Polygon", "coordinates": [ [ [ 348834.384537131234538, 3769910.783316378481686 ], [ 348834.384537131234538, 3769905.289928789250553 ], [ 348834.689725330623332, 3769905.289928789250553 ], [ 348834.994913530012127, 3769905.595116988755763 ], [ 348835.300101729400922, 3769905.595116988755763 ], [ 348835.605289928789716, 3769905.900305188260972 ], [ 348835.910478128178511, 3769905.900305188260972 ], [ 348836.215666327567305, 3769906.205493387766182 ], [ 348836.826042726344895, 3769906.205493387766182 ], [ 348837.131230925733689, 3769906.510681586805731 ], [ 348838.046795523900073, 3769906.510681586805731 ], [ 348838.962360122066457, 3769907.426246185321361 ], [ 348838.962360122066457, 3769907.731434384360909 ], [ 348839.267548321455251, 3769908.036622583866119 ], [ 348839.267548321455251, 3769909.867751780431718 ], [ 348838.962360122066457, 3769910.172939979471266 ], [ 348838.657171922677662, 3769910.172939979471266 ], [ 348838.351983723288868, 3769910.478128178976476 ], [ 348835.300101729400922, 3769910.478128178976476 ], [ 348834.994913530012127, 3769910.783316378481686 ], [ 348834.384537131234538, 3769910.783316378481686 ] ] ] } },
{ "type": "Feature", "properties": { "confidence": 0.78960579633712769, "class": 1, "regularized": null }, "geometry": { "type": "Polygon", "coordinates": [ [ [ 348736.724313326529227, 3770033.774160732515156 ], [ 348736.419125127140433, 3770033.468972533009946 ], [ 348736.419125127140433, 3770030.72227873839438 ], [ 348736.113936927751638, 3770030.417090539354831 ], [ 348736.113936927751638, 3770028.891149542294443 ], [ 348738.2502543234732, 3770028.891149542294443 ], [ 348738.555442522861995, 3770028.585961342789233 ], [ 348740.081383519864175, 3770028.585961342789233 ], [ 348740.38657171925297, 3770028.280773143284023 ], [ 348741.302136317419354, 3770028.280773143284023 ], [ 348741.607324516808148, 3770027.975584944244474 ], [ 348743.438453713140916, 3770027.975584944244474 ], [ 348743.438453713140916, 3770028.280773143284023 ], [ 348743.743641912529711, 3770028.585961342789233 ], [ 348743.743641912529711, 3770029.196337741799653 ], [ 348744.048830111918505, 3770029.501525940839201 ], [ 348744.048830111918505, 3770030.417090539354831 ], [ 348744.3540183113073, 3770030.72227873839438 ], [ 348744.3540183113073, 3770031.637843336910009 ], [ 348743.743641912529711, 3770032.248219735454768 ], [ 348742.828077314363327, 3770032.248219735454768 ], [ 348742.522889114974532, 3770032.553407934959978 ], [ 348741.607324516808148, 3770032.553407934959978 ], [ 348741.302136317419354, 3770032.858596134465188 ], [ 348740.691759918641765, 3770032.858596134465188 ], [ 348740.38657171925297, 3770033.163784333504736 ], [ 348739.471007121086586, 3770033.163784333504736 ], [ 348739.165818921639584, 3770033.468972533009946 ], [ 348738.555442522861995, 3770033.468972533009946 ], [ 348738.2502543234732, 3770033.774160732515156 ], [ 348736.724313326529227, 3770033.774160732515156 ] ] ] } },
{ "type": "Feature", "properties": { "confidence": 0.68706291913986206, "class": 1, "regularized": null }, "geometry": { "type": "Polygon", "coordinates": [ [ [ 348770.905391658190638, 3770046.592065106611699 ], [ 348770.600203458801843, 3770046.28687690757215 ], [ 348770.600203458801843, 3770044.455747711006552 ], [ 348770.905391658190638, 3770044.150559511501342 ], [ 348770.905391658190638, 3770043.845371312461793 ], [ 348771.210579857579432, 3770043.540183112956583 ], [ 348771.210579857579432, 3770042.319430315401405 ], [ 348771.515768056968227, 3770042.014242115896195 ], [ 348771.515768056968227, 3770040.488301118835807 ], [ 348772.736520854523405, 3770040.488301118835807 ], [ 348773.0417090539122, 3770040.793489318341017 ], [ 348773.957273652078584, 3770040.793489318341017 ], [ 348773.957273652078584, 3770041.098677517846227 ], [ 348774.262461851467378, 3770041.403865717351437 ], [ 348773.957273652078584, 3770041.709053916390985 ], [ 348773.957273652078584, 3770043.845371312461793 ], [ 348773.652085452689789, 3770044.150559511501342 ], [ 348773.652085452689789, 3770045.066124110016972 ], [ 348773.346897253300995, 3770045.37131230905652 ], [ 348773.346897253300995, 3770045.98168870806694 ], [ 348772.736520854523405, 3770046.592065106611699 ], [ 348770.905391658190638, 3770046.592065106611699 ] ] ] } },
{ "type": "Feature", "properties": { "confidence": 0.62468969821929932, "class": 1, "regularized": null }, "geometry": { "type": "Polygon", "coordinates": [ [ [ 348792.878942014242057, 3769899.79654120048508 ], [ 348792.573753814853262, 3769899.491353000979871 ], [ 348792.573753814853262, 3769898.270600203424692 ], [ 348792.268565615464468, 3769897.965412003919482 ], [ 348792.268565615464468, 3769895.218718209769577 ], [ 348791.963377416075673, 3769894.913530010264367 ], [ 348791.963377416075673, 3769892.47202441515401 ], [ 348797.76195320446277, 3769892.47202441515401 ], [ 348797.76195320446277, 3769894.608341810759157 ], [ 348796.236012207518797, 3769896.134282807819545 ], [ 348796.236012207518797, 3769896.744659206364304 ], [ 348795.930824008130003, 3769897.049847405869514 ], [ 348795.930824008130003, 3769897.660223804879934 ], [ 348794.40488301118603, 3769899.186164801474661 ], [ 348794.099694811797235, 3769899.186164801474661 ], [ 348793.794506612408441, 3769899.491353000979871 ], [ 348793.794506612408441, 3769899.79654120048508 ], [ 348792.878942014242057, 3769899.79654120048508 ] ] ] } },
{ "type": "Feature", "properties": { "confidence": 0.55048954486846924, "class": 1, "regularized": null }, "geometry": { "type": "Polygon", "coordinates": [ [ [ 348741.302136317419354, 3770063.682604272849858 ], [ 348740.996948118030559, 3770063.377416073344648 ], [ 348740.38657171925297, 3770063.377416073344648 ], [ 348740.081383519864175, 3770063.072227873839438 ], [ 348739.776195320475381, 3770063.072227873839438 ], [ 348739.165818921639584, 3770062.461851475294679 ], [ 348739.165818921639584, 3770062.156663275789469 ], [ 348738.860630722250789, 3770061.85147507628426 ], [ 348739.165818921639584, 3770061.54628687677905 ], [ 348739.165818921639584, 3770061.241098677739501 ], [ 348739.471007121086586, 3770060.935910478234291 ], [ 348739.471007121086586, 3770060.630722278729081 ], [ 348739.776195320475381, 3770060.325534079223871 ], [ 348739.776195320475381, 3770060.020345880184323 ], [ 348740.081383519864175, 3770060.020345880184323 ], [ 348742.217700915585738, 3770057.884028484113514 ], [ 348742.522889114974532, 3770057.884028484113514 ], [ 348743.133265513752121, 3770057.273652085568756 ], [ 348743.133265513752121, 3770056.968463886063546 ], [ 348743.438453713140916, 3770056.968463886063546 ], [ 348744.048830111918505, 3770056.358087487053126 ], [ 348745.269582909473684, 3770056.358087487053126 ], [ 348745.574771108862478, 3770056.663275686558336 ], [ 348746.185147507640067, 3770056.663275686558336 ], [ 348746.490335707028862, 3770056.968463886063546 ], [ 348748.016276703972835, 3770056.968463886063546 ], [ 348748.32146490336163, 3770057.273652085568756 ], [ 348748.626653102750424, 3770057.273652085568756 ], [ 348749.237029501528013, 3770057.884028484113514 ], [ 348749.237029501528013, 3770058.799593082629144 ], [ 348748.931841302139219, 3770059.104781281668693 ], [ 348748.931841302139219, 3770059.715157680679113 ], [ 348748.32146490336163, 3770060.325534079223871 ], [ 348748.016276703972835, 3770060.325534079223871 ], [ 348747.405900305195246, 3770060.935910478234291 ], [ 348747.405900305195246, 3770061.241098677739501 ], [ 348747.100712105806451, 3770061.54628687677905 ], [ 348746.795523906417657, 3770061.54628687677905 ], [ 348746.490335707028862, 3770061.85147507628426 ], [ 348745.879959308251273, 3770061.85147507628426 ], [ 348745.574771108862478, 3770062.156663275789469 ], [ 348745.269582909473684, 3770062.156663275789469 ], [ 348744.964394710084889, 3770062.461851475294679 ], [ 348744.659206510696094, 3770062.461851475294679 ], [ 348744.3540183113073, 3770062.767039674334228 ], [ 348744.048830111918505, 3770062.767039674334228 ], [ 348743.438453713140916, 3770063.377416073344648 ], [ 348741.912512716196943, 3770063.377416073344648 ], [ 348741.607324516808148, 3770063.682604272849858 ], [ 348741.302136317419354, 3770063.682604272849858 ] ] ] } },
{ "type": "Feature", "properties": { "confidence": 0.49952733516693115, "class": 1, "regularized": null }, "geometry": { "type": "Polygon", "coordinates": [ [ [ 349097.456765005073976, 3770019.735503560397774 ], [ 349097.151576805685181, 3770019.430315361358225 ], [ 349096.541200406907592, 3770019.430315361358225 ], [ 349096.236012207518797, 3770019.125127161853015 ], [ 349095.930824008130003, 3770019.125127161853015 ], [ 349095.320447609352414, 3770018.514750762842596 ], [ 349095.015259409963619, 3770018.514750762842596 ], [ 349094.40488301118603, 3770017.904374364297837 ], [ 349094.099694811797235, 3770017.904374364297837 ], [ 349093.794506612408441, 3770017.599186164792627 ], [ 349093.794506612408441, 3770015.15768056968227 ], [ 349094.099694811797235, 3770014.85249237017706 ], [ 349094.099694811797235, 3770014.547304171137512 ], [ 349094.40488301118603, 3770014.242115971632302 ], [ 349094.40488301118603, 3770013.936927772127092 ], [ 349095.015259409963619, 3770013.326551373116672 ], [ 349095.015259409963619, 3770013.021363174077123 ], [ 349095.320447609352414, 3770012.716174974571913 ], [ 349095.320447609352414, 3770012.410986775066704 ], [ 349095.625635808741208, 3770012.410986775066704 ], [ 349095.930824008130003, 3770012.105798575561494 ], [ 349095.930824008130003, 3770011.190233977511525 ], [ 349096.846388606296387, 3770011.190233977511525 ], [ 349097.151576805685181, 3770011.495422177016735 ], [ 349097.76195320446277, 3770011.495422177016735 ], [ 349097.76195320446277, 3770011.800610376521945 ], [ 349098.067141403851565, 3770012.105798575561494 ], [ 349098.677517802629154, 3770012.105798575561494 ], [ 349098.982706002017949, 3770012.410986775066704 ], [ 349102.034587995905895, 3770012.410986775066704 ], [ 349102.034587995905895, 3770012.716174974571913 ], [ 349102.339776195294689, 3770013.021363174077123 ], [ 349102.339776195294689, 3770013.631739572621882 ], [ 349102.644964394683484, 3770013.936927772127092 ], [ 349102.644964394683484, 3770016.683621566742659 ], [ 349102.339776195294689, 3770016.988809766247869 ], [ 349102.339776195294689, 3770017.904374364297837 ], [ 349102.034587995905895, 3770018.209562563803047 ], [ 349102.034587995905895, 3770018.514750762842596 ], [ 349101.119023397739511, 3770019.430315361358225 ], [ 349100.813835198350716, 3770019.430315361358225 ], [ 349100.508646998961922, 3770019.735503560397774 ], [ 349097.456765005073976, 3770019.735503560397774 ] ] ] } },
{ "type": "Feature", "properties": { "confidence": 0.49631756544113159, "class": 1, "regularized": null }, "geometry": { "type": "Polygon", "coordinates": [ [ [ 348805.696846388629638, 3769917.192268565762788 ], [ 348805.696846388629638, 3769916.887080366257578 ], [ 348805.391658189240843, 3769916.581892166752368 ], [ 348805.391658189240843, 3769912.919633774086833 ], [ 348805.086469989852048, 3769912.614445574581623 ], [ 348805.086469989852048, 3769907.426246185321361 ], [ 348808.138351983739994, 3769907.426246185321361 ], [ 348808.443540183128789, 3769907.731434384360909 ], [ 348808.748728382517584, 3769907.731434384360909 ], [ 348809.969481180072762, 3769908.952187181916088 ], [ 348809.969481180072762, 3769909.257375381421298 ], [ 348810.274669379461557, 3769909.562563580926508 ], [ 348810.274669379461557, 3769909.867751780431718 ], [ 348811.19023397762794, 3769910.783316378481686 ], [ 348811.19023397762794, 3769913.224821973592043 ], [ 348810.885045778239146, 3769913.530010173097253 ], [ 348810.885045778239146, 3769914.140386571642011 ], [ 348810.579857578850351, 3769914.445574771147221 ], [ 348810.579857578850351, 3769914.750762970652431 ], [ 348810.274669379461557, 3769915.05595116969198 ], [ 348810.274669379461557, 3769915.6663275687024 ], [ 348809.969481180072762, 3769915.97151576820761 ], [ 348809.969481180072762, 3769916.276703967247158 ], [ 348809.664292980683967, 3769916.581892166752368 ], [ 348808.138351983739994, 3769916.581892166752368 ], [ 348807.8331637843512, 3769916.887080366257578 ], [ 348807.222787385573611, 3769916.887080366257578 ], [ 348806.917599186184816, 3769917.192268565762788 ], [ 348805.696846388629638, 3769917.192268565762788 ] ] ] } },
{ "type": "Feature", "properties": { "confidence": 0.46638190746307373, "class": 1, "regularized": null }, "geometry": { "type": "Polygon", "coordinates": [ [ [ 348751.67853509663837, 3770048.423194303177297 ], [ 348751.67853509663837, 3770048.118006103672087 ], [ 348751.373346897249576, 3770047.812817904166877 ], [ 348751.373346897249576, 3770046.897253306116909 ], [ 348751.67853509663837, 3770046.592065106611699 ], [ 348751.67853509663837, 3770046.28687690757215 ], [ 348751.983723296027165, 3770045.98168870806694 ], [ 348751.983723296027165, 3770045.67650050856173 ], [ 348752.899287894193549, 3770044.760935910511762 ], [ 348753.204476093582343, 3770044.760935910511762 ], [ 348753.509664292971138, 3770044.455747711006552 ], [ 348753.509664292971138, 3770044.150559511501342 ], [ 348754.120040691748727, 3770043.540183112956583 ], [ 348754.120040691748727, 3770041.709053916390985 ], [ 348754.425228891137522, 3770041.403865717351437 ], [ 348754.425228891137522, 3770041.098677517846227 ], [ 348755.951169888081495, 3770041.098677517846227 ], [ 348756.256358087470289, 3770041.403865717351437 ], [ 348756.561546286859084, 3770041.403865717351437 ], [ 348756.561546286859084, 3770041.709053916390985 ], [ 348756.866734486247879, 3770042.014242115896195 ], [ 348756.866734486247879, 3770042.319430315401405 ], [ 348757.171922685636673, 3770042.624618514906615 ], [ 348757.171922685636673, 3770044.760935910511762 ], [ 348756.866734486247879, 3770045.066124110016972 ], [ 348756.866734486247879, 3770045.37131230905652 ], [ 348756.561546286859084, 3770045.67650050856173 ], [ 348756.561546286859084, 3770047.202441505622119 ], [ 348755.6459816886927, 3770048.118006103672087 ], [ 348755.6459816886927, 3770048.423194303177297 ], [ 348751.67853509663837, 3770048.423194303177297 ] ] ] } },
{ "type": "Feature", "properties": { "confidence": 0.43484616279602051, "class": 1, "regularized": null }, "geometry": { "type": "Polygon", "coordinates": [ [ [ 348725.127161749755032, 3770023.702950152568519 ], [ 348725.127161749755032, 3770022.787385554518551 ], [ 348724.821973550366238, 3770022.482197355013341 ], [ 348724.821973550366238, 3770021.261444557458162 ], [ 348725.127161749755032, 3770020.956256357952952 ], [ 348725.127161749755032, 3770020.651068158913404 ], [ 348725.432349949143827, 3770020.345879959408194 ], [ 348725.432349949143827, 3770020.040691759902984 ], [ 348725.737538148532622, 3770019.735503560397774 ], [ 348726.653102746699005, 3770019.735503560397774 ], [ 348726.9582909460878, 3770019.430315361358225 ], [ 348727.263479145476595, 3770019.430315361358225 ], [ 348727.568667344865389, 3770019.125127161853015 ], [ 348730.620549338753335, 3770019.125127161853015 ], [ 348730.620549338753335, 3770019.735503560397774 ], [ 348730.92573753814213, 3770020.040691759902984 ], [ 348730.92573753814213, 3770021.261444557458162 ], [ 348730.315361139364541, 3770021.871820956468582 ], [ 348729.704984740586951, 3770021.871820956468582 ], [ 348729.399796541198157, 3770022.177009155508131 ], [ 348729.094608341809362, 3770022.177009155508131 ], [ 348728.789420142420568, 3770022.482197355013341 ], [ 348728.179043743642978, 3770022.482197355013341 ], [ 348727.873855544254184, 3770022.787385554518551 ], [ 348727.263479145476595, 3770022.787385554518551 ], [ 348726.9582909460878, 3770023.092573754023761 ], [ 348726.653102746699005, 3770023.092573754023761 ], [ 348726.347914547310211, 3770023.397761953063309 ], [ 348725.432349949143827, 3770023.397761953063309 ], [ 348725.127161749755032, 3770023.702950152568519 ] ] ] } },
{ "type": "Feature", "properties": { "confidence": 0.37273851037025452, "class": 1, "regularized": null }, "geometry": { "type": "Polygon", "coordinates": [ [ [ 349108.138351983739994, 3770123.80467955255881 ], [ 349107.8331637843512, 3770123.4994913530536 ], [ 349107.222787385573611, 3770123.4994913530536 ], [ 349106.612410986796021, 3770122.88911495404318 ], [ 349106.612410986796021, 3770118.616480162832886 ], [ 349106.917599186184816, 3770118.311291963327676 ], [ 349106.917599186184816, 3770118.006103763822466 ], [ 349107.527975584962405, 3770117.395727365277708 ], [ 349107.8331637843512, 3770117.395727365277708 ], [ 349108.138351983739994, 3770117.090539165772498 ], [ 349108.138351983739994, 3770116.480162767227739 ], [ 349108.443540183128789, 3770116.480162767227739 ], [ 349108.748728382517584, 3770116.174974567722529 ], [ 349108.748728382517584, 3770115.869786368217319 ], [ 349111.19023397762794, 3770115.869786368217319 ], [ 349111.495422177016735, 3770116.174974567722529 ], [ 349111.80061037640553, 3770116.174974567722529 ], [ 349112.105798575794324, 3770116.480162767227739 ], [ 349112.716174974571913, 3770116.480162767227739 ], [ 349113.326551373349503, 3770117.090539165772498 ], [ 349113.326551373349503, 3770117.395727365277708 ], [ 349113.631739572738297, 3770117.700915564782917 ], [ 349113.326551373349503, 3770118.006103763822466 ], [ 349113.326551373349503, 3770119.532044760882854 ], [ 349113.021363173960708, 3770119.837232960388064 ], [ 349113.021363173960708, 3770120.447609358932823 ], [ 349112.716174974571913, 3770120.752797558438033 ], [ 349112.716174974571913, 3770121.057985757943243 ], [ 349112.410986775183119, 3770121.363173957448453 ], [ 349112.410986775183119, 3770121.668362156488001 ], [ 349111.80061037640553, 3770122.278738555498421 ], [ 349111.80061037640553, 3770122.88911495404318 ], [ 349111.19023397762794, 3770123.4994913530536 ], [ 349110.885045778239146, 3770123.4994913530536 ], [ 349110.579857578850351, 3770123.80467955255881 ], [ 349108.138351983739994, 3770123.80467955255881 ] ] ] } },
{ "type": "Feature", "properties": { "confidence": 0.29346576333045959, "class": 1, "regularized": null }, "geometry": { "type": "Polygon", "coordinates": [ [ [ 348750.152594099694397, 3770130.51881993887946 ], [ 348749.542217700916808, 3770129.908443540334702 ], [ 348749.542217700916808, 3770129.603255340829492 ], [ 348749.237029501528013, 3770129.298067141324282 ], [ 348749.237029501528013, 3770127.772126144263893 ], [ 348748.931841302139219, 3770127.466937945224345 ], [ 348748.931841302139219, 3770126.856561546213925 ], [ 348753.509664292971138, 3770126.856561546213925 ], [ 348753.204476093582343, 3770127.161749745719135 ], [ 348753.204476093582343, 3770127.772126144263893 ], [ 348751.373346897249576, 3770129.603255340829492 ], [ 348751.068158697860781, 3770129.603255340829492 ], [ 348750.152594099694397, 3770130.51881993887946 ] ] ] } },
{ "type": "Feature", "properties": { "confidence": 0.29219895601272583, "class": 1, "regularized": null }, "geometry": { "type": "Polygon", "coordinates": [ [ [ 348688.80976602237206, 3770011.800610376521945 ], [ 348688.19938962359447, 3770011.190233977511525 ], [ 348688.19938962359447, 3770009.664292980451137 ], [ 348694.303153611370362, 3770009.664292980451137 ], [ 348694.303153611370362, 3770009.969481179956347 ], [ 348693.997965411981568, 3770010.274669379461557 ], [ 348693.997965411981568, 3770010.579857578966767 ], [ 348693.692777212592773, 3770010.579857578966767 ], [ 348693.387589013203979, 3770010.885045778006315 ], [ 348693.082400813815184, 3770010.885045778006315 ], [ 348692.472024415037595, 3770011.495422177016735 ], [ 348690.946083418093622, 3770011.495422177016735 ], [ 348690.640895218704827, 3770011.800610376521945 ], [ 348688.80976602237206, 3770011.800610376521945 ] ] ] } },
{ "type": "Feature", "properties": { "confidence": 0.28491944074630737, "class": 1, "regularized": null }, "geometry": { "type": "Polygon", "coordinates": [ [ [ 349101.424211597128306, 3770012.716174974571913 ], [ 349101.119023397739511, 3770012.410986775066704 ], [ 349099.898270600184333, 3770012.410986775066704 ], [ 349099.287894201406743, 3770011.800610376521945 ], [ 349099.287894201406743, 3770011.495422177016735 ], [ 349098.982706002017949, 3770011.190233977511525 ], [ 349098.982706002017949, 3770010.274669379461557 ], [ 349098.677517802629154, 3770009.969481179956347 ], [ 349098.677517802629154, 3770009.664292980451137 ], [ 349103.255340793461073, 3770009.664292980451137 ], [ 349103.255340793461073, 3770012.105798575561494 ], [ 349102.950152594072279, 3770012.105798575561494 ], [ 349102.644964394683484, 3770012.410986775066704 ], [ 349102.034587995905895, 3770012.410986775066704 ], [ 349101.7293997965171, 3770012.716174974571913 ], [ 349101.424211597128306, 3770012.716174974571913 ] ] ] } },
{ "type": "Feature", "properties": { "confidence": 0.28397470712661743, "class": 1, "regularized": null }, "geometry": { "type": "Polygon", "coordinates": [ [ [ 348936.012207527994178, 3770214.750762970652431 ], [ 348935.707019328605384, 3770214.445574771147221 ], [ 348935.401831129216589, 3770214.445574771147221 ], [ 348934.791454730439, 3770213.835198372136801 ], [ 348934.791454730439, 3770212.919633774086833 ], [ 348934.486266531050205, 3770212.614445574581623 ], [ 348934.486266531050205, 3770211.393692777026445 ], [ 348934.181078331661411, 3770211.088504577986896 ], [ 348934.181078331661411, 3770210.172939979471266 ], [ 348934.486266531050205, 3770209.867751780431718 ], [ 348934.486266531050205, 3770209.257375381421298 ], [ 348935.401831129216589, 3770209.257375381421298 ], [ 348935.707019328605384, 3770208.952187181916088 ], [ 348938.14852492371574, 3770208.952187181916088 ], [ 348938.453713123104535, 3770209.257375381421298 ], [ 348938.75890132249333, 3770209.257375381421298 ], [ 348939.064089521882124, 3770209.562563580926508 ], [ 348939.369277721270919, 3770209.562563580926508 ], [ 348939.369277721270919, 3770209.867751780431718 ], [ 348940.284842319437303, 3770210.783316378481686 ], [ 348940.284842319437303, 3770211.088504577986896 ], [ 348940.590030518826097, 3770211.393692777026445 ], [ 348940.590030518826097, 3770212.309257375542074 ], [ 348940.895218718214892, 3770212.614445574581623 ], [ 348940.895218718214892, 3770214.445574771147221 ], [ 348940.590030518826097, 3770214.750762970652431 ], [ 348936.012207527994178, 3770214.750762970652431 ] ] ] } },
{ "type": "Feature", "properties": { "confidence": 0.27368652820587158, "class": 1, "regularized": null }, "geometry": { "type": "Polygon", "coordinates": [ [ [ 349031.841302136308514, 3770134.791454730555415 ], [ 349031.536113936919719, 3770134.486266531050205 ], [ 349030.92573753814213, 3770134.486266531050205 ], [ 349030.620549338753335, 3770134.181078331544995 ], [ 349030.315361139364541, 3770134.181078331544995 ], [ 349030.010172939975746, 3770133.875890132039785 ], [ 349029.704984740586951, 3770133.875890132039785 ], [ 349028.789420142420568, 3770132.960325533989817 ], [ 349028.789420142420568, 3770132.655137334484607 ], [ 349028.484231943031773, 3770132.349949135445058 ], [ 349028.484231943031773, 3770131.12919633788988 ], [ 349028.179043743642978, 3770130.82400813838467 ], [ 349028.179043743642978, 3770129.908443540334702 ], [ 349027.873855544254184, 3770129.603255340829492 ], [ 349027.873855544254184, 3770129.298067141324282 ], [ 349027.568667344865389, 3770128.992878941819072 ], [ 349027.568667344865389, 3770126.856561546213925 ], [ 349033.672431332641281, 3770126.856561546213925 ], [ 349033.672431332641281, 3770127.161749745719135 ], [ 349033.977619532030076, 3770127.466937945224345 ], [ 349033.977619532030076, 3770128.382502543274313 ], [ 349034.28280773141887, 3770128.687690742779523 ], [ 349034.28280773141887, 3770129.603255340829492 ], [ 349034.587995930807665, 3770129.908443540334702 ], [ 349034.587995930807665, 3770132.044760935939848 ], [ 349034.28280773141887, 3770132.349949135445058 ], [ 349034.28280773141887, 3770132.655137334484607 ], [ 349033.977619532030076, 3770132.960325533989817 ], [ 349033.977619532030076, 3770134.181078331544995 ], [ 349033.672431332641281, 3770134.486266531050205 ], [ 349033.367243133252487, 3770134.486266531050205 ], [ 349033.062054933863692, 3770134.791454730555415 ], [ 349031.841302136308514, 3770134.791454730555415 ] ] ] } },
{ "type": "Feature", "properties": { "confidence": 0.26337072253227234, "class": 1, "regularized": null }, "geometry": { "type": "Polygon", "coordinates": [ [ [ 348753.814852492359933, 3770048.423194303177297 ], [ 348753.814852492359933, 3770044.455747711006552 ], [ 348754.120040691748727, 3770044.150559511501342 ], [ 348754.120040691748727, 3770043.234994913451374 ], [ 348754.425228891137522, 3770042.929806713946164 ], [ 348754.425228891137522, 3770041.403865717351437 ], [ 348754.730417090526316, 3770041.098677517846227 ], [ 348754.730417090526316, 3770040.793489318341017 ], [ 348755.951169888081495, 3770040.793489318341017 ], [ 348755.951169888081495, 3770047.812817904166877 ], [ 348755.340793489303906, 3770047.812817904166877 ], [ 348755.035605289915111, 3770048.118006103672087 ], [ 348755.035605289915111, 3770048.423194303177297 ], [ 348753.814852492359933, 3770048.423194303177297 ] ] ] } }
]
}
