{
"type": "FeatureCollection",
"name": "cell_00396_pre",
"crs": { "type": "name", "properties": { "name": "urn:ogc:def:crs:EPSG::32611" } },
"features": [
{ "type": "Feature", "properties": { "confidence": 0.99848830699920654, "class": 1, "regularized": null }, "geometry": { "type": "Polygon", "coordinates": [ [ [ 397289.725330620538443, 3784276.297049847431481 ], [ 397289.725330620538443, 3784275.991861647926271 ], [ 397289.420142421149649, 3784275.686673448421061 ], [ 397289.420142421149649, 3784275.381485249381512 ], [ 397289.114954221760854, 3784275.076297049876302 ], [ 397289.114954221760854, 3784273.855544252321124 ], [ 397288.80976602237206, 3784273.550356052815914 ], [ 397288.80976602237206, 3784272.634791454765946 ], [ 397289.114954221760854, 3784272.329603255260736 ], [ 397289.114954221760854, 3784271.719226856715977 ], [ 397290.640895218704827, 3784270.193285859655589 ], [ 397290.640895218704827, 3784269.888097660150379 ], [ 397290.946083418093622, 3784269.582909460645169 ], [ 397291.251271617482416, 3784269.582909460645169 ], [ 397291.861648016260006, 3784268.97253306210041 ], [ 397292.472024415037595, 3784268.97253306210041 ], [ 397292.777212614426389, 3784268.667344862595201 ], [ 397293.387589013203979, 3784268.667344862595201 ], [ 397294.608341810759157, 3784269.888097660150379 ], [ 397295.523906408925541, 3784269.888097660150379 ], [ 397295.829094608314335, 3784269.582909460645169 ], [ 397296.744659206538927, 3784269.582909460645169 ], [ 397297.049847405927721, 3784269.27772126160562 ], [ 397298.880976602260489, 3784269.27772126160562 ], [ 397299.186164801649284, 3784269.582909460645169 ], [ 397299.491353001038078, 3784269.582909460645169 ], [ 397300.406917599204462, 3784270.498474059160799 ], [ 397300.406917599204462, 3784272.939979654271156 ], [ 397300.101729399815667, 3784273.245167853310704 ], [ 397300.101729399815667, 3784273.550356052815914 ], [ 397299.491353001038078, 3784274.160732451826334 ], [ 397299.491353001038078, 3784274.465920650865883 ], [ 397299.186164801649284, 3784274.465920650865883 ], [ 397298.880976602260489, 3784274.771108850371093 ], [ 397298.575788402871694, 3784274.771108850371093 ], [ 397298.2706002034829, 3784275.076297049876302 ], [ 397296.439471007150132, 3784275.076297049876302 ], [ 397296.13428280770313, 3784275.381485249381512 ], [ 397293.082400813815184, 3784275.381485249381512 ], [ 397292.777212614426389, 3784275.686673448421061 ], [ 397291.556459816871211, 3784275.686673448421061 ], [ 397290.946083418093622, 3784276.297049847431481 ], [ 397289.725330620538443, 3784276.297049847431481 ] ] ] } },
{ "type": "Feature", "properties": { "confidence": 0.99530220031738281, "class": 1, "regularized": null }, "geometry": { "type": "Polygon", "coordinates": [ [ [ 397228.6876907426049, 3784294.608341810759157 ], [ 397228.382502543216106, 3784294.303153611253947 ], [ 397224.72024415055057, 3784294.303153611253947 ], [ 397224.415055951161776, 3784293.997965412214398 ], [ 397224.109867751772981, 3784293.997965412214398 ], [ 397224.109867751772981, 3784292.47202441515401 ], [ 397232.044760935881641, 3784292.47202441515401 ], [ 397232.044760935881641, 3784293.387589013203979 ], [ 397231.739572736492846, 3784293.692777212709188 ], [ 397231.739572736492846, 3784293.997965412214398 ], [ 397231.434384537104052, 3784294.303153611253947 ], [ 397230.518819938937668, 3784294.303153611253947 ], [ 397230.213631739548873, 3784294.608341810759157 ], [ 397228.6876907426049, 3784294.608341810759157 ] ] ] } },
{ "type": "Feature", "properties": { "confidence": 0.99276542663574219, "class": 1, "regularized": null }, "geometry": { "type": "Polygon", "coordinates": [ [ [ 397243.947100712102838, 3784381.892166836187243 ], [ 397242.726347914547659, 3784380.671414038632065 ], [ 397242.421159715158865, 3784380.671414038632065 ], [ 397242.11597151577007, 3784380.366225839126855 ], [ 397241.810783316381276, 3784380.366225839126855 ], [ 397241.505595116992481, 3784380.061037640087306 ], [ 397238.453713123104535, 3784380.061037640087306 ], [ 397238.14852492371574, 3784379.755849440582097 ], [ 397237.843336724326946, 3784379.755849440582097 ], [ 397237.538148524938151, 3784379.450661241076887 ], [ 397237.232960325549357, 3784379.450661241076887 ], [ 397237.232960325549357, 3784378.840284842532128 ], [ 397236.927772126160562, 3784378.535096643026918 ], [ 397236.927772126160562, 3784377.924720244016498 ], [ 397236.622583926771767, 3784377.61953204497695 ], [ 397236.622583926771767, 3784374.872838250361383 ], [ 397236.927772126160562, 3784374.567650050856173 ], [ 397237.538148524938151, 3784374.567650050856173 ], [ 397237.843336724326946, 3784374.262461851350963 ], [ 397238.75890132249333, 3784374.262461851350963 ], [ 397239.064089521882124, 3784373.957273652311414 ], [ 397239.674465920659713, 3784373.957273652311414 ], [ 397239.979654120048508, 3784373.652085452806205 ], [ 397240.590030518826097, 3784373.652085452806205 ], [ 397240.895218718214892, 3784373.346897253300995 ], [ 397242.11597151577007, 3784373.346897253300995 ], [ 397242.421159715158865, 3784373.041709053795785 ], [ 397243.641912512714043, 3784373.041709053795785 ], [ 397243.947100712102838, 3784372.736520854756236 ], [ 397246.388606307213195, 3784372.736520854756236 ], [ 397246.693794506601989, 3784373.041709053795785 ], [ 397246.693794506601989, 3784374.567650050856173 ], [ 397246.998982705990784, 3784374.872838250361383 ], [ 397246.998982705990784, 3784375.178026449866593 ], [ 397247.304170905379578, 3784375.483214648906142 ], [ 397247.304170905379578, 3784376.093591047916561 ], [ 397249.440488301101141, 3784378.229908443521708 ], [ 397249.440488301101141, 3784380.061037640087306 ], [ 397249.135300101712346, 3784380.366225839126855 ], [ 397249.135300101712346, 3784380.671414038632065 ], [ 397248.524923702934757, 3784381.281790437642485 ], [ 397248.219735503545962, 3784381.281790437642485 ], [ 397247.914547304157168, 3784381.586978636682034 ], [ 397246.693794506601989, 3784381.586978636682034 ], [ 397246.388606307213195, 3784381.892166836187243 ], [ 397243.947100712102838, 3784381.892166836187243 ] ] ] } },
{ "type": "Feature", "properties": { "confidence": 0.98989713191986084, "class": 1, "regularized": null }, "geometry": { "type": "Polygon", "coordinates": [ [ [ 397242.11597151577007, 3784352.594099694862962 ], [ 397241.810783316381276, 3784352.288911495357752 ], [ 397241.505595116992481, 3784352.288911495357752 ], [ 397241.200406917603686, 3784351.983723295852542 ], [ 397241.200406917603686, 3784351.678535096812993 ], [ 397240.895218718214892, 3784351.373346897307783 ], [ 397240.895218718214892, 3784351.068158697802573 ], [ 397240.590030518826097, 3784350.762970498297364 ], [ 397240.590030518826097, 3784350.457782299257815 ], [ 397240.284842319437303, 3784350.152594099752605 ], [ 397240.284842319437303, 3784349.847405900247395 ], [ 397239.979654120048508, 3784349.542217700742185 ], [ 397239.674465920659713, 3784349.542217700742185 ], [ 397239.369277721270919, 3784349.237029501702636 ], [ 397239.064089521882124, 3784349.237029501702636 ], [ 397238.75890132249333, 3784348.931841302197427 ], [ 397238.75890132249333, 3784347.405900305137038 ], [ 397239.064089521882124, 3784347.100712105631828 ], [ 397239.064089521882124, 3784346.79552390659228 ], [ 397240.895218718214892, 3784344.964394710026681 ], [ 397242.11597151577007, 3784344.964394710026681 ], [ 397242.421159715158865, 3784344.659206510521472 ], [ 397242.726347914547659, 3784344.659206510521472 ], [ 397243.031536113936454, 3784344.964394710026681 ], [ 397243.336724313325249, 3784344.964394710026681 ], [ 397243.336724313325249, 3784347.405900305137038 ], [ 397243.641912512714043, 3784347.711088504642248 ], [ 397243.641912512714043, 3784348.931841302197427 ], [ 397243.947100712102838, 3784349.237029501702636 ], [ 397243.947100712102838, 3784349.542217700742185 ], [ 397244.252288911491632, 3784349.847405900247395 ], [ 397244.252288911491632, 3784350.457782299257815 ], [ 397244.557477110880427, 3784350.762970498297364 ], [ 397244.557477110880427, 3784351.983723295852542 ], [ 397243.947100712102838, 3784352.594099694862962 ], [ 397242.11597151577007, 3784352.594099694862962 ] ] ] } },
{ "type": "Feature", "properties": { "confidence": 0.98957902193069458, "class": 1, "regularized": null }, "geometry": { "type": "Polygon", "coordinates": [ [ [ 397351.983723296027165, 3784267.446592065040022 ], [ 397351.67853509663837, 3784267.141403865534812 ], [ 397350.762970498471987, 3784267.141403865534812 ], [ 397350.457782299083192, 3784266.836215666495264 ], [ 397349.542217700916808, 3784266.836215666495264 ], [ 397349.237029501528013, 3784266.531027466990054 ], [ 397348.32146490336163, 3784266.531027466990054 ], [ 397348.016276703972835, 3784266.225839267484844 ], [ 397347.405900305195246, 3784266.225839267484844 ], [ 397347.100712105806451, 3784265.920651067979634 ], [ 397345.574771108862478, 3784265.920651067979634 ], [ 397345.269582909473684, 3784265.615462868940085 ], [ 397345.269582909473684, 3784264.394710071384907 ], [ 397345.574771108862478, 3784264.089521871879697 ], [ 397345.574771108862478, 3784261.64801627676934 ], [ 397345.879959308251273, 3784261.34282807726413 ], [ 397345.879959308251273, 3784259.206510681658983 ], [ 397346.490335707028862, 3784258.596134282648563 ], [ 397346.490335707028862, 3784258.290946083609015 ], [ 397348.626653102750424, 3784258.290946083609015 ], [ 397348.931841302139219, 3784258.596134282648563 ], [ 397350.457782299083192, 3784258.596134282648563 ], [ 397350.762970498471987, 3784258.901322482153773 ], [ 397351.67853509663837, 3784258.901322482153773 ], [ 397351.983723296027165, 3784259.206510681658983 ], [ 397352.594099694804754, 3784259.206510681658983 ], [ 397352.899287894193549, 3784259.511698881164193 ], [ 397354.425228891137522, 3784259.511698881164193 ], [ 397354.730417090526316, 3784259.816887080203742 ], [ 397355.340793489303906, 3784259.816887080203742 ], [ 397355.6459816886927, 3784260.122075279708952 ], [ 397355.951169888081495, 3784260.122075279708952 ], [ 397355.951169888081495, 3784264.699898270424455 ], [ 397355.6459816886927, 3784264.699898270424455 ], [ 397355.340793489303906, 3784265.005086469929665 ], [ 397355.340793489303906, 3784265.310274669434875 ], [ 397355.035605289915111, 3784265.615462868940085 ], [ 397355.035605289915111, 3784267.141403865534812 ], [ 397354.730417090526316, 3784267.446592065040022 ], [ 397351.983723296027165, 3784267.446592065040022 ] ] ] } },
{ "type": "Feature", "properties": { "confidence": 0.9887050986289978, "class": 1, "regularized": "rectangle" }, "geometry": { "type": "Polygon", "coordinates": [ [ [ 397280.25, 3784201.5 ], [ 397290.9375, 3784201.5 ], [ 397290.9375, 3784213.5 ], [ 397280.25, 3784213.5 ], [ 397280.25, 3784201.5 ] ] ] } },
{ "type": "Feature", "properties": { "confidence": 0.98462831974029541, "class": 1, "regularized": null }, "geometry": { "type": "Polygon", "coordinates": [ [ [ 397224.415055951161776, 3784294.303153611253947 ], [ 397224.415055951161776, 3784293.997965412214398 ], [ 397224.109867751772981, 3784293.692777212709188 ], [ 397224.109867751772981, 3784286.063072227872908 ], [ 397223.804679552384187, 3784285.757884028367698 ], [ 397223.804679552384187, 3784284.23194303130731 ], [ 397224.109867751772981, 3784283.926754832267761 ], [ 397224.109867751772981, 3784283.621566632762551 ], [ 397225.635808748716954, 3784283.621566632762551 ], [ 397225.940996948105749, 3784283.316378433257341 ], [ 397227.466937945049722, 3784283.316378433257341 ], [ 397227.466937945049722, 3784283.926754832267761 ], [ 397227.772126144438516, 3784284.23194303130731 ], [ 397227.772126144438516, 3784284.84231943031773 ], [ 397228.077314343827311, 3784285.14750762982294 ], [ 397230.213631739548873, 3784285.14750762982294 ], [ 397230.518819938937668, 3784285.452695828862488 ], [ 397230.824008138326462, 3784285.452695828862488 ], [ 397230.824008138326462, 3784285.757884028367698 ], [ 397231.434384537104052, 3784286.368260427378118 ], [ 397231.434384537104052, 3784286.978636825922877 ], [ 397231.739572736492846, 3784287.283825025428087 ], [ 397231.739572736492846, 3784289.725330620538443 ], [ 397232.044760935881641, 3784290.030518820043653 ], [ 397232.044760935881641, 3784291.86164801614359 ], [ 397231.739572736492846, 3784292.1668362156488 ], [ 397231.739572736492846, 3784293.082400813698769 ], [ 397232.044760935881641, 3784293.387589013203979 ], [ 397232.044760935881641, 3784293.997965412214398 ], [ 397231.739572736492846, 3784294.303153611253947 ], [ 397224.415055951161776, 3784294.303153611253947 ] ] ] } },
{ "type": "Feature", "properties": { "confidence": 0.98395740985870361, "class": 1, "regularized": null }, "geometry": { "type": "Polygon", "coordinates": [ [ [ 397465.208545269561, 3784294.608341810759157 ], [ 397464.903357070172206, 3784294.303153611253947 ], [ 397464.598168870783411, 3784294.303153611253947 ], [ 397464.598168870783411, 3784293.692777212709188 ], [ 397464.292980671394616, 3784293.387589013203979 ], [ 397464.292980671394616, 3784291.86164801614359 ], [ 397463.987792472005822, 3784291.556459817104042 ], [ 397463.987792472005822, 3784289.420142421033233 ], [ 397464.292980671394616, 3784289.114954221993685 ], [ 397464.292980671394616, 3784284.84231943031773 ], [ 397464.598168870783411, 3784284.53713123081252 ], [ 397464.903357070172206, 3784284.53713123081252 ], [ 397465.208545269561, 3784284.23194303130731 ], [ 397465.513733468949795, 3784284.53713123081252 ], [ 397466.429298067116179, 3784284.53713123081252 ], [ 397466.734486266504973, 3784284.84231943031773 ], [ 397467.344862665282562, 3784284.84231943031773 ], [ 397467.650050864671357, 3784284.53713123081252 ], [ 397467.955239064118359, 3784284.53713123081252 ], [ 397468.565615462895948, 3784283.926754832267761 ], [ 397469.481180061062332, 3784283.926754832267761 ], [ 397469.786368260451127, 3784284.23194303130731 ], [ 397470.091556459839921, 3784284.23194303130731 ], [ 397471.007121058006305, 3784285.14750762982294 ], [ 397471.007121058006305, 3784287.894201424438506 ], [ 397471.3123092573951, 3784288.199389623478055 ], [ 397471.3123092573951, 3784289.114954221993685 ], [ 397471.617497456783894, 3784289.420142421033233 ], [ 397471.617497456783894, 3784291.556459817104042 ], [ 397470.701932858617511, 3784292.47202441515401 ], [ 397470.701932858617511, 3784292.77721261465922 ], [ 397470.396744659228716, 3784292.77721261465922 ], [ 397470.091556459839921, 3784293.082400813698769 ], [ 397469.786368260451127, 3784293.082400813698769 ], [ 397469.481180061062332, 3784293.387589013203979 ], [ 397469.175991861673538, 3784293.387589013203979 ], [ 397468.870803662284743, 3784293.692777212709188 ], [ 397467.955239064118359, 3784293.692777212709188 ], [ 397467.650050864671357, 3784293.997965412214398 ], [ 397467.039674465893768, 3784293.997965412214398 ], [ 397466.734486266504973, 3784294.303153611253947 ], [ 397466.124109867727384, 3784294.303153611253947 ], [ 397465.818921668338589, 3784294.608341810759157 ], [ 397465.208545269561, 3784294.608341810759157 ] ] ] } },
{ "type": "Feature", "properties": { "confidence": 0.97701716423034668, "class": 1, "regularized": null }, "geometry": { "type": "Polygon", "coordinates": [ [ [ 397771.007121058006305, 3784215.564598168712109 ], [ 397770.396744659228716, 3784214.954221770167351 ], [ 397770.396744659228716, 3784214.038657172117382 ], [ 397770.091556459839921, 3784213.733468972612172 ], [ 397770.091556459839921, 3784213.428280773106962 ], [ 397769.786368260451127, 3784213.123092573601753 ], [ 397769.786368260451127, 3784212.817904374562204 ], [ 397769.481180061062332, 3784212.512716175056994 ], [ 397769.481180061062332, 3784211.902339776046574 ], [ 397769.175991861673538, 3784211.597151577007025 ], [ 397769.175991861673538, 3784211.291963377501816 ], [ 397768.870803662284743, 3784210.986775177996606 ], [ 397768.870803662284743, 3784210.681586978491396 ], [ 397768.565615462895948, 3784210.376398779451847 ], [ 397768.565615462895948, 3784210.071210579946637 ], [ 397768.260427263507154, 3784209.766022380441427 ], [ 397768.260427263507154, 3784208.545269582886249 ], [ 397769.175991861673538, 3784208.545269582886249 ], [ 397769.481180061062332, 3784208.240081383381039 ], [ 397770.091556459839921, 3784208.240081383381039 ], [ 397770.396744659228716, 3784208.545269582886249 ], [ 397771.617497456783894, 3784208.545269582886249 ], [ 397771.922685656172689, 3784208.850457782391459 ], [ 397772.227873855561484, 3784208.850457782391459 ], [ 397772.533062054950278, 3784209.155645981896669 ], [ 397772.533062054950278, 3784209.460834180936217 ], [ 397773.143438453727867, 3784210.071210579946637 ], [ 397773.143438453727867, 3784210.376398779451847 ], [ 397774.059003051894251, 3784211.291963377501816 ], [ 397774.364191251283046, 3784211.291963377501816 ], [ 397774.364191251283046, 3784211.597151577007025 ], [ 397774.66937945067184, 3784211.902339776046574 ], [ 397774.66937945067184, 3784214.343845371156931 ], [ 397774.059003051894251, 3784214.954221770167351 ], [ 397773.448626653116662, 3784214.954221770167351 ], [ 397773.143438453727867, 3784215.259409969672561 ], [ 397772.533062054950278, 3784215.259409969672561 ], [ 397772.227873855561484, 3784215.564598168712109 ], [ 397771.007121058006305, 3784215.564598168712109 ] ] ] } },
{ "type": "Feature", "properties": { "confidence": 0.96520966291427612, "class": 1, "regularized": null }, "geometry": { "type": "Polygon", "coordinates": [ [ [ 397253.40793489315547, 3784347.100712105631828 ], [ 397253.102746693766676, 3784346.79552390659228 ], [ 397252.797558494377881, 3784346.79552390659228 ], [ 397252.492370294989087, 3784346.49033570708707 ], [ 397252.492370294989087, 3784346.18514750758186 ], [ 397252.187182095600292, 3784345.87995930807665 ], [ 397252.187182095600292, 3784345.269582909531891 ], [ 397251.881993896211497, 3784344.964394710026681 ], [ 397251.881993896211497, 3784344.048830111976713 ], [ 397251.576805696822703, 3784343.743641912471503 ], [ 397251.576805696822703, 3784342.217700915411115 ], [ 397251.271617497433908, 3784341.912512716371566 ], [ 397251.271617497433908, 3784338.555442522745579 ], [ 397250.966429298045114, 3784338.250254323706031 ], [ 397250.966429298045114, 3784336.113936927635223 ], [ 397255.849440488324035, 3784336.113936927635223 ], [ 397256.15462868771283, 3784336.419125127140433 ], [ 397256.15462868771283, 3784337.029501526150852 ], [ 397256.459816887101624, 3784337.334689725190401 ], [ 397256.459816887101624, 3784338.860630722250789 ], [ 397256.15462868771283, 3784339.165818921755999 ], [ 397256.15462868771283, 3784339.471007121261209 ], [ 397255.849440488324035, 3784339.776195320300758 ], [ 397255.849440488324035, 3784340.691759918816388 ], [ 397255.54425228893524, 3784340.996948117855936 ], [ 397255.54425228893524, 3784341.607324516866356 ], [ 397255.849440488324035, 3784341.912512716371566 ], [ 397255.849440488324035, 3784343.133265513926744 ], [ 397255.54425228893524, 3784343.438453712966293 ], [ 397255.54425228893524, 3784346.49033570708707 ], [ 397255.239064089546446, 3784346.79552390659228 ], [ 397254.933875890157651, 3784346.79552390659228 ], [ 397254.628687690768857, 3784347.100712105631828 ], [ 397253.40793489315547, 3784347.100712105631828 ] ] ] } },
{ "type": "Feature", "properties": { "confidence": 0.95971578359603882, "class": 1, "regularized": null }, "geometry": { "type": "Polygon", "coordinates": [ [ [ 397398.37232960324036, 3784277.212614445481449 ], [ 397398.37232960324036, 3784276.297049847431481 ], [ 397398.067141403851565, 3784275.991861647926271 ], [ 397398.067141403851565, 3784275.381485249381512 ], [ 397397.76195320446277, 3784275.076297049876302 ], [ 397397.76195320446277, 3784274.465920650865883 ], [ 397397.456765005073976, 3784274.160732451826334 ], [ 397397.456765005073976, 3784273.550356052815914 ], [ 397397.151576805685181, 3784273.245167853310704 ], [ 397397.151576805685181, 3784272.024415055755526 ], [ 397396.846388606296387, 3784271.719226856715977 ], [ 397396.846388606296387, 3784268.667344862595201 ], [ 397397.456765005073976, 3784268.056968464050442 ], [ 397397.76195320446277, 3784268.056968464050442 ], [ 397398.067141403851565, 3784267.751780264545232 ], [ 397398.067141403851565, 3784267.446592065040022 ], [ 397399.287894201406743, 3784267.446592065040022 ], [ 397399.287894201406743, 3784268.056968464050442 ], [ 397399.593082400795538, 3784268.362156663089991 ], [ 397399.898270600184333, 3784268.362156663089991 ], [ 397399.898270600184333, 3784269.582909460645169 ], [ 397400.203458799573127, 3784269.888097660150379 ], [ 397400.508646998961922, 3784269.888097660150379 ], [ 397401.119023397739511, 3784270.498474059160799 ], [ 397401.119023397739511, 3784272.329603255260736 ], [ 397401.424211597128306, 3784272.634791454765946 ], [ 397401.424211597128306, 3784273.245167853310704 ], [ 397401.7293997965171, 3784273.550356052815914 ], [ 397401.7293997965171, 3784274.771108850371093 ], [ 397402.034587995905895, 3784275.076297049876302 ], [ 397402.034587995905895, 3784276.602238046936691 ], [ 397401.7293997965171, 3784276.907426245976239 ], [ 397401.424211597128306, 3784276.907426245976239 ], [ 397401.119023397739511, 3784277.212614445481449 ], [ 397398.37232960324036, 3784277.212614445481449 ] ] ] } },
{ "type": "Feature", "properties": { "confidence": 0.95405739545822144, "class": 1, "regularized": null }, "geometry": { "type": "Polygon", "coordinates": [ [ [ 397331.841302136308514, 3784531.12919633788988 ], [ 397331.536113936919719, 3784530.82400813838467 ], [ 397331.536113936919719, 3784528.382502543274313 ], [ 397331.230925737530924, 3784528.077314343769103 ], [ 397331.230925737530924, 3784526.856561546213925 ], [ 397336.724313326529227, 3784526.856561546213925 ], [ 397336.724313326529227, 3784527.466937945224345 ], [ 397336.419125127140433, 3784527.772126144263893 ], [ 397336.419125127140433, 3784528.077314343769103 ], [ 397334.89318413019646, 3784529.603255340829492 ], [ 397334.89318413019646, 3784529.908443540334702 ], [ 397334.28280773141887, 3784530.51881993887946 ], [ 397333.977619532030076, 3784530.51881993887946 ], [ 397333.672431332641281, 3784530.82400813838467 ], [ 397333.062054933863692, 3784530.82400813838467 ], [ 397332.756866734474897, 3784531.12919633788988 ], [ 397331.841302136308514, 3784531.12919633788988 ] ] ] } },
{ "type": "Feature", "properties": { "confidence": 0.94522958993911743, "class": 1, "regularized": null }, "geometry": { "type": "Polygon", "coordinates": [ [ [ 397252.187182095600292, 3784378.840284842532128 ], [ 397251.881993896211497, 3784378.535096643026918 ], [ 397251.576805696822703, 3784378.535096643026918 ], [ 397251.576805696822703, 3784378.229908443521708 ], [ 397250.966429298045114, 3784377.61953204497695 ], [ 397250.966429298045114, 3784374.262461851350963 ], [ 397250.356052899267524, 3784373.652085452806205 ], [ 397250.356052899267524, 3784371.210579857695848 ], [ 397250.966429298045114, 3784370.600203458685428 ], [ 397251.881993896211497, 3784370.600203458685428 ], [ 397252.187182095600292, 3784370.295015259180218 ], [ 397253.40793489315547, 3784370.295015259180218 ], [ 397254.018311291991267, 3784370.905391658190638 ], [ 397254.018311291991267, 3784371.820956256240606 ], [ 397254.628687690768857, 3784372.431332655251026 ], [ 397254.628687690768857, 3784373.041709053795785 ], [ 397254.933875890157651, 3784373.346897253300995 ], [ 397254.933875890157651, 3784373.652085452806205 ], [ 397255.239064089546446, 3784373.957273652311414 ], [ 397255.239064089546446, 3784374.262461851350963 ], [ 397256.15462868771283, 3784375.178026449866593 ], [ 397256.15462868771283, 3784375.483214648906142 ], [ 397256.459816887101624, 3784375.788402848411351 ], [ 397256.459816887101624, 3784377.924720244016498 ], [ 397256.15462868771283, 3784378.229908443521708 ], [ 397255.849440488324035, 3784378.229908443521708 ], [ 397255.54425228893524, 3784378.535096643026918 ], [ 397255.239064089546446, 3784378.535096643026918 ], [ 397254.933875890157651, 3784378.840284842532128 ], [ 397252.187182095600292, 3784378.840284842532128 ] ] ] } },
{ "type": "Feature", "properties": { "confidence": 0.94178533554077148, "class": 1, "regularized": null }, "geometry": { "type": "Polygon", "coordinates": [ [ [ 397277.517802644986659, 3784463.377416073344648 ], [ 397276.297049847431481, 3784462.156663275789469 ], [ 397276.297049847431481, 3784461.54628687677905 ], [ 397275.991861648042686, 3784461.241098677739501 ], [ 397275.991861648042686, 3784460.935910478234291 ], [ 397275.686673448653892, 3784460.630722278729081 ], [ 397275.686673448653892, 3784459.104781281668693 ], [ 397276.297049847431481, 3784458.494404883123934 ], [ 397276.297049847431481, 3784457.884028484113514 ], [ 397276.602238046820275, 3784457.578840285073966 ], [ 397276.602238046820275, 3784457.273652085568756 ], [ 397279.043743641930632, 3784454.832146490458399 ], [ 397280.8748728382634, 3784454.832146490458399 ], [ 397281.485249237040989, 3784455.442522889003158 ], [ 397281.485249237040989, 3784455.747711088508368 ], [ 397281.790437436429784, 3784456.052899288013577 ], [ 397281.790437436429784, 3784456.663275686558336 ], [ 397282.095625635818578, 3784456.968463886063546 ], [ 397282.400813835207373, 3784456.968463886063546 ], [ 397282.706002034596168, 3784457.273652085568756 ], [ 397282.706002034596168, 3784458.189216683618724 ], [ 397283.011190233984962, 3784458.494404883123934 ], [ 397282.706002034596168, 3784458.799593082629144 ], [ 397282.706002034596168, 3784460.020345880184323 ], [ 397282.400813835207373, 3784460.325534079223871 ], [ 397282.400813835207373, 3784460.630722278729081 ], [ 397281.485249237040989, 3784461.54628687677905 ], [ 397281.180061037652194, 3784461.54628687677905 ], [ 397280.569684638874605, 3784462.156663275789469 ], [ 397280.264496439485811, 3784462.156663275789469 ], [ 397279.959308240097016, 3784462.461851475294679 ], [ 397279.654120040708221, 3784462.461851475294679 ], [ 397279.043743641930632, 3784463.072227873839438 ], [ 397278.738555442541838, 3784463.072227873839438 ], [ 397278.433367243153043, 3784463.377416073344648 ], [ 397277.517802644986659, 3784463.377416073344648 ] ] ] } },
{ "type": "Feature", "properties": { "confidence": 0.93858969211578369, "class": 1, "regularized": null }, "geometry": { "type": "Polygon", "coordinates": [ [ [ 397224.415055951161776, 3784517.090539165772498 ], [ 397223.804679552384187, 3784516.480162767227739 ], [ 397223.499491352995392, 3784516.480162767227739 ], [ 397223.499491352995392, 3784516.174974567722529 ], [ 397223.194303153606597, 3784515.869786368217319 ], [ 397223.194303153606597, 3784515.259409969672561 ], [ 397222.889114954217803, 3784514.954221770167351 ], [ 397222.889114954217803, 3784512.817904374562204 ], [ 397222.583926754829008, 3784512.512716175056994 ], [ 397222.583926754829008, 3784511.597151577007025 ], [ 397222.278738555440214, 3784511.291963377501816 ], [ 397222.278738555440214, 3784510.071210579946637 ], [ 397221.973550356051419, 3784509.766022380441427 ], [ 397221.973550356051419, 3784509.460834180936217 ], [ 397222.278738555440214, 3784509.155645981896669 ], [ 397222.278738555440214, 3784507.62970498483628 ], [ 397222.583926754829008, 3784507.32451678533107 ], [ 397222.583926754829008, 3784507.019328585825861 ], [ 397223.194303153606597, 3784506.408952187281102 ], [ 397223.194303153606597, 3784506.103763987775892 ], [ 397223.499491352995392, 3784506.103763987775892 ], [ 397223.804679552384187, 3784505.798575788270682 ], [ 397224.415055951161776, 3784505.798575788270682 ], [ 397224.72024415055057, 3784506.103763987775892 ], [ 397224.72024415055057, 3784506.714140386786312 ], [ 397225.33062054932816, 3784507.32451678533107 ], [ 397227.161749745660927, 3784507.32451678533107 ], [ 397227.466937945049722, 3784507.62970498483628 ], [ 397228.382502543216106, 3784507.62970498483628 ], [ 397228.6876907426049, 3784507.93489318434149 ], [ 397228.6876907426049, 3784512.512716175056994 ], [ 397228.382502543216106, 3784512.817904374562204 ], [ 397228.382502543216106, 3784515.259409969672561 ], [ 397227.161749745660927, 3784516.480162767227739 ], [ 397226.856561546272133, 3784516.480162767227739 ], [ 397226.551373346883338, 3784516.785350966267288 ], [ 397226.246185147494543, 3784516.785350966267288 ], [ 397225.940996948105749, 3784517.090539165772498 ], [ 397224.415055951161776, 3784517.090539165772498 ] ] ] } },
{ "type": "Feature", "properties": { "confidence": 0.92892861366271973, "class": 1, "regularized": null }, "geometry": { "type": "Polygon", "coordinates": [ [ [ 397268.362156663264614, 3784448.423194303177297 ], [ 397268.362156663264614, 3784446.897253306116909 ], [ 397268.667344862653408, 3784446.592065106611699 ], [ 397268.972533062042203, 3784446.592065106611699 ], [ 397269.277721261430997, 3784446.28687690757215 ], [ 397269.582909460819792, 3784446.28687690757215 ], [ 397270.498474058986176, 3784445.37131230905652 ], [ 397270.80366225837497, 3784445.37131230905652 ], [ 397271.719226856541354, 3784444.455747711006552 ], [ 397272.939979654096533, 3784444.455747711006552 ], [ 397273.550356052874122, 3784445.066124110016972 ], [ 397273.550356052874122, 3784445.37131230905652 ], [ 397273.855544252262916, 3784445.67650050856173 ], [ 397274.160732451651711, 3784445.67650050856173 ], [ 397274.160732451651711, 3784445.98168870806694 ], [ 397274.465920651040506, 3784446.28687690757215 ], [ 397274.7711088504293, 3784446.28687690757215 ], [ 397274.7711088504293, 3784446.592065106611699 ], [ 397275.076297049876302, 3784446.897253306116909 ], [ 397275.076297049876302, 3784447.507629705127329 ], [ 397275.686673448653892, 3784448.118006103672087 ], [ 397275.686673448653892, 3784448.423194303177297 ], [ 397268.362156663264614, 3784448.423194303177297 ] ] ] } },
{ "type": "Feature", "properties": { "confidence": 0.92868971824645996, "class": 1, "regularized": null }, "geometry": { "type": "Polygon", "coordinates": [ [ [ 397245.473041709046811, 3784297.355035605374724 ], [ 397245.167853509658016, 3784297.049847405869514 ], [ 397244.557477110880427, 3784297.049847405869514 ], [ 397243.641912512714043, 3784296.134282807819545 ], [ 397243.641912512714043, 3784294.303153611253947 ], [ 397243.947100712102838, 3784293.997965412214398 ], [ 397243.947100712102838, 3784293.387589013203979 ], [ 397244.252288911491632, 3784293.082400813698769 ], [ 397254.018311291991267, 3784293.082400813698769 ], [ 397254.323499491380062, 3784293.387589013203979 ], [ 397254.323499491380062, 3784293.692777212709188 ], [ 397254.628687690768857, 3784293.997965412214398 ], [ 397254.628687690768857, 3784294.608341810759157 ], [ 397254.933875890157651, 3784294.913530010264367 ], [ 397254.628687690768857, 3784295.218718209769577 ], [ 397254.628687690768857, 3784296.134282807819545 ], [ 397254.323499491380062, 3784296.439471007324755 ], [ 397254.018311291991267, 3784296.439471007324755 ], [ 397253.713123092602473, 3784296.744659206364304 ], [ 397253.40793489315547, 3784296.744659206364304 ], [ 397253.102746693766676, 3784297.049847405869514 ], [ 397252.797558494377881, 3784297.049847405869514 ], [ 397252.492370294989087, 3784297.355035605374724 ], [ 397245.473041709046811, 3784297.355035605374724 ] ] ] } },
{ "type": "Feature", "properties": { "confidence": 0.916309654712677, "class": 1, "regularized": null }, "geometry": { "type": "Polygon", "coordinates": [ [ [ 397473.448626653116662, 3784260.427263479214162 ], [ 397473.143438453727867, 3784260.122075279708952 ], [ 397472.227873855561484, 3784260.122075279708952 ], [ 397471.922685656172689, 3784259.816887080203742 ], [ 397470.396744659228716, 3784259.816887080203742 ], [ 397470.091556459839921, 3784259.511698881164193 ], [ 397469.481180061062332, 3784259.511698881164193 ], [ 397469.175991861673538, 3784259.206510681658983 ], [ 397468.870803662284743, 3784259.206510681658983 ], [ 397467.955239064118359, 3784258.290946083609015 ], [ 397467.955239064118359, 3784257.985757884103805 ], [ 397467.650050864671357, 3784257.680569684598595 ], [ 397467.650050864671357, 3784257.375381485093385 ], [ 397467.344862665282562, 3784257.070193286053836 ], [ 397467.344862665282562, 3784256.765005086548626 ], [ 397467.955239064118359, 3784256.154628687538207 ], [ 397467.955239064118359, 3784255.849440488498658 ], [ 397468.260427263507154, 3784255.849440488498658 ], [ 397468.565615462895948, 3784255.544252288993448 ], [ 397470.091556459839921, 3784255.544252288993448 ], [ 397470.396744659228716, 3784255.849440488498658 ], [ 397471.617497456783894, 3784255.849440488498658 ], [ 397471.922685656172689, 3784256.154628687538207 ], [ 397472.227873855561484, 3784256.154628687538207 ], [ 397472.533062054950278, 3784256.459816887043417 ], [ 397472.838250254339073, 3784256.459816887043417 ], [ 397473.143438453727867, 3784256.765005086548626 ], [ 397473.753814852505457, 3784256.765005086548626 ], [ 397474.059003051894251, 3784257.070193286053836 ], [ 397474.66937945067184, 3784257.070193286053836 ], [ 397474.974567650060635, 3784257.375381485093385 ], [ 397475.27975584944943, 3784257.375381485093385 ], [ 397475.584944048838224, 3784257.680569684598595 ], [ 397475.584944048838224, 3784258.901322482153773 ], [ 397475.27975584944943, 3784259.206510681658983 ], [ 397475.27975584944943, 3784260.122075279708952 ], [ 397474.974567650060635, 3784260.122075279708952 ], [ 397474.66937945067184, 3784260.427263479214162 ], [ 397473.448626653116662, 3784260.427263479214162 ] ] ] } },
{ "type": "Feature", "properties": { "confidence": 0.91464740037918091, "class": 1, "regularized": null }, "geometry": { "type": "Polygon", "coordinates": [ [ [ 397472.227873855561484, 3784330.315361139364541 ], [ 397471.922685656172689, 3784330.010172939859331 ], [ 397470.396744659228716, 3784330.010172939859331 ], [ 397470.091556459839921, 3784329.704984740819782 ], [ 397469.175991861673538, 3784329.704984740819782 ], [ 397468.870803662284743, 3784329.399796541314572 ], [ 397468.565615462895948, 3784329.399796541314572 ], [ 397467.955239064118359, 3784328.789420142304152 ], [ 397467.650050864671357, 3784328.789420142304152 ], [ 397467.344862665282562, 3784328.484231942798942 ], [ 397467.039674465893768, 3784328.484231942798942 ], [ 397467.039674465893768, 3784328.179043743759394 ], [ 397466.734486266504973, 3784327.873855544254184 ], [ 397466.734486266504973, 3784326.653102746699005 ], [ 397467.039674465893768, 3784326.347914547193795 ], [ 397467.039674465893768, 3784324.821973550133407 ], [ 397467.650050864671357, 3784324.211597151588649 ], [ 397467.650050864671357, 3784323.29603255353868 ], [ 397467.955239064118359, 3784322.99084435403347 ], [ 397467.955239064118359, 3784322.68565615452826 ], [ 397469.481180061062332, 3784322.68565615452826 ], [ 397469.786368260451127, 3784322.99084435403347 ], [ 397470.396744659228716, 3784322.99084435403347 ], [ 397470.701932858617511, 3784323.29603255353868 ], [ 397471.922685656172689, 3784323.29603255353868 ], [ 397472.227873855561484, 3784323.601220752578229 ], [ 397473.143438453727867, 3784323.601220752578229 ], [ 397473.143438453727867, 3784330.315361139364541 ], [ 397472.227873855561484, 3784330.315361139364541 ] ] ] } },
{ "type": "Feature", "properties": { "confidence": 0.90833526849746704, "class": 1, "regularized": null }, "geometry": { "type": "Polygon", "coordinates": [ [ [ 397457.273652085452341, 3784295.523906408809125 ], [ 397456.663275686674751, 3784294.913530010264367 ], [ 397456.358087487285957, 3784294.913530010264367 ], [ 397456.052899287897162, 3784294.608341810759157 ], [ 397456.052899287897162, 3784294.303153611253947 ], [ 397454.526958290953189, 3784292.77721261465922 ], [ 397454.526958290953189, 3784292.47202441515401 ], [ 397463.682604272617027, 3784292.47202441515401 ], [ 397463.682604272617027, 3784293.082400813698769 ], [ 397463.377416073228233, 3784293.387589013203979 ], [ 397463.072227873839438, 3784293.387589013203979 ], [ 397462.767039674450643, 3784293.692777212709188 ], [ 397462.767039674450643, 3784293.997965412214398 ], [ 397462.156663275673054, 3784294.608341810759157 ], [ 397461.85147507628426, 3784294.608341810759157 ], [ 397461.546286876895465, 3784294.913530010264367 ], [ 397458.799593082396314, 3784294.913530010264367 ], [ 397458.494404883007519, 3784295.218718209769577 ], [ 397457.88402848422993, 3784295.218718209769577 ], [ 397457.578840284841135, 3784295.523906408809125 ], [ 397457.273652085452341, 3784295.523906408809125 ] ] ] } },
{ "type": "Feature", "properties": { "confidence": 0.90483874082565308, "class": 1, "regularized": null }, "geometry": { "type": "Polygon", "coordinates": [ [ [ 397297.660223804705311, 3784211.902339776046574 ], [ 397297.049847405927721, 3784211.291963377501816 ], [ 397297.049847405927721, 3784205.798575788270682 ], [ 397296.744659206538927, 3784205.493387589231133 ], [ 397296.744659206538927, 3784204.272634791675955 ], [ 397297.049847405927721, 3784203.967446592170745 ], [ 397297.049847405927721, 3784203.662258392665535 ], [ 397297.355035605316516, 3784203.662258392665535 ], [ 397297.660223804705311, 3784203.357070193160325 ], [ 397297.965412004094105, 3784203.357070193160325 ], [ 397298.2706002034829, 3784203.051881994120777 ], [ 397298.2706002034829, 3784201.220752797555178 ], [ 397303.153611393703613, 3784201.220752797555178 ], [ 397303.458799593092408, 3784201.525940997060388 ], [ 397303.458799593092408, 3784202.136317395605147 ], [ 397304.069175991869997, 3784202.746693794615567 ], [ 397304.069175991869997, 3784203.357070193160325 ], [ 397304.374364191258792, 3784203.662258392665535 ], [ 397304.374364191258792, 3784203.967446592170745 ], [ 397304.679552390647586, 3784204.272634791675955 ], [ 397304.679552390647586, 3784206.408952187281102 ], [ 397304.984740590036381, 3784206.714140386786312 ], [ 397304.984740590036381, 3784210.071210579946637 ], [ 397305.289928789425176, 3784210.376398779451847 ], [ 397305.289928789425176, 3784211.597151577007025 ], [ 397304.984740590036381, 3784211.902339776046574 ], [ 397297.660223804705311, 3784211.902339776046574 ] ] ] } },
{ "type": "Feature", "properties": { "confidence": 0.90211194753646851, "class": 1, "regularized": null }, "geometry": { "type": "Polygon", "coordinates": [ [ [ 397264.394710071210284, 3784412.105798575561494 ], [ 397264.089521871821489, 3784411.800610376521945 ], [ 397263.784333672432695, 3784411.800610376521945 ], [ 397262.563580874877516, 3784410.579857578966767 ], [ 397262.258392675488722, 3784410.579857578966767 ], [ 397261.953204476099927, 3784410.274669379461557 ], [ 397261.648016276711132, 3784410.274669379461557 ], [ 397261.037639877933543, 3784409.664292980451137 ], [ 397261.037639877933543, 3784409.053916581906378 ], [ 397260.732451678544749, 3784408.748728382401168 ], [ 397260.732451678544749, 3784408.443540182895958 ], [ 397261.037639877933543, 3784408.13835198385641 ], [ 397261.037639877933543, 3784407.8331637843512 ], [ 397261.342828077322338, 3784407.8331637843512 ], [ 397261.953204476099927, 3784407.22278738534078 ], [ 397262.258392675488722, 3784407.22278738534078 ], [ 397262.563580874877516, 3784406.917599186301231 ], [ 397262.868769074266311, 3784406.917599186301231 ], [ 397263.173957273655105, 3784407.22278738534078 ], [ 397263.4791454730439, 3784407.22278738534078 ], [ 397263.784333672432695, 3784407.52797558484599 ], [ 397263.784333672432695, 3784407.8331637843512 ], [ 397265.615462868765462, 3784409.664292980451137 ], [ 397265.615462868765462, 3784411.800610376521945 ], [ 397265.310274669376668, 3784412.105798575561494 ], [ 397264.394710071210284, 3784412.105798575561494 ] ] ] } },
{ "type": "Feature", "properties": { "confidence": 0.89477121829986572, "class": 1, "regularized": null }, "geometry": { "type": "Polygon", "coordinates": [ [ [ 397494.506612411001697, 3784210.986775177996606 ], [ 397494.201424211612903, 3784210.681586978491396 ], [ 397492.67548321466893, 3784210.681586978491396 ], [ 397492.370295015280135, 3784210.376398779451847 ], [ 397490.233977619558573, 3784210.376398779451847 ], [ 397489.928789420169778, 3784210.071210579946637 ], [ 397487.487283825001214, 3784210.071210579946637 ], [ 397487.182095625612419, 3784209.766022380441427 ], [ 397486.876907426223624, 3784209.766022380441427 ], [ 397486.876907426223624, 3784206.408952187281102 ], [ 397487.487283825001214, 3784205.798575788270682 ], [ 397490.844354018336162, 3784205.798575788270682 ], [ 397491.149542217724957, 3784206.103763987775892 ], [ 397492.980671414057724, 3784206.103763987775892 ], [ 397493.285859613446519, 3784206.408952187281102 ], [ 397494.811800610390492, 3784206.408952187281102 ], [ 397495.116988809779286, 3784206.714140386786312 ], [ 397496.337741607334465, 3784206.714140386786312 ], [ 397496.642929806723259, 3784207.019328585825861 ], [ 397497.558494404889643, 3784207.019328585825861 ], [ 397497.558494404889643, 3784207.32451678533107 ], [ 397497.863682604278438, 3784207.62970498483628 ], [ 397497.863682604278438, 3784207.93489318434149 ], [ 397497.558494404889643, 3784208.240081383381039 ], [ 397497.558494404889643, 3784209.155645981896669 ], [ 397497.253306205500849, 3784209.460834180936217 ], [ 397497.253306205500849, 3784210.376398779451847 ], [ 397496.948118006112054, 3784210.681586978491396 ], [ 397496.337741607334465, 3784210.681586978491396 ], [ 397496.03255340794567, 3784210.986775177996606 ], [ 397494.506612411001697, 3784210.986775177996606 ] ] ] } },
{ "type": "Feature", "properties": { "confidence": 0.88059186935424805, "class": 1, "regularized": null }, "geometry": { "type": "Polygon", "coordinates": [ [ [ 397701.424211597128306, 3784220.752797558438033 ], [ 397701.119023397739511, 3784220.447609358932823 ], [ 397700.508646998961922, 3784220.447609358932823 ], [ 397700.203458799573127, 3784220.142421159893274 ], [ 397699.593082400795538, 3784220.142421159893274 ], [ 397698.982706002017949, 3784219.532044760882854 ], [ 397698.677517802629154, 3784219.532044760882854 ], [ 397697.76195320446277, 3784218.616480162832886 ], [ 397697.76195320446277, 3784218.311291963327676 ], [ 397697.456765005073976, 3784218.006103763822466 ], [ 397697.456765005073976, 3784217.700915564782917 ], [ 397696.846388606296387, 3784217.090539165772498 ], [ 397696.846388606296387, 3784216.785350966267288 ], [ 397696.541200406907592, 3784216.480162767227739 ], [ 397696.541200406907592, 3784215.259409969672561 ], [ 397696.846388606296387, 3784214.954221770167351 ], [ 397696.846388606296387, 3784214.343845371156931 ], [ 397697.151576805685181, 3784214.038657172117382 ], [ 397697.151576805685181, 3784213.733468972612172 ], [ 397697.456765005073976, 3784213.428280773106962 ], [ 397698.677517802629154, 3784213.428280773106962 ], [ 397699.593082400795538, 3784212.512716175056994 ], [ 397700.813835198350716, 3784212.512716175056994 ], [ 397702.034587995905895, 3784213.733468972612172 ], [ 397702.034587995905895, 3784214.038657172117382 ], [ 397702.339776195294689, 3784214.343845371156931 ], [ 397702.339776195294689, 3784214.649033570662141 ], [ 397702.644964394683484, 3784214.954221770167351 ], [ 397702.644964394683484, 3784219.532044760882854 ], [ 397702.339776195294689, 3784219.837232960388064 ], [ 397702.339776195294689, 3784220.447609358932823 ], [ 397702.034587995905895, 3784220.447609358932823 ], [ 397701.7293997965171, 3784220.752797558438033 ], [ 397701.424211597128306, 3784220.752797558438033 ] ] ] } },
{ "type": "Feature", "properties": { "confidence": 0.87519478797912598, "class": 1, "regularized": null }, "geometry": { "type": "Polygon", "coordinates": [ [ [ 397767.955239064118359, 3784230.82400813838467 ], [ 397767.650050864671357, 3784230.51881993887946 ], [ 397767.344862665282562, 3784230.51881993887946 ], [ 397766.734486266504973, 3784229.908443540334702 ], [ 397766.734486266504973, 3784228.687690742779523 ], [ 397766.429298067116179, 3784228.382502543274313 ], [ 397766.429298067116179, 3784225.330620549153537 ], [ 397766.734486266504973, 3784225.025432350113988 ], [ 397766.734486266504973, 3784223.80467955255881 ], [ 397767.344862665282562, 3784223.19430315354839 ], [ 397767.344862665282562, 3784221.668362156488001 ], [ 397767.650050864671357, 3784221.668362156488001 ], [ 397767.955239064118359, 3784221.363173957448453 ], [ 397767.955239064118359, 3784221.057985757943243 ], [ 397768.260427263507154, 3784220.752797558438033 ], [ 397768.260427263507154, 3784221.057985757943243 ], [ 397768.565615462895948, 3784221.363173957448453 ], [ 397768.870803662284743, 3784221.363173957448453 ], [ 397769.175991861673538, 3784221.668362156488001 ], [ 397770.701932858617511, 3784221.668362156488001 ], [ 397771.007121058006305, 3784221.363173957448453 ], [ 397771.3123092573951, 3784221.363173957448453 ], [ 397772.533062054950278, 3784220.142421159893274 ], [ 397772.838250254339073, 3784220.142421159893274 ], [ 397773.143438453727867, 3784219.837232960388064 ], [ 397773.143438453727867, 3784220.142421159893274 ], [ 397773.753814852505457, 3784220.752797558438033 ], [ 397773.753814852505457, 3784221.973550355993211 ], [ 397774.059003051894251, 3784222.278738555498421 ], [ 397774.059003051894251, 3784229.908443540334702 ], [ 397774.364191251283046, 3784230.21363173937425 ], [ 397774.364191251283046, 3784230.51881993887946 ], [ 397774.059003051894251, 3784230.82400813838467 ], [ 397767.955239064118359, 3784230.82400813838467 ] ] ] } },
{ "type": "Feature", "properties": { "confidence": 0.86243617534637451, "class": 1, "regularized": "rectangle" }, "geometry": { "type": "Polygon", "coordinates": [ [ [ 397315.9375, 3784303.5 ], [ 397320.875, 3784294.5 ], [ 397333.875, 3784301.5 ], [ 397328.9375, 3784310.5 ], [ 397315.9375, 3784303.5 ] ] ] } },
{ "type": "Feature", "properties": { "confidence": 0.85021007061004639, "class": 1, "regularized": null }, "geometry": { "type": "Polygon", "coordinates": [ [ [ 397290.640895218704827, 3784306.815869786310941 ], [ 397290.335707019316033, 3784306.510681586805731 ], [ 397290.335707019316033, 3784300.406917599029839 ], [ 397290.030518819927238, 3784300.10172939999029 ], [ 397290.335707019316033, 3784299.79654120048508 ], [ 397290.335707019316033, 3784296.439471007324755 ], [ 397290.640895218704827, 3784296.134282807819545 ], [ 397290.640895218704827, 3784295.829094608314335 ], [ 397291.251271617482416, 3784295.218718209769577 ], [ 397291.556459816871211, 3784295.218718209769577 ], [ 397291.861648016260006, 3784294.913530010264367 ], [ 397292.777212614426389, 3784294.913530010264367 ], [ 397293.692777212592773, 3784293.997965412214398 ], [ 397295.523906408925541, 3784293.997965412214398 ], [ 397295.523906408925541, 3784294.303153611253947 ], [ 397295.218718209536746, 3784294.608341810759157 ], [ 397295.218718209536746, 3784295.523906408809125 ], [ 397294.913530010147952, 3784295.829094608314335 ], [ 397294.913530010147952, 3784297.660223804879934 ], [ 397294.608341810759157, 3784297.965412003919482 ], [ 397294.608341810759157, 3784299.491353000979871 ], [ 397294.303153611370362, 3784299.79654120048508 ], [ 397294.303153611370362, 3784300.712105798535049 ], [ 397293.997965411981568, 3784301.017293998040259 ], [ 397293.997965411981568, 3784301.627670396585017 ], [ 397293.692777212592773, 3784301.932858596090227 ], [ 397293.692777212592773, 3784303.763987792655826 ], [ 397293.387589013203979, 3784304.069175991695374 ], [ 397293.387589013203979, 3784306.205493387766182 ], [ 397292.777212614426389, 3784306.815869786310941 ], [ 397290.640895218704827, 3784306.815869786310941 ] ] ] } },
{ "type": "Feature", "properties": { "confidence": 0.82385081052780151, "class": 1, "regularized": "rectangle" }, "geometry": { "type": "Polygon", "coordinates": [ [ [ 397317.8125, 3784261.5 ], [ 397333.0625, 3784261.5 ], [ 397333.0625, 3784275.5 ], [ 397317.8125, 3784275.5 ], [ 397317.8125, 3784261.5 ] ] ] } },
{ "type": "Feature", "properties": { "confidence": 0.78064054250717163, "class": 1, "regularized": null }, "geometry": { "type": "Polygon", "coordinates": [ [ [ 397769.786368260451127, 3784220.752797558438033 ], [ 397769.175991861673538, 3784220.142421159893274 ], [ 397768.870803662284743, 3784220.142421159893274 ], [ 397768.260427263507154, 3784219.532044760882854 ], [ 397768.260427263507154, 3784218.921668362338096 ], [ 397767.955239064118359, 3784218.616480162832886 ], [ 397767.955239064118359, 3784218.311291963327676 ], [ 397767.650050864671357, 3784218.006103763822466 ], [ 397767.650050864671357, 3784217.395727365277708 ], [ 397767.039674465893768, 3784216.785350966267288 ], [ 397767.039674465893768, 3784216.174974567722529 ], [ 397766.734486266504973, 3784215.869786368217319 ], [ 397766.429298067116179, 3784215.869786368217319 ], [ 397766.124109867727384, 3784215.564598168712109 ], [ 397766.124109867727384, 3784214.954221770167351 ], [ 397766.734486266504973, 3784214.343845371156931 ], [ 397768.260427263507154, 3784214.343845371156931 ], [ 397768.870803662284743, 3784214.954221770167351 ], [ 397769.481180061062332, 3784214.954221770167351 ], [ 397769.786368260451127, 3784215.259409969672561 ], [ 397770.091556459839921, 3784215.259409969672561 ], [ 397770.396744659228716, 3784215.564598168712109 ], [ 397770.701932858617511, 3784215.564598168712109 ], [ 397771.007121058006305, 3784215.869786368217319 ], [ 397773.143438453727867, 3784215.869786368217319 ], [ 397773.143438453727867, 3784217.700915564782917 ], [ 397772.533062054950278, 3784218.311291963327676 ], [ 397772.533062054950278, 3784218.616480162832886 ], [ 397772.227873855561484, 3784218.921668362338096 ], [ 397772.227873855561484, 3784219.226856561377645 ], [ 397771.922685656172689, 3784219.532044760882854 ], [ 397771.922685656172689, 3784219.837232960388064 ], [ 397771.617497456783894, 3784219.837232960388064 ], [ 397771.3123092573951, 3784220.142421159893274 ], [ 397771.3123092573951, 3784220.447609358932823 ], [ 397771.007121058006305, 3784220.447609358932823 ], [ 397770.701932858617511, 3784220.752797558438033 ], [ 397769.786368260451127, 3784220.752797558438033 ] ] ] } },
{ "type": "Feature", "properties": { "confidence": 0.77592319250106812, "class": 1, "regularized": null }, "geometry": { "type": "Polygon", "coordinates": [ [ [ 397337.029501525918022, 3784451.475076296832412 ], [ 397336.419125127140433, 3784450.864699898287654 ], [ 397336.419125127140433, 3784449.949135300237685 ], [ 397336.724313326529227, 3784449.643947100732476 ], [ 397336.724313326529227, 3784448.728382502682507 ], [ 397337.334689725306816, 3784448.118006103672087 ], [ 397337.334689725306816, 3784447.812817904166877 ], [ 397337.639877924695611, 3784447.507629705127329 ], [ 397337.639877924695611, 3784447.202441505622119 ], [ 397337.945066124084406, 3784446.897253306116909 ], [ 397337.945066124084406, 3784446.592065106611699 ], [ 397338.555442522861995, 3784445.98168870806694 ], [ 397339.776195320475381, 3784445.98168870806694 ], [ 397340.081383519864175, 3784446.28687690757215 ], [ 397340.38657171925297, 3784446.28687690757215 ], [ 397340.691759918641765, 3784446.592065106611699 ], [ 397340.691759918641765, 3784446.897253306116909 ], [ 397340.996948118030559, 3784447.202441505622119 ], [ 397341.302136317419354, 3784447.202441505622119 ], [ 397341.607324516808148, 3784447.507629705127329 ], [ 397342.217700915585738, 3784447.507629705127329 ], [ 397342.828077314363327, 3784448.118006103672087 ], [ 397343.133265513752121, 3784448.118006103672087 ], [ 397343.438453713140916, 3784448.423194303177297 ], [ 397343.743641912529711, 3784448.423194303177297 ], [ 397343.438453713140916, 3784448.728382502682507 ], [ 397343.438453713140916, 3784449.033570701722056 ], [ 397341.607324516808148, 3784450.864699898287654 ], [ 397340.691759918641765, 3784450.864699898287654 ], [ 397340.38657171925297, 3784451.169888097792864 ], [ 397337.639877924695611, 3784451.169888097792864 ], [ 397337.334689725306816, 3784451.475076296832412 ], [ 397337.029501525918022, 3784451.475076296832412 ] ] ] } },
{ "type": "Feature", "properties": { "confidence": 0.73337894678115845, "class": 1, "regularized": null }, "geometry": { "type": "Polygon", "coordinates": [ [ [ 397727.365208545292262, 3784414.242115971632302 ], [ 397727.060020345903467, 3784413.936927772127092 ], [ 397726.754832146514673, 3784413.936927772127092 ], [ 397726.449643947125878, 3784413.631739572621882 ], [ 397726.449643947125878, 3784412.410986775066704 ], [ 397726.144455747737084, 3784412.105798575561494 ], [ 397726.144455747737084, 3784411.495422177016735 ], [ 397725.839267548348289, 3784411.190233977511525 ], [ 397725.839267548348289, 3784409.664292980451137 ], [ 397731.943031536124181, 3784409.664292980451137 ], [ 397731.943031536124181, 3784413.021363174077123 ], [ 397731.637843336735386, 3784413.326551373116672 ], [ 397730.417090539180208, 3784413.326551373116672 ], [ 397730.111902339791413, 3784413.631739572621882 ], [ 397729.19633774162503, 3784413.631739572621882 ], [ 397728.891149542236235, 3784413.936927772127092 ], [ 397727.670396744681057, 3784413.936927772127092 ], [ 397727.365208545292262, 3784414.242115971632302 ] ] ] } },
{ "type": "Feature", "properties": { "confidence": 0.72715133428573608, "class": 1, "regularized": null }, "geometry": { "type": "Polygon", "coordinates": [ [ [ 397514.954221770109143, 3784407.8331637843512 ], [ 397514.649033570720349, 3784407.52797558484599 ], [ 397513.733468972553965, 3784407.52797558484599 ], [ 397513.42828077316517, 3784407.22278738534078 ], [ 397512.817904374387581, 3784407.22278738534078 ], [ 397512.512716174998786, 3784406.917599186301231 ], [ 397510.986775178054813, 3784406.917599186301231 ], [ 397510.376398779219016, 3784406.307222787290812 ], [ 397510.071210579830222, 3784406.307222787290812 ], [ 397510.071210579830222, 3784406.002034587785602 ], [ 397509.766022380441427, 3784405.696846388746053 ], [ 397509.766022380441427, 3784405.086469989735633 ], [ 397509.460834181052633, 3784404.781281790230423 ], [ 397509.460834181052633, 3784403.560528992675245 ], [ 397509.155645981663838, 3784403.255340793635696 ], [ 397509.155645981663838, 3784402.034587996080518 ], [ 397508.850457782275043, 3784401.729399796575308 ], [ 397509.155645981663838, 3784401.424211597070098 ], [ 397509.155645981663838, 3784401.119023397564888 ], [ 397509.460834181052633, 3784400.813835198525339 ], [ 397509.460834181052633, 3784400.20345879951492 ], [ 397509.766022380441427, 3784400.20345879951492 ], [ 397510.376398779219016, 3784399.593082400970161 ], [ 397512.817904374387581, 3784399.593082400970161 ], [ 397513.123092573776376, 3784399.287894201464951 ], [ 397515.869786368275527, 3784399.287894201464951 ], [ 397516.174974567664322, 3784399.593082400970161 ], [ 397516.480162767053116, 3784399.593082400970161 ], [ 397516.785350966441911, 3784399.89827060000971 ], [ 397516.785350966441911, 3784401.119023397564888 ], [ 397517.090539165830705, 3784401.424211597070098 ], [ 397517.090539165830705, 3784402.034587996080518 ], [ 397518.616480162774678, 3784403.560528992675245 ], [ 397518.616480162774678, 3784406.002034587785602 ], [ 397518.311291963385884, 3784406.307222787290812 ], [ 397518.006103763997089, 3784406.307222787290812 ], [ 397517.700915564608295, 3784406.612410986796021 ], [ 397517.090539165830705, 3784406.612410986796021 ], [ 397516.785350966441911, 3784406.917599186301231 ], [ 397516.480162767053116, 3784406.917599186301231 ], [ 397515.869786368275527, 3784407.52797558484599 ], [ 397515.259409969497938, 3784407.52797558484599 ], [ 397514.954221770109143, 3784407.8331637843512 ] ] ] } },
{ "type": "Feature", "properties": { "confidence": 0.70805013179779053, "class": 1, "regularized": null }, "geometry": { "type": "Polygon", "coordinates": [ [ [ 397438.657171922677662, 3784215.869786368217319 ], [ 397438.351983723288868, 3784215.564598168712109 ], [ 397435.910478128178511, 3784215.564598168712109 ], [ 397435.300101729400922, 3784214.954221770167351 ], [ 397435.300101729400922, 3784206.408952187281102 ], [ 397435.605289928789716, 3784206.408952187281102 ], [ 397435.910478128178511, 3784206.103763987775892 ], [ 397437.741607324511278, 3784206.103763987775892 ], [ 397438.046795523900073, 3784206.408952187281102 ], [ 397438.351983723288868, 3784206.408952187281102 ], [ 397438.657171922677662, 3784206.714140386786312 ], [ 397438.657171922677662, 3784207.019328585825861 ], [ 397438.962360122066457, 3784207.32451678533107 ], [ 397438.962360122066457, 3784208.545269582886249 ], [ 397439.572736520844046, 3784209.155645981896669 ], [ 397439.572736520844046, 3784209.460834180936217 ], [ 397440.183112919621635, 3784210.071210579946637 ], [ 397440.183112919621635, 3784210.376398779451847 ], [ 397440.48830111901043, 3784210.681586978491396 ], [ 397440.48830111901043, 3784213.733468972612172 ], [ 397440.183112919621635, 3784214.038657172117382 ], [ 397440.183112919621635, 3784214.954221770167351 ], [ 397439.877924720232841, 3784215.259409969672561 ], [ 397439.877924720232841, 3784215.564598168712109 ], [ 397439.572736520844046, 3784215.564598168712109 ], [ 397439.267548321455251, 3784215.869786368217319 ], [ 397438.657171922677662, 3784215.869786368217319 ] ] ] } },
{ "type": "Feature", "properties": { "confidence": 0.63015586137771606, "class": 1, "regularized": null }, "geometry": { "type": "Polygon", "coordinates": [ [ [ 397256.15462868771283, 3784457.273652085568756 ], [ 397255.849440488324035, 3784456.968463886063546 ], [ 397254.323499491380062, 3784456.968463886063546 ], [ 397254.018311291991267, 3784456.663275686558336 ], [ 397253.40793489315547, 3784456.663275686558336 ], [ 397253.102746693766676, 3784456.358087487053126 ], [ 397253.102746693766676, 3784456.052899288013577 ], [ 397252.797558494377881, 3784455.747711088508368 ], [ 397252.797558494377881, 3784453.001017293892801 ], [ 397253.102746693766676, 3784452.695829094387591 ], [ 397253.102746693766676, 3784452.390640895348042 ], [ 397253.40793489315547, 3784452.390640895348042 ], [ 397254.628687690768857, 3784451.169888097792864 ], [ 397254.628687690768857, 3784450.864699898287654 ], [ 397255.239064089546446, 3784450.254323499277234 ], [ 397255.239064089546446, 3784449.949135300237685 ], [ 397255.849440488324035, 3784449.338758901227266 ], [ 397255.849440488324035, 3784448.728382502682507 ], [ 397256.459816887101624, 3784448.728382502682507 ], [ 397257.070193285879213, 3784448.118006103672087 ], [ 397257.985757884045597, 3784448.118006103672087 ], [ 397258.290946083434392, 3784448.423194303177297 ], [ 397258.290946083434392, 3784450.864699898287654 ], [ 397257.985757884045597, 3784451.169888097792864 ], [ 397257.985757884045597, 3784451.780264496337622 ], [ 397257.680569684656803, 3784452.085452695842832 ], [ 397257.680569684656803, 3784454.832146490458399 ], [ 397257.375381485268008, 3784455.137334689497948 ], [ 397257.375381485268008, 3784456.663275686558336 ], [ 397257.070193285879213, 3784456.968463886063546 ], [ 397256.765005086490419, 3784456.968463886063546 ], [ 397256.459816887101624, 3784457.273652085568756 ], [ 397256.15462868771283, 3784457.273652085568756 ] ] ] } },
{ "type": "Feature", "properties": { "confidence": 0.62652409076690674, "class": 1, "regularized": null }, "geometry": { "type": "Polygon", "coordinates": [ [ [ 397213.733468972553965, 3784500.0 ], [ 397213.42828077316517, 3784499.69481180049479 ], [ 397211.902339776221197, 3784499.69481180049479 ], [ 397211.597151576832402, 3784499.38962360098958 ], [ 397211.291963377443608, 3784499.38962360098958 ], [ 397210.681586978607811, 3784498.779247202444822 ], [ 397210.681586978607811, 3784498.168870803434402 ], [ 397210.376398779219016, 3784497.863682604394853 ], [ 397210.376398779219016, 3784496.337741607334465 ], [ 397210.071210579830222, 3784496.032553407829255 ], [ 397210.071210579830222, 3784492.37029501516372 ], [ 397210.376398779219016, 3784492.06510681565851 ], [ 397210.376398779219016, 3784491.759918616618961 ], [ 397211.597151576832402, 3784491.759918616618961 ], [ 397212.207527975609992, 3784492.37029501516372 ], [ 397212.512716174998786, 3784492.37029501516372 ], [ 397212.817904374387581, 3784492.67548321466893 ], [ 397213.123092573776376, 3784492.67548321466893 ], [ 397213.42828077316517, 3784492.980671414174139 ], [ 397213.733468972553965, 3784492.980671414174139 ], [ 397214.954221770109143, 3784494.201424211729318 ], [ 397214.954221770109143, 3784494.506612410768867 ], [ 397215.869786368275527, 3784495.422177009284496 ], [ 397215.869786368275527, 3784497.253306205384433 ], [ 397215.564598168886732, 3784497.558494404889643 ], [ 397215.564598168886732, 3784498.474059002939612 ], [ 397215.259409969497938, 3784498.779247202444822 ], [ 397215.259409969497938, 3784499.38962360098958 ], [ 397214.649033570720349, 3784500.0 ], [ 397213.733468972553965, 3784500.0 ] ] ] } },
{ "type": "Feature", "properties": { "confidence": 0.55204665660858154, "class": 1, "regularized": null }, "geometry": { "type": "Polygon", "coordinates": [ [ [ 397307.731434384535532, 3784289.114954221993685 ], [ 397307.426246185146738, 3784288.809766022488475 ], [ 397307.121057985757943, 3784288.809766022488475 ], [ 397306.815869786369149, 3784288.504577822983265 ], [ 397306.815869786369149, 3784287.894201424438506 ], [ 397306.510681586980354, 3784287.589013224933296 ], [ 397306.510681586980354, 3784286.978636825922877 ], [ 397306.205493387591559, 3784286.673448626883328 ], [ 397306.205493387591559, 3784286.368260427378118 ], [ 397305.900305188202765, 3784286.063072227872908 ], [ 397305.900305188202765, 3784285.452695828862488 ], [ 397305.59511698881397, 3784285.14750762982294 ], [ 397305.59511698881397, 3784284.53713123081252 ], [ 397306.205493387591559, 3784283.926754832267761 ], [ 397307.426246185146738, 3784283.926754832267761 ], [ 397307.731434384535532, 3784283.621566632762551 ], [ 397308.036622583924327, 3784283.621566632762551 ], [ 397308.341810783313122, 3784283.316378433257341 ], [ 397309.257375381479505, 3784283.316378433257341 ], [ 397309.5625635808683, 3784283.011190233752131 ], [ 397310.478128179034684, 3784283.011190233752131 ], [ 397310.783316378423478, 3784282.706002034712583 ], [ 397311.698880976589862, 3784282.706002034712583 ], [ 397312.004069175978657, 3784282.400813835207373 ], [ 397313.224821973533835, 3784282.400813835207373 ], [ 397313.835198372311424, 3784283.011190233752131 ], [ 397313.835198372311424, 3784283.316378433257341 ], [ 397314.140386571700219, 3784283.621566632762551 ], [ 397314.140386571700219, 3784283.926754832267761 ], [ 397314.445574771089014, 3784284.23194303130731 ], [ 397314.445574771089014, 3784285.14750762982294 ], [ 397314.750762970477808, 3784285.452695828862488 ], [ 397314.750762970477808, 3784286.368260427378118 ], [ 397314.445574771089014, 3784286.673448626883328 ], [ 397313.835198372311424, 3784286.673448626883328 ], [ 397313.53001017292263, 3784286.978636825922877 ], [ 397312.919633774145041, 3784286.978636825922877 ], [ 397312.614445574756246, 3784287.283825025428087 ], [ 397312.004069175978657, 3784287.283825025428087 ], [ 397311.698880976589862, 3784287.589013224933296 ], [ 397311.393692777201068, 3784287.589013224933296 ], [ 397311.088504577812273, 3784287.894201424438506 ], [ 397310.478128179034684, 3784287.894201424438506 ], [ 397310.172939979645889, 3784288.199389623478055 ], [ 397309.867751780257095, 3784288.199389623478055 ], [ 397309.5625635808683, 3784288.504577822983265 ], [ 397308.952187182090711, 3784288.504577822983265 ], [ 397308.646998982701916, 3784288.809766022488475 ], [ 397308.036622583924327, 3784288.809766022488475 ], [ 397307.731434384535532, 3784289.114954221993685 ] ] ] } },
{ "type": "Feature", "properties": { "confidence": 0.53452175855636597, "class": 1, "regularized": null }, "geometry": { "type": "Polygon", "coordinates": [ [ [ 397318.413021363201551, 3784379.145473041571677 ], [ 397317.49745676497696, 3784378.229908443521708 ], [ 397317.49745676497696, 3784377.924720244016498 ], [ 397316.88708036619937, 3784377.31434384547174 ], [ 397316.88708036619937, 3784376.70396744646132 ], [ 397316.581892166810576, 3784376.398779247421771 ], [ 397316.581892166810576, 3784373.957273652311414 ], [ 397316.276703967421781, 3784373.652085452806205 ], [ 397316.276703967421781, 3784373.041709053795785 ], [ 397316.581892166810576, 3784372.736520854756236 ], [ 397316.581892166810576, 3784372.431332655251026 ], [ 397316.88708036619937, 3784372.431332655251026 ], [ 397317.192268565588165, 3784372.126144455745816 ], [ 397317.49745676497696, 3784372.126144455745816 ], [ 397317.802644964365754, 3784371.820956256240606 ], [ 397318.107833163812757, 3784371.820956256240606 ], [ 397318.413021363201551, 3784371.515768057201058 ], [ 397318.718209562590346, 3784371.515768057201058 ], [ 397319.02339776197914, 3784371.210579857695848 ], [ 397320.549338758923113, 3784371.210579857695848 ], [ 397320.854526958311908, 3784371.515768057201058 ], [ 397320.854526958311908, 3784371.820956256240606 ], [ 397321.159715157700703, 3784372.126144455745816 ], [ 397321.464903357089497, 3784372.126144455745816 ], [ 397321.464903357089497, 3784372.736520854756236 ], [ 397321.770091556478292, 3784373.041709053795785 ], [ 397321.770091556478292, 3784373.652085452806205 ], [ 397322.075279755867086, 3784373.957273652311414 ], [ 397322.075279755867086, 3784375.483214648906142 ], [ 397321.770091556478292, 3784375.788402848411351 ], [ 397321.770091556478292, 3784376.093591047916561 ], [ 397321.464903357089497, 3784376.398779247421771 ], [ 397321.464903357089497, 3784376.70396744646132 ], [ 397321.159715157700703, 3784377.00915564596653 ], [ 397321.159715157700703, 3784377.31434384547174 ], [ 397320.854526958311908, 3784377.61953204497695 ], [ 397320.854526958311908, 3784378.229908443521708 ], [ 397320.549338758923113, 3784378.535096643026918 ], [ 397320.549338758923113, 3784378.840284842532128 ], [ 397320.244150559534319, 3784379.145473041571677 ], [ 397318.413021363201551, 3784379.145473041571677 ] ] ] } },
{ "type": "Feature", "properties": { "confidence": 0.53304749727249146, "class": 1, "regularized": null }, "geometry": { "type": "Polygon", "coordinates": [ [ [ 397358.697863682580646, 3784529.298067141324282 ], [ 397358.392675483191852, 3784528.992878941819072 ], [ 397357.477110885025468, 3784528.992878941819072 ], [ 397357.171922685636673, 3784528.687690742779523 ], [ 397356.866734486247879, 3784528.687690742779523 ], [ 397356.561546286859084, 3784528.382502543274313 ], [ 397356.256358087470289, 3784528.382502543274313 ], [ 397356.256358087470289, 3784528.077314343769103 ], [ 397355.6459816886927, 3784527.466937945224345 ], [ 397355.6459816886927, 3784526.856561546213925 ], [ 397362.054933875915594, 3784526.856561546213925 ], [ 397362.054933875915594, 3784528.077314343769103 ], [ 397361.444557477138005, 3784528.687690742779523 ], [ 397360.834181078360416, 3784528.687690742779523 ], [ 397360.528992878913414, 3784528.992878941819072 ], [ 397360.223804679524619, 3784528.992878941819072 ], [ 397359.918616480135825, 3784529.298067141324282 ], [ 397358.697863682580646, 3784529.298067141324282 ] ] ] } },
{ "type": "Feature", "properties": { "confidence": 0.45894962549209595, "class": 1, "regularized": null }, "geometry": { "type": "Polygon", "coordinates": [ [ [ 397288.19938962359447, 3784263.784333672374487 ], [ 397287.894201424205676, 3784263.479145472869277 ], [ 397286.063072227872908, 3784263.479145472869277 ], [ 397285.757884028484114, 3784263.173957273829728 ], [ 397285.147507629706524, 3784263.173957273829728 ], [ 397284.84231943031773, 3784262.868769074324518 ], [ 397284.84231943031773, 3784262.563580874819309 ], [ 397284.537131230928935, 3784262.258392675314099 ], [ 397284.537131230928935, 3784261.95320447627455 ], [ 397284.231943031540141, 3784261.64801627676934 ], [ 397284.231943031540141, 3784260.427263479214162 ], [ 397283.621566632762551, 3784259.816887080203742 ], [ 397283.316378433373757, 3784259.816887080203742 ], [ 397282.706002034596168, 3784259.206510681658983 ], [ 397282.706002034596168, 3784257.985757884103805 ], [ 397283.011190233984962, 3784257.680569684598595 ], [ 397283.011190233984962, 3784257.375381485093385 ], [ 397283.621566632762551, 3784257.375381485093385 ], [ 397283.926754832151346, 3784257.070193286053836 ], [ 397284.537131230928935, 3784257.070193286053836 ], [ 397284.84231943031773, 3784256.765005086548626 ], [ 397288.80976602237206, 3784256.765005086548626 ], [ 397289.114954221760854, 3784257.070193286053836 ], [ 397289.725330620538443, 3784257.070193286053836 ], [ 397290.640895218704827, 3784257.985757884103805 ], [ 397290.640895218704827, 3784258.290946083609015 ], [ 397290.946083418093622, 3784258.596134282648563 ], [ 397290.946083418093622, 3784261.34282807726413 ], [ 397290.640895218704827, 3784261.64801627676934 ], [ 397290.640895218704827, 3784262.258392675314099 ], [ 397290.030518819927238, 3784262.868769074324518 ], [ 397290.030518819927238, 3784263.173957273829728 ], [ 397289.725330620538443, 3784263.173957273829728 ], [ 397289.420142421149649, 3784263.479145472869277 ], [ 397288.80976602237206, 3784263.479145472869277 ], [ 397288.504577822983265, 3784263.784333672374487 ], [ 397288.19938962359447, 3784263.784333672374487 ] ] ] } },
{ "type": "Feature", "properties": { "confidence": 0.45716705918312073, "class": 1, "regularized": null }, "geometry": { "type": "Polygon", "coordinates": [ [ [ 397232.960325534106232, 3784339.165818921755999 ], [ 397232.655137334717438, 3784338.860630722250789 ], [ 397232.349949135328643, 3784338.860630722250789 ], [ 397232.349949135328643, 3784338.250254323706031 ], [ 397232.655137334717438, 3784337.945066124200821 ], [ 397232.655137334717438, 3784337.029501526150852 ], [ 397232.960325534106232, 3784336.724313326645643 ], [ 397232.960325534106232, 3784336.419125127140433 ], [ 397233.265513733495027, 3784336.419125127140433 ], [ 397234.181078331661411, 3784335.503560529090464 ], [ 397234.486266531050205, 3784335.503560529090464 ], [ 397234.791454730439, 3784335.198372329585254 ], [ 397238.14852492371574, 3784335.198372329585254 ], [ 397238.453713123104535, 3784335.503560529090464 ], [ 397239.064089521882124, 3784335.503560529090464 ], [ 397239.674465920659713, 3784336.113936927635223 ], [ 397239.674465920659713, 3784337.029501526150852 ], [ 397239.369277721270919, 3784337.029501526150852 ], [ 397239.064089521882124, 3784337.334689725190401 ], [ 397238.75890132249333, 3784337.334689725190401 ], [ 397237.843336724326946, 3784338.250254323706031 ], [ 397237.538148524938151, 3784338.250254323706031 ], [ 397237.232960325549357, 3784338.555442522745579 ], [ 397236.927772126160562, 3784338.555442522745579 ], [ 397236.622583926771767, 3784338.860630722250789 ], [ 397236.012207527994178, 3784338.860630722250789 ], [ 397235.707019328605384, 3784339.165818921755999 ], [ 397232.960325534106232, 3784339.165818921755999 ] ] ] } },
{ "type": "Feature", "properties": { "confidence": 0.43339064717292786, "class": 1, "regularized": null }, "geometry": { "type": "Polygon", "coordinates": [ [ [ 397215.869786368275527, 3784394.099694811739028 ], [ 397215.869786368275527, 3784393.794506612233818 ], [ 397216.174974567664322, 3784393.489318413194269 ], [ 397217.090539165830705, 3784393.489318413194269 ], [ 397217.3957273652195, 3784393.184130213689059 ], [ 397217.3957273652195, 3784390.742624618578702 ], [ 397215.869786368275527, 3784389.216683621518314 ], [ 397215.869786368275527, 3784388.911495422013104 ], [ 397216.480162767053116, 3784388.911495422013104 ], [ 397216.785350966441911, 3784388.606307222973555 ], [ 397217.700915564608295, 3784388.606307222973555 ], [ 397218.006103763997089, 3784388.301119023468345 ], [ 397218.311291963385884, 3784388.301119023468345 ], [ 397218.616480162774678, 3784387.995930823963135 ], [ 397218.921668362163473, 3784387.995930823963135 ], [ 397219.226856561552268, 3784387.690742624457926 ], [ 397221.057985757885035, 3784387.690742624457926 ], [ 397221.057985757885035, 3784389.521871821023524 ], [ 397221.36317395727383, 3784389.827060020528734 ], [ 397221.36317395727383, 3784391.353001017123461 ], [ 397221.668362156662624, 3784391.658189216628671 ], [ 397221.668362156662624, 3784391.963377416133881 ], [ 397221.057985757885035, 3784392.573753814678639 ], [ 397220.142421159718651, 3784392.573753814678639 ], [ 397219.837232960329857, 3784392.878942014183849 ], [ 397219.532044760941062, 3784392.878942014183849 ], [ 397219.226856561552268, 3784393.184130213689059 ], [ 397218.921668362163473, 3784393.184130213689059 ], [ 397218.616480162774678, 3784393.489318413194269 ], [ 397218.311291963385884, 3784393.489318413194269 ], [ 397218.006103763997089, 3784393.794506612233818 ], [ 397217.3957273652195, 3784393.794506612233818 ], [ 397217.090539165830705, 3784394.099694811739028 ], [ 397215.869786368275527, 3784394.099694811739028 ] ] ] } },
{ "type": "Feature", "properties": { "confidence": 0.42446410655975342, "class": 1, "regularized": null }, "geometry": { "type": "Polygon", "coordinates": [ [ [ 397351.068158697860781, 3784314.445574771147221 ], [ 397350.762970498471987, 3784314.140386571642011 ], [ 397350.152594099694397, 3784314.140386571642011 ], [ 397349.847405900305603, 3784313.835198372136801 ], [ 397349.542217700916808, 3784313.835198372136801 ], [ 397349.237029501528013, 3784313.530010173097253 ], [ 397348.931841302139219, 3784313.530010173097253 ], [ 397348.626653102750424, 3784313.224821973592043 ], [ 397347.71108850458404, 3784313.224821973592043 ], [ 397347.405900305195246, 3784312.919633774086833 ], [ 397346.490335707028862, 3784312.919633774086833 ], [ 397345.574771108862478, 3784312.004069176036865 ], [ 397344.964394710084889, 3784312.004069176036865 ], [ 397344.659206510696094, 3784311.698880976531655 ], [ 397344.3540183113073, 3784311.698880976531655 ], [ 397344.048830111918505, 3784311.393692777026445 ], [ 397343.743641912529711, 3784311.393692777026445 ], [ 397343.743641912529711, 3784311.088504577986896 ], [ 397343.438453713140916, 3784310.783316378481686 ], [ 397343.438453713140916, 3784308.952187181916088 ], [ 397343.743641912529711, 3784308.646998982876539 ], [ 397343.743641912529711, 3784308.341810783371329 ], [ 397344.048830111918505, 3784308.341810783371329 ], [ 397344.3540183113073, 3784308.036622583866119 ], [ 397345.269582909473684, 3784308.036622583866119 ], [ 397345.574771108862478, 3784307.731434384360909 ], [ 397345.574771108862478, 3784307.426246185321361 ], [ 397345.879959308251273, 3784307.426246185321361 ], [ 397346.185147507640067, 3784307.121057985816151 ], [ 397348.32146490336163, 3784307.121057985816151 ], [ 397348.626653102750424, 3784307.426246185321361 ], [ 397349.237029501528013, 3784307.426246185321361 ], [ 397349.542217700916808, 3784307.731434384360909 ], [ 397349.847405900305603, 3784307.731434384360909 ], [ 397350.457782299083192, 3784308.341810783371329 ], [ 397350.762970498471987, 3784308.341810783371329 ], [ 397351.373346897249576, 3784308.952187181916088 ], [ 397351.67853509663837, 3784308.952187181916088 ], [ 397352.28891149541596, 3784309.562563580926508 ], [ 397352.594099694804754, 3784309.562563580926508 ], [ 397352.594099694804754, 3784309.867751780431718 ], [ 397352.899287894193549, 3784310.172939979471266 ], [ 397352.899287894193549, 3784312.004069176036865 ], [ 397353.204476093582343, 3784312.309257375542074 ], [ 397353.204476093582343, 3784313.835198372136801 ], [ 397352.899287894193549, 3784314.140386571642011 ], [ 397352.594099694804754, 3784314.140386571642011 ], [ 397352.28891149541596, 3784314.445574771147221 ], [ 397351.068158697860781, 3784314.445574771147221 ] ] ] } },
{ "type": "Feature", "properties": { "confidence": 0.41572454571723938, "class": 1, "regularized": null }, "geometry": { "type": "Polygon", "coordinates": [ [ [ 397329.704984740586951, 3784325.127161749638617 ], [ 397329.399796541198157, 3784324.821973550133407 ], [ 397329.094608341809362, 3784324.821973550133407 ], [ 397328.789420142420568, 3784324.516785351093858 ], [ 397328.179043743642978, 3784324.516785351093858 ], [ 397327.873855544254184, 3784324.211597151588649 ], [ 397327.263479145476595, 3784324.211597151588649 ], [ 397326.653102746699005, 3784323.601220752578229 ], [ 397326.653102746699005, 3784323.29603255353868 ], [ 397326.347914547310211, 3784322.99084435403347 ], [ 397326.347914547310211, 3784322.075279755983502 ], [ 397325.737538148532622, 3784321.464903356973082 ], [ 397325.737538148532622, 3784321.159715157467872 ], [ 397325.127161749755032, 3784320.549338758923113 ], [ 397325.127161749755032, 3784320.244150559417903 ], [ 397324.516785350977443, 3784319.633774160873145 ], [ 397324.516785350977443, 3784318.413021363317966 ], [ 397324.821973550366238, 3784318.107833163812757 ], [ 397325.737538148532622, 3784318.107833163812757 ], [ 397326.347914547310211, 3784318.718209562357515 ], [ 397326.653102746699005, 3784318.718209562357515 ], [ 397326.9582909460878, 3784319.023397761862725 ], [ 397327.873855544254184, 3784319.023397761862725 ], [ 397328.179043743642978, 3784319.328585961367935 ], [ 397328.484231943031773, 3784319.328585961367935 ], [ 397328.789420142420568, 3784319.633774160873145 ], [ 397329.094608341809362, 3784319.633774160873145 ], [ 397329.399796541198157, 3784319.938962359912694 ], [ 397330.315361139364541, 3784319.938962359912694 ], [ 397330.620549338753335, 3784320.244150559417903 ], [ 397330.92573753814213, 3784320.244150559417903 ], [ 397330.92573753814213, 3784321.159715157467872 ], [ 397331.230925737530924, 3784321.464903356973082 ], [ 397331.230925737530924, 3784322.075279755983502 ], [ 397331.536113936919719, 3784322.38046795502305 ], [ 397331.536113936919719, 3784323.29603255353868 ], [ 397331.841302136308514, 3784323.601220752578229 ], [ 397331.841302136308514, 3784324.211597151588649 ], [ 397331.536113936919719, 3784324.516785351093858 ], [ 397331.536113936919719, 3784324.821973550133407 ], [ 397331.230925737530924, 3784324.821973550133407 ], [ 397330.92573753814213, 3784325.127161749638617 ], [ 397329.704984740586951, 3784325.127161749638617 ] ] ] } },
{ "type": "Feature", "properties": { "confidence": 0.41182473301887512, "class": 1, "regularized": null }, "geometry": { "type": "Polygon", "coordinates": [ [ [ 397524.109867751772981, 3784265.005086469929665 ], [ 397523.804679552384187, 3784264.699898270424455 ], [ 397523.804679552384187, 3784264.089521871879697 ], [ 397523.499491352995392, 3784263.784333672374487 ], [ 397523.499491352995392, 3784262.258392675314099 ], [ 397523.194303153606597, 3784261.95320447627455 ], [ 397523.194303153606597, 3784257.070193286053836 ], [ 397523.499491352995392, 3784256.765005086548626 ], [ 397523.499491352995392, 3784256.459816887043417 ], [ 397524.72024415055057, 3784256.459816887043417 ], [ 397525.025432349939365, 3784256.154628687538207 ], [ 397525.940996948105749, 3784256.154628687538207 ], [ 397526.246185147494543, 3784256.459816887043417 ], [ 397526.551373346883338, 3784256.459816887043417 ], [ 397526.856561546272133, 3784256.765005086548626 ], [ 397527.161749745660927, 3784256.765005086548626 ], [ 397527.161749745660927, 3784257.070193286053836 ], [ 397527.466937945049722, 3784257.375381485093385 ], [ 397528.077314343827311, 3784257.375381485093385 ], [ 397528.077314343827311, 3784260.427263479214162 ], [ 397527.772126144438516, 3784260.732451678719372 ], [ 397527.772126144438516, 3784261.64801627676934 ], [ 397527.466937945049722, 3784261.95320447627455 ], [ 397527.466937945049722, 3784262.258392675314099 ], [ 397527.161749745660927, 3784262.563580874819309 ], [ 397527.161749745660927, 3784263.173957273829728 ], [ 397526.856561546272133, 3784263.479145472869277 ], [ 397526.856561546272133, 3784264.394710071384907 ], [ 397526.551373346883338, 3784264.699898270424455 ], [ 397526.551373346883338, 3784265.005086469929665 ], [ 397524.109867751772981, 3784265.005086469929665 ] ] ] } },
{ "type": "Feature", "properties": { "confidence": 0.41117841005325317, "class": 1, "regularized": null }, "geometry": { "type": "Polygon", "coordinates": [ [ [ 397382.50254323502304, 3784585.757884028367698 ], [ 397382.197355035634246, 3784585.452695828862488 ], [ 397381.892166836187243, 3784585.452695828862488 ], [ 397381.586978636798449, 3784585.14750762982294 ], [ 397380.97660223802086, 3784585.14750762982294 ], [ 397380.671414038632065, 3784584.84231943031773 ], [ 397379.755849440465681, 3784584.84231943031773 ], [ 397379.450661241076887, 3784584.53713123081252 ], [ 397379.145473041688092, 3784584.53713123081252 ], [ 397379.145473041688092, 3784582.706002034712583 ], [ 397379.450661241076887, 3784582.706002034712583 ], [ 397380.061037639854476, 3784582.095625635702163 ], [ 397380.671414038632065, 3784582.095625635702163 ], [ 397380.97660223802086, 3784581.790437436196953 ], [ 397381.586978636798449, 3784581.790437436196953 ], [ 397382.197355035634246, 3784581.180061037652194 ], [ 397382.50254323502304, 3784581.180061037652194 ], [ 397382.807731434411835, 3784580.874872838146985 ], [ 397383.11291963380063, 3784580.874872838146985 ], [ 397383.418107833189424, 3784580.569684638641775 ], [ 397384.638860630744603, 3784580.569684638641775 ], [ 397384.944048830133397, 3784580.874872838146985 ], [ 397385.249237029522192, 3784580.874872838146985 ], [ 397385.554425228910986, 3784581.180061037652194 ], [ 397386.164801627688576, 3784581.180061037652194 ], [ 397386.46998982707737, 3784581.485249237157404 ], [ 397387.385554425243754, 3784581.485249237157404 ], [ 397387.690742624632549, 3784581.790437436196953 ], [ 397388.301119023410138, 3784581.790437436196953 ], [ 397388.606307222798932, 3784582.095625635702163 ], [ 397388.911495422187727, 3784582.095625635702163 ], [ 397388.911495422187727, 3784583.011190233752131 ], [ 397388.301119023410138, 3784583.621566632762551 ], [ 397387.995930824021343, 3784583.621566632762551 ], [ 397387.690742624632549, 3784583.926754832267761 ], [ 397387.080366225854959, 3784583.926754832267761 ], [ 397386.775178026466165, 3784584.23194303130731 ], [ 397386.164801627688576, 3784584.23194303130731 ], [ 397385.859613428299781, 3784584.53713123081252 ], [ 397385.554425228910986, 3784584.53713123081252 ], [ 397384.333672431355808, 3784585.757884028367698 ], [ 397382.50254323502304, 3784585.757884028367698 ] ] ] } },
{ "type": "Feature", "properties": { "confidence": 0.40645986795425415, "class": 1, "regularized": null }, "geometry": { "type": "Polygon", "coordinates": [ [ [ 397366.022380467969924, 3784300.406917599029839 ], [ 397365.71719226858113, 3784300.10172939999029 ], [ 397364.496439471025951, 3784300.10172939999029 ], [ 397364.191251271637157, 3784299.79654120048508 ], [ 397363.886063072248362, 3784299.79654120048508 ], [ 397363.886063072248362, 3784299.491353000979871 ], [ 397363.580874872859567, 3784299.186164801474661 ], [ 397363.580874872859567, 3784298.575788402929902 ], [ 397363.275686673470773, 3784298.270600203424692 ], [ 397363.275686673470773, 3784297.965412003919482 ], [ 397362.970498474081978, 3784297.660223804879934 ], [ 397362.970498474081978, 3784294.608341810759157 ], [ 397362.665310274693184, 3784294.303153611253947 ], [ 397362.665310274693184, 3784293.387589013203979 ], [ 397362.970498474081978, 3784293.082400813698769 ], [ 397362.970498474081978, 3784292.47202441515401 ], [ 397374.567650050856173, 3784292.47202441515401 ], [ 397374.567650050856173, 3784292.77721261465922 ], [ 397374.872838250244968, 3784293.082400813698769 ], [ 397374.872838250244968, 3784293.387589013203979 ], [ 397374.567650050856173, 3784293.692777212709188 ], [ 397374.567650050856173, 3784294.913530010264367 ], [ 397374.262461851467378, 3784294.913530010264367 ], [ 397373.652085452689789, 3784295.523906408809125 ], [ 397373.652085452689789, 3784295.829094608314335 ], [ 397372.431332655134611, 3784297.049847405869514 ], [ 397372.431332655134611, 3784297.355035605374724 ], [ 397372.126144455745816, 3784297.660223804879934 ], [ 397371.820956256357022, 3784297.660223804879934 ], [ 397371.515768056968227, 3784297.965412003919482 ], [ 397371.515768056968227, 3784298.270600203424692 ], [ 397370.905391658190638, 3784298.880976602435112 ], [ 397370.600203458801843, 3784298.880976602435112 ], [ 397370.295015259413049, 3784299.186164801474661 ], [ 397369.989827060024254, 3784299.186164801474661 ], [ 397369.379450661246665, 3784299.79654120048508 ], [ 397368.463886063080281, 3784299.79654120048508 ], [ 397368.158697863691486, 3784300.10172939999029 ], [ 397366.937945066136308, 3784300.10172939999029 ], [ 397366.632756866747513, 3784300.406917599029839 ], [ 397366.022380467969924, 3784300.406917599029839 ] ] ] } },
{ "type": "Feature", "properties": { "confidence": 0.37804928421974182, "class": 1, "regularized": null }, "geometry": { "type": "Polygon", "coordinates": [ [ [ 397352.28891149541596, 3784270.498474059160799 ], [ 397351.983723296027165, 3784270.193285859655589 ], [ 397351.67853509663837, 3784270.193285859655589 ], [ 397351.373346897249576, 3784269.888097660150379 ], [ 397351.068158697860781, 3784269.888097660150379 ], [ 397350.762970498471987, 3784269.582909460645169 ], [ 397350.457782299083192, 3784269.582909460645169 ], [ 397350.152594099694397, 3784269.27772126160562 ], [ 397349.847405900305603, 3784269.27772126160562 ], [ 397349.237029501528013, 3784268.667344862595201 ], [ 397348.931841302139219, 3784268.667344862595201 ], [ 397346.795523906417657, 3784266.531027466990054 ], [ 397346.185147507640067, 3784266.531027466990054 ], [ 397346.185147507640067, 3784266.225839267484844 ], [ 397347.100712105806451, 3784266.225839267484844 ], [ 397347.405900305195246, 3784266.531027466990054 ], [ 397348.32146490336163, 3784266.531027466990054 ], [ 397348.626653102750424, 3784266.836215666495264 ], [ 397349.847405900305603, 3784266.836215666495264 ], [ 397350.152594099694397, 3784267.141403865534812 ], [ 397351.67853509663837, 3784267.141403865534812 ], [ 397351.983723296027165, 3784267.446592065040022 ], [ 397352.594099694804754, 3784267.446592065040022 ], [ 397352.899287894193549, 3784267.751780264545232 ], [ 397353.204476093582343, 3784267.751780264545232 ], [ 397353.509664292971138, 3784268.056968464050442 ], [ 397354.120040691748727, 3784268.056968464050442 ], [ 397354.425228891137522, 3784268.362156663089991 ], [ 397355.035605289915111, 3784268.362156663089991 ], [ 397355.035605289915111, 3784269.582909460645169 ], [ 397354.730417090526316, 3784269.888097660150379 ], [ 397354.730417090526316, 3784270.193285859655589 ], [ 397354.425228891137522, 3784270.498474059160799 ], [ 397352.28891149541596, 3784270.498474059160799 ] ] ] } },
{ "type": "Feature", "properties": { "confidence": 0.27991136908531189, "class": 1, "regularized": null }, "geometry": { "type": "Polygon", "coordinates": [ [ [ 397342.217700915585738, 3784517.395727365277708 ], [ 397341.912512716196943, 3784517.090539165772498 ], [ 397341.302136317419354, 3784517.090539165772498 ], [ 397340.996948118030559, 3784516.785350966267288 ], [ 397340.691759918641765, 3784516.785350966267288 ], [ 397340.691759918641765, 3784516.480162767227739 ], [ 397340.38657171925297, 3784516.174974567722529 ], [ 397340.081383519864175, 3784516.174974567722529 ], [ 397339.776195320475381, 3784515.869786368217319 ], [ 397339.776195320475381, 3784515.259409969672561 ], [ 397339.471007121086586, 3784514.954221770167351 ], [ 397339.471007121086586, 3784514.649033570662141 ], [ 397339.165818921639584, 3784514.343845371156931 ], [ 397339.165818921639584, 3784513.733468972612172 ], [ 397340.38657171925297, 3784512.512716175056994 ], [ 397340.691759918641765, 3784512.512716175056994 ], [ 397340.996948118030559, 3784512.207527975551784 ], [ 397341.607324516808148, 3784512.207527975551784 ], [ 397341.912512716196943, 3784511.902339776046574 ], [ 397346.490335707028862, 3784511.902339776046574 ], [ 397346.490335707028862, 3784512.207527975551784 ], [ 397346.795523906417657, 3784512.512716175056994 ], [ 397346.795523906417657, 3784513.428280773106962 ], [ 397347.100712105806451, 3784513.733468972612172 ], [ 397347.100712105806451, 3784514.649033570662141 ], [ 397346.795523906417657, 3784514.954221770167351 ], [ 397346.795523906417657, 3784516.785350966267288 ], [ 397345.879959308251273, 3784516.785350966267288 ], [ 397345.574771108862478, 3784517.090539165772498 ], [ 397343.438453713140916, 3784517.090539165772498 ], [ 397343.133265513752121, 3784517.395727365277708 ], [ 397342.217700915585738, 3784517.395727365277708 ] ] ] } }
]
}
