{
"type": "FeatureCollection",
"name": "cell_00523_pre",
"crs": { "type": "name", "properties": { "name": "urn:ogc:def:crs:EPSG::32611" } },
"features": [
{ "type": "Feature", "properties": { "confidence": 0.97386634349822998, "class": 1, "regularized": null }, "geometry": { "type": "Polygon", "coordinates": [ [ [ 403539.674465920659713, 3785515.36113936919719 ], [ 403539.369277721270919, 3785515.05595116969198 ], [ 403538.453713123104535, 3785515.05595116969198 ], [ 403538.14852492371574, 3785514.750762970652431 ], [ 403537.232960325549357, 3785514.750762970652431 ], [ 403536.927772126160562, 3785514.445574771147221 ], [ 403536.317395727382973, 3785514.445574771147221 ], [ 403535.707019328605384, 3785513.835198372136801 ], [ 403535.401831129216589, 3785513.835198372136801 ], [ 403535.096642929827794, 3785513.530010173097253 ], [ 403535.096642929827794, 3785511.088504577986896 ], [ 403535.707019328605384, 3785510.478128178976476 ], [ 403536.622583926771767, 3785510.478128178976476 ], [ 403536.927772126160562, 3785510.172939979471266 ], [ 403537.232960325549357, 3785510.172939979471266 ], [ 403537.843336724326946, 3785509.562563580926508 ], [ 403538.14852492371574, 3785509.562563580926508 ], [ 403538.453713123104535, 3785509.257375381421298 ], [ 403538.453713123104535, 3785508.952187181916088 ], [ 403538.75890132249333, 3785508.952187181916088 ], [ 403539.369277721270919, 3785508.341810783371329 ], [ 403541.810783316381276, 3785508.341810783371329 ], [ 403542.11597151577007, 3785508.646998982876539 ], [ 403542.11597151577007, 3785508.952187181916088 ], [ 403542.421159715158865, 3785509.257375381421298 ], [ 403542.421159715158865, 3785512.004069176036865 ], [ 403542.11597151577007, 3785512.309257375542074 ], [ 403542.11597151577007, 3785513.835198372136801 ], [ 403541.810783316381276, 3785514.140386571642011 ], [ 403541.810783316381276, 3785514.445574771147221 ], [ 403541.505595116992481, 3785514.750762970652431 ], [ 403541.505595116992481, 3785515.05595116969198 ], [ 403541.200406917603686, 3785515.05595116969198 ], [ 403540.895218718214892, 3785515.36113936919719 ], [ 403539.674465920659713, 3785515.36113936919719 ] ] ] } },
{ "type": "Feature", "properties": { "confidence": 0.96355092525482178, "class": 1, "regularized": null }, "geometry": { "type": "Polygon", "coordinates": [ [ [ 403502.136317395721562, 3785475.686673448421061 ], [ 403501.525940996943973, 3785475.076297049876302 ], [ 403501.525940996943973, 3785473.550356052815914 ], [ 403501.220752797555178, 3785473.245167853310704 ], [ 403501.220752797555178, 3785470.193285859655589 ], [ 403501.525940996943973, 3785469.888097660150379 ], [ 403502.746693794499151, 3785469.888097660150379 ], [ 403503.051881993887946, 3785469.582909460645169 ], [ 403503.96744659205433, 3785469.582909460645169 ], [ 403504.272634791443124, 3785469.27772126160562 ], [ 403505.188199389609508, 3785469.27772126160562 ], [ 403505.493387588998303, 3785468.97253306210041 ], [ 403506.103763987775892, 3785468.97253306210041 ], [ 403506.408952187164687, 3785468.667344862595201 ], [ 403506.714140386553481, 3785468.97253306210041 ], [ 403507.019328585942276, 3785468.97253306210041 ], [ 403507.019328585942276, 3785469.582909460645169 ], [ 403506.714140386553481, 3785469.888097660150379 ], [ 403506.714140386553481, 3785471.108850457705557 ], [ 403506.408952187164687, 3785471.414038657210767 ], [ 403506.408952187164687, 3785473.550356052815914 ], [ 403505.188199389609508, 3785474.771108850371093 ], [ 403504.883011190220714, 3785474.771108850371093 ], [ 403504.577822990831919, 3785475.076297049876302 ], [ 403504.272634791443124, 3785475.076297049876302 ], [ 403503.96744659205433, 3785475.381485249381512 ], [ 403503.357070193276741, 3785475.381485249381512 ], [ 403503.051881993887946, 3785475.686673448421061 ], [ 403502.136317395721562, 3785475.686673448421061 ] ] ] } },
{ "type": "Feature", "properties": { "confidence": 0.95702165365219116, "class": 1, "regularized": null }, "geometry": { "type": "Polygon", "coordinates": [ [ [ 403484.130213631724473, 3785618.209562563803047 ], [ 403483.825025432335678, 3785617.904374364297837 ], [ 403483.214649033558089, 3785617.904374364297837 ], [ 403482.909460834169295, 3785617.599186164792627 ], [ 403482.6042726347805, 3785617.599186164792627 ], [ 403482.299084435391705, 3785617.293997965287417 ], [ 403481.993896236002911, 3785617.293997965287417 ], [ 403481.688708036614116, 3785616.988809766247869 ], [ 403481.688708036614116, 3785616.683621566742659 ], [ 403481.078331637836527, 3785616.073245167732239 ], [ 403481.078331637836527, 3785615.46286876918748 ], [ 403480.162767039670143, 3785614.547304171137512 ], [ 403480.162767039670143, 3785614.242115971632302 ], [ 403479.857578840281349, 3785613.936927772127092 ], [ 403479.857578840281349, 3785613.631739572621882 ], [ 403479.552390640892554, 3785613.326551373116672 ], [ 403479.552390640892554, 3785612.410986775066704 ], [ 403479.247202441503759, 3785612.105798575561494 ], [ 403479.247202441503759, 3785611.495422177016735 ], [ 403478.942014242114965, 3785611.190233977511525 ], [ 403478.942014242114965, 3785610.579857578966767 ], [ 403479.247202441503759, 3785610.274669379461557 ], [ 403479.247202441503759, 3785609.969481179956347 ], [ 403479.857578840281349, 3785609.969481179956347 ], [ 403480.162767039670143, 3785609.664292980451137 ], [ 403481.078331637836527, 3785609.664292980451137 ], [ 403481.383519837225322, 3785609.359104781411588 ], [ 403481.688708036614116, 3785609.664292980451137 ], [ 403482.299084435391705, 3785609.664292980451137 ], [ 403482.909460834169295, 3785610.274669379461557 ], [ 403482.909460834169295, 3785610.579857578966767 ], [ 403483.214649033558089, 3785610.885045778006315 ], [ 403483.214649033558089, 3785611.190233977511525 ], [ 403484.435401831113268, 3785612.410986775066704 ], [ 403484.740590030502062, 3785612.410986775066704 ], [ 403485.045778229890857, 3785612.716174974571913 ], [ 403485.350966429279651, 3785612.716174974571913 ], [ 403486.266531027446035, 3785613.631739572621882 ], [ 403486.57171922683483, 3785613.631739572621882 ], [ 403486.57171922683483, 3785613.936927772127092 ], [ 403486.876907426223624, 3785614.242115971632302 ], [ 403487.182095625612419, 3785614.242115971632302 ], [ 403487.182095625612419, 3785615.15768056968227 ], [ 403486.876907426223624, 3785615.46286876918748 ], [ 403486.876907426223624, 3785616.683621566742659 ], [ 403486.57171922683483, 3785616.988809766247869 ], [ 403486.57171922683483, 3785617.293997965287417 ], [ 403485.656154628668446, 3785618.209562563803047 ], [ 403484.130213631724473, 3785618.209562563803047 ] ] ] } },
{ "type": "Feature", "properties": { "confidence": 0.93504273891448975, "class": 1, "regularized": null }, "geometry": { "type": "Polygon", "coordinates": [ [ [ 403588.504577822983265, 3785731.12919633788988 ], [ 403588.19938962359447, 3785730.82400813838467 ], [ 403588.19938962359447, 3785729.908443540334702 ], [ 403587.589013224816881, 3785729.298067141324282 ], [ 403586.978636826039292, 3785729.298067141324282 ], [ 403586.673448626650497, 3785728.992878941819072 ], [ 403586.368260427261703, 3785728.992878941819072 ], [ 403586.368260427261703, 3785728.687690742779523 ], [ 403586.063072227872908, 3785728.382502543274313 ], [ 403586.063072227872908, 3785726.856561546213925 ], [ 403590.335707019316033, 3785726.856561546213925 ], [ 403590.335707019316033, 3785731.12919633788988 ], [ 403588.504577822983265, 3785731.12919633788988 ] ] ] } },
{ "type": "Feature", "properties": { "confidence": 0.91397243738174438, "class": 1, "regularized": null }, "geometry": { "type": "Polygon", "coordinates": [ [ [ 403458.189216683618724, 3785882.807731434237212 ], [ 403458.189216683618724, 3785880.976602238137275 ], [ 403458.494404883007519, 3785880.671414038632065 ], [ 403458.494404883007519, 3785880.366225839126855 ], [ 403459.104781281785108, 3785879.755849440582097 ], [ 403459.409969481173903, 3785879.755849440582097 ], [ 403460.020345879951492, 3785879.145473041571677 ], [ 403460.020345879951492, 3785878.840284842532128 ], [ 403460.325534079340287, 3785878.535096643026918 ], [ 403461.24109867750667, 3785878.535096643026918 ], [ 403461.546286876895465, 3785878.840284842532128 ], [ 403461.85147507628426, 3785878.840284842532128 ], [ 403462.156663275673054, 3785879.145473041571677 ], [ 403462.461851475061849, 3785879.145473041571677 ], [ 403463.377416073228233, 3785880.061037640087306 ], [ 403463.377416073228233, 3785880.976602238137275 ], [ 403463.072227873839438, 3785881.281790437642485 ], [ 403463.072227873839438, 3785881.586978636682034 ], [ 403462.156663275673054, 3785882.502543235197663 ], [ 403462.156663275673054, 3785882.807731434237212 ], [ 403458.189216683618724, 3785882.807731434237212 ] ] ] } },
{ "type": "Feature", "properties": { "confidence": 0.90173131227493286, "class": 1, "regularized": null }, "geometry": { "type": "Polygon", "coordinates": [ [ [ 403221.36317395727383, 3785662.156663275789469 ], [ 403221.057985757885035, 3785661.85147507628426 ], [ 403220.142421159718651, 3785661.85147507628426 ], [ 403219.837232960329857, 3785661.54628687677905 ], [ 403219.532044760941062, 3785661.54628687677905 ], [ 403218.616480162774678, 3785660.630722278729081 ], [ 403218.616480162774678, 3785660.325534079223871 ], [ 403218.311291963385884, 3785660.020345880184323 ], [ 403218.311291963385884, 3785659.715157680679113 ], [ 403218.006103763997089, 3785659.409969481173903 ], [ 403218.006103763997089, 3785659.104781281668693 ], [ 403217.700915564608295, 3785658.799593082629144 ], [ 403217.700915564608295, 3785657.884028484113514 ], [ 403217.3957273652195, 3785657.578840285073966 ], [ 403217.3957273652195, 3785656.663275686558336 ], [ 403218.006103763997089, 3785656.052899288013577 ], [ 403218.006103763997089, 3785655.747711088508368 ], [ 403218.311291963385884, 3785655.747711088508368 ], [ 403218.921668362163473, 3785655.137334689497948 ], [ 403219.226856561552268, 3785655.137334689497948 ], [ 403219.532044760941062, 3785654.832146490458399 ], [ 403221.057985757885035, 3785654.832146490458399 ], [ 403221.36317395727383, 3785655.137334689497948 ], [ 403221.668362156662624, 3785655.137334689497948 ], [ 403222.278738555440214, 3785655.747711088508368 ], [ 403222.583926754829008, 3785655.747711088508368 ], [ 403222.889114954217803, 3785656.052899288013577 ], [ 403223.194303153606597, 3785656.052899288013577 ], [ 403223.499491352995392, 3785656.358087487053126 ], [ 403223.804679552384187, 3785656.358087487053126 ], [ 403224.109867751772981, 3785656.663275686558336 ], [ 403224.415055951161776, 3785656.663275686558336 ], [ 403224.415055951161776, 3785656.968463886063546 ], [ 403224.72024415055057, 3785657.273652085568756 ], [ 403224.72024415055057, 3785661.241098677739501 ], [ 403223.804679552384187, 3785662.156663275789469 ], [ 403221.36317395727383, 3785662.156663275789469 ] ] ] } },
{ "type": "Feature", "properties": { "confidence": 0.89658635854721069, "class": 1, "regularized": null }, "geometry": { "type": "Polygon", "coordinates": [ [ [ 403676.398779247188941, 3785881.586978636682034 ], [ 403676.398779247188941, 3785880.671414038632065 ], [ 403676.093591047800146, 3785880.366225839126855 ], [ 403676.093591047800146, 3785878.840284842532128 ], [ 403676.398779247188941, 3785878.535096643026918 ], [ 403676.398779247188941, 3785875.788402848411351 ], [ 403676.093591047800146, 3785875.483214648906142 ], [ 403676.093591047800146, 3785875.178026449866593 ], [ 403675.788402848411351, 3785874.872838250361383 ], [ 403675.788402848411351, 3785874.567650050856173 ], [ 403675.483214649022557, 3785874.262461851350963 ], [ 403675.483214649022557, 3785873.041709053795785 ], [ 403675.178026449633762, 3785872.736520854756236 ], [ 403675.178026449633762, 3785872.126144455745816 ], [ 403674.872838250244968, 3785871.820956256240606 ], [ 403674.872838250244968, 3785870.905391658190638 ], [ 403674.567650050856173, 3785870.600203458685428 ], [ 403674.567650050856173, 3785867.243133265525103 ], [ 403675.483214649022557, 3785866.327568667475134 ], [ 403676.398779247188941, 3785866.327568667475134 ], [ 403676.703967446577735, 3785866.632756866514683 ], [ 403677.00915564596653, 3785866.632756866514683 ], [ 403677.924720244132914, 3785867.548321465030313 ], [ 403677.924720244132914, 3785867.853509664069861 ], [ 403679.145473041688092, 3785869.07426246162504 ], [ 403679.145473041688092, 3785869.37945066113025 ], [ 403679.755849440465681, 3785869.989827060140669 ], [ 403679.755849440465681, 3785871.210579857695848 ], [ 403680.061037639854476, 3785871.515768057201058 ], [ 403680.061037639854476, 3785872.126144455745816 ], [ 403680.36622583924327, 3785872.431332655251026 ], [ 403680.36622583924327, 3785872.736520854756236 ], [ 403680.671414038632065, 3785873.041709053795785 ], [ 403680.97660223802086, 3785873.041709053795785 ], [ 403680.97660223802086, 3785873.346897253300995 ], [ 403681.281790437409654, 3785873.652085452806205 ], [ 403681.281790437409654, 3785874.567650050856173 ], [ 403681.586978636798449, 3785874.872838250361383 ], [ 403681.586978636798449, 3785879.755849440582097 ], [ 403681.281790437409654, 3785880.061037640087306 ], [ 403681.281790437409654, 3785880.976602238137275 ], [ 403678.840284842299297, 3785880.976602238137275 ], [ 403678.535096642910503, 3785881.281790437642485 ], [ 403677.619532044744119, 3785881.281790437642485 ], [ 403677.314343845355324, 3785881.586978636682034 ], [ 403676.398779247188941, 3785881.586978636682034 ] ] ] } },
{ "type": "Feature", "properties": { "confidence": 0.89545941352844238, "class": 1, "regularized": null }, "geometry": { "type": "Polygon", "coordinates": [ [ [ 403597.355035605316516, 3785621.871820956468582 ], [ 403597.049847405927721, 3785621.566632756963372 ], [ 403596.744659206538927, 3785621.566632756963372 ], [ 403596.439471007150132, 3785621.261444557458162 ], [ 403596.439471007150132, 3785620.956256357952952 ], [ 403596.13428280770313, 3785620.651068158913404 ], [ 403596.439471007150132, 3785620.345879959408194 ], [ 403596.439471007150132, 3785619.430315361358225 ], [ 403596.744659206538927, 3785619.125127161853015 ], [ 403596.744659206538927, 3785618.514750762842596 ], [ 403597.049847405927721, 3785618.209562563803047 ], [ 403597.049847405927721, 3785617.904374364297837 ], [ 403599.491353001038078, 3785615.46286876918748 ], [ 403599.796541200426873, 3785615.46286876918748 ], [ 403600.101729399815667, 3785615.15768056968227 ], [ 403601.017293997982051, 3785615.15768056968227 ], [ 403601.322482197370846, 3785615.46286876918748 ], [ 403601.932858596148435, 3785615.46286876918748 ], [ 403602.23804679553723, 3785615.76805696869269 ], [ 403603.153611393703613, 3785615.76805696869269 ], [ 403603.458799593092408, 3785616.073245167732239 ], [ 403603.763987792481203, 3785616.073245167732239 ], [ 403603.763987792481203, 3785617.293997965287417 ], [ 403603.458799593092408, 3785617.599186164792627 ], [ 403603.458799593092408, 3785618.514750762842596 ], [ 403603.153611393703613, 3785618.819938962347806 ], [ 403603.153611393703613, 3785619.125127161853015 ], [ 403602.848423194314819, 3785619.430315361358225 ], [ 403602.848423194314819, 3785619.735503560397774 ], [ 403601.932858596148435, 3785620.651068158913404 ], [ 403601.932858596148435, 3785620.956256357952952 ], [ 403601.62767039675964, 3785620.956256357952952 ], [ 403601.322482197370846, 3785621.261444557458162 ], [ 403601.322482197370846, 3785621.566632756963372 ], [ 403600.712105798593257, 3785621.566632756963372 ], [ 403600.406917599204462, 3785621.871820956468582 ], [ 403597.355035605316516, 3785621.871820956468582 ] ] ] } },
{ "type": "Feature", "properties": { "confidence": 0.83409219980239868, "class": 1, "regularized": null }, "geometry": { "type": "Polygon", "coordinates": [ [ [ 403745.371312309231143, 3785880.976602238137275 ], [ 403744.760935910453554, 3785880.366225839126855 ], [ 403744.760935910453554, 3785875.788402848411351 ], [ 403745.066124109842349, 3785875.483214648906142 ], [ 403745.066124109842349, 3785875.178026449866593 ], [ 403745.371312309231143, 3785874.872838250361383 ], [ 403745.371312309231143, 3785874.567650050856173 ], [ 403745.981688708008733, 3785873.957273652311414 ], [ 403745.981688708008733, 3785873.652085452806205 ], [ 403746.59206510684453, 3785873.041709053795785 ], [ 403746.59206510684453, 3785872.736520854756236 ], [ 403747.507629705010913, 3785871.820956256240606 ], [ 403747.507629705010913, 3785871.515768057201058 ], [ 403747.812817904399708, 3785871.515768057201058 ], [ 403748.423194303177297, 3785870.905391658190638 ], [ 403748.728382502566092, 3785871.210579857695848 ], [ 403749.338758901343681, 3785871.210579857695848 ], [ 403749.643947100732476, 3785871.515768057201058 ], [ 403750.254323499510065, 3785871.515768057201058 ], [ 403750.254323499510065, 3785872.126144455745816 ], [ 403750.559511698898859, 3785872.431332655251026 ], [ 403750.559511698898859, 3785874.262461851350963 ], [ 403750.254323499510065, 3785874.567650050856173 ], [ 403750.254323499510065, 3785875.788402848411351 ], [ 403749.94913530012127, 3785875.788402848411351 ], [ 403749.643947100732476, 3785876.093591047916561 ], [ 403749.643947100732476, 3785877.61953204497695 ], [ 403749.338758901343681, 3785877.924720244016498 ], [ 403749.338758901343681, 3785878.840284842532128 ], [ 403749.033570701954886, 3785879.145473041571677 ], [ 403749.033570701954886, 3785880.671414038632065 ], [ 403748.423194303177297, 3785880.671414038632065 ], [ 403748.118006103788503, 3785880.976602238137275 ], [ 403745.371312309231143, 3785880.976602238137275 ] ] ] } },
{ "type": "Feature", "properties": { "confidence": 0.81310826539993286, "class": 1, "regularized": null }, "geometry": { "type": "Polygon", "coordinates": [ [ [ 403685.554425228910986, 3785859.613428280688822 ], [ 403685.249237029522192, 3785859.308240081183612 ], [ 403684.944048830133397, 3785859.308240081183612 ], [ 403684.028484231967013, 3785858.392675483133644 ], [ 403683.723296032578219, 3785858.392675483133644 ], [ 403683.418107833189424, 3785858.087487283628434 ], [ 403683.11291963380063, 3785858.087487283628434 ], [ 403682.807731434411835, 3785857.782299084588885 ], [ 403682.50254323502304, 3785857.782299084588885 ], [ 403681.892166836187243, 3785857.171922685578465 ], [ 403681.892166836187243, 3785856.561546287033707 ], [ 403681.586978636798449, 3785856.256358087528497 ], [ 403681.586978636798449, 3785854.425228890962899 ], [ 403681.892166836187243, 3785854.425228890962899 ], [ 403682.197355035634246, 3785854.12004069192335 ], [ 403684.028484231967013, 3785854.12004069192335 ], [ 403684.333672431355808, 3785854.425228890962899 ], [ 403684.944048830133397, 3785854.425228890962899 ], [ 403685.249237029522192, 3785854.12004069192335 ], [ 403685.554425228910986, 3785854.12004069192335 ], [ 403686.775178026466165, 3785852.899287894368172 ], [ 403686.775178026466165, 3785852.594099694862962 ], [ 403687.080366225854959, 3785852.288911495357752 ], [ 403687.080366225854959, 3785851.373346897307783 ], [ 403687.385554425243754, 3785851.373346897307783 ], [ 403687.690742624632549, 3785851.068158697802573 ], [ 403687.995930824021343, 3785851.068158697802573 ], [ 403688.301119023410138, 3785851.373346897307783 ], [ 403688.911495422187727, 3785851.373346897307783 ], [ 403689.216683621576522, 3785851.678535096812993 ], [ 403689.216683621576522, 3785856.866734486073256 ], [ 403688.911495422187727, 3785857.171922685578465 ], [ 403688.911495422187727, 3785858.087487283628434 ], [ 403688.606307222798932, 3785858.392675483133644 ], [ 403688.606307222798932, 3785858.697863682638854 ], [ 403687.690742624632549, 3785859.613428280688822 ], [ 403685.554425228910986, 3785859.613428280688822 ] ] ] } },
{ "type": "Feature", "properties": { "confidence": 0.8130040168762207, "class": 1, "regularized": null }, "geometry": { "type": "Polygon", "coordinates": [ [ [ 403266.531027466931846, 3785520.549338758923113 ], [ 403266.225839267543051, 3785520.244150559417903 ], [ 403266.225839267543051, 3785519.023397761862725 ], [ 403266.531027466931846, 3785518.718209562357515 ], [ 403266.531027466931846, 3785516.276703967247158 ], [ 403267.141403865709435, 3785515.6663275687024 ], [ 403267.44659206509823, 3785515.6663275687024 ], [ 403267.751780264487024, 3785515.36113936919719 ], [ 403268.972533062042203, 3785515.36113936919719 ], [ 403269.277721261430997, 3785515.05595116969198 ], [ 403269.277721261430997, 3785514.750762970652431 ], [ 403270.80366225837497, 3785514.750762970652431 ], [ 403271.108850457763765, 3785514.445574771147221 ], [ 403272.024415055930149, 3785514.445574771147221 ], [ 403272.329603255318943, 3785514.140386571642011 ], [ 403272.939979654096533, 3785514.140386571642011 ], [ 403273.550356052874122, 3785514.750762970652431 ], [ 403273.550356052874122, 3785515.6663275687024 ], [ 403273.855544252262916, 3785515.97151576820761 ], [ 403273.855544252262916, 3785516.276703967247158 ], [ 403273.550356052874122, 3785516.581892166752368 ], [ 403273.550356052874122, 3785518.413021363317966 ], [ 403273.245167853485327, 3785518.413021363317966 ], [ 403272.939979654096533, 3785518.718209562357515 ], [ 403272.329603255318943, 3785518.718209562357515 ], [ 403272.024415055930149, 3785519.023397761862725 ], [ 403271.41403865715256, 3785519.023397761862725 ], [ 403271.108850457763765, 3785519.328585961367935 ], [ 403269.888097660208587, 3785519.328585961367935 ], [ 403269.582909460819792, 3785519.633774160873145 ], [ 403269.277721261430997, 3785519.633774160873145 ], [ 403268.972533062042203, 3785519.938962359912694 ], [ 403268.667344862653408, 3785519.938962359912694 ], [ 403268.362156663264614, 3785520.244150559417903 ], [ 403268.056968463875819, 3785520.244150559417903 ], [ 403267.751780264487024, 3785520.549338758923113 ], [ 403266.531027466931846, 3785520.549338758923113 ] ] ] } },
{ "type": "Feature", "properties": { "confidence": 0.79575324058532715, "class": 1, "regularized": null }, "geometry": { "type": "Polygon", "coordinates": [ [ [ 403334.587995930807665, 3785730.82400813838467 ], [ 403334.28280773141887, 3785730.51881993887946 ], [ 403334.587995930807665, 3785730.21363173937425 ], [ 403334.587995930807665, 3785728.077314343769103 ], [ 403334.89318413019646, 3785727.772126144263893 ], [ 403334.89318413019646, 3785726.856561546213925 ], [ 403339.776195320475381, 3785726.856561546213925 ], [ 403339.776195320475381, 3785727.466937945224345 ], [ 403339.165818921639584, 3785728.077314343769103 ], [ 403339.165818921639584, 3785728.382502543274313 ], [ 403338.555442522861995, 3785728.992878941819072 ], [ 403338.555442522861995, 3785729.298067141324282 ], [ 403337.945066124084406, 3785729.908443540334702 ], [ 403337.945066124084406, 3785730.21363173937425 ], [ 403337.639877924695611, 3785730.51881993887946 ], [ 403337.334689725306816, 3785730.51881993887946 ], [ 403337.029501525918022, 3785730.82400813838467 ], [ 403334.587995930807665, 3785730.82400813838467 ] ] ] } },
{ "type": "Feature", "properties": { "confidence": 0.77651768922805786, "class": 1, "regularized": null }, "geometry": { "type": "Polygon", "coordinates": [ [ [ 403692.573753814853262, 3785877.31434384547174 ], [ 403692.268565615464468, 3785877.00915564596653 ], [ 403691.963377416075673, 3785877.00915564596653 ], [ 403691.047812817909289, 3785876.093591047916561 ], [ 403691.047812817909289, 3785875.178026449866593 ], [ 403690.742624618520495, 3785874.872838250361383 ], [ 403690.742624618520495, 3785874.262461851350963 ], [ 403690.4374364191317, 3785873.957273652311414 ], [ 403690.4374364191317, 3785873.346897253300995 ], [ 403690.132248219742905, 3785873.041709053795785 ], [ 403690.132248219742905, 3785872.431332655251026 ], [ 403689.827060020354111, 3785872.126144455745816 ], [ 403689.827060020354111, 3785871.515768057201058 ], [ 403689.521871820965316, 3785871.210579857695848 ], [ 403689.521871820965316, 3785870.600203458685428 ], [ 403689.827060020354111, 3785870.295015259180218 ], [ 403689.827060020354111, 3785869.989827060140669 ], [ 403690.132248219742905, 3785869.684638860635459 ], [ 403690.742624618520495, 3785869.684638860635459 ], [ 403691.047812817909289, 3785869.37945066113025 ], [ 403691.963377416075673, 3785869.37945066113025 ], [ 403692.268565615464468, 3785869.684638860635459 ], [ 403692.878942014242057, 3785869.684638860635459 ], [ 403693.184130213630851, 3785869.989827060140669 ], [ 403693.794506612408441, 3785869.989827060140669 ], [ 403694.40488301118603, 3785870.600203458685428 ], [ 403694.710071210574824, 3785870.600203458685428 ], [ 403695.625635808741208, 3785871.515768057201058 ], [ 403695.930824008130003, 3785871.515768057201058 ], [ 403695.930824008130003, 3785873.041709053795785 ], [ 403696.236012207518797, 3785873.346897253300995 ], [ 403696.236012207518797, 3785876.093591047916561 ], [ 403695.930824008130003, 3785876.398779247421771 ], [ 403695.930824008130003, 3785876.70396744646132 ], [ 403695.625635808741208, 3785877.00915564596653 ], [ 403695.015259409963619, 3785877.00915564596653 ], [ 403694.710071210574824, 3785877.31434384547174 ], [ 403692.573753814853262, 3785877.31434384547174 ] ] ] } },
{ "type": "Feature", "properties": { "confidence": 0.72765439748764038, "class": 1, "regularized": null }, "geometry": { "type": "Polygon", "coordinates": [ [ [ 403594.608341810759157, 3785411.597151577007025 ], [ 403593.997965411981568, 3785410.986775177996606 ], [ 403593.997965411981568, 3785410.681586978491396 ], [ 403593.692777212592773, 3785410.376398779451847 ], [ 403593.387589013203979, 3785410.376398779451847 ], [ 403593.082400813815184, 3785410.071210579946637 ], [ 403593.082400813815184, 3785409.766022380441427 ], [ 403592.777212614426389, 3785409.460834180936217 ], [ 403592.777212614426389, 3785407.93489318434149 ], [ 403592.472024415037595, 3785407.62970498483628 ], [ 403592.472024415037595, 3785407.019328585825861 ], [ 403592.1668362156488, 3785406.714140386786312 ], [ 403592.1668362156488, 3785406.103763987775892 ], [ 403591.861648016260006, 3785405.798575788270682 ], [ 403591.861648016260006, 3785405.493387589231133 ], [ 403594.913530010147952, 3785402.441505595110357 ], [ 403595.218718209536746, 3785402.441505595110357 ], [ 403595.523906408925541, 3785402.136317395605147 ], [ 403595.829094608314335, 3785402.136317395605147 ], [ 403596.13428280770313, 3785401.831129196565598 ], [ 403597.049847405927721, 3785401.831129196565598 ], [ 403597.355035605316516, 3785401.525940997060388 ], [ 403598.2706002034829, 3785401.525940997060388 ], [ 403599.186164801649284, 3785402.441505595110357 ], [ 403599.491353001038078, 3785402.441505595110357 ], [ 403599.491353001038078, 3785402.746693794615567 ], [ 403599.796541200426873, 3785403.051881994120777 ], [ 403600.101729399815667, 3785403.051881994120777 ], [ 403600.101729399815667, 3785403.662258392665535 ], [ 403601.322482197370846, 3785404.883011190220714 ], [ 403601.322482197370846, 3785406.714140386786312 ], [ 403601.017293997982051, 3785407.019328585825861 ], [ 403601.017293997982051, 3785407.62970498483628 ], [ 403600.712105798593257, 3785407.62970498483628 ], [ 403600.406917599204462, 3785407.93489318434149 ], [ 403600.406917599204462, 3785408.545269582886249 ], [ 403598.575788402871694, 3785410.376398779451847 ], [ 403598.2706002034829, 3785410.376398779451847 ], [ 403597.355035605316516, 3785411.291963377501816 ], [ 403597.049847405927721, 3785411.291963377501816 ], [ 403596.744659206538927, 3785411.597151577007025 ], [ 403594.608341810759157, 3785411.597151577007025 ] ] ] } },
{ "type": "Feature", "properties": { "confidence": 0.72220057249069214, "class": 1, "regularized": null }, "geometry": { "type": "Polygon", "coordinates": [ [ [ 403373.652085452689789, 3785903.560528992675245 ], [ 403373.346897253300995, 3785903.255340793635696 ], [ 403373.346897253300995, 3785902.950152594130486 ], [ 403373.0417090539122, 3785902.644964394625276 ], [ 403373.0417090539122, 3785899.593082400970161 ], [ 403374.262461851467378, 3785898.372329603414983 ], [ 403374.262461851467378, 3785898.067141403909773 ], [ 403375.178026449633762, 3785897.151576805859804 ], [ 403375.178026449633762, 3785896.846388606354594 ], [ 403377.00915564596653, 3785895.015259409788996 ], [ 403377.00915564596653, 3785894.710071210749447 ], [ 403377.314343845355324, 3785894.710071210749447 ], [ 403377.619532044744119, 3785894.404883011244237 ], [ 403377.924720244132914, 3785894.404883011244237 ], [ 403378.229908443521708, 3785894.710071210749447 ], [ 403378.535096642910503, 3785894.710071210749447 ], [ 403378.840284842299297, 3785895.015259409788996 ], [ 403378.840284842299297, 3785898.982706001959741 ], [ 403378.535096642910503, 3785899.287894201464951 ], [ 403378.535096642910503, 3785900.813835198525339 ], [ 403378.229908443521708, 3785901.119023397564888 ], [ 403378.229908443521708, 3785902.034587996080518 ], [ 403377.924720244132914, 3785902.339776195120066 ], [ 403377.924720244132914, 3785902.644964394625276 ], [ 403377.314343845355324, 3785903.255340793635696 ], [ 403374.872838250244968, 3785903.255340793635696 ], [ 403374.567650050856173, 3785903.560528992675245 ], [ 403373.652085452689789, 3785903.560528992675245 ] ] ] } },
{ "type": "Feature", "properties": { "confidence": 0.70958387851715088, "class": 1, "regularized": null }, "geometry": { "type": "Polygon", "coordinates": [ [ [ 403699.593082400795538, 3785837.334689725190401 ], [ 403699.287894201406743, 3785837.029501526150852 ], [ 403699.287894201406743, 3785836.113936927635223 ], [ 403698.982706002017949, 3785835.808748728595674 ], [ 403698.982706002017949, 3785835.503560529090464 ], [ 403698.677517802629154, 3785835.198372329585254 ], [ 403698.677517802629154, 3785834.587995931040496 ], [ 403698.37232960324036, 3785834.282807731535286 ], [ 403698.37232960324036, 3785833.977619532030076 ], [ 403698.067141403851565, 3785833.672431332524866 ], [ 403698.067141403851565, 3785833.062054933980107 ], [ 403697.76195320446277, 3785832.756866734474897 ], [ 403697.76195320446277, 3785831.230925737414509 ], [ 403697.456765005073976, 3785830.92573753837496 ], [ 403697.456765005073976, 3785829.704984740819782 ], [ 403698.37232960324036, 3785828.789420142304152 ], [ 403701.119023397739511, 3785828.789420142304152 ], [ 403701.7293997965171, 3785829.399796541314572 ], [ 403702.034587995905895, 3785829.399796541314572 ], [ 403702.950152594072279, 3785830.315361139364541 ], [ 403702.950152594072279, 3785830.62054933886975 ], [ 403703.255340793461073, 3785830.92573753837496 ], [ 403703.255340793461073, 3785831.230925737414509 ], [ 403703.560528992908075, 3785831.536113936919719 ], [ 403703.560528992908075, 3785831.841302136424929 ], [ 403704.476093591074459, 3785832.756866734474897 ], [ 403704.476093591074459, 3785833.367243133485317 ], [ 403704.781281790463254, 3785833.672431332524866 ], [ 403704.781281790463254, 3785835.808748728595674 ], [ 403704.170905391685665, 3785836.419125127140433 ], [ 403704.170905391685665, 3785836.724313326645643 ], [ 403703.86571719229687, 3785837.029501526150852 ], [ 403703.560528992908075, 3785837.029501526150852 ], [ 403703.255340793461073, 3785837.334689725190401 ], [ 403699.593082400795538, 3785837.334689725190401 ] ] ] } },
{ "type": "Feature", "properties": { "confidence": 0.70582413673400879, "class": 1, "regularized": null }, "geometry": { "type": "Polygon", "coordinates": [ [ [ 403728.280773143458646, 3785838.250254323706031 ], [ 403727.975584944069851, 3785837.945066124200821 ], [ 403727.365208545292262, 3785837.945066124200821 ], [ 403727.060020345903467, 3785837.639877924695611 ], [ 403726.754832146514673, 3785837.639877924695611 ], [ 403726.449643947125878, 3785837.334689725190401 ], [ 403726.144455747737084, 3785837.334689725190401 ], [ 403725.839267548348289, 3785837.029501526150852 ], [ 403725.839267548348289, 3785836.724313326645643 ], [ 403725.534079348959494, 3785836.419125127140433 ], [ 403725.534079348959494, 3785835.503560529090464 ], [ 403725.839267548348289, 3785835.198372329585254 ], [ 403725.839267548348289, 3785834.587995931040496 ], [ 403726.754832146514673, 3785833.672431332524866 ], [ 403727.060020345903467, 3785833.672431332524866 ], [ 403727.365208545292262, 3785833.367243133485317 ], [ 403727.670396744681057, 3785833.367243133485317 ], [ 403728.891149542236235, 3785832.146490335930139 ], [ 403729.19633774162503, 3785832.146490335930139 ], [ 403729.806714140402619, 3785831.536113936919719 ], [ 403730.111902339791413, 3785831.536113936919719 ], [ 403730.417090539180208, 3785831.230925737414509 ], [ 403731.637843336735386, 3785831.230925737414509 ], [ 403731.943031536124181, 3785831.536113936919719 ], [ 403731.943031536124181, 3785831.841302136424929 ], [ 403732.248219735512976, 3785832.146490335930139 ], [ 403732.248219735512976, 3785833.977619532030076 ], [ 403732.55340793490177, 3785834.282807731535286 ], [ 403732.55340793490177, 3785834.587995931040496 ], [ 403732.858596134290565, 3785834.893184130080044 ], [ 403732.858596134290565, 3785836.724313326645643 ], [ 403732.248219735512976, 3785837.334689725190401 ], [ 403731.637843336735386, 3785837.334689725190401 ], [ 403731.332655137346592, 3785837.639877924695611 ], [ 403731.027466937957797, 3785837.639877924695611 ], [ 403730.722278738569003, 3785837.945066124200821 ], [ 403730.111902339791413, 3785837.945066124200821 ], [ 403729.806714140402619, 3785838.250254323706031 ], [ 403728.280773143458646, 3785838.250254323706031 ] ] ] } },
{ "type": "Feature", "properties": { "confidence": 0.69768834114074707, "class": 1, "regularized": null }, "geometry": { "type": "Polygon", "coordinates": [ [ [ 403686.164801627688576, 3785983.825025432277471 ], [ 403685.859613428299781, 3785983.519837232772261 ], [ 403684.944048830133397, 3785983.519837232772261 ], [ 403684.638860630744603, 3785983.214649033732712 ], [ 403684.638860630744603, 3785982.909460834227502 ], [ 403684.333672431355808, 3785982.604272634722292 ], [ 403684.333672431355808, 3785980.467955239117146 ], [ 403684.028484231967013, 3785980.162767039611936 ], [ 403684.028484231967013, 3785978.331637843511999 ], [ 403684.333672431355808, 3785978.026449644006789 ], [ 403684.333672431355808, 3785977.721261444501579 ], [ 403684.638860630744603, 3785977.416073244996369 ], [ 403684.944048830133397, 3785977.416073244996369 ], [ 403685.249237029522192, 3785977.11088504595682 ], [ 403686.46998982707737, 3785977.11088504595682 ], [ 403686.775178026466165, 3785976.80569684645161 ], [ 403688.911495422187727, 3785976.80569684645161 ], [ 403689.216683621576522, 3785977.11088504595682 ], [ 403689.521871820965316, 3785977.11088504595682 ], [ 403689.521871820965316, 3785978.331637843511999 ], [ 403689.827060020354111, 3785978.636826042551547 ], [ 403689.827060020354111, 3785979.857578840106726 ], [ 403689.521871820965316, 3785980.162767039611936 ], [ 403689.521871820965316, 3785980.773143438622355 ], [ 403689.827060020354111, 3785981.078331637661904 ], [ 403689.521871820965316, 3785981.383519837167114 ], [ 403689.521871820965316, 3785982.909460834227502 ], [ 403689.216683621576522, 3785982.909460834227502 ], [ 403688.606307222798932, 3785983.519837232772261 ], [ 403687.690742624632549, 3785983.519837232772261 ], [ 403687.385554425243754, 3785983.825025432277471 ], [ 403686.164801627688576, 3785983.825025432277471 ] ] ] } },
{ "type": "Feature", "properties": { "confidence": 0.69395214319229126, "class": 1, "regularized": "rectangle" }, "geometry": { "type": "Polygon", "coordinates": [ [ [ 403531.375, 3785702.5 ], [ 403541.375, 3785693.0 ], [ 403548.1875, 3785700.0 ], [ 403538.1875, 3785709.5 ], [ 403531.375, 3785702.5 ] ] ] } },
{ "type": "Feature", "properties": { "confidence": 0.67413699626922607, "class": 1, "regularized": null }, "geometry": { "type": "Polygon", "coordinates": [ [ [ 403606.205493387591559, 3785740.895218718331307 ], [ 403605.900305188202765, 3785740.590030518826097 ], [ 403605.59511698881397, 3785740.590030518826097 ], [ 403605.59511698881397, 3785740.284842319320887 ], [ 403605.289928789425176, 3785739.979654119815677 ], [ 403605.289928789425176, 3785735.401831129100174 ], [ 403604.374364191258792, 3785734.486266531050205 ], [ 403604.374364191258792, 3785731.12919633788988 ], [ 403604.069175991869997, 3785730.82400813838467 ], [ 403604.069175991869997, 3785730.21363173937425 ], [ 403604.374364191258792, 3785729.908443540334702 ], [ 403606.510681586980354, 3785729.908443540334702 ], [ 403607.121057985757943, 3785729.298067141324282 ], [ 403607.121057985757943, 3785728.687690742779523 ], [ 403606.815869786369149, 3785728.382502543274313 ], [ 403606.815869786369149, 3785728.077314343769103 ], [ 403608.952187182090711, 3785728.077314343769103 ], [ 403609.257375381479505, 3785728.382502543274313 ], [ 403609.257375381479505, 3785728.687690742779523 ], [ 403608.952187182090711, 3785728.992878941819072 ], [ 403608.952187182090711, 3785729.908443540334702 ], [ 403609.257375381479505, 3785730.21363173937425 ], [ 403609.257375381479505, 3785732.655137334484607 ], [ 403609.5625635808683, 3785732.960325533989817 ], [ 403609.5625635808683, 3785733.570701933000237 ], [ 403609.867751780257095, 3785733.875890132039785 ], [ 403609.867751780257095, 3785734.181078331544995 ], [ 403610.783316378423478, 3785735.096642929594964 ], [ 403610.783316378423478, 3785735.401831129100174 ], [ 403611.088504577812273, 3785735.707019328605384 ], [ 403611.088504577812273, 3785737.538148524705321 ], [ 403610.783316378423478, 3785737.843336724210531 ], [ 403610.783316378423478, 3785738.14852492371574 ], [ 403610.172939979645889, 3785738.758901322260499 ], [ 403610.172939979645889, 3785739.064089521765709 ], [ 403609.5625635808683, 3785739.674465920776129 ], [ 403609.5625635808683, 3785739.979654119815677 ], [ 403609.257375381479505, 3785740.284842319320887 ], [ 403608.952187182090711, 3785740.284842319320887 ], [ 403608.646998982701916, 3785740.590030518826097 ], [ 403608.341810783313122, 3785740.590030518826097 ], [ 403608.036622583924327, 3785740.895218718331307 ], [ 403606.205493387591559, 3785740.895218718331307 ] ] ] } },
{ "type": "Feature", "properties": { "confidence": 0.62749433517456055, "class": 1, "regularized": null }, "geometry": { "type": "Polygon", "coordinates": [ [ [ 403736.5208545269561, 3785612.716174974571913 ], [ 403736.215666327567305, 3785612.410986775066704 ], [ 403735.910478128178511, 3785612.410986775066704 ], [ 403735.300101729400922, 3785611.800610376521945 ], [ 403735.300101729400922, 3785611.495422177016735 ], [ 403734.994913530012127, 3785611.190233977511525 ], [ 403734.689725330623332, 3785611.190233977511525 ], [ 403734.689725330623332, 3785610.885045778006315 ], [ 403734.384537131234538, 3785610.579857578966767 ], [ 403734.384537131234538, 3785609.664292980451137 ], [ 403741.403865717176814, 3785609.664292980451137 ], [ 403741.403865717176814, 3785610.274669379461557 ], [ 403741.098677517788019, 3785610.579857578966767 ], [ 403741.098677517788019, 3785611.190233977511525 ], [ 403740.793489318399224, 3785611.495422177016735 ], [ 403740.48830111901043, 3785611.495422177016735 ], [ 403740.183112919621635, 3785611.800610376521945 ], [ 403739.877924720232841, 3785611.800610376521945 ], [ 403739.572736520844046, 3785612.105798575561494 ], [ 403738.962360122066457, 3785612.105798575561494 ], [ 403738.657171922677662, 3785612.410986775066704 ], [ 403737.741607324511278, 3785612.410986775066704 ], [ 403737.436419125122484, 3785612.716174974571913 ], [ 403736.5208545269561, 3785612.716174974571913 ] ] ] } },
{ "type": "Feature", "properties": { "confidence": 0.59476655721664429, "class": 1, "regularized": null }, "geometry": { "type": "Polygon", "coordinates": [ [ [ 403599.491353001038078, 3785636.826042726170272 ], [ 403599.186164801649284, 3785636.520854527130723 ], [ 403598.575788402871694, 3785636.520854527130723 ], [ 403597.660223804705311, 3785635.605289928615093 ], [ 403597.660223804705311, 3785635.300101729575545 ], [ 403596.744659206538927, 3785634.384537131059915 ], [ 403596.744659206538927, 3785634.079348932020366 ], [ 403596.13428280770313, 3785633.468972533009946 ], [ 403596.13428280770313, 3785633.163784333504736 ], [ 403595.829094608314335, 3785632.858596134465188 ], [ 403595.829094608314335, 3785632.248219735454768 ], [ 403595.523906408925541, 3785631.943031535949558 ], [ 403595.523906408925541, 3785631.332655137404799 ], [ 403595.829094608314335, 3785631.02746693789959 ], [ 403597.965412004094105, 3785631.02746693789959 ], [ 403598.2706002034829, 3785631.332655137404799 ], [ 403598.880976602260489, 3785631.332655137404799 ], [ 403599.186164801649284, 3785631.637843336910009 ], [ 403599.491353001038078, 3785631.637843336910009 ], [ 403599.491353001038078, 3785631.943031535949558 ], [ 403599.796541200426873, 3785632.248219735454768 ], [ 403600.101729399815667, 3785632.248219735454768 ], [ 403600.406917599204462, 3785632.553407934959978 ], [ 403601.017293997982051, 3785632.553407934959978 ], [ 403601.322482197370846, 3785632.858596134465188 ], [ 403602.23804679553723, 3785632.858596134465188 ], [ 403602.23804679553723, 3785633.163784333504736 ], [ 403602.543234994926024, 3785633.468972533009946 ], [ 403602.543234994926024, 3785635.300101729575545 ], [ 403601.62767039675964, 3785636.215666327625513 ], [ 403601.322482197370846, 3785636.215666327625513 ], [ 403601.017293997982051, 3785636.520854527130723 ], [ 403599.796541200426873, 3785636.520854527130723 ], [ 403599.491353001038078, 3785636.826042726170272 ] ] ] } },
{ "type": "Feature", "properties": { "confidence": 0.56111043691635132, "class": 1, "regularized": null }, "geometry": { "type": "Polygon", "coordinates": [ [ [ 403778.331637843337376, 3785848.626653102692217 ], [ 403778.331637843337376, 3785847.100712105631828 ], [ 403778.63682604272617, 3785846.79552390659228 ], [ 403778.63682604272617, 3785845.87995930807665 ], [ 403778.942014242114965, 3785845.574771109037101 ], [ 403778.942014242114965, 3785844.659206510521472 ], [ 403778.63682604272617, 3785844.354018311481923 ], [ 403778.63682604272617, 3785844.048830111976713 ], [ 403782.299084435391705, 3785844.048830111976713 ], [ 403782.299084435391705, 3785844.964394710026681 ], [ 403781.993896236002911, 3785845.269582909531891 ], [ 403781.993896236002911, 3785846.49033570708707 ], [ 403781.688708036614116, 3785846.79552390659228 ], [ 403781.688708036614116, 3785847.100712105631828 ], [ 403781.383519837225322, 3785847.405900305137038 ], [ 403781.383519837225322, 3785847.711088504642248 ], [ 403780.773143438447732, 3785848.321464903187007 ], [ 403780.467955239058938, 3785848.321464903187007 ], [ 403780.162767039670143, 3785848.626653102692217 ], [ 403778.331637843337376, 3785848.626653102692217 ] ] ] } },
{ "type": "Feature", "properties": { "confidence": 0.55379277467727661, "class": 1, "regularized": null }, "geometry": { "type": "Polygon", "coordinates": [ [ [ 403704.781281790463254, 3785849.542217700742185 ], [ 403704.170905391685665, 3785848.931841302197427 ], [ 403703.86571719229687, 3785848.931841302197427 ], [ 403703.560528992908075, 3785848.626653102692217 ], [ 403703.255340793461073, 3785848.626653102692217 ], [ 403702.950152594072279, 3785848.321464903187007 ], [ 403702.950152594072279, 3785848.016276704147458 ], [ 403702.644964394683484, 3785847.711088504642248 ], [ 403702.644964394683484, 3785847.405900305137038 ], [ 403702.034587995905895, 3785846.79552390659228 ], [ 403702.034587995905895, 3785846.18514750758186 ], [ 403701.7293997965171, 3785845.87995930807665 ], [ 403701.7293997965171, 3785845.574771109037101 ], [ 403701.424211597128306, 3785845.269582909531891 ], [ 403701.424211597128306, 3785844.048830111976713 ], [ 403707.527975584962405, 3785844.048830111976713 ], [ 403707.527975584962405, 3785849.542217700742185 ], [ 403704.781281790463254, 3785849.542217700742185 ] ] ] } },
{ "type": "Feature", "properties": { "confidence": 0.53267335891723633, "class": 1, "regularized": null }, "geometry": { "type": "Polygon", "coordinates": [ [ [ 403693.184130213630851, 3785991.149542217608541 ], [ 403692.878942014242057, 3785990.844354018103331 ], [ 403691.963377416075673, 3785990.844354018103331 ], [ 403691.047812817909289, 3785989.928789420053363 ], [ 403691.047812817909289, 3785989.318413021508604 ], [ 403690.742624618520495, 3785989.013224822003394 ], [ 403690.742624618520495, 3785988.402848422992975 ], [ 403690.132248219742905, 3785987.792472024448216 ], [ 403690.132248219742905, 3785987.182095625437796 ], [ 403689.827060020354111, 3785986.876907426398247 ], [ 403689.827060020354111, 3785985.045778229832649 ], [ 403690.4374364191317, 3785984.435401831287891 ], [ 403690.742624618520495, 3785984.435401831287891 ], [ 403692.268565615464468, 3785982.909460834227502 ], [ 403693.184130213630851, 3785982.909460834227502 ], [ 403693.489318413019646, 3785982.604272634722292 ], [ 403694.099694811797235, 3785982.604272634722292 ], [ 403694.40488301118603, 3785982.299084435217083 ], [ 403694.710071210574824, 3785982.299084435217083 ], [ 403695.625635808741208, 3785983.214649033732712 ], [ 403695.625635808741208, 3785985.045778229832649 ], [ 403695.930824008130003, 3785985.350966429337859 ], [ 403696.236012207518797, 3785985.350966429337859 ], [ 403696.236012207518797, 3785986.266531027387828 ], [ 403696.846388606296387, 3785986.876907426398247 ], [ 403696.846388606296387, 3785987.487283824943006 ], [ 403697.151576805685181, 3785987.792472024448216 ], [ 403697.151576805685181, 3785989.623601220548153 ], [ 403695.930824008130003, 3785990.844354018103331 ], [ 403695.320447609352414, 3785990.844354018103331 ], [ 403695.015259409963619, 3785991.149542217608541 ], [ 403693.184130213630851, 3785991.149542217608541 ] ] ] } },
{ "type": "Feature", "properties": { "confidence": 0.48290574550628662, "class": 1, "regularized": null }, "geometry": { "type": "Polygon", "coordinates": [ [ [ 403514.649033570720349, 3785847.100712105631828 ], [ 403514.038657171942759, 3785846.49033570708707 ], [ 403514.038657171942759, 3785846.18514750758186 ], [ 403513.733468972553965, 3785845.87995930807665 ], [ 403513.733468972553965, 3785845.269582909531891 ], [ 403513.42828077316517, 3785844.964394710026681 ], [ 403513.42828077316517, 3785844.048830111976713 ], [ 403517.090539165830705, 3785844.048830111976713 ], [ 403517.090539165830705, 3785845.574771109037101 ], [ 403516.785350966441911, 3785845.87995930807665 ], [ 403516.785350966441911, 3785846.18514750758186 ], [ 403516.480162767053116, 3785846.49033570708707 ], [ 403516.480162767053116, 3785846.79552390659228 ], [ 403516.174974567664322, 3785847.100712105631828 ], [ 403514.649033570720349, 3785847.100712105631828 ] ] ] } },
{ "type": "Feature", "properties": { "confidence": 0.44404372572898865, "class": 1, "regularized": null }, "geometry": { "type": "Polygon", "coordinates": [ [ [ 403436.5208545269561, 3785642.624618514906615 ], [ 403436.5208545269561, 3785642.319430315401405 ], [ 403436.215666327567305, 3785642.014242115896195 ], [ 403435.605289928789716, 3785642.014242115896195 ], [ 403435.605289928789716, 3785640.183112919796258 ], [ 403435.300101729400922, 3785639.877924720291048 ], [ 403435.605289928789716, 3785639.572736520785838 ], [ 403435.605289928789716, 3785638.96236012224108 ], [ 403435.300101729400922, 3785638.65717192273587 ], [ 403435.300101729400922, 3785634.689725330565125 ], [ 403435.605289928789716, 3785634.384537131059915 ], [ 403435.605289928789716, 3785631.637843336910009 ], [ 403436.5208545269561, 3785630.72227873839438 ], [ 403436.826042726344895, 3785631.02746693789959 ], [ 403438.351983723288868, 3785631.02746693789959 ], [ 403438.962360122066457, 3785631.637843336910009 ], [ 403439.267548321455251, 3785631.637843336910009 ], [ 403439.267548321455251, 3785631.943031535949558 ], [ 403439.877924720232841, 3785632.553407934959978 ], [ 403439.877924720232841, 3785633.163784333504736 ], [ 403440.183112919621635, 3785633.468972533009946 ], [ 403440.183112919621635, 3785633.774160732515156 ], [ 403440.48830111901043, 3785634.079348932020366 ], [ 403440.48830111901043, 3785634.994913530070335 ], [ 403440.793489318399224, 3785635.300101729575545 ], [ 403440.793489318399224, 3785636.215666327625513 ], [ 403441.098677517788019, 3785636.520854527130723 ], [ 403441.098677517788019, 3785636.826042726170272 ], [ 403440.793489318399224, 3785637.131230925675482 ], [ 403440.793489318399224, 3785638.35198372323066 ], [ 403440.48830111901043, 3785638.65717192273587 ], [ 403440.48830111901043, 3785639.267548321280628 ], [ 403439.877924720232841, 3785639.877924720291048 ], [ 403439.877924720232841, 3785640.488301118835807 ], [ 403439.572736520844046, 3785640.793489318341017 ], [ 403439.572736520844046, 3785641.098677517846227 ], [ 403439.267548321455251, 3785641.403865717351437 ], [ 403439.267548321455251, 3785641.709053916390985 ], [ 403438.657171922677662, 3785642.319430315401405 ], [ 403438.351983723288868, 3785642.319430315401405 ], [ 403438.046795523900073, 3785642.624618514906615 ], [ 403436.5208545269561, 3785642.624618514906615 ] ] ] } },
{ "type": "Feature", "properties": { "confidence": 0.42280369997024536, "class": 1, "regularized": null }, "geometry": { "type": "Polygon", "coordinates": [ [ [ 403470.701932858617511, 3785811.698880976531655 ], [ 403470.701932858617511, 3785810.783316378481686 ], [ 403471.007121058006305, 3785810.478128178976476 ], [ 403471.007121058006305, 3785809.257375381421298 ], [ 403472.227873855561484, 3785808.036622583866119 ], [ 403472.227873855561484, 3785807.731434384360909 ], [ 403472.533062054950278, 3785807.731434384360909 ], [ 403472.838250254339073, 3785808.036622583866119 ], [ 403473.753814852505457, 3785808.036622583866119 ], [ 403474.059003051894251, 3785808.341810783371329 ], [ 403474.364191251283046, 3785808.341810783371329 ], [ 403474.66937945067184, 3785808.646998982876539 ], [ 403474.66937945067184, 3785809.562563580926508 ], [ 403474.364191251283046, 3785809.867751780431718 ], [ 403474.364191251283046, 3785810.783316378481686 ], [ 403473.753814852505457, 3785811.393692777026445 ], [ 403473.143438453727867, 3785811.393692777026445 ], [ 403472.838250254339073, 3785811.698880976531655 ], [ 403470.701932858617511, 3785811.698880976531655 ] ] ] } },
{ "type": "Feature", "properties": { "confidence": 0.42206376791000366, "class": 1, "regularized": null }, "geometry": { "type": "Polygon", "coordinates": [ [ [ 403608.341810783313122, 3785812.004069176036865 ], [ 403607.426246185146738, 3785811.088504577986896 ], [ 403607.426246185146738, 3785810.783316378481686 ], [ 403606.815869786369149, 3785810.172939979471266 ], [ 403606.815869786369149, 3785808.036622583866119 ], [ 403606.510681586980354, 3785807.731434384360909 ], [ 403606.510681586980354, 3785805.595116988755763 ], [ 403606.815869786369149, 3785805.289928789250553 ], [ 403606.815869786369149, 3785804.374364191200584 ], [ 403607.121057985757943, 3785804.069175991695374 ], [ 403607.121057985757943, 3785803.458799593150616 ], [ 403608.341810783313122, 3785802.238046795595437 ], [ 403608.646998982701916, 3785802.238046795595437 ], [ 403609.5625635808683, 3785801.322482197545469 ], [ 403609.867751780257095, 3785801.322482197545469 ], [ 403610.172939979645889, 3785801.017293998040259 ], [ 403610.172939979645889, 3785800.712105798535049 ], [ 403610.478128179034684, 3785800.712105798535049 ], [ 403610.783316378423478, 3785800.406917599029839 ], [ 403612.004069175978657, 3785800.406917599029839 ], [ 403612.309257375367451, 3785800.712105798535049 ], [ 403612.309257375367451, 3785801.322482197545469 ], [ 403612.614445574756246, 3785801.627670396585017 ], [ 403612.614445574756246, 3785802.238046795595437 ], [ 403612.919633774145041, 3785802.543234995100647 ], [ 403612.919633774145041, 3785802.848423194140196 ], [ 403613.53001017292263, 3785803.458799593150616 ], [ 403613.53001017292263, 3785803.763987792655826 ], [ 403614.140386571700219, 3785804.374364191200584 ], [ 403614.140386571700219, 3785804.679552390705794 ], [ 403614.445574771089014, 3785804.984740590211004 ], [ 403614.445574771089014, 3785810.783316378481686 ], [ 403614.140386571700219, 3785811.088504577986896 ], [ 403613.835198372311424, 3785811.088504577986896 ], [ 403613.53001017292263, 3785811.393692777026445 ], [ 403613.224821973533835, 3785811.393692777026445 ], [ 403612.919633774145041, 3785811.698880976531655 ], [ 403611.393692777201068, 3785811.698880976531655 ], [ 403611.088504577812273, 3785812.004069176036865 ], [ 403608.341810783313122, 3785812.004069176036865 ] ] ] } },
{ "type": "Feature", "properties": { "confidence": 0.37509241700172424, "class": 1, "regularized": null }, "geometry": { "type": "Polygon", "coordinates": [ [ [ 403527.466937945049722, 3785497.965412003919482 ], [ 403527.161749745660927, 3785497.660223804879934 ], [ 403526.856561546272133, 3785497.660223804879934 ], [ 403526.551373346883338, 3785497.355035605374724 ], [ 403526.551373346883338, 3785495.218718209769577 ], [ 403526.856561546272133, 3785495.218718209769577 ], [ 403527.161749745660927, 3785494.913530010264367 ], [ 403527.772126144438516, 3785494.913530010264367 ], [ 403528.077314343827311, 3785494.608341810759157 ], [ 403528.6876907426049, 3785494.608341810759157 ], [ 403528.992878941993695, 3785494.303153611253947 ], [ 403529.603255340771284, 3785494.303153611253947 ], [ 403529.603255340771284, 3785494.913530010264367 ], [ 403529.908443540160079, 3785495.218718209769577 ], [ 403529.908443540160079, 3785495.523906408809125 ], [ 403530.213631739548873, 3785495.829094608314335 ], [ 403530.213631739548873, 3785496.439471007324755 ], [ 403529.908443540160079, 3785496.744659206364304 ], [ 403529.908443540160079, 3785497.049847405869514 ], [ 403528.992878941993695, 3785497.965412003919482 ], [ 403527.466937945049722, 3785497.965412003919482 ] ] ] } },
{ "type": "Feature", "properties": { "confidence": 0.34398254752159119, "class": 1, "regularized": null }, "geometry": { "type": "Polygon", "coordinates": [ [ [ 403736.5208545269561, 3785737.538148524705321 ], [ 403736.215666327567305, 3785737.232960325665772 ], [ 403735.910478128178511, 3785737.232960325665772 ], [ 403735.605289928789716, 3785736.927772126160562 ], [ 403735.300101729400922, 3785736.927772126160562 ], [ 403734.994913530012127, 3785736.622583926655352 ], [ 403734.689725330623332, 3785736.622583926655352 ], [ 403734.384537131234538, 3785736.317395727150142 ], [ 403734.384537131234538, 3785736.012207528110594 ], [ 403734.079348931845743, 3785735.707019328605384 ], [ 403734.079348931845743, 3785732.349949135445058 ], [ 403734.384537131234538, 3785732.044760935939848 ], [ 403734.384537131234538, 3785731.434384536929429 ], [ 403734.689725330623332, 3785731.12919633788988 ], [ 403734.689725330623332, 3785729.908443540334702 ], [ 403734.384537131234538, 3785729.603255340829492 ], [ 403735.300101729400922, 3785728.687690742779523 ], [ 403735.605289928789716, 3785728.687690742779523 ], [ 403736.215666327567305, 3785729.298067141324282 ], [ 403738.046795523900073, 3785729.298067141324282 ], [ 403738.351983723288868, 3785728.992878941819072 ], [ 403738.657171922677662, 3785728.992878941819072 ], [ 403738.962360122066457, 3785728.687690742779523 ], [ 403739.267548321455251, 3785728.687690742779523 ], [ 403739.572736520844046, 3785728.382502543274313 ], [ 403740.183112919621635, 3785728.992878941819072 ], [ 403740.183112919621635, 3785729.298067141324282 ], [ 403740.48830111901043, 3785729.603255340829492 ], [ 403740.48830111901043, 3785729.908443540334702 ], [ 403740.793489318399224, 3785730.21363173937425 ], [ 403740.793489318399224, 3785732.655137334484607 ], [ 403740.48830111901043, 3785732.960325533989817 ], [ 403740.48830111901043, 3785734.486266531050205 ], [ 403740.183112919621635, 3785734.791454730555415 ], [ 403740.183112919621635, 3785735.401831129100174 ], [ 403739.267548321455251, 3785736.317395727150142 ], [ 403739.267548321455251, 3785736.622583926655352 ], [ 403738.962360122066457, 3785736.622583926655352 ], [ 403738.657171922677662, 3785736.927772126160562 ], [ 403738.351983723288868, 3785736.927772126160562 ], [ 403737.741607324511278, 3785737.538148524705321 ], [ 403736.5208545269561, 3785737.538148524705321 ] ] ] } },
{ "type": "Feature", "properties": { "confidence": 0.33447763323783875, "class": 1, "regularized": null }, "geometry": { "type": "Polygon", "coordinates": [ [ [ 403537.843336724326946, 3785502.543234995100647 ], [ 403537.538148524938151, 3785502.238046795595437 ], [ 403536.622583926771767, 3785502.238046795595437 ], [ 403535.096642929827794, 3785500.712105798535049 ], [ 403535.096642929827794, 3785499.491353000979871 ], [ 403534.791454730439, 3785499.186164801474661 ], [ 403534.791454730439, 3785498.270600203424692 ], [ 403534.486266531050205, 3785497.965412003919482 ], [ 403534.486266531050205, 3785497.355035605374724 ], [ 403534.181078331661411, 3785497.049847405869514 ], [ 403534.181078331661411, 3785494.608341810759157 ], [ 403533.875890132272616, 3785494.303153611253947 ], [ 403533.875890132272616, 3785493.387589013203979 ], [ 403534.486266531050205, 3785493.387589013203979 ], [ 403534.791454730439, 3785493.082400813698769 ], [ 403536.927772126160562, 3785493.082400813698769 ], [ 403537.232960325549357, 3785493.387589013203979 ], [ 403538.14852492371574, 3785493.387589013203979 ], [ 403538.453713123104535, 3785493.692777212709188 ], [ 403538.453713123104535, 3785494.303153611253947 ], [ 403539.064089521882124, 3785494.913530010264367 ], [ 403539.064089521882124, 3785495.218718209769577 ], [ 403539.369277721270919, 3785495.523906408809125 ], [ 403539.369277721270919, 3785495.829094608314335 ], [ 403539.979654120048508, 3785496.439471007324755 ], [ 403539.979654120048508, 3785496.744659206364304 ], [ 403540.284842319437303, 3785497.049847405869514 ], [ 403540.284842319437303, 3785498.575788402929902 ], [ 403540.590030518826097, 3785498.880976602435112 ], [ 403540.590030518826097, 3785500.10172939999029 ], [ 403540.895218718214892, 3785500.406917599029839 ], [ 403540.895218718214892, 3785501.322482197545469 ], [ 403540.590030518826097, 3785501.627670396585017 ], [ 403540.590030518826097, 3785501.932858596090227 ], [ 403540.284842319437303, 3785502.238046795595437 ], [ 403539.979654120048508, 3785502.238046795595437 ], [ 403539.674465920659713, 3785502.543234995100647 ], [ 403537.843336724326946, 3785502.543234995100647 ] ] ] } },
{ "type": "Feature", "properties": { "confidence": 0.31982561945915222, "class": 1, "regularized": null }, "geometry": { "type": "Polygon", "coordinates": [ [ [ 403589.114954221760854, 3785617.599186164792627 ], [ 403588.80976602237206, 3785617.293997965287417 ], [ 403588.504577822983265, 3785617.293997965287417 ], [ 403588.504577822983265, 3785616.683621566742659 ], [ 403588.19938962359447, 3785616.378433367237449 ], [ 403588.19938962359447, 3785613.021363174077123 ], [ 403587.894201424205676, 3785612.716174974571913 ], [ 403587.894201424205676, 3785612.410986775066704 ], [ 403587.589013224816881, 3785612.105798575561494 ], [ 403587.589013224816881, 3785611.190233977511525 ], [ 403587.283825025428087, 3785610.885045778006315 ], [ 403587.283825025428087, 3785610.579857578966767 ], [ 403586.978636826039292, 3785610.274669379461557 ], [ 403587.283825025428087, 3785609.969481179956347 ], [ 403587.283825025428087, 3785609.664292980451137 ], [ 403593.082400813815184, 3785609.664292980451137 ], [ 403593.082400813815184, 3785612.105798575561494 ], [ 403593.387589013203979, 3785612.410986775066704 ], [ 403593.387589013203979, 3785613.326551373116672 ], [ 403593.692777212592773, 3785613.631739572621882 ], [ 403593.692777212592773, 3785614.547304171137512 ], [ 403593.997965411981568, 3785614.85249237017706 ], [ 403593.997965411981568, 3785615.46286876918748 ], [ 403593.692777212592773, 3785615.76805696869269 ], [ 403593.692777212592773, 3785616.378433367237449 ], [ 403593.387589013203979, 3785616.378433367237449 ], [ 403592.472024415037595, 3785617.293997965287417 ], [ 403592.1668362156488, 3785617.293997965287417 ], [ 403591.861648016260006, 3785617.599186164792627 ], [ 403589.114954221760854, 3785617.599186164792627 ] ] ] } },
{ "type": "Feature", "properties": { "confidence": 0.30826333165168762, "class": 1, "regularized": null }, "geometry": { "type": "Polygon", "coordinates": [ [ [ 403449.94913530012127, 3785671.617497456725687 ], [ 403449.338758901343681, 3785671.007121058180928 ], [ 403449.033570701954886, 3785671.007121058180928 ], [ 403449.033570701954886, 3785669.48118006112054 ], [ 403449.338758901343681, 3785669.17599186161533 ], [ 403449.338758901343681, 3785668.565615463070571 ], [ 403449.643947100732476, 3785668.260427263565361 ], [ 403449.643947100732476, 3785667.955239064060152 ], [ 403451.475076297065243, 3785666.124109867960215 ], [ 403451.780264496454038, 3785666.124109867960215 ], [ 403452.085452695842832, 3785665.818921668455005 ], [ 403453.9165818921756, 3785665.818921668455005 ], [ 403454.221770091564395, 3785666.124109867960215 ], [ 403455.442522889119573, 3785666.124109867960215 ], [ 403456.052899287897162, 3785666.734486266504973 ], [ 403456.358087487285957, 3785666.734486266504973 ], [ 403456.968463886063546, 3785667.344862665515393 ], [ 403456.968463886063546, 3785670.396744659170508 ], [ 403456.663275686674751, 3785670.701932858675718 ], [ 403456.358087487285957, 3785670.701932858675718 ], [ 403456.052899287897162, 3785671.007121058180928 ], [ 403455.137334689730778, 3785671.007121058180928 ], [ 403454.832146490341984, 3785671.312309257220477 ], [ 403454.526958290953189, 3785671.312309257220477 ], [ 403454.221770091564395, 3785671.007121058180928 ], [ 403451.780264496454038, 3785671.007121058180928 ], [ 403451.475076297065243, 3785671.312309257220477 ], [ 403450.864699898287654, 3785671.312309257220477 ], [ 403450.559511698898859, 3785671.617497456725687 ], [ 403449.94913530012127, 3785671.617497456725687 ] ] ] } },
{ "type": "Feature", "properties": { "confidence": 0.30330967903137207, "class": 1, "regularized": null }, "geometry": { "type": "Polygon", "coordinates": [ [ [ 403575.991861648042686, 3785522.38046795502305 ], [ 403575.686673448653892, 3785522.075279755983502 ], [ 403574.160732451651711, 3785522.075279755983502 ], [ 403574.160732451651711, 3785521.464903356973082 ], [ 403573.855544252262916, 3785521.159715157467872 ], [ 403573.855544252262916, 3785520.549338758923113 ], [ 403573.550356052874122, 3785520.244150559417903 ], [ 403573.550356052874122, 3785519.328585961367935 ], [ 403573.245167853485327, 3785519.023397761862725 ], [ 403573.245167853485327, 3785518.718209562357515 ], [ 403572.939979654096533, 3785518.413021363317966 ], [ 403572.939979654096533, 3785518.107833163812757 ], [ 403572.634791454707738, 3785517.802644964307547 ], [ 403572.634791454707738, 3785517.192268565762788 ], [ 403572.329603255318943, 3785516.887080366257578 ], [ 403572.329603255318943, 3785514.750762970652431 ], [ 403577.517802644986659, 3785514.750762970652431 ], [ 403577.822990844375454, 3785515.05595116969198 ], [ 403578.128179043764248, 3785515.05595116969198 ], [ 403578.433367243153043, 3785515.36113936919719 ], [ 403578.738555442541838, 3785515.36113936919719 ], [ 403579.043743641930632, 3785515.6663275687024 ], [ 403579.348931841319427, 3785515.6663275687024 ], [ 403579.959308240097016, 3785516.276703967247158 ], [ 403580.264496439485811, 3785516.276703967247158 ], [ 403580.569684638874605, 3785516.581892166752368 ], [ 403580.569684638874605, 3785516.887080366257578 ], [ 403580.8748728382634, 3785517.192268565762788 ], [ 403581.180061037652194, 3785517.192268565762788 ], [ 403581.790437436429784, 3785517.802644964307547 ], [ 403581.790437436429784, 3785518.413021363317966 ], [ 403582.095625635818578, 3785518.718209562357515 ], [ 403582.095625635818578, 3785519.938962359912694 ], [ 403581.790437436429784, 3785520.244150559417903 ], [ 403581.790437436429784, 3785520.549338758923113 ], [ 403581.180061037652194, 3785520.549338758923113 ], [ 403580.8748728382634, 3785520.854526958428323 ], [ 403580.569684638874605, 3785520.854526958428323 ], [ 403580.264496439485811, 3785521.159715157467872 ], [ 403579.959308240097016, 3785521.159715157467872 ], [ 403579.654120040708221, 3785521.464903356973082 ], [ 403579.348931841319427, 3785521.464903356973082 ], [ 403579.043743641930632, 3785521.770091556478292 ], [ 403578.738555442541838, 3785521.770091556478292 ], [ 403578.433367243153043, 3785522.075279755983502 ], [ 403577.822990844375454, 3785522.075279755983502 ], [ 403577.517802644986659, 3785522.38046795502305 ], [ 403575.991861648042686, 3785522.38046795502305 ] ] ] } },
{ "type": "Feature", "properties": { "confidence": 0.29497292637825012, "class": 1, "regularized": null }, "geometry": { "type": "Polygon", "coordinates": [ [ [ 403739.267548321455251, 3785879.450661241076887 ], [ 403738.962360122066457, 3785879.145473041571677 ], [ 403738.962360122066457, 3785877.00915564596653 ], [ 403739.267548321455251, 3785876.70396744646132 ], [ 403739.267548321455251, 3785873.041709053795785 ], [ 403738.962360122066457, 3785872.736520854756236 ], [ 403739.267548321455251, 3785872.431332655251026 ], [ 403739.267548321455251, 3785870.295015259180218 ], [ 403739.572736520844046, 3785869.989827060140669 ], [ 403739.572736520844046, 3785869.07426246162504 ], [ 403739.877924720232841, 3785868.769074262585491 ], [ 403739.877924720232841, 3785867.853509664069861 ], [ 403740.183112919621635, 3785867.548321465030313 ], [ 403742.624618514731992, 3785867.548321465030313 ], [ 403743.234994913509581, 3785868.158697863575071 ], [ 403743.234994913509581, 3785868.463886063080281 ], [ 403743.540183112898376, 3785868.769074262585491 ], [ 403743.540183112898376, 3785869.989827060140669 ], [ 403743.234994913509581, 3785870.295015259180218 ], [ 403743.234994913509581, 3785871.210579857695848 ], [ 403742.929806714120787, 3785871.515768057201058 ], [ 403742.929806714120787, 3785872.736520854756236 ], [ 403742.624618514731992, 3785873.041709053795785 ], [ 403742.624618514731992, 3785874.872838250361383 ], [ 403742.319430315343197, 3785875.178026449866593 ], [ 403742.319430315343197, 3785876.70396744646132 ], [ 403742.014242115954403, 3785877.00915564596653 ], [ 403742.014242115954403, 3785877.31434384547174 ], [ 403741.709053916565608, 3785877.61953204497695 ], [ 403741.403865717176814, 3785877.61953204497695 ], [ 403740.793489318399224, 3785878.229908443521708 ], [ 403740.793489318399224, 3785878.535096643026918 ], [ 403740.183112919621635, 3785879.145473041571677 ], [ 403740.183112919621635, 3785879.450661241076887 ], [ 403739.267548321455251, 3785879.450661241076887 ] ] ] } },
{ "type": "Feature", "properties": { "confidence": 0.28276801109313965, "class": 1, "regularized": null }, "geometry": { "type": "Polygon", "coordinates": [ [ [ 403519.532044760941062, 3785503.153611393645406 ], [ 403518.921668362163473, 3785502.543234995100647 ], [ 403517.700915564608295, 3785502.543234995100647 ], [ 403517.3957273652195, 3785502.238046795595437 ], [ 403516.480162767053116, 3785502.238046795595437 ], [ 403516.174974567664322, 3785501.932858596090227 ], [ 403515.869786368275527, 3785501.932858596090227 ], [ 403515.259409969497938, 3785501.322482197545469 ], [ 403515.259409969497938, 3785501.017293998040259 ], [ 403514.954221770109143, 3785500.712105798535049 ], [ 403514.954221770109143, 3785499.79654120048508 ], [ 403514.649033570720349, 3785499.491353000979871 ], [ 403514.954221770109143, 3785499.186164801474661 ], [ 403514.954221770109143, 3785497.965412003919482 ], [ 403515.259409969497938, 3785497.660223804879934 ], [ 403515.259409969497938, 3785493.997965412214398 ], [ 403514.954221770109143, 3785493.692777212709188 ], [ 403515.259409969497938, 3785493.692777212709188 ], [ 403515.564598168886732, 3785493.387589013203979 ], [ 403518.311291963385884, 3785493.387589013203979 ], [ 403518.616480162774678, 3785493.082400813698769 ], [ 403519.532044760941062, 3785493.082400813698769 ], [ 403519.837232960329857, 3785493.387589013203979 ], [ 403521.057985757885035, 3785493.387589013203979 ], [ 403521.057985757885035, 3785494.608341810759157 ], [ 403522.278738555440214, 3785495.829094608314335 ], [ 403522.583926754829008, 3785495.829094608314335 ], [ 403523.194303153606597, 3785496.439471007324755 ], [ 403523.499491352995392, 3785496.439471007324755 ], [ 403523.804679552384187, 3785496.744659206364304 ], [ 403523.804679552384187, 3785497.355035605374724 ], [ 403524.109867751772981, 3785497.660223804879934 ], [ 403524.109867751772981, 3785501.627670396585017 ], [ 403523.804679552384187, 3785501.932858596090227 ], [ 403523.499491352995392, 3785501.932858596090227 ], [ 403523.194303153606597, 3785502.238046795595437 ], [ 403522.583926754829008, 3785502.238046795595437 ], [ 403521.973550356051419, 3785502.848423194140196 ], [ 403521.668362156662624, 3785502.848423194140196 ], [ 403521.36317395727383, 3785503.153611393645406 ], [ 403519.532044760941062, 3785503.153611393645406 ] ] ] } },
{ "type": "Feature", "properties": { "confidence": 0.2719111442565918, "class": 1, "regularized": null }, "geometry": { "type": "Polygon", "coordinates": [ [ [ 403553.102746693766676, 3785764.699898270424455 ], [ 403553.102746693766676, 3785764.394710071384907 ], [ 403552.797558494377881, 3785764.089521871879697 ], [ 403552.797558494377881, 3785763.479145472869277 ], [ 403552.492370294989087, 3785763.173957273829728 ], [ 403552.492370294989087, 3785762.563580874819309 ], [ 403552.797558494377881, 3785762.258392675314099 ], [ 403552.797558494377881, 3785761.34282807726413 ], [ 403553.102746693766676, 3785761.03763987775892 ], [ 403553.102746693766676, 3785760.732451678719372 ], [ 403553.40793489315547, 3785760.427263479214162 ], [ 403553.40793489315547, 3785759.816887080203742 ], [ 403553.713123092602473, 3785759.511698881164193 ], [ 403553.713123092602473, 3785758.901322482153773 ], [ 403554.018311291991267, 3785758.596134282648563 ], [ 403554.018311291991267, 3785757.070193286053836 ], [ 403554.628687690768857, 3785756.459816887043417 ], [ 403554.628687690768857, 3785756.154628687538207 ], [ 403555.239064089546446, 3785755.544252288993448 ], [ 403555.239064089546446, 3785755.239064089488238 ], [ 403555.54425228893524, 3785755.239064089488238 ], [ 403555.849440488324035, 3785754.933875889983028 ], [ 403556.765005086490419, 3785754.933875889983028 ], [ 403557.070193285879213, 3785754.62868769094348 ], [ 403557.375381485268008, 3785754.933875889983028 ], [ 403557.985757884045597, 3785754.933875889983028 ], [ 403558.290946083434392, 3785755.239064089488238 ], [ 403558.290946083434392, 3785757.680569684598595 ], [ 403558.596134282823186, 3785757.985757884103805 ], [ 403558.596134282823186, 3785758.901322482153773 ], [ 403558.901322482211981, 3785759.206510681658983 ], [ 403558.596134282823186, 3785759.511698881164193 ], [ 403558.596134282823186, 3785760.122075279708952 ], [ 403558.290946083434392, 3785760.427263479214162 ], [ 403557.985757884045597, 3785760.427263479214162 ], [ 403557.375381485268008, 3785761.03763987775892 ], [ 403557.375381485268008, 3785761.34282807726413 ], [ 403554.933875890157651, 3785763.784333672374487 ], [ 403554.628687690768857, 3785763.784333672374487 ], [ 403554.323499491380062, 3785764.089521871879697 ], [ 403554.323499491380062, 3785764.394710071384907 ], [ 403554.018311291991267, 3785764.394710071384907 ], [ 403553.713123092602473, 3785764.699898270424455 ], [ 403553.102746693766676, 3785764.699898270424455 ] ] ] } },
{ "type": "Feature", "properties": { "confidence": 0.26986375451087952, "class": 1, "regularized": null }, "geometry": { "type": "Polygon", "coordinates": [ [ [ 403436.215666327567305, 3785693.285859613213688 ], [ 403435.910478128178511, 3785692.980671414174139 ], [ 403435.910478128178511, 3785692.06510681565851 ], [ 403436.215666327567305, 3785691.759918616618961 ], [ 403436.215666327567305, 3785691.149542217608541 ], [ 403437.131230925733689, 3785690.233977619558573 ], [ 403437.436419125122484, 3785690.233977619558573 ], [ 403437.741607324511278, 3785689.928789420053363 ], [ 403438.351983723288868, 3785689.928789420053363 ], [ 403438.657171922677662, 3785689.623601220548153 ], [ 403439.267548321455251, 3785689.623601220548153 ], [ 403439.877924720232841, 3785690.233977619558573 ], [ 403439.877924720232841, 3785690.844354018103331 ], [ 403439.267548321455251, 3785691.454730417113751 ], [ 403439.267548321455251, 3785691.759918616618961 ], [ 403438.046795523900073, 3785692.980671414174139 ], [ 403437.741607324511278, 3785692.980671414174139 ], [ 403437.436419125122484, 3785693.285859613213688 ], [ 403436.215666327567305, 3785693.285859613213688 ] ] ] } },
{ "type": "Feature", "properties": { "confidence": 0.26636335253715515, "class": 1, "regularized": null }, "geometry": { "type": "Polygon", "coordinates": [ [ [ 403444.150559511675965, 3785702.441505595110357 ], [ 403443.234994913509581, 3785701.525940997060388 ], [ 403443.234994913509581, 3785700.30518819950521 ], [ 403444.150559511675965, 3785699.38962360098958 ], [ 403444.150559511675965, 3785699.084435401950032 ], [ 403445.066124109842349, 3785698.168870803434402 ], [ 403445.371312309231143, 3785698.168870803434402 ], [ 403445.676500508619938, 3785697.863682604394853 ], [ 403447.202441505622119, 3785697.863682604394853 ], [ 403447.507629705010913, 3785697.558494404889643 ], [ 403448.423194303177297, 3785697.558494404889643 ], [ 403448.728382502566092, 3785697.863682604394853 ], [ 403449.338758901343681, 3785697.863682604394853 ], [ 403449.643947100732476, 3785698.168870803434402 ], [ 403449.643947100732476, 3785698.779247202444822 ], [ 403449.338758901343681, 3785699.084435401950032 ], [ 403449.338758901343681, 3785699.69481180049479 ], [ 403449.033570701954886, 3785700.0 ], [ 403449.033570701954886, 3785700.30518819950521 ], [ 403448.728382502566092, 3785700.30518819950521 ], [ 403447.507629705010913, 3785701.525940997060388 ], [ 403447.202441505622119, 3785701.525940997060388 ], [ 403446.897253306233324, 3785701.831129196565598 ], [ 403446.286876907397527, 3785701.831129196565598 ], [ 403445.981688708008733, 3785702.136317395605147 ], [ 403445.676500508619938, 3785702.136317395605147 ], [ 403445.371312309231143, 3785702.441505595110357 ], [ 403444.150559511675965, 3785702.441505595110357 ] ] ] } }
]
}
