{
"type": "FeatureCollection",
"name": "cell_00129_pre",
"crs": { "type": "name", "properties": { "name": "urn:ogc:def:crs:EPSG::32611" } },
"features": [
{ "type": "Feature", "properties": { "confidence": 0.89302575588226318, "class": 1 }, "geometry": { "type": "Polygon", "coordinates": [ [ [ 353595.015259409963619, 3773496.439471007324755 ], [ 353595.015259409963619, 3773496.134282807819545 ], [ 353594.710071210574824, 3773495.829094608314335 ], [ 353594.710071210574824, 3773492.47202441515401 ], [ 353598.982706002017949, 3773492.47202441515401 ], [ 353598.982706002017949, 3773492.77721261465922 ], [ 353598.677517802629154, 3773493.082400813698769 ], [ 353598.677517802629154, 3773493.997965412214398 ], [ 353598.37232960324036, 3773494.303153611253947 ], [ 353598.37232960324036, 3773494.608341810759157 ], [ 353597.151576805685181, 3773495.829094608314335 ], [ 353596.846388606296387, 3773495.829094608314335 ], [ 353596.541200406907592, 3773496.134282807819545 ], [ 353595.320447609352414, 3773496.134282807819545 ], [ 353595.015259409963619, 3773496.439471007324755 ] ] ] } },
{ "type": "Feature", "properties": { "confidence": 0.84707421064376831, "class": 1 }, "geometry": { "type": "Polygon", "coordinates": [ [ [ 353545.879959308251273, 3773968.87080366211012 ], [ 353545.574771108862478, 3773968.565615463070571 ], [ 353545.269582909473684, 3773968.565615463070571 ], [ 353545.269582909473684, 3773968.260427263565361 ], [ 353544.964394710084889, 3773967.955239064060152 ], [ 353544.964394710084889, 3773966.734486266504973 ], [ 353545.269582909473684, 3773966.429298066999763 ], [ 353545.269582909473684, 3773965.513733468949795 ], [ 353545.574771108862478, 3773965.208545269444585 ], [ 353545.574771108862478, 3773964.903357070405036 ], [ 353545.879959308251273, 3773964.598168870899826 ], [ 353545.879959308251273, 3773964.292980671394616 ], [ 353546.185147507640067, 3773963.987792471889406 ], [ 353546.490335707028862, 3773963.987792471889406 ], [ 353547.405900305195246, 3773963.072227873839438 ], [ 353548.016276703972835, 3773963.072227873839438 ], [ 353548.32146490336163, 3773962.767039674334228 ], [ 353548.931841302139219, 3773962.767039674334228 ], [ 353549.237029501528013, 3773962.461851475294679 ], [ 353549.847405900305603, 3773962.461851475294679 ], [ 353549.847405900305603, 3773965.818921668455005 ], [ 353549.542217700916808, 3773966.124109867960215 ], [ 353549.542217700916808, 3773966.429298066999763 ], [ 353548.626653102750424, 3773967.344862665515393 ], [ 353548.32146490336163, 3773967.344862665515393 ], [ 353547.71108850458404, 3773967.955239064060152 ], [ 353547.405900305195246, 3773967.955239064060152 ], [ 353546.490335707028862, 3773968.87080366211012 ], [ 353545.879959308251273, 3773968.87080366211012 ] ] ] } },
{ "type": "Feature", "properties": { "confidence": 0.82768213748931885, "class": 1 }, "geometry": { "type": "Polygon", "coordinates": [ [ [ 353627.365208545292262, 3773614.85249237017706 ], [ 353627.060020345903467, 3773614.547304171137512 ], [ 353626.144455747737084, 3773614.547304171137512 ], [ 353625.839267548348289, 3773614.242115971632302 ], [ 353625.839267548348289, 3773613.936927772127092 ], [ 353625.534079348959494, 3773613.631739572621882 ], [ 353625.534079348959494, 3773611.800610376521945 ], [ 353625.2288911495707, 3773611.495422177016735 ], [ 353625.2288911495707, 3773610.274669379461557 ], [ 353624.923702950123698, 3773609.969481179956347 ], [ 353624.923702950123698, 3773609.664292980451137 ], [ 353633.163784333679359, 3773609.664292980451137 ], [ 353633.163784333679359, 3773609.969481179956347 ], [ 353632.858596134290565, 3773610.274669379461557 ], [ 353632.858596134290565, 3773610.885045778006315 ], [ 353632.248219735512976, 3773611.495422177016735 ], [ 353632.248219735512976, 3773611.800610376521945 ], [ 353631.637843336735386, 3773612.410986775066704 ], [ 353631.332655137346592, 3773612.410986775066704 ], [ 353630.417090539180208, 3773613.326551373116672 ], [ 353630.417090539180208, 3773613.631739572621882 ], [ 353630.111902339791413, 3773613.631739572621882 ], [ 353629.19633774162503, 3773614.547304171137512 ], [ 353628.280773143458646, 3773614.547304171137512 ], [ 353627.975584944069851, 3773614.85249237017706 ], [ 353627.365208545292262, 3773614.85249237017706 ] ] ] } },
{ "type": "Feature", "properties": { "confidence": 0.70744597911834717, "class": 1 }, "geometry": { "type": "Polygon", "coordinates": [ [ [ 353545.574771108862478, 3773512.614445574581623 ], [ 353545.269582909473684, 3773512.309257375542074 ], [ 353544.964394710084889, 3773512.309257375542074 ], [ 353544.659206510696094, 3773512.004069176036865 ], [ 353544.3540183113073, 3773512.004069176036865 ], [ 353544.048830111918505, 3773511.698880976531655 ], [ 353543.743641912529711, 3773511.698880976531655 ], [ 353543.438453713140916, 3773511.393692777026445 ], [ 353543.133265513752121, 3773511.393692777026445 ], [ 353541.912512716196943, 3773510.172939979471266 ], [ 353541.912512716196943, 3773509.867751780431718 ], [ 353541.607324516808148, 3773509.562563580926508 ], [ 353541.607324516808148, 3773509.257375381421298 ], [ 353540.996948118030559, 3773508.646998982876539 ], [ 353540.996948118030559, 3773508.341810783371329 ], [ 353540.691759918641765, 3773508.036622583866119 ], [ 353540.996948118030559, 3773507.731434384360909 ], [ 353540.996948118030559, 3773507.426246185321361 ], [ 353541.302136317419354, 3773507.121057985816151 ], [ 353542.522889114974532, 3773507.121057985816151 ], [ 353542.828077314363327, 3773506.815869786310941 ], [ 353543.133265513752121, 3773506.815869786310941 ], [ 353543.438453713140916, 3773507.121057985816151 ], [ 353544.048830111918505, 3773507.121057985816151 ], [ 353544.3540183113073, 3773507.426246185321361 ], [ 353544.659206510696094, 3773507.426246185321361 ], [ 353545.269582909473684, 3773508.036622583866119 ], [ 353545.574771108862478, 3773508.036622583866119 ], [ 353545.879959308251273, 3773508.341810783371329 ], [ 353546.185147507640067, 3773508.341810783371329 ], [ 353546.490335707028862, 3773508.646998982876539 ], [ 353546.795523906417657, 3773508.646998982876539 ], [ 353547.100712105806451, 3773508.952187181916088 ], [ 353547.405900305195246, 3773508.952187181916088 ], [ 353548.016276703972835, 3773509.562563580926508 ], [ 353548.016276703972835, 3773509.867751780431718 ], [ 353548.32146490336163, 3773510.172939979471266 ], [ 353548.32146490336163, 3773511.698880976531655 ], [ 353547.71108850458404, 3773512.309257375542074 ], [ 353547.405900305195246, 3773512.309257375542074 ], [ 353547.100712105806451, 3773512.614445574581623 ], [ 353545.574771108862478, 3773512.614445574581623 ] ] ] } },
{ "type": "Feature", "properties": { "confidence": 0.4952201247215271, "class": 1 }, "geometry": { "type": "Polygon", "coordinates": [ [ [ 353562.665310274693184, 3773495.829094608314335 ], [ 353562.360122075304389, 3773495.523906408809125 ], [ 353562.360122075304389, 3773495.218718209769577 ], [ 353561.444557477138005, 3773494.303153611253947 ], [ 353561.444557477138005, 3773493.692777212709188 ], [ 353561.139369277749211, 3773493.387589013203979 ], [ 353561.139369277749211, 3773492.47202441515401 ], [ 353566.327568667358719, 3773492.47202441515401 ], [ 353566.327568667358719, 3773494.608341810759157 ], [ 353565.71719226858113, 3773495.218718209769577 ], [ 353565.71719226858113, 3773495.523906408809125 ], [ 353565.10681586980354, 3773495.523906408809125 ], [ 353564.801627670414746, 3773495.829094608314335 ], [ 353562.665310274693184, 3773495.829094608314335 ] ] ] } },
{ "type": "Feature", "properties": { "confidence": 0.47400194406509399, "class": 1 }, "geometry": { "type": "Polygon", "coordinates": [ [ [ 353468.056968463875819, 3773634.079348932020366 ], [ 353467.751780264487024, 3773633.774160732515156 ], [ 353465.310274669376668, 3773633.774160732515156 ], [ 353465.005086469987873, 3773633.468972533009946 ], [ 353463.4791454730439, 3773633.468972533009946 ], [ 353463.173957273655105, 3773633.163784333504736 ], [ 353463.173957273655105, 3773632.553407934959978 ], [ 353462.868769074266311, 3773632.248219735454768 ], [ 353462.868769074266311, 3773631.332655137404799 ], [ 353463.173957273655105, 3773631.332655137404799 ], [ 353463.4791454730439, 3773631.02746693789959 ], [ 353467.141403865709435, 3773631.02746693789959 ], [ 353467.44659206509823, 3773631.332655137404799 ], [ 353471.108850457763765, 3773631.332655137404799 ], [ 353472.024415055930149, 3773632.248219735454768 ], [ 353472.024415055930149, 3773632.553407934959978 ], [ 353472.329603255318943, 3773632.858596134465188 ], [ 353472.634791454707738, 3773632.858596134465188 ], [ 353472.939979654096533, 3773633.163784333504736 ], [ 353473.245167853485327, 3773633.163784333504736 ], [ 353473.550356052874122, 3773633.468972533009946 ], [ 353473.550356052874122, 3773634.079348932020366 ], [ 353468.056968463875819, 3773634.079348932020366 ] ] ] } },
{ "type": "Feature", "properties": { "confidence": 0.47318625450134277, "class": 1 }, "geometry": { "type": "Polygon", "coordinates": [ [ [ 353462.258392675488722, 3773440.895218718331307 ], [ 353461.953204476099927, 3773440.590030518826097 ], [ 353461.648016276711132, 3773440.590030518826097 ], [ 353460.732451678544749, 3773439.674465920776129 ], [ 353460.732451678544749, 3773439.064089521765709 ], [ 353460.427263479155954, 3773438.758901322260499 ], [ 353460.427263479155954, 3773437.843336724210531 ], [ 353459.816887080378365, 3773437.232960325665772 ], [ 353459.816887080378365, 3773436.317395727150142 ], [ 353459.51169888098957, 3773436.012207528110594 ], [ 353459.206510681600776, 3773436.012207528110594 ], [ 353459.206510681600776, 3773434.486266531050205 ], [ 353459.51169888098957, 3773434.181078331544995 ], [ 353461.342828077322338, 3773434.181078331544995 ], [ 353461.648016276711132, 3773434.486266531050205 ], [ 353462.563580874877516, 3773434.486266531050205 ], [ 353462.868769074266311, 3773434.791454730555415 ], [ 353464.089521871821489, 3773434.791454730555415 ], [ 353464.394710071210284, 3773435.096642929594964 ], [ 353464.699898270599078, 3773435.096642929594964 ], [ 353464.699898270599078, 3773435.707019328605384 ], [ 353465.920651068154257, 3773436.927772126160562 ], [ 353465.920651068154257, 3773437.232960325665772 ], [ 353466.225839267543051, 3773437.538148524705321 ], [ 353466.531027466931846, 3773437.538148524705321 ], [ 353466.531027466931846, 3773437.843336724210531 ], [ 353466.836215666320641, 3773438.14852492371574 ], [ 353466.836215666320641, 3773438.45371312322095 ], [ 353467.141403865709435, 3773438.758901322260499 ], [ 353467.141403865709435, 3773439.674465920776129 ], [ 353467.44659206509823, 3773439.979654119815677 ], [ 353466.836215666320641, 3773440.590030518826097 ], [ 353466.531027466931846, 3773440.590030518826097 ], [ 353466.225839267543051, 3773440.895218718331307 ], [ 353462.258392675488722, 3773440.895218718331307 ] ] ] } },
{ "type": "Feature", "properties": { "confidence": 0.39240574836730957, "class": 1 }, "geometry": { "type": "Polygon", "coordinates": [ [ [ 353953.9165818921756, 3773614.242115971632302 ], [ 353953.611393692786805, 3773613.936927772127092 ], [ 353953.306205493398011, 3773613.936927772127092 ], [ 353953.001017294009216, 3773613.631739572621882 ], [ 353953.001017294009216, 3773613.326551373116672 ], [ 353952.695829094620422, 3773613.021363174077123 ], [ 353952.695829094620422, 3773612.410986775066704 ], [ 353952.390640895231627, 3773612.105798575561494 ], [ 353952.390640895231627, 3773610.579857578966767 ], [ 353952.085452695842832, 3773610.274669379461557 ], [ 353952.085452695842832, 3773609.664292980451137 ], [ 353958.189216683618724, 3773609.664292980451137 ], [ 353958.189216683618724, 3773611.800610376521945 ], [ 353957.578840284841135, 3773612.410986775066704 ], [ 353957.578840284841135, 3773612.716174974571913 ], [ 353956.968463886063546, 3773613.326551373116672 ], [ 353956.663275686674751, 3773613.326551373116672 ], [ 353956.052899287897162, 3773613.936927772127092 ], [ 353955.442522889119573, 3773613.936927772127092 ], [ 353955.137334689730778, 3773614.242115971632302 ], [ 353953.9165818921756, 3773614.242115971632302 ] ] ] } },
{ "type": "Feature", "properties": { "confidence": 0.39172965288162231, "class": 1 }, "geometry": { "type": "Polygon", "coordinates": [ [ [ 353506.510681586980354, 3773634.994913530070335 ], [ 353505.900305188202765, 3773634.384537131059915 ], [ 353505.900305188202765, 3773631.943031535949558 ], [ 353505.59511698881397, 3773631.637843336910009 ], [ 353505.900305188202765, 3773631.332655137404799 ], [ 353505.900305188202765, 3773631.02746693789959 ], [ 353506.205493387591559, 3773630.72227873839438 ], [ 353506.510681586980354, 3773630.72227873839438 ], [ 353506.815869786369149, 3773630.417090539354831 ], [ 353508.036622583924327, 3773630.417090539354831 ], [ 353508.341810783313122, 3773630.72227873839438 ], [ 353508.341810783313122, 3773634.689725330565125 ], [ 353508.036622583924327, 3773634.994913530070335 ], [ 353506.510681586980354, 3773634.994913530070335 ] ] ] } },
{ "type": "Feature", "properties": { "confidence": 0.38238674402236938, "class": 1 }, "geometry": { "type": "Polygon", "coordinates": [ [ [ 353529.399796541198157, 3773612.716174974571913 ], [ 353529.094608341809362, 3773612.410986775066704 ], [ 353527.873855544254184, 3773612.410986775066704 ], [ 353527.568667344865389, 3773612.105798575561494 ], [ 353523.906408952199854, 3773612.105798575561494 ], [ 353523.601220752811059, 3773611.800610376521945 ], [ 353523.296032553422265, 3773611.800610376521945 ], [ 353522.99084435403347, 3773611.495422177016735 ], [ 353523.296032553422265, 3773611.190233977511525 ], [ 353523.296032553422265, 3773610.274669379461557 ], [ 353533.062054933863692, 3773610.274669379461557 ], [ 353533.062054933863692, 3773611.190233977511525 ], [ 353532.756866734474897, 3773611.495422177016735 ], [ 353532.451678535086103, 3773611.495422177016735 ], [ 353532.146490335697308, 3773611.800610376521945 ], [ 353531.841302136308514, 3773611.800610376521945 ], [ 353531.536113936919719, 3773612.105798575561494 ], [ 353530.92573753814213, 3773612.105798575561494 ], [ 353530.620549338753335, 3773612.410986775066704 ], [ 353530.010172939975746, 3773612.410986775066704 ], [ 353529.704984740586951, 3773612.716174974571913 ], [ 353529.399796541198157, 3773612.716174974571913 ] ] ] } },
{ "type": "Feature", "properties": { "confidence": 0.35582652688026428, "class": 1 }, "geometry": { "type": "Polygon", "coordinates": [ [ [ 353920.345879959291779, 3773494.303153611253947 ], [ 353920.040691759902984, 3773493.997965412214398 ], [ 353918.209562563570216, 3773493.997965412214398 ], [ 353917.904374364181422, 3773493.692777212709188 ], [ 353917.599186164792627, 3773493.692777212709188 ], [ 353917.293997965403832, 3773493.387589013203979 ], [ 353916.988809766015038, 3773493.387589013203979 ], [ 353916.988809766015038, 3773492.47202441515401 ], [ 353924.618514750734903, 3773492.47202441515401 ], [ 353924.618514750734903, 3773493.082400813698769 ], [ 353924.313326551346108, 3773493.387589013203979 ], [ 353924.313326551346108, 3773493.692777212709188 ], [ 353924.008138351957314, 3773493.997965412214398 ], [ 353922.787385554402135, 3773493.997965412214398 ], [ 353922.482197355013341, 3773494.303153611253947 ], [ 353920.345879959291779, 3773494.303153611253947 ] ] ] } },
{ "type": "Feature", "properties": { "confidence": 0.31114000082015991, "class": 1 }, "geometry": { "type": "Polygon", "coordinates": [ [ [ 353410.376398779219016, 3773478.128179043531418 ], [ 353410.071210579830222, 3773477.822990844491869 ], [ 353409.766022380441427, 3773477.822990844491869 ], [ 353409.155645981663838, 3773477.212614445481449 ], [ 353408.850457782275043, 3773477.212614445481449 ], [ 353408.850457782275043, 3773476.907426245976239 ], [ 353408.545269582886249, 3773476.602238046936691 ], [ 353408.240081383497454, 3773476.602238046936691 ], [ 353407.93489318410866, 3773476.297049847431481 ], [ 353407.93489318410866, 3773475.686673448421061 ], [ 353407.629704984719865, 3773475.381485249381512 ], [ 353407.629704984719865, 3773474.771108850371093 ], [ 353407.32451678533107, 3773474.465920650865883 ], [ 353407.32451678533107, 3773474.160732451826334 ], [ 353407.019328585942276, 3773473.855544252321124 ], [ 353407.019328585942276, 3773472.329603255260736 ], [ 353406.714140386553481, 3773472.024415055755526 ], [ 353406.714140386553481, 3773470.193285859655589 ], [ 353406.408952187164687, 3773469.888097660150379 ], [ 353406.714140386553481, 3773469.582909460645169 ], [ 353406.714140386553481, 3773468.97253306210041 ], [ 353407.32451678533107, 3773468.362156663089991 ], [ 353409.155645981663838, 3773468.362156663089991 ], [ 353409.155645981663838, 3773468.667344862595201 ], [ 353409.460834181052633, 3773468.97253306210041 ], [ 353409.766022380441427, 3773468.97253306210041 ], [ 353409.766022380441427, 3773469.582909460645169 ], [ 353410.071210579830222, 3773469.888097660150379 ], [ 353410.376398779219016, 3773469.888097660150379 ], [ 353410.376398779219016, 3773470.193285859655589 ], [ 353410.681586978607811, 3773470.498474059160799 ], [ 353410.986775178054813, 3773470.498474059160799 ], [ 353410.986775178054813, 3773470.803662258200347 ], [ 353411.291963377443608, 3773471.108850457705557 ], [ 353411.597151576832402, 3773471.108850457705557 ], [ 353411.902339776221197, 3773471.414038657210767 ], [ 353412.207527975609992, 3773471.414038657210767 ], [ 353412.207527975609992, 3773471.719226856715977 ], [ 353412.817904374387581, 3773472.329603255260736 ], [ 353412.817904374387581, 3773472.634791454765946 ], [ 353414.038657171942759, 3773473.855544252321124 ], [ 353414.038657171942759, 3773474.465920650865883 ], [ 353414.343845371331554, 3773474.771108850371093 ], [ 353414.343845371331554, 3773475.686673448421061 ], [ 353414.038657171942759, 3773475.686673448421061 ], [ 353413.733468972553965, 3773475.991861647926271 ], [ 353413.733468972553965, 3773476.602238046936691 ], [ 353413.42828077316517, 3773476.907426245976239 ], [ 353413.42828077316517, 3773477.212614445481449 ], [ 353412.512716174998786, 3773478.128179043531418 ], [ 353410.376398779219016, 3773478.128179043531418 ] ] ] } }
]
}
