{
"type": "FeatureCollection",
"name": "cell_00421_pre",
"crs": { "type": "name", "properties": { "name": "urn:ogc:def:crs:EPSG::32611" } },
"features": [
{ "type": "Feature", "properties": { "confidence": 0.98532581329345703, "class": 1 }, "geometry": { "type": "Polygon", "coordinates": [ [ [ 398890.132248219742905, 3784895.829094608314335 ], [ 398889.827060020354111, 3784895.523906408809125 ], [ 398889.216683621576522, 3784895.523906408809125 ], [ 398888.911495422187727, 3784895.218718209769577 ], [ 398888.606307222798932, 3784895.218718209769577 ], [ 398888.301119023410138, 3784894.913530010264367 ], [ 398887.690742624632549, 3784894.913530010264367 ], [ 398887.385554425243754, 3784894.608341810759157 ], [ 398887.080366225854959, 3784894.608341810759157 ], [ 398887.080366225854959, 3784894.303153611253947 ], [ 398886.46998982707737, 3784893.692777212709188 ], [ 398886.46998982707737, 3784893.387589013203979 ], [ 398886.164801627688576, 3784893.082400813698769 ], [ 398886.164801627688576, 3784892.47202441515401 ], [ 398895.625635808741208, 3784892.47202441515401 ], [ 398895.625635808741208, 3784893.387589013203979 ], [ 398895.320447609352414, 3784893.692777212709188 ], [ 398895.320447609352414, 3784893.997965412214398 ], [ 398895.015259409963619, 3784893.997965412214398 ], [ 398894.710071210574824, 3784894.303153611253947 ], [ 398894.099694811797235, 3784894.303153611253947 ], [ 398893.794506612408441, 3784894.608341810759157 ], [ 398893.489318413019646, 3784894.608341810759157 ], [ 398892.878942014242057, 3784895.218718209769577 ], [ 398892.878942014242057, 3784895.523906408809125 ], [ 398892.268565615464468, 3784895.523906408809125 ], [ 398891.963377416075673, 3784895.829094608314335 ], [ 398890.132248219742905, 3784895.829094608314335 ] ] ] } },
{ "type": "Feature", "properties": { "confidence": 0.92864745855331421, "class": 1 }, "geometry": { "type": "Polygon", "coordinates": [ [ [ 398460.427263479155954, 3785246.79552390659228 ], [ 398460.122075279767159, 3785246.49033570708707 ], [ 398459.51169888098957, 3785246.49033570708707 ], [ 398459.206510681600776, 3785246.18514750758186 ], [ 398458.901322482211981, 3785246.18514750758186 ], [ 398458.290946083434392, 3785245.574771109037101 ], [ 398457.985757884045597, 3785245.574771109037101 ], [ 398457.680569684656803, 3785245.269582909531891 ], [ 398457.375381485268008, 3785245.269582909531891 ], [ 398457.070193285879213, 3785244.964394710026681 ], [ 398457.070193285879213, 3785244.659206510521472 ], [ 398456.765005086490419, 3785244.354018311481923 ], [ 398456.765005086490419, 3785244.048830111976713 ], [ 398463.173957273655105, 3785244.048830111976713 ], [ 398463.173957273655105, 3785246.18514750758186 ], [ 398462.868769074266311, 3785246.49033570708707 ], [ 398462.563580874877516, 3785246.49033570708707 ], [ 398462.258392675488722, 3785246.79552390659228 ], [ 398460.427263479155954, 3785246.79552390659228 ] ] ] } },
{ "type": "Feature", "properties": { "confidence": 0.65165829658508301, "class": 1 }, "geometry": { "type": "Polygon", "coordinates": [ [ [ 398521.159715157700703, 3785129.298067141324282 ], [ 398520.549338758923113, 3785128.687690742779523 ], [ 398519.938962360145524, 3785128.687690742779523 ], [ 398519.63377416075673, 3785128.382502543274313 ], [ 398519.328585961367935, 3785128.382502543274313 ], [ 398519.02339776197914, 3785128.077314343769103 ], [ 398519.02339776197914, 3785127.772126144263893 ], [ 398518.413021363201551, 3785127.161749745719135 ], [ 398518.413021363201551, 3785126.856561546213925 ], [ 398526.9582909460878, 3785126.856561546213925 ], [ 398526.9582909460878, 3785127.466937945224345 ], [ 398526.347914547310211, 3785128.077314343769103 ], [ 398525.737538148532622, 3785128.077314343769103 ], [ 398525.127161749755032, 3785128.687690742779523 ], [ 398524.821973550366238, 3785128.687690742779523 ], [ 398524.516785350977443, 3785128.992878941819072 ], [ 398523.906408952199854, 3785128.992878941819072 ], [ 398523.601220752811059, 3785129.298067141324282 ], [ 398521.159715157700703, 3785129.298067141324282 ] ] ] } },
{ "type": "Feature", "properties": { "confidence": 0.33861693739891052, "class": 1 }, "geometry": { "type": "Polygon", "coordinates": [ [ [ 398555.340793489303906, 3785132.044760935939848 ], [ 398555.340793489303906, 3785131.434384536929429 ], [ 398555.035605289915111, 3785131.12919633788988 ], [ 398554.425228891137522, 3785131.12919633788988 ], [ 398554.425228891137522, 3785130.51881993887946 ], [ 398554.120040691748727, 3785130.21363173937425 ], [ 398551.983723296027165, 3785130.21363173937425 ], [ 398551.983723296027165, 3785129.603255340829492 ], [ 398550.762970498471987, 3785128.382502543274313 ], [ 398550.762970498471987, 3785127.772126144263893 ], [ 398550.457782299083192, 3785127.466937945224345 ], [ 398550.457782299083192, 3785126.856561546213925 ], [ 398555.951169888081495, 3785126.856561546213925 ], [ 398555.951169888081495, 3785131.739572736434639 ], [ 398555.6459816886927, 3785131.739572736434639 ], [ 398555.340793489303906, 3785132.044760935939848 ] ] ] } },
{ "type": "Feature", "properties": { "confidence": 0.27658629417419434, "class": 1 }, "geometry": { "type": "Polygon", "coordinates": [ [ [ 398489.725330620538443, 3785254.12004069192335 ], [ 398489.420142421149649, 3785253.81485249241814 ], [ 398489.114954221760854, 3785253.81485249241814 ], [ 398488.80976602237206, 3785253.50966429291293 ], [ 398488.504577822983265, 3785253.50966429291293 ], [ 398488.504577822983265, 3785253.20447609340772 ], [ 398488.19938962359447, 3785252.899287894368172 ], [ 398488.19938962359447, 3785251.678535096812993 ], [ 398487.894201424205676, 3785251.373346897307783 ], [ 398487.894201424205676, 3785250.762970498297364 ], [ 398487.589013224816881, 3785250.457782299257815 ], [ 398487.589013224816881, 3785248.931841302197427 ], [ 398488.19938962359447, 3785248.321464903187007 ], [ 398488.19938962359447, 3785248.016276704147458 ], [ 398488.504577822983265, 3785247.711088504642248 ], [ 398488.504577822983265, 3785247.405900305137038 ], [ 398489.114954221760854, 3785246.79552390659228 ], [ 398489.114954221760854, 3785246.49033570708707 ], [ 398489.420142421149649, 3785246.49033570708707 ], [ 398489.725330620538443, 3785246.18514750758186 ], [ 398489.725330620538443, 3785245.87995930807665 ], [ 398490.640895218704827, 3785245.87995930807665 ], [ 398490.946083418093622, 3785245.574771109037101 ], [ 398493.082400813815184, 3785245.574771109037101 ], [ 398493.387589013203979, 3785245.269582909531891 ], [ 398493.997965411981568, 3785245.269582909531891 ], [ 398493.997965411981568, 3785246.49033570708707 ], [ 398494.303153611370362, 3785246.79552390659228 ], [ 398494.303153611370362, 3785247.100712105631828 ], [ 398494.608341810759157, 3785247.405900305137038 ], [ 398494.608341810759157, 3785248.016276704147458 ], [ 398494.303153611370362, 3785248.321464903187007 ], [ 398494.303153611370362, 3785248.931841302197427 ], [ 398493.997965411981568, 3785249.237029501702636 ], [ 398493.997965411981568, 3785251.068158697802573 ], [ 398493.387589013203979, 3785251.678535096812993 ], [ 398493.387589013203979, 3785252.288911495357752 ], [ 398493.082400813815184, 3785252.594099694862962 ], [ 398493.082400813815184, 3785253.20447609340772 ], [ 398492.777212614426389, 3785253.50966429291293 ], [ 398492.472024415037595, 3785253.50966429291293 ], [ 398491.861648016260006, 3785254.12004069192335 ], [ 398489.725330620538443, 3785254.12004069192335 ] ] ] } }
]
}
