{
"type": "FeatureCollection",
"name": "cell_00425_pre",
"crs": { "type": "name", "properties": { "name": "urn:ogc:def:crs:EPSG::32611" } },
"features": [
{ "type": "Feature", "properties": { "confidence": 0.9783671498298645, "class": 1 }, "geometry": { "type": "Polygon", "coordinates": [ [ [ 398938.657171922677662, 3787630.92573753837496 ], [ 398938.351983723288868, 3787630.62054933886975 ], [ 398938.046795523900073, 3787630.62054933886975 ], [ 398937.741607324511278, 3787630.315361139364541 ], [ 398937.741607324511278, 3787630.010172939859331 ], [ 398937.436419125122484, 3787629.704984740819782 ], [ 398937.436419125122484, 3787628.484231942798942 ], [ 398937.131230925733689, 3787628.179043743759394 ], [ 398937.131230925733689, 3787625.737538148649037 ], [ 398937.436419125122484, 3787625.432349949143827 ], [ 398937.436419125122484, 3787625.127161749638617 ], [ 398938.351983723288868, 3787624.211597151588649 ], [ 398938.962360122066457, 3787624.211597151588649 ], [ 398939.267548321455251, 3787623.906408952083439 ], [ 398939.877924720232841, 3787623.906408952083439 ], [ 398940.183112919621635, 3787623.601220752578229 ], [ 398940.48830111901043, 3787623.601220752578229 ], [ 398941.098677517788019, 3787622.99084435403347 ], [ 398941.709053916565608, 3787622.99084435403347 ], [ 398942.014242115954403, 3787622.68565615452826 ], [ 398945.371312309231143, 3787622.68565615452826 ], [ 398945.676500508619938, 3787622.99084435403347 ], [ 398946.286876907397527, 3787622.99084435403347 ], [ 398946.59206510684453, 3787623.29603255353868 ], [ 398947.202441505622119, 3787623.29603255353868 ], [ 398947.507629705010913, 3787623.601220752578229 ], [ 398947.812817904399708, 3787623.601220752578229 ], [ 398947.812817904399708, 3787626.042726347688586 ], [ 398947.507629705010913, 3787626.347914547193795 ], [ 398947.507629705010913, 3787627.873855544254184 ], [ 398947.202441505622119, 3787628.179043743759394 ], [ 398946.897253306233324, 3787628.179043743759394 ], [ 398946.59206510684453, 3787628.484231942798942 ], [ 398946.286876907397527, 3787628.484231942798942 ], [ 398945.981688708008733, 3787628.789420142304152 ], [ 398945.066124109842349, 3787628.789420142304152 ], [ 398944.760935910453554, 3787629.094608341809362 ], [ 398944.150559511675965, 3787629.094608341809362 ], [ 398943.84537131228717, 3787629.399796541314572 ], [ 398943.234994913509581, 3787629.399796541314572 ], [ 398942.929806714120787, 3787629.704984740819782 ], [ 398942.624618514731992, 3787629.704984740819782 ], [ 398942.014242115954403, 3787630.315361139364541 ], [ 398941.403865717176814, 3787630.315361139364541 ], [ 398941.098677517788019, 3787630.62054933886975 ], [ 398940.48830111901043, 3787630.62054933886975 ], [ 398940.183112919621635, 3787630.92573753837496 ], [ 398938.657171922677662, 3787630.92573753837496 ] ] ] } },
{ "type": "Feature", "properties": { "confidence": 0.77691429853439331, "class": 1 }, "geometry": { "type": "Polygon", "coordinates": [ [ [ 398815.361139369255397, 3787524.109867751598358 ], [ 398815.055951169866603, 3787523.80467955255881 ], [ 398814.750762970477808, 3787523.80467955255881 ], [ 398814.445574771089014, 3787523.4994913530536 ], [ 398814.445574771089014, 3787523.19430315354839 ], [ 398813.835198372311424, 3787522.583926755003631 ], [ 398813.835198372311424, 3787522.278738555498421 ], [ 398813.224821973533835, 3787521.668362156488001 ], [ 398813.224821973533835, 3787521.363173957448453 ], [ 398812.919633774145041, 3787521.057985757943243 ], [ 398812.919633774145041, 3787520.752797558438033 ], [ 398812.614445574756246, 3787520.447609358932823 ], [ 398812.614445574756246, 3787518.311291963327676 ], [ 398812.919633774145041, 3787518.006103763822466 ], [ 398815.971515768032987, 3787518.006103763822466 ], [ 398816.276703967421781, 3787518.311291963327676 ], [ 398818.107833163812757, 3787518.311291963327676 ], [ 398818.413021363201551, 3787518.616480162832886 ], [ 398819.02339776197914, 3787518.616480162832886 ], [ 398819.328585961367935, 3787518.921668362338096 ], [ 398819.63377416075673, 3787518.921668362338096 ], [ 398819.938962360145524, 3787519.226856561377645 ], [ 398820.244150559534319, 3787519.226856561377645 ], [ 398820.244150559534319, 3787520.752797558438033 ], [ 398819.938962360145524, 3787521.057985757943243 ], [ 398819.938962360145524, 3787521.363173957448453 ], [ 398819.63377416075673, 3787521.668362156488001 ], [ 398819.63377416075673, 3787521.973550355993211 ], [ 398819.328585961367935, 3787521.973550355993211 ], [ 398819.02339776197914, 3787522.278738555498421 ], [ 398819.02339776197914, 3787522.583926755003631 ], [ 398818.718209562590346, 3787522.88911495404318 ], [ 398818.718209562590346, 3787523.19430315354839 ], [ 398817.802644964365754, 3787524.109867751598358 ], [ 398815.361139369255397, 3787524.109867751598358 ] ] ] } },
{ "type": "Feature", "properties": { "confidence": 0.73909235000610352, "class": 1 }, "geometry": { "type": "Polygon", "coordinates": [ [ [ 398778.433367243153043, 3787254.01831129193306 ], [ 398778.128179043764248, 3787253.71312309242785 ], [ 398777.822990844375454, 3787253.71312309242785 ], [ 398777.212614445597865, 3787253.102746693883091 ], [ 398776.602238046820275, 3787253.102746693883091 ], [ 398776.297049847431481, 3787252.797558494377881 ], [ 398775.991861648042686, 3787252.797558494377881 ], [ 398775.686673448653892, 3787252.492370294872671 ], [ 398775.686673448653892, 3787252.187182095833123 ], [ 398775.381485249265097, 3787251.881993896327913 ], [ 398775.381485249265097, 3787251.576805696822703 ], [ 398775.076297049876302, 3787251.271617497317493 ], [ 398775.076297049876302, 3787250.661241098772734 ], [ 398774.7711088504293, 3787250.356052899267524 ], [ 398774.7711088504293, 3787249.745676500722766 ], [ 398774.465920651040506, 3787249.440488301217556 ], [ 398774.465920651040506, 3787249.135300101712346 ], [ 398774.160732451651711, 3787248.830111902207136 ], [ 398774.160732451651711, 3787246.388606307096779 ], [ 398774.465920651040506, 3787246.083418108057231 ], [ 398774.7711088504293, 3787246.083418108057231 ], [ 398775.076297049876302, 3787245.778229908552021 ], [ 398775.686673448653892, 3787245.778229908552021 ], [ 398775.991861648042686, 3787245.473041709046811 ], [ 398776.297049847431481, 3787245.473041709046811 ], [ 398776.602238046820275, 3787245.167853509541601 ], [ 398776.602238046820275, 3787244.862665310502052 ], [ 398776.90742624620907, 3787244.862665310502052 ], [ 398777.212614445597865, 3787244.557477110996842 ], [ 398778.433367243153043, 3787244.557477110996842 ], [ 398778.738555442541838, 3787244.862665310502052 ], [ 398778.738555442541838, 3787246.693794506601989 ], [ 398780.264496439485811, 3787248.219735503662378 ], [ 398780.569684638874605, 3787248.219735503662378 ], [ 398780.8748728382634, 3787248.524923703167588 ], [ 398781.180061037652194, 3787248.524923703167588 ], [ 398781.485249237040989, 3787248.830111902207136 ], [ 398781.485249237040989, 3787249.135300101712346 ], [ 398781.790437436429784, 3787249.440488301217556 ], [ 398781.790437436429784, 3787249.745676500722766 ], [ 398782.095625635818578, 3787250.050864699762315 ], [ 398782.095625635818578, 3787252.187182095833123 ], [ 398782.400813835207373, 3787252.492370294872671 ], [ 398782.400813835207373, 3787253.102746693883091 ], [ 398782.095625635818578, 3787253.407934893388301 ], [ 398782.095625635818578, 3787253.71312309242785 ], [ 398781.485249237040989, 3787253.71312309242785 ], [ 398781.180061037652194, 3787254.01831129193306 ], [ 398778.433367243153043, 3787254.01831129193306 ] ] ] } },
{ "type": "Feature", "properties": { "confidence": 0.6149018406867981, "class": 1 }, "geometry": { "type": "Polygon", "coordinates": [ [ [ 398868.769074262469076, 3787593.082400813698769 ], [ 398868.769074262469076, 3787583.926754832267761 ], [ 398871.515768056968227, 3787583.926754832267761 ], [ 398871.515768056968227, 3787588.199389623478055 ], [ 398871.820956256357022, 3787588.504577822983265 ], [ 398871.820956256357022, 3787588.809766022488475 ], [ 398872.126144455745816, 3787589.114954221993685 ], [ 398872.126144455745816, 3787591.86164801614359 ], [ 398871.210579857579432, 3787592.77721261465922 ], [ 398870.295015259413049, 3787592.77721261465922 ], [ 398869.989827060024254, 3787593.082400813698769 ], [ 398868.769074262469076, 3787593.082400813698769 ] ] ] } },
{ "type": "Feature", "properties": { "confidence": 0.54899483919143677, "class": 1 }, "geometry": { "type": "Polygon", "coordinates": [ [ [ 398833.977619532030076, 3787413.631739572621882 ], [ 398833.977619532030076, 3787412.716174974571913 ], [ 398833.672431332641281, 3787412.410986775066704 ], [ 398833.672431332641281, 3787410.274669379461557 ], [ 398833.367243133252487, 3787409.969481179956347 ], [ 398833.367243133252487, 3787409.664292980451137 ], [ 398840.996948118030559, 3787409.664292980451137 ], [ 398840.996948118030559, 3787410.885045778006315 ], [ 398838.860630722250789, 3787413.021363174077123 ], [ 398838.555442522861995, 3787413.021363174077123 ], [ 398838.2502543234732, 3787413.326551373116672 ], [ 398836.419125127140433, 3787413.326551373116672 ], [ 398836.113936927751638, 3787413.631739572621882 ], [ 398833.977619532030076, 3787413.631739572621882 ] ] ] } },
{ "type": "Feature", "properties": { "confidence": 0.53770613670349121, "class": 1 }, "geometry": { "type": "Polygon", "coordinates": [ [ [ 398789.725330620538443, 3787226.856561546213925 ], [ 398788.504577822983265, 3787225.635808748658746 ], [ 398788.504577822983265, 3787221.363173957448453 ], [ 398788.80976602237206, 3787221.057985757943243 ], [ 398789.114954221760854, 3787221.057985757943243 ], [ 398789.420142421149649, 3787220.752797558438033 ], [ 398790.335707019316033, 3787220.752797558438033 ], [ 398790.335707019316033, 3787226.856561546213925 ], [ 398789.725330620538443, 3787226.856561546213925 ] ] ] } },
{ "type": "Feature", "properties": { "confidence": 0.534007728099823, "class": 1 }, "geometry": { "type": "Polygon", "coordinates": [ [ [ 398845.269582909473684, 3787297.049847405869514 ], [ 398844.964394710084889, 3787296.744659206364304 ], [ 398843.743641912529711, 3787296.744659206364304 ], [ 398843.743641912529711, 3787292.47202441515401 ], [ 398849.847405900305603, 3787292.47202441515401 ], [ 398849.847405900305603, 3787293.692777212709188 ], [ 398849.542217700916808, 3787293.997965412214398 ], [ 398849.542217700916808, 3787294.303153611253947 ], [ 398849.237029501528013, 3787294.303153611253947 ], [ 398848.931841302139219, 3787294.608341810759157 ], [ 398848.626653102750424, 3787294.608341810759157 ], [ 398848.016276703972835, 3787295.218718209769577 ], [ 398847.71108850458404, 3787295.218718209769577 ], [ 398846.185147507640067, 3787296.744659206364304 ], [ 398845.574771108862478, 3787296.744659206364304 ], [ 398845.269582909473684, 3787297.049847405869514 ] ] ] } },
{ "type": "Feature", "properties": { "confidence": 0.5073198676109314, "class": 1 }, "geometry": { "type": "Polygon", "coordinates": [ [ [ 398771.41403865715256, 3787541.505595116876066 ], [ 398771.108850457763765, 3787541.200406917370856 ], [ 398770.193285859597381, 3787541.200406917370856 ], [ 398769.582909460819792, 3787540.590030518826097 ], [ 398769.277721261430997, 3787540.590030518826097 ], [ 398766.531027466931846, 3787537.843336724210531 ], [ 398766.225839267543051, 3787537.843336724210531 ], [ 398765.615462868765462, 3787537.232960325665772 ], [ 398765.310274669376668, 3787537.232960325665772 ], [ 398764.699898270599078, 3787536.622583926655352 ], [ 398764.699898270599078, 3787536.317395727150142 ], [ 398764.394710071210284, 3787536.012207528110594 ], [ 398764.394710071210284, 3787535.401831129100174 ], [ 398764.089521871821489, 3787535.096642929594964 ], [ 398764.089521871821489, 3787534.791454730555415 ], [ 398764.394710071210284, 3787534.486266531050205 ], [ 398764.394710071210284, 3787534.181078331544995 ], [ 398766.531027466931846, 3787532.044760935939848 ], [ 398766.836215666320641, 3787532.044760935939848 ], [ 398767.141403865709435, 3787531.739572736434639 ], [ 398767.141403865709435, 3787531.434384536929429 ], [ 398767.44659206509823, 3787531.434384536929429 ], [ 398768.667344862653408, 3787530.21363173937425 ], [ 398771.108850457763765, 3787530.21363173937425 ], [ 398771.41403865715256, 3787530.51881993887946 ], [ 398771.41403865715256, 3787531.12919633788988 ], [ 398771.719226856541354, 3787531.434384536929429 ], [ 398771.719226856541354, 3787532.349949135445058 ], [ 398772.024415055930149, 3787532.655137334484607 ], [ 398772.024415055930149, 3787534.181078331544995 ], [ 398772.329603255318943, 3787534.486266531050205 ], [ 398772.329603255318943, 3787536.317395727150142 ], [ 398772.024415055930149, 3787536.622583926655352 ], [ 398772.024415055930149, 3787538.14852492371574 ], [ 398772.329603255318943, 3787538.45371312322095 ], [ 398772.329603255318943, 3787539.369277721270919 ], [ 398772.634791454707738, 3787539.674465920776129 ], [ 398772.634791454707738, 3787539.979654119815677 ], [ 398772.329603255318943, 3787540.284842319320887 ], [ 398772.329603255318943, 3787540.590030518826097 ], [ 398772.024415055930149, 3787540.895218718331307 ], [ 398771.719226856541354, 3787540.895218718331307 ], [ 398771.41403865715256, 3787541.200406917370856 ], [ 398771.41403865715256, 3787541.505595116876066 ] ] ] } },
{ "type": "Feature", "properties": { "confidence": 0.50721162557601929, "class": 1 }, "geometry": { "type": "Polygon", "coordinates": [ [ [ 398880.671414038632065, 3787368.158697863575071 ], [ 398880.36622583924327, 3787367.853509664069861 ], [ 398877.924720244132914, 3787367.853509664069861 ], [ 398877.314343845355324, 3787367.243133265525103 ], [ 398877.314343845355324, 3787365.106815869919956 ], [ 398877.619532044744119, 3787364.801627670414746 ], [ 398877.619532044744119, 3787362.665310274809599 ], [ 398877.924720244132914, 3787362.360122075304389 ], [ 398877.924720244132914, 3787362.054933875799179 ], [ 398878.229908443521708, 3787361.749745676293969 ], [ 398878.229908443521708, 3787361.139369277749211 ], [ 398878.535096642910503, 3787361.139369277749211 ], [ 398878.840284842299297, 3787360.834181078244001 ], [ 398878.840284842299297, 3787360.223804679699242 ], [ 398879.145473041688092, 3787359.918616480194032 ], [ 398879.145473041688092, 3787359.003051882144064 ], [ 398879.450661241076887, 3787359.003051882144064 ], [ 398879.755849440465681, 3787358.697863682638854 ], [ 398880.36622583924327, 3787358.697863682638854 ], [ 398880.671414038632065, 3787358.392675483133644 ], [ 398884.028484231967013, 3787358.392675483133644 ], [ 398884.333672431355808, 3787358.697863682638854 ], [ 398884.333672431355808, 3787363.275686673354357 ], [ 398884.638860630744603, 3787363.580874872859567 ], [ 398884.638860630744603, 3787364.191251271404326 ], [ 398884.944048830133397, 3787364.496439470909536 ], [ 398884.944048830133397, 3787364.801627670414746 ], [ 398885.249237029522192, 3787365.106815869919956 ], [ 398885.249237029522192, 3787366.632756866514683 ], [ 398884.944048830133397, 3787366.937945066019893 ], [ 398884.638860630744603, 3787366.937945066019893 ], [ 398884.333672431355808, 3787367.243133265525103 ], [ 398883.723296032578219, 3787367.243133265525103 ], [ 398883.418107833189424, 3787367.548321465030313 ], [ 398883.11291963380063, 3787367.548321465030313 ], [ 398882.807731434411835, 3787367.853509664069861 ], [ 398882.50254323502304, 3787367.853509664069861 ], [ 398882.197355035634246, 3787368.158697863575071 ], [ 398880.671414038632065, 3787368.158697863575071 ] ] ] } },
{ "type": "Feature", "properties": { "confidence": 0.48887056112289429, "class": 1 }, "geometry": { "type": "Polygon", "coordinates": [ [ [ 398407.32451678533107, 3787298.270600203424692 ], [ 398407.32451678533107, 3787297.965412003919482 ], [ 398407.019328585942276, 3787297.660223804879934 ], [ 398406.408952187164687, 3787297.660223804879934 ], [ 398405.188199389609508, 3787296.439471007324755 ], [ 398405.188199389609508, 3787293.082400813698769 ], [ 398408.850457782275043, 3787293.082400813698769 ], [ 398408.850457782275043, 3787294.913530010264367 ], [ 398408.545269582886249, 3787295.218718209769577 ], [ 398408.545269582886249, 3787295.829094608314335 ], [ 398408.850457782275043, 3787296.134282807819545 ], [ 398408.850457782275043, 3787296.744659206364304 ], [ 398407.93489318410866, 3787297.660223804879934 ], [ 398407.93489318410866, 3787298.270600203424692 ], [ 398407.32451678533107, 3787298.270600203424692 ] ] ] } },
{ "type": "Feature", "properties": { "confidence": 0.37350922822952271, "class": 1 }, "geometry": { "type": "Polygon", "coordinates": [ [ [ 398841.607324516808148, 3787297.355035605374724 ], [ 398840.691759918641765, 3787296.439471007324755 ], [ 398840.691759918641765, 3787295.218718209769577 ], [ 398840.38657171925297, 3787294.913530010264367 ], [ 398840.081383519864175, 3787294.913530010264367 ], [ 398840.081383519864175, 3787294.303153611253947 ], [ 398839.471007121086586, 3787293.692777212709188 ], [ 398839.471007121086586, 3787292.47202441515401 ], [ 398849.237029501528013, 3787292.47202441515401 ], [ 398849.237029501528013, 3787293.082400813698769 ], [ 398848.931841302139219, 3787293.387589013203979 ], [ 398848.931841302139219, 3787293.997965412214398 ], [ 398848.016276703972835, 3787294.913530010264367 ], [ 398847.71108850458404, 3787294.913530010264367 ], [ 398846.490335707028862, 3787296.134282807819545 ], [ 398846.490335707028862, 3787296.439471007324755 ], [ 398846.185147507640067, 3787296.744659206364304 ], [ 398845.879959308251273, 3787296.744659206364304 ], [ 398845.574771108862478, 3787297.049847405869514 ], [ 398844.964394710084889, 3787297.049847405869514 ], [ 398844.659206510696094, 3787297.355035605374724 ], [ 398841.607324516808148, 3787297.355035605374724 ] ] ] } },
{ "type": "Feature", "properties": { "confidence": 0.35949417948722839, "class": 1 }, "geometry": { "type": "Polygon", "coordinates": [ [ [ 398439.674465920659713, 3787292.47202441515401 ], [ 398439.674465920659713, 3787290.946083418093622 ], [ 398439.064089521882124, 3787290.335707019548863 ], [ 398438.75890132249333, 3787290.335707019548863 ], [ 398438.75890132249333, 3787290.030518820043653 ], [ 398438.453713123104535, 3787289.725330620538443 ], [ 398438.14852492371574, 3787289.725330620538443 ], [ 398437.843336724326946, 3787289.420142421033233 ], [ 398437.538148524938151, 3787289.420142421033233 ], [ 398436.927772126160562, 3787288.809766022488475 ], [ 398436.622583926771767, 3787288.809766022488475 ], [ 398436.317395727382973, 3787288.504577822983265 ], [ 398435.707019328605384, 3787288.504577822983265 ], [ 398435.096642929827794, 3787287.894201424438506 ], [ 398434.791454730439, 3787287.894201424438506 ], [ 398434.181078331661411, 3787287.283825025428087 ], [ 398434.181078331661411, 3787286.978636825922877 ], [ 398433.875890132272616, 3787286.673448626883328 ], [ 398433.875890132272616, 3787286.368260427378118 ], [ 398434.181078331661411, 3787286.063072227872908 ], [ 398434.181078331661411, 3787285.757884028367698 ], [ 398436.012207527994178, 3787285.757884028367698 ], [ 398436.317395727382973, 3787285.452695828862488 ], [ 398437.232960325549357, 3787285.452695828862488 ], [ 398437.843336724326946, 3787286.063072227872908 ], [ 398438.453713123104535, 3787286.063072227872908 ], [ 398438.453713123104535, 3787286.368260427378118 ], [ 398438.75890132249333, 3787286.673448626883328 ], [ 398439.064089521882124, 3787286.673448626883328 ], [ 398439.369277721270919, 3787286.978636825922877 ], [ 398439.674465920659713, 3787286.978636825922877 ], [ 398439.674465920659713, 3787287.283825025428087 ], [ 398439.979654120048508, 3787287.589013224933296 ], [ 398440.284842319437303, 3787287.589013224933296 ], [ 398440.284842319437303, 3787288.199389623478055 ], [ 398439.674465920659713, 3787288.809766022488475 ], [ 398439.674465920659713, 3787290.640895218588412 ], [ 398439.979654120048508, 3787290.946083418093622 ], [ 398439.979654120048508, 3787292.47202441515401 ], [ 398439.674465920659713, 3787292.47202441515401 ] ] ] } },
{ "type": "Feature", "properties": { "confidence": 0.33200863003730774, "class": 1 }, "geometry": { "type": "Polygon", "coordinates": [ [ [ 398721.057985757885035, 3787270.193285859655589 ], [ 398720.752797558496241, 3787269.888097660150379 ], [ 398720.447609359107446, 3787269.888097660150379 ], [ 398719.837232960329857, 3787269.27772126160562 ], [ 398719.532044760941062, 3787269.27772126160562 ], [ 398719.532044760941062, 3787268.97253306210041 ], [ 398719.226856561552268, 3787268.667344862595201 ], [ 398719.226856561552268, 3787266.836215666495264 ], [ 398718.921668362163473, 3787266.531027466990054 ], [ 398718.921668362163473, 3787265.005086469929665 ], [ 398718.616480162774678, 3787264.699898270424455 ], [ 398718.616480162774678, 3787264.089521871879697 ], [ 398718.311291963385884, 3787263.784333672374487 ], [ 398718.311291963385884, 3787263.173957273829728 ], [ 398718.006103763997089, 3787262.868769074324518 ], [ 398718.006103763997089, 3787261.03763987775892 ], [ 398718.311291963385884, 3787260.732451678719372 ], [ 398718.616480162774678, 3787260.732451678719372 ], [ 398718.921668362163473, 3787260.427263479214162 ], [ 398722.278738555440214, 3787260.427263479214162 ], [ 398722.583926754829008, 3787260.732451678719372 ], [ 398722.889114954217803, 3787260.732451678719372 ], [ 398723.499491352995392, 3787261.34282807726413 ], [ 398723.499491352995392, 3787261.64801627676934 ], [ 398723.804679552384187, 3787261.95320447627455 ], [ 398723.804679552384187, 3787262.258392675314099 ], [ 398724.72024415055057, 3787263.173957273829728 ], [ 398724.72024415055057, 3787263.479145472869277 ], [ 398725.33062054932816, 3787264.089521871879697 ], [ 398725.635808748716954, 3787264.089521871879697 ], [ 398725.635808748716954, 3787264.394710071384907 ], [ 398725.940996948105749, 3787264.699898270424455 ], [ 398725.940996948105749, 3787265.920651067979634 ], [ 398725.635808748716954, 3787266.225839267484844 ], [ 398725.635808748716954, 3787267.141403865534812 ], [ 398725.33062054932816, 3787267.446592065040022 ], [ 398725.33062054932816, 3787268.667344862595201 ], [ 398725.025432349939365, 3787268.667344862595201 ], [ 398724.72024415055057, 3787268.97253306210041 ], [ 398724.72024415055057, 3787269.27772126160562 ], [ 398724.415055951161776, 3787269.27772126160562 ], [ 398724.109867751772981, 3787269.582909460645169 ], [ 398723.499491352995392, 3787269.582909460645169 ], [ 398723.194303153606597, 3787269.888097660150379 ], [ 398722.583926754829008, 3787269.888097660150379 ], [ 398722.278738555440214, 3787270.193285859655589 ], [ 398721.057985757885035, 3787270.193285859655589 ] ] ] } }
]
}
